<?xml version='1.0' encoding='utf-8'?>
<kml xmlns="http://www.opengis.net/kml/2.2"><Document><name>Unsworth Heights LINZ foot track 12</name><Style id="c"><LineStyle><color>ffff00ff</color><width>5</width></LineStyle></Style><Placemark><name>Unsworth Heights LINZ foot track 12</name><description>Sheet row 1143; LINZ t50_fid(s) 3593218</description><styleUrl>#c</styleUrl><MultiGeometry><LineString><tessellate>1</tessellate><coordinates>174.740511,-36.763698 174.740736,-36.763603 174.740849,-36.763074 174.740922,-36.762792 174.740905,-36.762653</coordinates></LineString></MultiGeometry></Placemark></Document></kml>