<?xml version='1.0' encoding='utf-8'?>
<kml xmlns="http://www.opengis.net/kml/2.2"><Document><name>Karamuramu Island LINZ foot track 1</name><Style id="c"><LineStyle><color>ffff00ff</color><width>5</width></LineStyle></Style><Placemark><name>Karamuramu Island LINZ foot track 1</name><description>Sheet row 925; LINZ t50_fid(s) 8405714,8405937,8405936,8405935,8405712,8405464,8405463,8405713,8405462</description><styleUrl>#c</styleUrl><MultiGeometry><LineString><tessellate>1</tessellate><coordinates>175.140440,-36.939164 175.140374,-36.939225 175.140311,-36.939390 175.140266,-36.939470 175.140232,-36.939541 175.140094,-36.939537 175.139962,-36.939503 175.139892,-36.939517 175.139822,-36.939565 175.139798,-36.939613 175.139784,-36.939684 175.139696,-36.939745 175.139679,-36.939782 175.139671,-36.939851 175.139650,-36.939880 175.139574,-36.939936 175.139565,-36.940001 175.139592,-36.940079 175.139645,-36.940116 175.139720,-36.940140 175.139799,-36.940149 175.139825,-36.940167 175.139839,-36.940187 175.139828,-36.940216 175.139777,-36.940226 175.139659,-36.940232 175.139616,-36.940231 175.139494,-36.940206 175.139373,-36.940210 175.139324,-36.940197 175.139288,-36.940182 175.139245,-36.940178 175.139222,-36.940202 175.139225,-36.940230 175.139248,-36.940261 175.139337,-36.940309 175.139413,-36.940340 175.139483,-36.940344 175.139500,-36.940353 175.139504,-36.940367 175.139492,-36.940386 175.139459,-36.940393 175.139339,-36.940393 175.139260,-36.940382 175.139184,-36.940363 175.139145,-36.940369 175.139120,-36.940388 175.139115,-36.940413 175.139125,-36.940437 175.139189,-36.940480 175.139297,-36.940513 175.139340,-36.940549 175.139370,-36.940581 175.139478,-36.940609 175.139506,-36.940626 175.139571,-36.940687 175.139595,-36.940701 175.139633,-36.940708 175.139663,-36.940728 175.139693,-36.940773 175.139709,-36.940784 175.139762,-36.940798 175.139769,-36.940815 175.139762,-36.940842 175.139657,-36.940865 175.139632,-36.940896 175.139626,-36.941055 175.139691,-36.941150 175.139761,-36.941257 175.139817,-36.941298 175.139897,-36.941347 175.139910,-36.941357 175.139929,-36.941400 175.139979,-36.941451 175.140031,-36.941504 175.140051,-36.941552 175.140052,-36.941593 175.140007,-36.941664 175.139986,-36.941709 175.139951,-36.941749 175.139873,-36.941791 175.139874,-36.941812 175.139899,-36.941833 175.139994,-36.941784 175.140091,-36.941769 175.140165,-36.941727 175.140301,-36.941702 175.140372,-36.941698 175.140425,-36.941700 175.140459,-36.941709 175.140442,-36.941727 175.140344,-36.941779 175.140250,-36.941885 175.140179,-36.941943 175.140085,-36.941997 175.139984,-36.942071 175.139956,-36.942088 175.139846,-36.942105 175.139779,-36.942124 175.139710,-36.942169 175.139638,-36.942199 175.139616,-36.942223 175.139617,-36.942255 175.139634,-36.942265 175.139674,-36.942262 175.139832,-36.942207 175.140000,-36.942196 175.140050,-36.942182 175.140112,-36.942158 175.140142,-36.942156 175.140167,-36.942185 175.140164,-36.942213 175.140147,-36.942254 175.140154,-36.942276 175.140182,-36.942281 175.140218,-36.942270 175.140307,-36.942187 175.140403,-36.942145 175.140498,-36.942074 175.140580,-36.942053 175.140651,-36.942063 175.140676,-36.942072 175.140689,-36.942109 175.140672,-36.942160 175.140578,-36.942251 175.140514,-36.942279 175.140418,-36.942307 175.140350,-36.942360 175.140254,-36.942399 175.140126,-36.942506 175.139935,-36.942623 175.139934,-36.942650 175.139950,-36.942663 175.139968,-36.942663 175.140067,-36.942633 175.140153,-36.942627 175.140259,-36.942575 175.140316,-36.942570 175.140451,-36.942575 175.140499,-36.942556 175.140548,-36.942544 175.140628,-36.942536 175.140730,-36.942544 175.140784,-36.942525 175.140907,-36.942459 175.140952,-36.942453 175.141012,-36.942430 175.141087,-36.942391 175.141215,-36.942307 175.141266,-36.942274 175.141288,-36.942272 175.141311,-36.942281 175.141308,-36.942309 175.141275,-36.942368 175.141206,-36.942441 175.141170,-36.942516 175.141102,-36.942591 175.141030,-36.942656 175.140980,-36.942687 175.140927,-36.942715 175.140914,-36.942731 175.140914,-36.942754 175.140930,-36.942769 175.140953,-36.942770 175.140996,-36.942754 175.141109,-36.942717 175.141177,-36.942688 175.141208,-36.942685 175.141233,-36.942692 175.141229,-36.942725 175.141194,-36.942767 175.141123,-36.942826 175.141061,-36.942859 175.141015,-36.942892 175.140967,-36.942984 175.140939,-36.943029 175.140821,-36.943120 175.140730,-36.943153 175.140659,-36.943182 175.140613,-36.943209 175.140576,-36.943256 175.140542,-36.943324 175.140507,-36.943569 175.140433,-36.943683 175.140428,-36.943806 175.140419,-36.943865 175.140389,-36.943912 175.140225,-36.944031 175.140171,-36.944065 175.140114,-36.944076 175.140095,-36.944086 175.140080,-36.944112 175.140094,-36.944134 175.140158,-36.944166 175.140214,-36.944197 175.140242,-36.944252 175.140221,-36.944316 175.140045,-36.944426 175.140009,-36.944458 175.140000,-36.944493 175.140010,-36.944532 175.140099,-36.944695</coordinates></LineString><LineString><tessellate>1</tessellate><coordinates>175.140099,-36.944695 175.140123,-36.944777 175.140227,-36.944969 175.140259,-36.945047 175.140291,-36.945061 175.140382,-36.945028 175.140425,-36.945016 175.140490,-36.944979 175.140534,-36.944970 175.140566,-36.944977 175.140587,-36.944997 175.140579,-36.945027 175.140404,-36.945077 175.140377,-36.945104 175.140376,-36.945131 175.140385,-36.945148 175.140404,-36.945147 175.140458,-36.945126 175.140495,-36.945133 175.140498,-36.945158 175.140469,-36.945181 175.140396,-36.945192 175.140341,-36.945235</coordinates></LineString><LineString><tessellate>1</tessellate><coordinates>175.133469,-36.942528 175.133782,-36.942776 175.133896,-36.942856</coordinates></LineString><LineString><tessellate>1</tessellate><coordinates>175.133896,-36.942856 175.133874,-36.942999 175.133879,-36.943077 175.133897,-36.943138</coordinates></LineString><LineString><tessellate>1</tessellate><coordinates>175.133896,-36.942856 175.133962,-36.942953 175.134029,-36.943088 175.134218,-36.943241 175.134531,-36.943286 175.134799,-36.943324 175.134923,-36.943415 175.134983,-36.943457 175.135089,-36.943611 175.135217,-36.943679 175.135305,-36.943693 175.135404,-36.943746 175.135571,-36.943798 175.135678,-36.943808 175.135803,-36.943759 175.136002,-36.943579 175.136077,-36.943480 175.136250,-36.943411 175.136400,-36.943373 175.136560,-36.943374 175.136715,-36.943332 175.136810,-36.943268 175.136859,-36.943138 175.136875,-36.942940 175.136843,-36.942839 175.136860,-36.942811 175.136894,-36.942817 175.136956,-36.942833 175.137030,-36.942909 175.137085,-36.942964 175.137187,-36.942985 175.137306,-36.943011 175.137512,-36.942987 175.137564,-36.943002 175.137597,-36.943023 175.137598,-36.943069 175.137558,-36.943147 175.137369,-36.943241 175.137119,-36.943390 175.137048,-36.943474 175.136990,-36.943497 175.136972,-36.943560 175.136887,-36.943623 175.136789,-36.943649 175.136542,-36.943697 175.136425,-36.943742 175.136348,-36.943805 175.136292,-36.943824 175.136132,-36.943832 175.136094,-36.943859 175.136093,-36.943916 175.136069,-36.943962 175.136012,-36.944034 175.136001,-36.944066 175.136037,-36.944142 175.136097,-36.944228 175.136263,-36.944358 175.136321,-36.944420 175.136456,-36.944483 175.136570,-36.944532 175.136621,-36.944592 175.136680,-36.944655 175.136750,-36.944703 175.136840,-36.944739 175.136914,-36.944755 175.137118,-36.944740 175.137189,-36.944721 175.137283,-36.944667 175.137403,-36.944632 175.137464,-36.944603 175.137526,-36.944550 175.137545,-36.944507 175.137551,-36.944400 175.137582,-36.944348 175.137620,-36.944312 175.137691,-36.944275 175.137741,-36.944207 175.137819,-36.944185 175.137900,-36.944194 175.137979,-36.944202 175.138013,-36.944172 175.138063,-36.944112 175.138079,-36.944086 175.138131,-36.944075 175.138166,-36.944086 175.138196,-36.944121 175.138211,-36.944204 175.138212,-36.944265 175.138170,-36.944404 175.138168,-36.944442 175.138148,-36.944521 175.138146,-36.944610 175.138095,-36.944716 175.138091,-36.944746 175.138124,-36.944789 175.138149,-36.944818 175.138233,-36.944893 175.138324,-36.944917 175.138515,-36.944948 175.138699,-36.944940 175.138945,-36.944920 175.139233,-36.944903 175.139360,-36.944883 175.139455,-36.944866 175.139474,-36.944856 175.139475,-36.944837 175.139392,-36.944829 175.139330,-36.944790 175.139308,-36.944741 175.139425,-36.944736 175.139472,-36.944715 175.139723,-36.944739 175.139910,-36.944749 175.139952,-36.944732 175.140049,-36.944723 175.140099,-36.944695</coordinates></LineString><LineString><tessellate>1</tessellate><coordinates>175.134059,-36.943331 175.134029,-36.943370 175.133985,-36.943376 175.133763,-36.943366 175.133743,-36.943386 175.133760,-36.943399 175.133847,-36.943428 175.133760,-36.943492 175.133668,-36.943502 175.133575,-36.943476 175.133434,-36.943424 175.133383,-36.943431 175.133249,-36.943526 175.133147,-36.943662 175.133048,-36.943785 175.132881,-36.943924 175.132775,-36.944162 175.132736,-36.944349 175.132671,-36.944487 175.132650,-36.944578 175.132640,-36.944701 175.132471,-36.944762 175.132350,-36.944830 175.132284,-36.944900 175.132292,-36.944954 175.132321,-36.945030 175.132308,-36.945085 175.132325,-36.945152 175.132419,-36.945250 175.132470,-36.945326 175.132561,-36.945397 175.132670,-36.945453 175.132681,-36.945474 175.132684,-36.945498 175.132646,-36.945516 175.132545,-36.945530 175.132456,-36.945514 175.132357,-36.945525 175.132176,-36.945495 175.132113,-36.945486 175.132057,-36.945490 175.132001,-36.945509 175.131985,-36.945544 175.131987,-36.945597 175.131996,-36.945632 175.132027,-36.945654 175.132112,-36.945676 175.132192,-36.945697 175.132238,-36.945722 175.132377,-36.945758 175.132392,-36.945766 175.132401,-36.945789 175.132400,-36.945816 175.132377,-36.945834 175.132336,-36.945855 175.132242,-36.945878 175.132178,-36.945908 175.132059,-36.945940 175.132010,-36.945974 175.131992,-36.946023 175.131989,-36.946062 175.132018,-36.946114 175.132080,-36.946173 175.132172,-36.946234 175.132249,-36.946257 175.132335,-36.946253 175.132378,-36.946270 175.132440,-36.946340 175.132512,-36.946359 175.132598,-36.946370 175.132719,-36.946350 175.132856,-36.946318 175.132919,-36.946285 175.132988,-36.946229 175.133048,-36.946133 175.133118,-36.946102 175.133202,-36.946084 175.133297,-36.946081 175.133366,-36.946087 175.133423,-36.946109 175.133443,-36.946135 175.133450,-36.946155 175.133442,-36.946171 175.133424,-36.946173 175.133353,-36.946159 175.133297,-36.946160 175.133236,-36.946176 175.133228,-36.946197 175.133235,-36.946222 175.133312,-36.946284 175.133375,-36.946340 175.133402,-36.946416 175.133430,-36.946458 175.133504,-36.946539 175.133512,-36.946564 175.133507,-36.946580 175.133480,-36.946587 175.133436,-36.946575 175.133383,-36.946551 175.133357,-36.946558 175.133346,-36.946586 175.133345,-36.946795 175.133357,-36.946841 175.133395,-36.946876 175.133445,-36.946903 175.133492,-36.946917 175.133550,-36.946916 175.133632,-36.946908 175.133853,-36.946855 175.133911,-36.946848 175.134169,-36.946849 175.134223,-36.946837 175.134358,-36.946789 175.134490,-36.946714 175.134636,-36.946633 175.134693,-36.946584 175.134730,-36.946542 175.134783,-36.946434 175.134829,-36.946404 175.134948,-36.946328 175.135006,-36.946270 175.135082,-36.946161 175.135137,-36.946113 175.135172,-36.946092 175.135207,-36.946080 175.135307,-36.946059 175.135399,-36.946025 175.135474,-36.945994 175.135535,-36.945955 175.135611,-36.945892 175.135654,-36.945866 175.135709,-36.945845 175.135771,-36.945837 175.135836,-36.945840 175.135884,-36.945851 175.136002,-36.945886 175.136078,-36.945908 175.136186,-36.945944 175.136260,-36.945957 175.136389,-36.945955 175.136493,-36.946004 175.136664,-36.946073 175.136727,-36.946136 175.136790,-36.946201 175.136855,-36.946254 175.136870,-36.946275 175.136872,-36.946301 175.136860,-36.946321 175.136830,-36.946331 175.136797,-36.946323 175.136755,-36.946291 175.136680,-36.946212 175.136622,-36.946175 175.136584,-36.946164 175.136564,-36.946179 175.136544,-36.946204 175.136537,-36.946264 175.136536,-36.946350 175.136525,-36.946375 175.136501,-36.946384 175.136472,-36.946377 175.136448,-36.946353 175.136441,-36.946331 175.136424,-36.946322 175.136403,-36.946330 175.136400,-36.946346 175.136417,-36.946398 175.136412,-36.946541 175.136434,-36.946599 175.136434,-36.946617 175.136423,-36.946632 175.136397,-36.946633 175.136353,-36.946613 175.136237,-36.946542 175.136161,-36.946507 175.136111,-36.946466 175.136074,-36.946412 175.136054,-36.946398 175.136039,-36.946398 175.136031,-36.946398 175.136012,-36.946424 175.136003,-36.946531 175.135981,-36.946618 175.135982,-36.946655 175.136006,-36.946703 175.136061,-36.946755 175.136141,-36.946801 175.136224,-36.946840 175.136321,-36.946873 175.136404,-36.946891 175.136475,-36.946899 175.136541,-36.946896 175.136589,-36.946885 175.136638,-36.946855 175.136691,-36.946795 175.136735,-36.946764 175.136756,-36.946754 175.136809,-36.946743 175.136846,-36.946712 175.136904,-36.946664 175.136965,-36.946642 175.137027,-36.946639 175.137142,-36.946648 175.137195,-36.946639 175.137227,-36.946626 175.137250,-36.946613 175.137291,-36.946603 175.137328,-36.946599 175.137484,-36.946612 175.137515,-36.946611 175.137594,-36.946588 175.137688,-36.946590 175.137743,-36.946577 175.137791,-36.946551 175.137829,-36.946515 175.137851,-36.946473 175.137955,-36.946355 175.138053,-36.946298 175.138097,-36.946245 175.138145,-36.946221 175.138215,-36.946186 175.138302,-36.946111 175.138397,-36.946055 175.138453,-36.946000 175.138532,-36.945932 175.138609,-36.945881 175.138758,-36.945844 175.138866,-36.945773 175.138949,-36.945753 175.139055,-36.945728 175.139110,-36.945701 175.139164,-36.945665 175.139205,-36.945655 175.139303,-36.945658 175.139394,-36.945668 175.139437,-36.945659 175.139540,-36.945619 175.139680,-36.945621 175.139775,-36.945602 175.139845,-36.945585 175.139928,-36.945539 175.139975,-36.945531 175.140042,-36.945543 175.140099,-36.945557 175.140135,-36.945550 175.140171,-36.945526 175.140191,-36.945494 175.140205,-36.945452 175.140208,-36.945388 175.140199,-36.945367 175.140171,-36.945350 175.140104,-36.945341 175.140007,-36.945312 175.140007,-36.945294 175.140018,-36.945279 175.140051,-36.945275 175.140080,-36.945275 175.140143,-36.945249 175.140195,-36.945240 175.140239,-36.945243 175.140292,-36.945256 175.140341,-36.945235</coordinates></LineString><LineString><tessellate>1</tessellate><coordinates>175.133896,-36.942856 175.133926,-36.942753 175.133965,-36.942687 175.134016,-36.942645 175.134153,-36.942624 175.134233,-36.942590 175.134327,-36.942540 175.134680,-36.942431 175.134919,-36.942327 175.135006,-36.942268 175.135091,-36.942220 175.135200,-36.942122 175.135302,-36.941962 175.135327,-36.941889 175.135387,-36.941814 175.135429,-36.941724 175.135492,-36.941652 175.135579,-36.941489 175.135649,-36.941398 175.135722,-36.941263 175.135782,-36.941165 175.135922,-36.941015 175.136039,-36.940949 175.136034,-36.940931 175.136005,-36.940905 175.136004,-36.940881 175.136096,-36.940849 175.136195,-36.940816 175.136300,-36.940819 175.136324,-36.940774 175.136321,-36.940692 175.136276,-36.940641 175.136145,-36.940575 175.136101,-36.940475 175.136111,-36.940404 175.136193,-36.940299 175.136204,-36.940266 175.136193,-36.940196 175.136208,-36.940125 175.136230,-36.940040 175.136278,-36.939905 175.136318,-36.939737 175.136356,-36.939647 175.136456,-36.939542 175.136550,-36.939441 175.136632,-36.939331 175.136688,-36.939156 175.136766,-36.938997 175.136830,-36.938871 175.136917,-36.938736 175.137060,-36.938604 175.137215,-36.938483 175.137330,-36.938413 175.137433,-36.938271 175.137482,-36.938163 175.137574,-36.938048 175.137610,-36.937966 175.137625,-36.937880 175.137581,-36.937767 175.137559,-36.937718 175.137491,-36.937636 175.137512,-36.937564 175.137524,-36.937489 175.137581,-36.937353 175.137684,-36.937210 175.137765,-36.937087 175.137804,-36.937047 175.137870,-36.937020 175.137916,-36.937015 175.137966,-36.936956 175.138063,-36.936903 175.138136,-36.936827</coordinates></LineString><LineString><tessellate>1</tessellate><coordinates>175.133469,-36.942528 175.133507,-36.942468 175.133552,-36.942391 175.133632,-36.942259 175.133690,-36.942203 175.133736,-36.942176 175.133796,-36.942109 175.133831,-36.942087 175.133883,-36.942069 175.133998,-36.942034 175.134126,-36.941961 175.134198,-36.941933 175.134249,-36.941901 175.134352,-36.941857 175.134392,-36.941782 175.134516,-36.941729 175.134558,-36.941692 175.134601,-36.941632 175.134715,-36.941480 175.134797,-36.941383 175.134868,-36.941283 175.134917,-36.941183 175.134945,-36.941135 175.134956,-36.941101 175.135053,-36.940978 175.135117,-36.940874 175.135158,-36.940787 175.135209,-36.940702 175.135222,-36.940667 175.135235,-36.940599 175.135255,-36.940590 175.135300,-36.940580 175.135329,-36.940567 175.135356,-36.940541 175.135388,-36.940494 175.135422,-36.940471 175.135463,-36.940446 175.135501,-36.940405 175.135539,-36.940352 175.135577,-36.940321 175.135644,-36.940190 175.135695,-36.940074 175.135768,-36.939960 175.135808,-36.939849 175.135825,-36.939782 175.135831,-36.939725 175.135878,-36.939610 175.135949,-36.939475 175.136047,-36.939311 175.136070,-36.939238 175.136138,-36.939169 175.136174,-36.939094 175.136205,-36.939030 175.136212,-36.939000 175.136198,-36.938935 175.136239,-36.938851 175.136336,-36.938736 175.136368,-36.938663 175.136462,-36.938565 175.136531,-36.938491 175.136730,-36.938279 175.136820,-36.938214 175.136911,-36.938141 175.136954,-36.938041 175.136978,-36.937985 175.136992,-36.937886 175.137059,-36.937786 175.137075,-36.937734 175.137055,-36.937652 175.137084,-36.937590 175.137063,-36.937522 175.137059,-36.937434 175.137101,-36.937288 175.137148,-36.937188 175.137185,-36.937135 175.137257,-36.937093 175.137300,-36.937023 175.137341,-36.936987 175.137410,-36.936965 175.137490,-36.936922 175.137524,-36.936912 175.137578,-36.936894 175.137659,-36.936835</coordinates></LineString><LineString><tessellate>1</tessellate><coordinates>175.136793,-36.936851 175.136607,-36.937116 175.136426,-36.937388 175.136288,-36.937531 175.135944,-36.937776 175.135799,-36.937890 175.135696,-36.938002 175.135401,-36.938428 175.135347,-36.938525 175.135225,-36.938639 175.135032,-36.938806 175.134847,-36.939031 175.134734,-36.939143 175.134635,-36.939237 175.134492,-36.939348 175.134424,-36.939438 175.134309,-36.939569 175.134139,-36.939735 175.133988,-36.939895 175.133889,-36.939993 175.133727,-36.940104 175.133707,-36.940235 175.133656,-36.940348 175.133601,-36.940485 175.133566,-36.940574 175.133561,-36.940662 175.133499,-36.940785 175.133490,-36.941051 175.133465,-36.941160 175.133427,-36.941219 175.133345,-36.941290 175.133109,-36.941405 175.132999,-36.941479 175.132924,-36.941570 175.132737,-36.941827 175.132629,-36.942002 175.132550,-36.942103 175.132408,-36.942194 175.132236,-36.942242 175.132117,-36.942282 175.132034,-36.942343 175.132009,-36.942480 175.132066,-36.942799 175.132130,-36.942982 175.132224,-36.943058 175.132390,-36.943086 175.132685,-36.942995 175.132893,-36.942980 175.133061,-36.942887 175.133254,-36.942684 175.133469,-36.942528</coordinates></LineString></MultiGeometry></Placemark></Document></kml>