<?xml version='1.0' encoding='utf-8'?>
<kml xmlns="http://www.opengis.net/kml/2.2"><Document><name>Arataki / Waitākere LINZ foot track 3</name><Style id="c"><LineStyle><color>ffff00ff</color><width>5</width></LineStyle></Style><Placemark><name>Arataki / Waitākere LINZ foot track 3</name><description>Sheet row 1343; LINZ t50_fid(s) 3584622</description><styleUrl>#c</styleUrl><MultiGeometry><LineString><tessellate>1</tessellate><coordinates>174.640110,-36.950854 174.639892,-36.950721 174.639709,-36.950696 174.639493,-36.950763 174.638785,-36.951333 174.637792,-36.951629 174.637467,-36.951936 174.637304,-36.952322 174.637287,-36.952611 174.637134,-36.952682 174.636782,-36.952612 174.636527,-36.952664</coordinates></LineString></MultiGeometry></Placemark></Document></kml>