<?xml version='1.0' encoding='utf-8'?>
<kml xmlns="http://www.opengis.net/kml/2.2"><Document><name>Hibiscus Coast / Ōrewa LINZ foot track 2</name><Style id="c"><LineStyle><color>ffff00ff</color><width>5</width></LineStyle></Style><Placemark><name>Hibiscus Coast / Ōrewa LINZ foot track 2</name><description>Sheet row 1077; LINZ t50_fid(s) 8493883</description><styleUrl>#c</styleUrl><MultiGeometry><LineString><tessellate>1</tessellate><coordinates>174.696173,-36.606660 174.696109,-36.606545 174.695994,-36.606365 174.695952,-36.606260 174.695937,-36.606185 174.695951,-36.606109 174.695985,-36.606049 174.696053,-36.605995 174.696122,-36.605933 174.696143,-36.605890 174.696142,-36.605851 174.696139,-36.605812 174.696173,-36.605735 174.696233,-36.605679 174.696297,-36.605637 174.696384,-36.605603 174.696453,-36.605599 174.696521,-36.605607 174.696577,-36.605633 174.696724,-36.605763 174.696807,-36.605852 174.696855,-36.605925 174.696901,-36.605997 174.697000,-36.606069 174.697054,-36.606100 174.697132,-36.606135 174.697178,-36.606221</coordinates></LineString></MultiGeometry></Placemark></Document></kml>