<?xml version='1.0' encoding='utf-8'?>
<kml xmlns="http://www.opengis.net/kml/2.2"><Document><name>Mairangi Bay LINZ foot track 13</name><Style id="c"><LineStyle><color>ffff00ff</color><width>5</width></LineStyle></Style><Placemark><name>Mairangi Bay LINZ foot track 13</name><description>Sheet row 1116; LINZ t50_fid(s) 3584783</description><styleUrl>#c</styleUrl><MultiGeometry><LineString><tessellate>1</tessellate><coordinates>174.751655,-36.741093 174.751949,-36.741778 174.752012,-36.741992 174.752193,-36.742293 174.752287,-36.742371</coordinates></LineString></MultiGeometry></Placemark></Document></kml>