<?xml version='1.0' encoding='utf-8'?>
<kml xmlns="http://www.opengis.net/kml/2.2"><Document><name>Half Moon Bay LINZ foot track 5</name><Style id="c"><LineStyle><color>ffff00ff</color><width>5</width></LineStyle></Style><Placemark><name>Half Moon Bay LINZ foot track 5</name><description>Sheet row 958; LINZ t50_fid(s) 3593038</description><styleUrl>#c</styleUrl><MultiGeometry><LineString><tessellate>1</tessellate><coordinates>174.894831,-36.895230 174.894564,-36.895322 174.893969,-36.895210 174.893608,-36.895101 174.893192,-36.895024 174.893171,-36.894855</coordinates></LineString></MultiGeometry></Placemark></Document></kml>