<?xml version='1.0' encoding='utf-8'?>
<kml xmlns="http://www.opengis.net/kml/2.2"><Document><name>Waiwhiu LINZ foot track 2</name><Style id="c"><LineStyle><color>ffff00ff</color><width>5</width></LineStyle></Style><Placemark><name>Waiwhiu LINZ foot track 2</name><description>Sheet row 1354; LINZ t50_fid(s) 7644970</description><styleUrl>#c</styleUrl><MultiGeometry><LineString><tessellate>1</tessellate><coordinates>174.593310,-36.361115 174.593322,-36.361244 174.593354,-36.361578 174.593523,-36.361870 174.593630,-36.362194 174.593536,-36.362489 174.593503,-36.362713 174.593570,-36.362915 174.593462,-36.363180 174.593378,-36.363354 174.593382,-36.363547 174.593313,-36.363872 174.593256,-36.364147 174.593185,-36.364371 174.593216,-36.364645 174.593419,-36.364754 174.593632,-36.364751 174.593913,-36.364970 174.594166,-36.365099 174.594358,-36.365299 174.594367,-36.365735 174.594525,-36.366088 174.594731,-36.366360 174.594812,-36.366632 174.594668,-36.366949 174.594685,-36.367182 174.594855,-36.367494 174.594810,-36.367739 174.594731,-36.368176 174.594626,-36.368573 174.594670,-36.368907 174.594750,-36.369119 174.594955,-36.369340 174.595083,-36.369450 174.595100,-36.369673 174.594995,-36.370039 174.594878,-36.370487 174.594847,-36.370802 174.594788,-36.370996 174.594895,-36.371299 174.595087,-36.371499 174.595191,-36.371650 174.595218,-36.371690</coordinates></LineString></MultiGeometry></Placemark></Document></kml>