<?xml version='1.0' encoding='utf-8'?>
<kml xmlns="http://www.opengis.net/kml/2.2"><Document><name>Whakanewha / central Waiheke LINZ foot track 16</name><Style id="c"><LineStyle><color>ffff00ff</color><width>5</width></LineStyle></Style><Placemark><name>Whakanewha / central Waiheke LINZ foot track 16</name><description>Sheet row 1476; LINZ t50_fid(s) 7880156</description><styleUrl>#c</styleUrl><MultiGeometry><LineString><tessellate>1</tessellate><coordinates>175.064320,-36.815550 175.064593,-36.815426 175.064918,-36.815343 175.065103,-36.815312 175.065076,-36.815486 175.065098,-36.815671 175.065146,-36.815815 175.065366,-36.815615 175.065599,-36.815398 175.065744,-36.815325 175.065857,-36.815340 175.065921,-36.815433 175.065953,-36.815581 175.065969,-36.815720 175.066026,-36.815738 175.066128,-36.815693 175.066264,-36.815568 175.066571,-36.815382</coordinates></LineString></MultiGeometry></Placemark></Document></kml>