<?xml version='1.0' encoding='utf-8'?>
<kml xmlns="http://www.opengis.net/kml/2.2"><Document><name>Albany LINZ foot track 8</name><Style id="c"><LineStyle><color>ffff00ff</color><width>5</width></LineStyle></Style><Placemark><name>Albany LINZ foot track 8</name><description>Sheet row 1150; LINZ t50_fid(s) 8521027</description><styleUrl>#c</styleUrl><MultiGeometry><LineString><tessellate>1</tessellate><coordinates>174.721943,-36.725873 174.722012,-36.726165 174.722397,-36.726918</coordinates></LineString></MultiGeometry></Placemark></Document></kml>