<?xml version='1.0' encoding='utf-8'?>
<kml xmlns="http://www.opengis.net/kml/2.2"><Document><name>Māngere Bridge LINZ foot track 2</name><Style id="c"><LineStyle><color>ffff00ff</color><width>5</width></LineStyle></Style><Placemark><name>Māngere Bridge LINZ foot track 2</name><description>Sheet row 854; LINZ t50_fid(s) 3592949,3592950,3584652</description><styleUrl>#c</styleUrl><MultiGeometry><LineString><tessellate>1</tessellate><coordinates>174.771868,-36.947128 174.771327,-36.947109 174.771065,-36.946491</coordinates></LineString><LineString><tessellate>1</tessellate><coordinates>174.771868,-36.947128 174.771871,-36.947134 174.772305,-36.947362</coordinates></LineString><LineString><tessellate>1</tessellate><coordinates>174.771868,-36.947128 174.772122,-36.947043 174.773323,-36.946671</coordinates></LineString></MultiGeometry></Placemark></Document></kml>