<?xml version='1.0' encoding='utf-8'?>
<kml xmlns="http://www.opengis.net/kml/2.2"><Document><name>Oneroa / western Waiheke LINZ foot track 7</name><Style id="c"><LineStyle><color>ffff00ff</color><width>5</width></LineStyle></Style><Placemark><name>Oneroa / western Waiheke LINZ foot track 7</name><description>Sheet row 1482; LINZ t50_fid(s) 6082530</description><styleUrl>#c</styleUrl><MultiGeometry><LineString><tessellate>1</tessellate><coordinates>174.990267,-36.775763 174.990264,-36.775760 174.990210,-36.775695 174.990136,-36.775639 174.990091,-36.775496 174.990135,-36.775457 174.990446,-36.774726 174.990470,-36.774597 174.990586,-36.774461 174.990762,-36.774280 174.990804,-36.774216 174.990818,-36.774075 174.990921,-36.773995 174.991024,-36.773998 174.991116,-36.773946 174.991050,-36.773832 174.991054,-36.773736 174.991122,-36.773644 174.991139,-36.773531 174.991252,-36.773417 174.991307,-36.773301</coordinates></LineString></MultiGeometry></Placemark></Document></kml>