<?xml version='1.0' encoding='utf-8'?>
<kml xmlns="http://www.opengis.net/kml/2.2"><Document><name>Waiheke Island LINZ foot track 4</name><Style id="c"><LineStyle><color>ffff00ff</color><width>5</width></LineStyle></Style><Placemark><name>Waiheke Island LINZ foot track 4</name><description>Sheet row 1329; LINZ t50_fid(s) 7880165</description><styleUrl>#c</styleUrl><MultiGeometry><LineString><tessellate>1</tessellate><coordinates>175.039572,-36.779779 175.039494,-36.779879 175.039387,-36.779921 175.039389,-36.779984 175.039443,-36.779983 175.039531,-36.780015 175.039564,-36.780004 175.039590,-36.780054 175.039592,-36.780121 175.039593,-36.780148 175.039597,-36.780148 175.039650,-36.780140 175.039705,-36.780159 175.039693,-36.780196 175.039687,-36.780273 175.039770,-36.780272 175.039987,-36.780281 175.040042,-36.780350 175.040238,-36.780518 175.040380,-36.780668 175.040609,-36.780575 175.040614,-36.780661 175.040576,-36.780736 175.040566,-36.780968 175.040517,-36.781104 175.040375,-36.781214 175.040119,-36.781403 175.040064,-36.781463 175.040033,-36.781554 175.039866,-36.781609 175.039897,-36.781759 175.039876,-36.781806 175.039854,-36.781856</coordinates></LineString></MultiGeometry></Placemark></Document></kml>