<?xml version='1.0' encoding='utf-8'?>
<kml xmlns="http://www.opengis.net/kml/2.2"><Document><name>St Heliers LINZ foot track 4</name><Style id="c"><LineStyle><color>ffff00ff</color><width>5</width></LineStyle></Style><Placemark><name>St Heliers LINZ foot track 4</name><description>Sheet row 933; LINZ t50_fid(s) 3573883,3584766,3573882</description><styleUrl>#c</styleUrl><MultiGeometry><LineString><tessellate>1</tessellate><coordinates>174.873981,-36.852006 174.873279,-36.851993 174.872868,-36.852012 174.872662,-36.851947 174.872491,-36.851678 174.872464,-36.851604 174.872330,-36.851126 174.872242,-36.850843 174.872115,-36.850435 174.872277,-36.850215 174.871829,-36.849977 174.871376,-36.849393</coordinates></LineString><LineString><tessellate>1</tessellate><coordinates>174.874774,-36.850347 174.874308,-36.850650 174.874290,-36.850678 174.874151,-36.850889 174.874045,-36.851304 174.873982,-36.851648 174.873981,-36.852006</coordinates></LineString><LineString><tessellate>1</tessellate><coordinates>174.875671,-36.858126 174.875658,-36.857955 174.875700,-36.857824 174.875944,-36.857498 174.876085,-36.857423 174.876446,-36.856898 174.876550,-36.856622 174.876601,-36.856361 174.876661,-36.856163 174.876722,-36.855747 174.876286,-36.855089 174.876216,-36.854623 174.876170,-36.854216 174.876191,-36.853718 174.875927,-36.853277 174.875761,-36.853076 174.875579,-36.852731 174.875472,-36.852668 174.875340,-36.852664 174.875172,-36.852711 174.875053,-36.852702 174.874960,-36.852523 174.874733,-36.852421 174.874539,-36.852281 174.874094,-36.852101 174.873981,-36.852006</coordinates></LineString></MultiGeometry></Placemark></Document></kml>