<?xml version='1.0' encoding='utf-8'?>
<kml xmlns="http://www.opengis.net/kml/2.2"><Document><name>Port Fitzroy LINZ foot track 1</name><Style id="c"><LineStyle><color>ffff00ff</color><width>5</width></LineStyle></Style><Placemark><name>Port Fitzroy LINZ foot track 1</name><description>Sheet row 991; LINZ t50_fid(s) 3584974</description><styleUrl>#c</styleUrl><MultiGeometry><LineString><tessellate>1</tessellate><coordinates>175.354684,-36.152693 175.354957,-36.152718 175.355378,-36.152996 175.355803,-36.153097 175.356163,-36.153141 175.356485,-36.153074 175.356485,-36.152958 175.356212,-36.152770 175.355831,-36.152440 175.355738,-36.152236 175.355598,-36.151991 175.355369,-36.151836 175.355248,-36.151584 175.355082,-36.151354 175.354995,-36.151100 175.355321,-36.150766 175.355250,-36.150283 175.355314,-36.150082 175.355353,-36.149945</coordinates></LineString></MultiGeometry></Placemark></Document></kml>