<?xml version='1.0' encoding='utf-8'?>
<kml xmlns="http://www.opengis.net/kml/2.2"><Document><name>Stanmore Bay LINZ foot track 10</name><Style id="c"><LineStyle><color>ffff00ff</color><width>5</width></LineStyle></Style><Placemark><name>Stanmore Bay LINZ foot track 10</name><description>Sheet row 1151; LINZ t50_fid(s) 3593387</description><styleUrl>#c</styleUrl><MultiGeometry><LineString><tessellate>1</tessellate><coordinates>174.749710,-36.635782 174.749875,-36.635623 174.750238,-36.635254 174.750431,-36.635139 174.750518,-36.635047 174.750628,-36.634965</coordinates></LineString></MultiGeometry></Placemark></Document></kml>