<?xml version='1.0' encoding='utf-8'?>
<kml xmlns="http://www.opengis.net/kml/2.2"><Document><name>Whakanewha / central Waiheke LINZ foot track 12</name><Style id="c"><LineStyle><color>ffff00ff</color><width>5</width></LineStyle></Style><Placemark><name>Whakanewha / central Waiheke LINZ foot track 12</name><description>Sheet row 1472; LINZ t50_fid(s) 7880152,8520761,8521036</description><styleUrl>#c</styleUrl><MultiGeometry><LineString><tessellate>1</tessellate><coordinates>175.071684,-36.820462 175.071219,-36.819739 175.071049,-36.819422 175.070973,-36.819167 175.070964,-36.818943 175.070974,-36.818681 175.071151,-36.818188 175.071159,-36.818165</coordinates></LineString><LineString><tessellate>1</tessellate><coordinates>175.067153,-36.816470 175.067410,-36.816516 175.067630,-36.816605 175.067786,-36.816745 175.067880,-36.816997 175.067981,-36.817142 175.068109,-36.817238 175.068414,-36.817241 175.068664,-36.817228 175.068778,-36.817282 175.068901,-36.817430 175.069062,-36.817702 175.069209,-36.817815 175.069397,-36.818082 175.069923,-36.818391 175.069998,-36.818462 175.070145,-36.818755 175.070441,-36.819115 175.070634,-36.819311 175.070682,-36.819366 175.070754,-36.819519 175.070835,-36.819710 175.070947,-36.819882 175.071065,-36.820021 175.071144,-36.820108 175.071684,-36.820462 175.072027,-36.820970 175.072228,-36.821287 175.072436,-36.821281</coordinates></LineString><LineString><tessellate>1</tessellate><coordinates>175.070444,-36.819987 175.070603,-36.819981 175.070826,-36.820214 175.071144,-36.820108</coordinates></LineString></MultiGeometry></Placemark></Document></kml>