<?xml version='1.0' encoding='utf-8'?>
<kml xmlns="http://www.opengis.net/kml/2.2"><Document><name>Ōtara LINZ foot track 2</name><Style id="c"><LineStyle><color>ffff00ff</color><width>5</width></LineStyle></Style><Placemark><name>Ōtara LINZ foot track 2</name><description>Sheet row 1208; LINZ t50_fid(s) 8063328,3592982,3592980,3584658,3554625,3573825,3573826</description><styleUrl>#c</styleUrl><MultiGeometry><LineString><tessellate>1</tessellate><coordinates>174.880782,-36.952420 174.880766,-36.952288 174.880751,-36.952170 174.880736,-36.951989 174.880704,-36.951861 174.880596,-36.951739 174.880427,-36.951574 174.880352,-36.951477 174.880249,-36.951336 174.880046,-36.951148 174.879733,-36.950916 174.879570,-36.950636 174.879658,-36.950294 174.879650,-36.949968 174.879357,-36.949619 174.879281,-36.949011 174.879235,-36.948724 174.878835,-36.948362 174.878547,-36.948119 174.878151,-36.948298</coordinates></LineString><LineString><tessellate>1</tessellate><coordinates>174.879463,-36.952373 174.880262,-36.952270 174.880782,-36.952420</coordinates></LineString><LineString><tessellate>1</tessellate><coordinates>174.879159,-36.953940 174.879739,-36.953971 174.879968,-36.953964</coordinates></LineString><LineString><tessellate>1</tessellate><coordinates>174.879968,-36.953964 174.880455,-36.953718 174.880595,-36.953449 174.880660,-36.953068 174.880782,-36.952420</coordinates></LineString><LineString><tessellate>1</tessellate><coordinates>174.879052,-36.961984 174.878886,-36.961725 174.878533,-36.961317 174.878427,-36.960996 174.878341,-36.960803 174.878240,-36.960395 174.878201,-36.959583 174.878138,-36.959226 174.878110,-36.958907 174.878059,-36.958555 174.877947,-36.958237 174.877931,-36.957890 174.877959,-36.957762 174.878248,-36.957452 174.878381,-36.957374 174.878848,-36.957130 174.879266,-36.956826 174.879398,-36.956587 174.879414,-36.956559 174.879415,-36.956545 174.879422,-36.956465 174.879371,-36.956350 174.879349,-36.956077 174.879468,-36.955925 174.879529,-36.955839 174.879689,-36.955836 174.879699,-36.955838 174.879903,-36.955884 174.880141,-36.955786 174.880333,-36.955599 174.880433,-36.955423 174.880439,-36.954916 174.880511,-36.954754 174.880667,-36.954457 174.880681,-36.954128 174.880551,-36.954044 174.880422,-36.954044 174.880343,-36.954043 174.880034,-36.954057 174.879968,-36.953964</coordinates></LineString><LineString><tessellate>1</tessellate><coordinates>174.879052,-36.961984 174.878347,-36.961919 174.876487,-36.961902 174.874987,-36.961895 174.874868,-36.961896</coordinates></LineString><LineString><tessellate>1</tessellate><coordinates>174.881184,-36.965103 174.880982,-36.964969 174.880724,-36.964695 174.880155,-36.963538 174.880132,-36.963513 174.879891,-36.963132 174.879874,-36.963104 174.879490,-36.962495 174.879479,-36.962482 174.879052,-36.961984</coordinates></LineString></MultiGeometry></Placemark></Document></kml>