<?xml version='1.0' encoding='utf-8'?>
<kml xmlns="http://www.opengis.net/kml/2.2"><Document><name>South Head / Kaipara LINZ foot track 5</name><Style id="c"><LineStyle><color>ffff00ff</color><width>5</width></LineStyle></Style><Placemark><name>South Head / Kaipara LINZ foot track 5</name><description>Sheet row 1174; LINZ t50_fid(s) 3573072</description><styleUrl>#c</styleUrl><MultiGeometry><LineString><tessellate>1</tessellate><coordinates>174.317403,-36.662368 174.316661,-36.662730 174.316390,-36.662789 174.315725,-36.663077 174.315509,-36.663080 174.314549,-36.663354 174.314253,-36.663375 174.313977,-36.663348</coordinates></LineString></MultiGeometry></Placemark></Document></kml>