<?xml version='1.0' encoding='utf-8'?>
<kml xmlns="http://www.opengis.net/kml/2.2"><Document><name>Huia LINZ foot track 1</name><Style id="c"><LineStyle><color>ffff00ff</color><width>5</width></LineStyle></Style><Placemark><name>Huia LINZ foot track 1</name><description>Sheet row 1413; LINZ t50_fid(s) 3584264</description><styleUrl>#c</styleUrl><MultiGeometry><LineString><tessellate>1</tessellate><coordinates>174.568735,-36.990437 174.569298,-36.990576 174.569609,-36.990564 174.569963,-36.990683 174.570472,-36.990904</coordinates></LineString></MultiGeometry></Placemark></Document></kml>