<?xml version='1.0' encoding='utf-8'?>
<kml xmlns="http://www.opengis.net/kml/2.2"><Document><name>Ōtara LINZ foot track 10</name><Style id="c"><LineStyle><color>ffff00ff</color><width>5</width></LineStyle></Style><Placemark><name>Ōtara LINZ foot track 10</name><description>Sheet row 1281; LINZ t50_fid(s) 3592972</description><styleUrl>#c</styleUrl><MultiGeometry><LineString><tessellate>1</tessellate><coordinates>174.863986,-36.963974 174.864672,-36.964922</coordinates></LineString></MultiGeometry></Placemark></Document></kml>