<?xml version='1.0' encoding='utf-8'?>
<kml xmlns="http://www.opengis.net/kml/2.2"><Document><name>Stanmore Bay LINZ foot track 1</name><Style id="c"><LineStyle><color>ffff00ff</color><width>5</width></LineStyle></Style><Placemark><name>Stanmore Bay LINZ foot track 1</name><description>Sheet row 1030; LINZ t50_fid(s) 3554896</description><styleUrl>#c</styleUrl><MultiGeometry><LineString><tessellate>1</tessellate><coordinates>174.728821,-36.619424 174.729134,-36.619541 174.729194,-36.619642 174.729376,-36.619750 174.729860,-36.619986 174.730058,-36.620257 174.730364,-36.620452 174.731003,-36.620802 174.731347,-36.621036 174.732018,-36.621387 174.732856,-36.621874 174.732963,-36.621957 174.734064,-36.622592 174.734512,-36.622840 174.735044,-36.623067 174.735448,-36.623258 174.736843,-36.623845 174.738455,-36.624352 174.739410,-36.624497 174.740136,-36.624544 174.740995,-36.624542 174.741291,-36.624575 174.741458,-36.624688 174.741902,-36.624649 174.742012,-36.624646 174.742162,-36.624660 174.742255,-36.624662 174.742387,-36.624657 174.742425,-36.624654 174.742551,-36.624591 174.742800,-36.624556 174.743145,-36.624507 174.743262,-36.624477 174.743458,-36.624418 174.743645,-36.624415 174.743731,-36.624395 174.743779,-36.624374 174.743854,-36.624312 174.743898,-36.624295 174.743961,-36.624294 174.744003,-36.624327 174.744140,-36.624431 174.744226,-36.624527 174.744245,-36.624636 174.744340,-36.624646</coordinates></LineString></MultiGeometry></Placemark></Document></kml>