<?xml version='1.0' encoding='utf-8'?>
<kml xmlns="http://www.opengis.net/kml/2.2"><Document><name>Northcote LINZ foot track 7</name><Style id="c"><LineStyle><color>ffff00ff</color><width>5</width></LineStyle></Style><Placemark><name>Northcote LINZ foot track 7</name><description>Sheet row 1127; LINZ t50_fid(s) 3593201</description><styleUrl>#c</styleUrl><MultiGeometry><LineString><tessellate>1</tessellate><coordinates>174.744979,-36.797044 174.744663,-36.797018 174.744491,-36.797002 174.744385,-36.796965 174.744250,-36.796906 174.744005,-36.796771 174.743869,-36.796684 174.743785,-36.796586 174.743741,-36.796440</coordinates></LineString></MultiGeometry></Placemark></Document></kml>