<?xml version='1.0' encoding='utf-8'?>
<kml xmlns="http://www.opengis.net/kml/2.2"><Document><name>Beach Haven LINZ foot track 3</name><Style id="c"><LineStyle><color>ffff00ff</color><width>5</width></LineStyle></Style><Placemark><name>Beach Haven LINZ foot track 3</name><description>Sheet row 1374; LINZ t50_fid(s) 3574984</description><styleUrl>#c</styleUrl><MultiGeometry><LineString><tessellate>1</tessellate><coordinates>174.701150,-36.805397 174.700814,-36.805576 174.700681,-36.805615 174.700343,-36.805715 174.700108,-36.805784 174.699906,-36.805844 174.699447,-36.805526 174.698687,-36.804969 174.698591,-36.804913 174.698358,-36.804873 174.698218,-36.804900 174.698121,-36.804853</coordinates></LineString></MultiGeometry></Placemark></Document></kml>