<?xml version='1.0' encoding='utf-8'?>
<kml xmlns="http://www.opengis.net/kml/2.2"><Document><name>West Harbour LINZ foot track 6</name><Style id="c"><LineStyle><color>ffff00ff</color><width>5</width></LineStyle></Style><Placemark><name>West Harbour LINZ foot track 6</name><description>Sheet row 1378; LINZ t50_fid(s) 8466991,8466993,8467141</description><styleUrl>#c</styleUrl><MultiGeometry><LineString><tessellate>1</tessellate><coordinates>174.617373,-36.821866 174.617916,-36.821615 174.618325,-36.821411 174.618380,-36.821364 174.618413,-36.821302 174.618428,-36.821196 174.618504,-36.821161 174.618561,-36.821148 174.618614,-36.821121</coordinates></LineString><LineString><tessellate>1</tessellate><coordinates>174.619994,-36.822092 174.619759,-36.821958 174.619694,-36.821897 174.619661,-36.821827 174.619639,-36.821727 174.619580,-36.821626 174.619537,-36.821520 174.619487,-36.821475 174.619420,-36.821431 174.619232,-36.821357 174.618847,-36.821204 174.618614,-36.821121</coordinates></LineString><LineString><tessellate>1</tessellate><coordinates>174.618614,-36.821121 174.618897,-36.820766 174.619084,-36.820424 174.619242,-36.820232 174.619363,-36.820164 174.619701,-36.819978 174.619894,-36.819905 174.620081,-36.819733 174.620347,-36.819610 174.620347,-36.819507 174.620369,-36.819415</coordinates></LineString></MultiGeometry></Placemark></Document></kml>