<?xml version='1.0' encoding='utf-8'?>
<kml xmlns="http://www.opengis.net/kml/2.2"><Document><name>Milford LINZ foot track 8</name><Style id="c"><LineStyle><color>ffff00ff</color><width>5</width></LineStyle></Style><Placemark><name>Milford LINZ foot track 8</name><description>Sheet row 1152; LINZ t50_fid(s) 3584757</description><styleUrl>#c</styleUrl><MultiGeometry><LineString><tessellate>1</tessellate><coordinates>174.760648,-36.770843 174.760619,-36.770885 174.760655,-36.770988 174.760735,-36.771144 174.761134,-36.771835</coordinates></LineString></MultiGeometry></Placemark></Document></kml>