<?xml version='1.0' encoding='utf-8'?>
<kml xmlns="http://www.opengis.net/kml/2.2"><Document><name>Stanmore Bay LINZ foot track 2</name><Style id="c"><LineStyle><color>ffff00ff</color><width>5</width></LineStyle></Style><Placemark><name>Stanmore Bay LINZ foot track 2</name><description>Sheet row 1034; LINZ t50_fid(s) 8520894,8521035,3593386,8520895</description><styleUrl>#c</styleUrl><MultiGeometry><LineString><tessellate>1</tessellate><coordinates>174.729949,-36.623104 174.730282,-36.623193 174.730464,-36.623253 174.730670,-36.623373 174.731105,-36.623558 174.731534,-36.623884 174.731768,-36.624156 174.731969,-36.624369 174.732098,-36.624551 174.732317,-36.624694 174.732493,-36.624845 174.732672,-36.625089 174.732855,-36.625310 174.732985,-36.625511 174.733059,-36.625594 174.733143,-36.625652 174.733288,-36.625725 174.733403,-36.625798 174.733447,-36.625877 174.733516,-36.626055 174.733598,-36.626345 174.733635,-36.626651 174.733703,-36.627101 174.733722,-36.627275 174.733701,-36.627398</coordinates></LineString><LineString><tessellate>1</tessellate><coordinates>174.730008,-36.622371 174.730002,-36.622545 174.729996,-36.622755 174.729982,-36.622876 174.729974,-36.622955 174.729949,-36.623104</coordinates></LineString><LineString><tessellate>1</tessellate><coordinates>174.732098,-36.624551 174.732773,-36.624133 174.732979,-36.624013 174.733091,-36.623898</coordinates></LineString><LineString><tessellate>1</tessellate><coordinates>174.725639,-36.621389 174.725766,-36.621514 174.725851,-36.621634 174.725940,-36.621695 174.726102,-36.621750 174.726605,-36.621884 174.726655,-36.621871 174.726751,-36.621864 174.726869,-36.621877 174.727004,-36.621902 174.727111,-36.621933 174.727226,-36.621980 174.727328,-36.621991 174.727443,-36.622035 174.727572,-36.622069 174.727673,-36.622088 174.727814,-36.622133 174.727890,-36.622158 174.727964,-36.622183 174.728097,-36.622277 174.728176,-36.622312 174.728329,-36.622427 174.728464,-36.622499 174.728937,-36.622685 174.729208,-36.622802 174.729432,-36.622913 174.729494,-36.622950 174.729722,-36.623045 174.729905,-36.623130 174.729949,-36.623104</coordinates></LineString></MultiGeometry></Placemark></Document></kml>