<?xml version='1.0' encoding='utf-8'?>
<kml xmlns="http://www.opengis.net/kml/2.2"><Document><name>Glen Eden LINZ foot track 4</name><Style id="c"><LineStyle><color>ffff00ff</color><width>5</width></LineStyle></Style><Placemark><name>Glen Eden LINZ foot track 4</name><description>Sheet row 1449; LINZ t50_fid(s) 3584628</description><styleUrl>#c</styleUrl><MultiGeometry><LineString><tessellate>1</tessellate><coordinates>174.662540,-36.917464 174.662989,-36.917819 174.663423,-36.918156 174.664254,-36.918818</coordinates></LineString></MultiGeometry></Placemark></Document></kml>