<?xml version='1.0' encoding='utf-8'?>
<kml xmlns="http://www.opengis.net/kml/2.2"><Document><name>Red Beach LINZ foot track 5</name><Style id="c"><LineStyle><color>ffff00ff</color><width>5</width></LineStyle></Style><Placemark><name>Red Beach LINZ foot track 5</name><description>Sheet row 1079; LINZ t50_fid(s) 8494002</description><styleUrl>#c</styleUrl><MultiGeometry><LineString><tessellate>1</tessellate><coordinates>174.697724,-36.604241 174.697798,-36.604222 174.698290,-36.604174 174.698321,-36.604182 174.698345,-36.604192 174.698445,-36.604249 174.698481,-36.604264 174.698530,-36.604272 174.698583,-36.604267 174.698837,-36.604229 174.698870,-36.604231 174.699315,-36.604396 174.699400,-36.604456 174.699462,-36.604503 174.699486,-36.604542 174.699501,-36.604578 174.699503,-36.604615 174.699498,-36.604663 174.699430,-36.604731 174.699452,-36.604818 174.699470,-36.604954 174.699487,-36.605060</coordinates></LineString></MultiGeometry></Placemark></Document></kml>