<?xml version='1.0' encoding='utf-8'?>
<kml xmlns="http://www.opengis.net/kml/2.2"><Document><name>Mairangi Bay LINZ foot track 8</name><Style id="c"><LineStyle><color>ffff00ff</color><width>5</width></LineStyle></Style><Placemark><name>Mairangi Bay LINZ foot track 8</name><description>Sheet row 1104; LINZ t50_fid(s) 3584787</description><styleUrl>#c</styleUrl><MultiGeometry><LineString><tessellate>1</tessellate><coordinates>174.753191,-36.741609 174.753724,-36.742271 174.754028,-36.742935</coordinates></LineString></MultiGeometry></Placemark></Document></kml>