<?xml version='1.0' encoding='utf-8'?>
<kml xmlns="http://www.opengis.net/kml/2.2"><Document><name>Ōtāhuhu LINZ foot track 2</name><Style id="c"><LineStyle><color>ffff00ff</color><width>5</width></LineStyle></Style><Placemark><name>Ōtāhuhu LINZ foot track 2</name><description>Sheet row 1021; LINZ t50_fid(s) 3592970</description><styleUrl>#c</styleUrl><MultiGeometry><LineString><tessellate>1</tessellate><coordinates>174.838971,-36.945261 174.840026,-36.944650</coordinates></LineString></MultiGeometry></Placemark></Document></kml>