<?xml version='1.0' encoding='utf-8'?>
<kml xmlns="http://www.opengis.net/kml/2.2"><Document><name>Snells Beach LINZ foot track 6</name><Style id="c"><LineStyle><color>ffff00ff</color><width>5</width></LineStyle></Style><Placemark><name>Snells Beach LINZ foot track 6</name><description>Sheet row 1205; LINZ t50_fid(s) 8494010</description><styleUrl>#c</styleUrl><MultiGeometry><LineString><tessellate>1</tessellate><coordinates>174.724182,-36.413164 174.724186,-36.413163 174.724595,-36.413044 174.724983,-36.412957 174.725096,-36.412901 174.725096,-36.412901 174.725191,-36.412814 174.725070,-36.412538 174.724954,-36.412267 174.724897,-36.412168</coordinates></LineString></MultiGeometry></Placemark></Document></kml>