<?xml version='1.0' encoding='utf-8'?>
<kml xmlns="http://www.opengis.net/kml/2.2"><Document><name>Great Barrier Island LINZ foot track 2</name><Style id="c"><LineStyle><color>ffff00ff</color><width>5</width></LineStyle></Style><Placemark><name>Great Barrier Island LINZ foot track 2</name><description>Sheet row 990; LINZ t50_fid(s) 3554997</description><styleUrl>#c</styleUrl><MultiGeometry><LineString><tessellate>1</tessellate><coordinates>175.480834,-36.200557 175.481248,-36.200213 175.481507,-36.199977 175.481858,-36.199540 175.481947,-36.199368 175.481870,-36.199253 175.481680,-36.199123 175.481485,-36.199022 175.481252,-36.198865 175.481229,-36.198772 175.481565,-36.198547 175.481720,-36.197986 175.481789,-36.197606 175.481682,-36.197387 175.481262,-36.196979 175.481078,-36.196880 175.480887,-36.196877 175.480696,-36.196935 175.480519,-36.197183 175.480235,-36.197214 175.480154,-36.197109 175.480143,-36.196866 175.480160,-36.196736 175.480027,-36.196485 175.479872,-36.196190 175.479758,-36.196108 175.479643,-36.195975 175.479652,-36.195839 175.479696,-36.195686 175.479595,-36.195559 175.479488,-36.195425</coordinates></LineString></MultiGeometry></Placemark></Document></kml>