<?xml version='1.0' encoding='utf-8'?>
<kml xmlns="http://www.opengis.net/kml/2.2"><Document><name>Rotoroa Island LINZ foot track 3</name><Style id="c"><LineStyle><color>ffff00ff</color><width>5</width></LineStyle></Style><Placemark><name>Rotoroa Island LINZ foot track 3</name><description>Sheet row 1196; LINZ t50_fid(s) 7879471,7880170,7880171,7880173,7880306</description><styleUrl>#c</styleUrl><MultiGeometry><LineString><tessellate>1</tessellate><coordinates>175.198490,-36.818176 175.198575,-36.818288 175.198685,-36.818467 175.198888,-36.818605 175.199029,-36.818791 175.199216,-36.819039 175.199336,-36.819232 175.199409,-36.819381 175.199457,-36.819492 175.199538,-36.819691 175.199564,-36.819922 175.199596,-36.820373 175.199596,-36.820493 175.199527,-36.820735 175.199505,-36.820957 175.199439,-36.821075 175.199292,-36.821255 175.199263,-36.821327 175.199285,-36.821426 175.199328,-36.821524 175.199330,-36.821588 175.199316,-36.821639 175.199220,-36.821709 175.198937,-36.821887 175.198808,-36.821996 175.198741,-36.822096 175.198706,-36.822196 175.198620,-36.822261 175.198478,-36.822302 175.198290,-36.822341 175.198099,-36.822406 175.197950,-36.822497 175.197896,-36.822587 175.197808,-36.822744 175.197748,-36.822849 175.197640,-36.822927 175.197588,-36.822994 175.197587,-36.823068 175.197618,-36.823162 175.197699,-36.823340 175.197858,-36.823274 175.197931,-36.823257 175.198070,-36.823270 175.198165,-36.823276 175.198269,-36.823269 175.198314,-36.823288 175.198315,-36.823321 175.198321,-36.823428 175.198425,-36.823515 175.198501,-36.823628 175.198478,-36.823725 175.198518,-36.823811 175.198601,-36.824055 175.198641,-36.824238 175.198735,-36.824416 175.198854,-36.824485 175.199032,-36.824540 175.199168,-36.824540 175.199366,-36.824478 175.199575,-36.824383 175.199727,-36.824301 175.199919,-36.824272 175.200085,-36.824310 175.200221,-36.824318 175.200286,-36.824281 175.200388,-36.824190 175.200522,-36.824010 175.200653,-36.823840 175.200662,-36.823715 175.200629,-36.823571 175.200594,-36.823439 175.200557,-36.823270 175.200503,-36.823136 175.200484,-36.823032 175.200494,-36.822936 175.200535,-36.822823 175.200544,-36.822686 175.200601,-36.822588 175.200652,-36.822488 175.200731,-36.822375 175.200798,-36.822295 175.200845,-36.822174 175.200803,-36.822129 175.200718,-36.822139 175.200642,-36.822155 175.200544,-36.822139 175.200483,-36.822102 175.200491,-36.822054 175.200518,-36.822013 175.200519,-36.821929</coordinates></LineString><LineString><tessellate>1</tessellate><coordinates>175.198501,-36.823628 175.198565,-36.823454 175.198683,-36.823266 175.198826,-36.823086 175.199023,-36.822902 175.199106,-36.822821 175.199344,-36.822741 175.199537,-36.822625 175.199623,-36.822550 175.199647,-36.822481 175.199640,-36.822369 175.199675,-36.822262 175.199756,-36.822123 175.199833,-36.822048 175.199992,-36.821954 175.200161,-36.821913 175.200269,-36.821911 175.200418,-36.821943 175.200472,-36.821945 175.200519,-36.821929 175.200565,-36.821870 175.200642,-36.821688 175.200711,-36.821455 175.200750,-36.821295 175.200741,-36.821191 175.200697,-36.821090 175.200642,-36.821045 175.200511,-36.820997 175.200250,-36.820933 175.200104,-36.820908 175.199841,-36.820887 175.199715,-36.820879 175.199644,-36.820848 175.199527,-36.820735</coordinates></LineString><LineString><tessellate>1</tessellate><coordinates>175.200150,-36.819082 175.200224,-36.819137 175.200239,-36.819228 175.200217,-36.819333 175.200232,-36.819401 175.200300,-36.819484 175.200398,-36.819685 175.200489,-36.819775 175.200635,-36.819925 175.200765,-36.820054 175.200843,-36.820116 175.200977,-36.820177 175.201099,-36.820226 175.201176,-36.820263 175.201203,-36.820328 175.201213,-36.820450 175.201229,-36.820579 175.201250,-36.820658 175.201259,-36.820754 175.201239,-36.820823 175.201153,-36.820883 175.201068,-36.820918 175.200899,-36.820982 175.200762,-36.821040 175.200697,-36.821090</coordinates></LineString><LineString><tessellate>1</tessellate><coordinates>175.198490,-36.818176 175.198541,-36.818209 175.198625,-36.818265 175.198762,-36.818280 175.198988,-36.818232 175.199132,-36.818204 175.199262,-36.818215 175.199441,-36.818267 175.199604,-36.818328 175.199748,-36.818394 175.199842,-36.818473 175.199891,-36.818528 175.199939,-36.818670 175.199979,-36.818763 175.200033,-36.818853 175.200098,-36.818926 175.200131,-36.818994 175.200150,-36.819082 175.200132,-36.819136 175.200049,-36.819196 175.199917,-36.819229 175.199772,-36.819260 175.199626,-36.819331 175.199533,-36.819389 175.199457,-36.819492</coordinates></LineString><LineString><tessellate>1</tessellate><coordinates>175.198725,-36.817578 175.198685,-36.817600 175.198674,-36.817604 175.198566,-36.817636 175.198485,-36.817660 175.198369,-36.817715 175.198317,-36.817767 175.198301,-36.817810 175.198297,-36.817823 175.198297,-36.817830 175.198298,-36.817859 175.198299,-36.817897 175.198331,-36.817952 175.198342,-36.817970 175.198400,-36.818051 175.198490,-36.818176</coordinates></LineString></MultiGeometry></Placemark></Document></kml>