<?xml version='1.0' encoding='utf-8'?>
<kml xmlns="http://www.opengis.net/kml/2.2"><Document><name>Stanmore Bay LINZ foot track 6</name><Style id="c"><LineStyle><color>ffff00ff</color><width>5</width></LineStyle></Style><Placemark><name>Stanmore Bay LINZ foot track 6</name><description>Sheet row 1129; LINZ t50_fid(s) 8521034</description><styleUrl>#c</styleUrl><MultiGeometry><LineString><tessellate>1</tessellate><coordinates>174.724610,-36.625294 174.724652,-36.625537 174.724677,-36.625640 174.724696,-36.625664 174.724735,-36.625868 174.724834,-36.626086 174.724959,-36.626309 174.725057,-36.626475</coordinates></LineString></MultiGeometry></Placemark></Document></kml>