<?xml version='1.0' encoding='utf-8'?>
<kml xmlns="http://www.opengis.net/kml/2.2"><Document><name>Māngere LINZ foot track 9</name><Style id="c"><LineStyle><color>ffff00ff</color><width>5</width></LineStyle></Style><Placemark><name>Māngere LINZ foot track 9</name><description>Sheet row 1241; LINZ t50_fid(s) 3584599</description><styleUrl>#c</styleUrl><MultiGeometry><LineString><tessellate>1</tessellate><coordinates>174.807005,-36.970511 174.806354,-36.970987 174.806022,-36.971069 174.805714,-36.971037 174.805307,-36.970996 174.804683,-36.970865</coordinates></LineString></MultiGeometry></Placemark></Document></kml>