<?xml version='1.0' encoding='utf-8'?>
<kml xmlns="http://www.opengis.net/kml/2.2"><Document><name>Silverdale LINZ foot track 2</name><Style id="c"><LineStyle><color>ffff00ff</color><width>5</width></LineStyle></Style><Placemark><name>Silverdale LINZ foot track 2</name><description>Sheet row 1052; LINZ t50_fid(s) 8493684</description><styleUrl>#c</styleUrl><MultiGeometry><LineString><tessellate>1</tessellate><coordinates>174.674714,-36.612064 174.674603,-36.611915 174.674573,-36.611859 174.674567,-36.611808 174.674607,-36.611766 174.674660,-36.611730 174.674942,-36.611655 174.675104,-36.611588 174.675294,-36.611457 174.675518,-36.611342 174.675602,-36.611258 174.675868,-36.610928 174.676023,-36.610735 174.676199,-36.610567 174.676307,-36.610481 174.676404,-36.610434 174.676537,-36.610383 174.676782,-36.610319 174.676852,-36.610274 174.676943,-36.610169 174.677016,-36.610072 174.677060,-36.609982 174.677074,-36.609917 174.677057,-36.609840 174.677042,-36.609714 174.676993,-36.609439 174.676997,-36.609332 174.677058,-36.609235 174.677143,-36.609139 174.677212,-36.609038 174.677292,-36.608908 174.677356,-36.608822 174.677545,-36.608597 174.677595,-36.608542 174.677620,-36.608485 174.677628,-36.608427 174.677613,-36.608370 174.677574,-36.608297 174.677503,-36.608209 174.677447,-36.608154 174.677400,-36.608129 174.677350,-36.608117 174.677029,-36.608118 174.676667,-36.608099</coordinates></LineString></MultiGeometry></Placemark></Document></kml>