<?xml version='1.0' encoding='utf-8'?>
<kml xmlns="http://www.opengis.net/kml/2.2"><Document><name>Mt Albert LINZ foot track 4</name><Style id="c"><LineStyle><color>ffff00ff</color><width>5</width></LineStyle></Style><Placemark><name>Mt Albert LINZ foot track 4</name><description>Sheet row 897; LINZ t50_fid(s) 3592924</description><styleUrl>#c</styleUrl><MultiGeometry><LineString><tessellate>1</tessellate><coordinates>174.712757,-36.895547 174.711731,-36.894860</coordinates></LineString></MultiGeometry></Placemark></Document></kml>