<?xml version='1.0' encoding='utf-8'?>
<kml xmlns="http://www.opengis.net/kml/2.2"><Document><name>Army Bay LINZ foot track 1</name><Style id="c"><LineStyle><color>ffff00ff</color><width>5</width></LineStyle></Style><Placemark><name>Army Bay LINZ foot track 1</name><description>Sheet row 1317; LINZ t50_fid(s) 6227492,6227493</description><styleUrl>#c</styleUrl><MultiGeometry><LineString><tessellate>1</tessellate><coordinates>174.813669,-36.606741 174.813796,-36.606728 174.813895,-36.606709 174.814048,-36.606663 174.814161,-36.606578 174.814252,-36.606463 174.814291,-36.606353 174.814327,-36.606079 174.814273,-36.605816 174.814257,-36.605695 174.814241,-36.605618 174.814233,-36.605546 174.814273,-36.605513 174.814389,-36.605500 174.814581,-36.605563 174.815116,-36.605654 174.815618,-36.605784 174.816106,-36.605920 174.816525,-36.606035 174.816979,-36.606182 174.817263,-36.606284 174.817480,-36.606352 174.817574,-36.606387 174.817719,-36.606475 174.817821,-36.606471 174.817968,-36.606425</coordinates></LineString><LineString><tessellate>1</tessellate><coordinates>174.817968,-36.606425 174.818057,-36.606364 174.818121,-36.606278 174.818222,-36.606260 174.818442,-36.606248 174.818688,-36.606227 174.818892,-36.606219 174.819111,-36.606210 174.819315,-36.606174 174.819533,-36.606176 174.819649,-36.606180 174.819713,-36.606132 174.819735,-36.606021 174.819739,-36.605941 174.819834,-36.605885 174.819966,-36.605977 174.820125,-36.606079 174.820380,-36.606163 174.820608,-36.606275 174.820821,-36.606354 174.821049,-36.606450 174.821247,-36.606461 174.821285,-36.606491</coordinates></LineString></MultiGeometry></Placemark></Document></kml>