<?xml version='1.0' encoding='utf-8'?>
<kml xmlns="http://www.opengis.net/kml/2.2"><Document><name>Mt Albert LINZ foot track 2</name><Style id="c"><LineStyle><color>ffff00ff</color><width>5</width></LineStyle></Style><Placemark><name>Mt Albert LINZ foot track 2</name><description>Sheet row 844; LINZ t50_fid(s) 3592929,3584647,3592928</description><styleUrl>#c</styleUrl><MultiGeometry><LineString><tessellate>1</tessellate><coordinates>174.716281,-36.896970 174.716320,-36.896910 174.716316,-36.896596 174.716039,-36.896640 174.715196,-36.896786</coordinates></LineString><LineString><tessellate>1</tessellate><coordinates>174.715196,-36.896786 174.714841,-36.896541 174.714577,-36.896309 174.714633,-36.895974 174.714642,-36.895923 174.714567,-36.895482</coordinates></LineString><LineString><tessellate>1</tessellate><coordinates>174.715196,-36.896786 174.714485,-36.897190 174.714394,-36.897268 174.714310,-36.897359 174.714155,-36.897551 174.714168,-36.897691 174.714066,-36.898106</coordinates></LineString></MultiGeometry></Placemark></Document></kml>