<?xml version='1.0' encoding='utf-8'?>
<kml xmlns="http://www.opengis.net/kml/2.2"><Document><name>Papakura LINZ foot track 5</name><Style id="c"><LineStyle><color>ffff00ff</color><width>5</width></LineStyle></Style><Placemark><name>Papakura LINZ foot track 5</name><description>Sheet row 1265; LINZ t50_fid(s) 3584688</description><styleUrl>#c</styleUrl><MultiGeometry><LineString><tessellate>1</tessellate><coordinates>174.938026,-37.069445 174.938027,-37.069468 174.938049,-37.070143 174.938225,-37.070634 174.938230,-37.070649</coordinates></LineString></MultiGeometry></Placemark></Document></kml>