<?xml version='1.0' encoding='utf-8'?>
<kml xmlns="http://www.opengis.net/kml/2.2"><Document><name>Greenhithe LINZ foot track 6</name><Style id="c"><LineStyle><color>ffff00ff</color><width>5</width></LineStyle></Style><Placemark><name>Greenhithe LINZ foot track 6</name><description>Sheet row 1144; LINZ t50_fid(s) 8467142</description><styleUrl>#c</styleUrl><MultiGeometry><LineString><tessellate>1</tessellate><coordinates>174.685055,-36.765749 174.685273,-36.765751 174.685575,-36.765780 174.685638,-36.765806 174.685685,-36.765849 174.685709,-36.765894 174.685729,-36.765963 174.685731,-36.766034 174.685726,-36.766079 174.685711,-36.766161 174.685690,-36.766465</coordinates></LineString></MultiGeometry></Placemark></Document></kml>