<?xml version='1.0' encoding='utf-8'?>
<kml xmlns="http://www.opengis.net/kml/2.2"><Document><name>Whakanewha / central Waiheke LINZ foot track 11</name><Style id="c"><LineStyle><color>ffff00ff</color><width>5</width></LineStyle></Style><Placemark><name>Whakanewha / central Waiheke LINZ foot track 11</name><description>Sheet row 1471; LINZ t50_fid(s) 7879452</description><styleUrl>#c</styleUrl><MultiGeometry><LineString><tessellate>1</tessellate><coordinates>175.067798,-36.812833 175.067627,-36.812863 175.067484,-36.812884 175.067426,-36.812864 175.067344,-36.812784 175.067261,-36.812791 175.067098,-36.812831 175.066895,-36.812958 175.066844,-36.812997 175.066768,-36.813055 175.066720,-36.813073 175.066626,-36.813055 175.066513,-36.813062 175.066369,-36.813157 175.066208,-36.813296 175.066109,-36.813416 175.066019,-36.813490 175.065892,-36.813518 175.065963,-36.813413 175.065974,-36.813303 175.065974,-36.813219 175.066001,-36.813119 175.065961,-36.813087 175.065875,-36.813008 175.065739,-36.813080 175.065675,-36.813129 175.065537,-36.813154 175.065497,-36.813125 175.065259,-36.813164 175.065148,-36.813169 175.065059,-36.813162 175.065038,-36.813147 175.064943,-36.813167 175.064891,-36.813192 175.064887,-36.813221 175.064791,-36.813199 175.064713,-36.813162 175.064628,-36.813175 175.064507,-36.813124 175.064419,-36.813076 175.064336,-36.813017 175.064243,-36.812948 175.064190,-36.812915 175.064124,-36.812886 175.064044,-36.812859 175.063910,-36.812784 175.063829,-36.812745 175.063717,-36.812708 175.063552,-36.812653 175.063366,-36.812588 175.063293,-36.812559 175.063148,-36.812515 175.063083,-36.812491 175.062959,-36.812438 175.062870,-36.812361 175.062828,-36.812338 175.062752,-36.812298 175.062652,-36.812256 175.062542,-36.812255 175.062447,-36.812265 175.062279,-36.812330 175.062138,-36.812387 175.061977,-36.812422 175.061934,-36.812496 175.061895,-36.812563 175.061838,-36.812587 175.061652,-36.812657 175.061621,-36.812677 175.061590,-36.812701 175.061443,-36.812771 175.061338,-36.812789 175.061195,-36.812777 175.061015,-36.812847 175.060927,-36.812910 175.060862,-36.812957 175.060792,-36.812971 175.060722,-36.813034 175.060575,-36.813105 175.060429,-36.813167 175.060391,-36.813185 175.060340,-36.813157 175.060264,-36.813219 175.060206,-36.813208 175.059983,-36.813270 175.059876,-36.813324 175.059796,-36.813388 175.059752,-36.813457 175.059720,-36.813512 175.059654,-36.813604 175.059587,-36.813645 175.059504,-36.813674 175.059461,-36.813555 175.059434,-36.813499 175.059372,-36.813464 175.059344,-36.813420 175.059314,-36.813369 175.059247,-36.813346 175.059193,-36.813312 175.059032,-36.813216 175.058851,-36.813091 175.058707,-36.812862 175.058667,-36.812752 175.058643,-36.812686 175.058683,-36.812582 175.058672,-36.812380 175.058658,-36.812255 175.058639,-36.812194 175.058648,-36.811958 175.058675,-36.811780 175.058618,-36.811645 175.058540,-36.811537 175.058471,-36.811481 175.058436,-36.811512 175.058376,-36.811476 175.058283,-36.811444 175.058229,-36.811391 175.058167,-36.811357 175.058163,-36.811280 175.058077,-36.811291 175.058028,-36.811248 175.057974,-36.811244 175.057905,-36.811253 175.057866,-36.811215 175.057808,-36.811211 175.057744,-36.811242 175.057649,-36.811201 175.057644,-36.811126 175.057563,-36.811141 175.057517,-36.811100 175.057452,-36.811123</coordinates></LineString></MultiGeometry></Placemark></Document></kml>