<?xml version='1.0' encoding='utf-8'?>
<kml xmlns="http://www.opengis.net/kml/2.2"><Document><name>Matakana / Omaha LINZ foot track 1</name><Style id="c"><LineStyle><color>ffff00ff</color><width>5</width></LineStyle></Style><Placemark><name>Matakana / Omaha LINZ foot track 1</name><description>Sheet row 1420; LINZ t50_fid(s) 3574139,3574142,3584948</description><styleUrl>#c</styleUrl><MultiGeometry><LineString><tessellate>1</tessellate><coordinates>174.864062,-36.364589 174.863843,-36.364513 174.863493,-36.364579 174.863216,-36.364595 174.863044,-36.364611 174.862828,-36.364683 174.862740,-36.364689 174.862696,-36.364669 174.862660,-36.364637 174.862608,-36.364522 174.862470,-36.364349 174.862375,-36.363937 174.862269,-36.363634 174.862185,-36.363485 174.861993,-36.363264</coordinates></LineString><LineString><tessellate>1</tessellate><coordinates>174.862018,-36.366897 174.862078,-36.366528 174.862383,-36.366130 174.862693,-36.365901 174.863178,-36.365505 174.863556,-36.365372 174.863832,-36.365289 174.864012,-36.365008 174.864143,-36.364818 174.864071,-36.364649 174.864062,-36.364589</coordinates></LineString><LineString><tessellate>1</tessellate><coordinates>174.858500,-36.369291 174.859112,-36.369074 174.859433,-36.368759 174.859823,-36.368503 174.860257,-36.368272 174.860601,-36.368127 174.860758,-36.367918 174.861185,-36.367378 174.861686,-36.367071 174.862018,-36.366897</coordinates></LineString></MultiGeometry></Placemark></Document></kml>