<?xml version='1.0' encoding='utf-8'?>
<kml xmlns="http://www.opengis.net/kml/2.2"><Document><name>Herne Bay LINZ foot track 1</name><Style id="c"><LineStyle><color>ffff00ff</color><width>5</width></LineStyle></Style><Placemark><name>Herne Bay LINZ foot track 1</name><description>Sheet row 822; LINZ t50_fid(s) 8466996,3593151,3593700,8520930,3573867,8520998,8520999,3554670</description><styleUrl>#c</styleUrl><MultiGeometry><LineString><tessellate>1</tessellate><coordinates>174.729630,-36.851342 174.729926,-36.851512 174.730201,-36.851656 174.730262,-36.851728 174.730349,-36.851919 174.730433,-36.852097 174.730552,-36.852277 174.730650,-36.852426 174.730794,-36.852491 174.730937,-36.852538 174.731081,-36.852612 174.731183,-36.852678 174.731328,-36.852719 174.731397,-36.852776 174.731457,-36.852851 174.731478,-36.852909 174.731568,-36.853024 174.731621,-36.853093 174.731701,-36.853168</coordinates></LineString><LineString><tessellate>1</tessellate><coordinates>174.731701,-36.853168 174.731801,-36.853267 174.732070,-36.853579 174.732376,-36.854084 174.732555,-36.854252</coordinates></LineString><LineString><tessellate>1</tessellate><coordinates>174.732514,-36.852880 174.732120,-36.852985 174.732055,-36.852928 174.731972,-36.852797 174.731870,-36.852760 174.731795,-36.852779 174.731750,-36.852881 174.731702,-36.852946 174.731689,-36.853025 174.731701,-36.853168</coordinates></LineString><LineString><tessellate>1</tessellate><coordinates>174.731698,-36.850520 174.731576,-36.850668 174.731458,-36.850759 174.731352,-36.850803 174.731271,-36.850866 174.731164,-36.850921 174.731062,-36.850925 174.730989,-36.850947 174.730852,-36.851024 174.730670,-36.851143 174.730602,-36.851155 174.730293,-36.851059 174.730229,-36.851085 174.730163,-36.851074 174.730094,-36.851043</coordinates></LineString><LineString><tessellate>1</tessellate><coordinates>174.726321,-36.853001 174.726407,-36.852865 174.726493,-36.852768 174.726630,-36.852624 174.726870,-36.852430 174.726929,-36.852271 174.726993,-36.852176 174.727079,-36.852079 174.727205,-36.851995 174.727369,-36.851940 174.727481,-36.851836 174.727562,-36.851761 174.727896,-36.851680 174.728250,-36.851705 174.728695,-36.851987 174.728999,-36.852188 174.729071,-36.852208 174.729127,-36.852196 174.729166,-36.852168 174.729366,-36.851934 174.729420,-36.851802 174.729537,-36.851780 174.729579,-36.851763 174.729629,-36.851708 174.729648,-36.851648 174.729658,-36.851453 174.729630,-36.851342</coordinates></LineString><LineString><tessellate>1</tessellate><coordinates>174.729630,-36.851342 174.729720,-36.851176 174.729845,-36.850973 174.730094,-36.851043</coordinates></LineString><LineString><tessellate>1</tessellate><coordinates>174.730094,-36.851043 174.730191,-36.850845 174.730129,-36.849911</coordinates></LineString><LineString><tessellate>1</tessellate><coordinates>174.725174,-36.852463 174.725221,-36.852428 174.725218,-36.852395 174.725169,-36.852349 174.725085,-36.852269 174.725020,-36.852242 174.724963,-36.852236 174.724737,-36.852270 174.724628,-36.852231 174.724256,-36.851962 174.724160,-36.851875 174.724114,-36.851805 174.724107,-36.851729 174.724141,-36.851670 174.724326,-36.851544 174.724514,-36.851354 174.724731,-36.851195 174.724904,-36.851147 174.725144,-36.851082 174.725411,-36.851045 174.725931,-36.851120 174.726254,-36.851052 174.726601,-36.850971 174.726780,-36.850932 174.726922,-36.850936 174.727083,-36.850991 174.727231,-36.851008 174.727355,-36.850986 174.727769,-36.850839 174.727904,-36.850823 174.728043,-36.850862 174.728155,-36.850887 174.728546,-36.850883 174.728698,-36.850896 174.728767,-36.850908 174.728823,-36.850930 174.728894,-36.851052 174.729104,-36.851283 174.729177,-36.851324 174.729235,-36.851351 174.729351,-36.851356 174.729478,-36.851387 174.729560,-36.851384 174.729593,-36.851379 174.729630,-36.851342</coordinates></LineString></MultiGeometry></Placemark></Document></kml>