<?xml version='1.0' encoding='utf-8'?>
<kml xmlns="http://www.opengis.net/kml/2.2"><Document><name>Hunua LINZ foot track 4</name><Style id="c"><LineStyle><color>ffff00ff</color><width>5</width></LineStyle></Style><Placemark><name>Hunua LINZ foot track 4</name><description>Sheet row 1418; LINZ t50_fid(s) 3584489</description><styleUrl>#c</styleUrl><MultiGeometry><LineString><tessellate>1</tessellate><coordinates>175.127651,-37.101486 175.127510,-37.101587 175.127283,-37.101580 175.126967,-37.101516 175.126771,-37.101366 175.126607,-37.101274 175.126198,-37.101324 175.125940,-37.101444 175.125767,-37.101674 175.125475,-37.101829 175.125257,-37.101938 175.125054,-37.102064</coordinates></LineString></MultiGeometry></Placemark></Document></kml>