<?xml version='1.0' encoding='utf-8'?>
<kml xmlns="http://www.opengis.net/kml/2.2"><Document><name>Meadowbank LINZ foot track 3</name><Style id="c"><LineStyle><color>ffff00ff</color><width>5</width></LineStyle></Style><Placemark><name>Meadowbank LINZ foot track 3</name><description>Sheet row 838; LINZ t50_fid(s) 3554631</description><styleUrl>#c</styleUrl><MultiGeometry><LineString><tessellate>1</tessellate><coordinates>174.845681,-36.869306 174.845853,-36.869271 174.845989,-36.869304 174.846048,-36.869412 174.846066,-36.869526 174.846098,-36.869587 174.846302,-36.869584 174.846525,-36.869597 174.846710,-36.869555 174.847016,-36.869514 174.847219,-36.869492 174.847583,-36.869536 174.847737,-36.869589 174.848317,-36.870111 174.849203,-36.870835 174.849460,-36.870999 174.850218,-36.871484 174.850804,-36.871749 174.851489,-36.872188 174.851878,-36.872317 174.851950,-36.872439 174.852227,-36.872550 174.852537,-36.872665 174.852832,-36.872776 174.853125,-36.872789</coordinates></LineString></MultiGeometry></Placemark></Document></kml>