<?xml version='1.0' encoding='utf-8'?>
<kml xmlns="http://www.opengis.net/kml/2.2"><Document><name>Glenfield LINZ foot track 5</name><Style id="c"><LineStyle><color>ffff00ff</color><width>5</width></LineStyle></Style><Placemark><name>Glenfield LINZ foot track 5</name><description>Sheet row 1088; LINZ t50_fid(s) 3584741</description><styleUrl>#c</styleUrl><MultiGeometry><LineString><tessellate>1</tessellate><coordinates>174.725665,-36.777644 174.726232,-36.777427 174.727099,-36.777276 174.727514,-36.776773</coordinates></LineString></MultiGeometry></Placemark></Document></kml>