<?xml version='1.0' encoding='utf-8'?>
<kml xmlns="http://www.opengis.net/kml/2.2"><Document><name>Waitākere Ranges LINZ foot track 1</name><Style id="c"><LineStyle><color>ffff00ff</color><width>5</width></LineStyle></Style><Placemark><name>Waitākere Ranges LINZ foot track 1</name><description>Sheet row 1341; LINZ t50_fid(s) 3592861,3592866,3592864,3573816,3573817</description><styleUrl>#c</styleUrl><MultiGeometry><LineString><tessellate>1</tessellate><coordinates>174.642166,-36.927615 174.642249,-36.927582 174.642795,-36.927505 174.643096,-36.927586 174.643479,-36.927495</coordinates></LineString><LineString><tessellate>1</tessellate><coordinates>174.638919,-36.926332 174.639475,-36.926775</coordinates></LineString><LineString><tessellate>1</tessellate><coordinates>174.639475,-36.926775 174.640020,-36.926307</coordinates></LineString><LineString><tessellate>1</tessellate><coordinates>174.642166,-36.927615 174.642193,-36.928060 174.642026,-36.928765 174.641503,-36.929421 174.641157,-36.929913 174.641077,-36.930250 174.641047,-36.930381 174.640973,-36.930630 174.640826,-36.930741 174.640715,-36.930823 174.640481,-36.931142 174.640372,-36.931550</coordinates></LineString><LineString><tessellate>1</tessellate><coordinates>174.639475,-36.926775 174.639445,-36.927471 174.639781,-36.927435 174.640017,-36.927471 174.640146,-36.927602 174.640713,-36.927793 174.640919,-36.927755 174.641750,-36.927646 174.642166,-36.927615</coordinates></LineString></MultiGeometry></Placemark></Document></kml>