<?xml version='1.0' encoding='utf-8'?>
<kml xmlns="http://www.opengis.net/kml/2.2"><Document><name>Hillsborough LINZ foot track 4</name><Style id="c"><LineStyle><color>ffff00ff</color><width>5</width></LineStyle></Style><Placemark><name>Hillsborough LINZ foot track 4</name><description>Sheet row 849; LINZ t50_fid(s) 8520966,8520967,8520968</description><styleUrl>#c</styleUrl><MultiGeometry><LineString><tessellate>1</tessellate><coordinates>174.741117,-36.925471 174.741263,-36.925570 174.741463,-36.925788 174.742110,-36.925373 174.742133,-36.925228 174.742258,-36.925115 174.742383,-36.925037 174.742484,-36.924751</coordinates></LineString><LineString><tessellate>1</tessellate><coordinates>174.740364,-36.925233 174.740553,-36.925303 174.740819,-36.925392 174.740982,-36.925450 174.741025,-36.925448 174.741117,-36.925471</coordinates></LineString><LineString><tessellate>1</tessellate><coordinates>174.741117,-36.925471 174.741164,-36.925400 174.741314,-36.925220 174.741377,-36.925163 174.741450,-36.925136 174.741798,-36.925024 174.741927,-36.924981 174.742134,-36.924636</coordinates></LineString></MultiGeometry></Placemark></Document></kml>