<?xml version='1.0' encoding='utf-8'?>
<kml xmlns="http://www.opengis.net/kml/2.2"><Document><name>Unsworth Heights LINZ foot track 3</name><Style id="c"><LineStyle><color>ffff00ff</color><width>5</width></LineStyle></Style><Placemark><name>Unsworth Heights LINZ foot track 3</name><description>Sheet row 1042; LINZ t50_fid(s) 8520759</description><styleUrl>#c</styleUrl><MultiGeometry><LineString><tessellate>1</tessellate><coordinates>174.705395,-36.746823 174.705811,-36.746868 174.706465,-36.746777 174.706570,-36.746727 174.707533,-36.746597 174.707647,-36.746585 174.707694,-36.746584 174.707745,-36.746600 174.707793,-36.746635 174.707840,-36.746716 174.708064,-36.747080 174.708090,-36.747114 174.708141,-36.747133 174.708201,-36.747130 174.708354,-36.747104 174.708472,-36.747093 174.708540,-36.747098 174.708596,-36.747109 174.708637,-36.747118 174.708758,-36.747148 174.708869,-36.747143 174.708959,-36.747122 174.709049,-36.747083 174.709108,-36.747043 174.709164,-36.746992 174.709189,-36.746943 174.709203,-36.746897 174.709213,-36.746823 174.709227,-36.746797 174.709281,-36.746775 174.709315,-36.746770 174.709359,-36.746774 174.709361,-36.746845 174.709382,-36.746910 174.709431,-36.746995 174.709503,-36.747089 174.709532,-36.747116 174.709573,-36.747117 174.709793,-36.747083 174.709880,-36.747080 174.710104,-36.747082 174.710297,-36.747049 174.710405,-36.747002 174.710363,-36.746798 174.709970,-36.745284 174.709970,-36.745279 174.709974,-36.745246 174.710012,-36.745208 174.710068,-36.745183 174.711171,-36.745011 174.711203,-36.744986 174.711295,-36.744853 174.711426,-36.744831</coordinates></LineString></MultiGeometry></Placemark></Document></kml>