<?xml version='1.0' encoding='utf-8'?>
<kml xmlns="http://www.opengis.net/kml/2.2"><Document><name>Hūnua / south-east Auckland LINZ foot track 2</name><Style id="c"><LineStyle><color>ffff00ff</color><width>5</width></LineStyle></Style><Placemark><name>Hūnua / south-east Auckland LINZ foot track 2</name><description>Sheet row 1457; LINZ t50_fid(s) 3517351</description><styleUrl>#c</styleUrl><MultiGeometry><LineString><tessellate>1</tessellate><coordinates>175.249987,-37.029778 175.250578,-37.029816 175.250733,-37.029802 175.251110,-37.029685 175.251533,-37.029525 175.251736,-37.029505 175.251944,-37.029409 175.252183,-37.029405 175.252687,-37.029080 175.253082,-37.028945 175.253587,-37.028885 175.253993,-37.028758 175.254716,-37.028708 175.255077,-37.028614 175.255615,-37.028494 175.256001,-37.028450 175.256430,-37.028502 175.256684,-37.028602 175.256922,-37.028561 175.257159,-37.028474 175.257441,-37.028396 175.257490,-37.028317 175.257430,-37.028213 175.257678,-37.028122 175.257795,-37.028010 175.257958,-37.027956 175.258294,-37.027955 175.258458,-37.027892 175.258514,-37.027681 175.258659,-37.027582 175.258971,-37.027526 175.259178,-37.027390 175.259502,-37.027379 175.259688,-37.027288 175.259999,-37.027223 175.260406,-37.027109 175.261047,-37.027075 175.261353,-37.026737 175.261874,-37.026413 175.262153,-37.026151 175.262285,-37.025913 175.262381,-37.025749 175.262542,-37.025628 175.262749,-37.025551 175.262919,-37.025581 175.263090,-37.025680 175.263369,-37.025668 175.263563,-37.025552 175.263672,-37.025376 175.263866,-37.025247 175.264135,-37.025182 175.264186,-37.024967 175.264336,-37.024750 175.264456,-37.024649 175.264490,-37.024518 175.264621,-37.024093 175.265013,-37.023715 175.265066,-37.023555 175.265092,-37.023529 175.265099,-37.023222 175.265065,-37.023033 175.264975,-37.022871 175.265071,-37.022382 175.265137,-37.022268 175.265515,-37.022190 175.265765,-37.022117 175.266069,-37.021919 175.266269,-37.021728 175.266802,-37.021103 175.266909,-37.020897 175.267029,-37.020369 175.267197,-37.020179 175.267459,-37.020026 175.268636,-37.019566 175.268905,-37.019376 175.269019,-37.019213 175.268960,-37.018687 175.268927,-37.018368 175.268810,-37.018140 175.268793,-37.017796 175.268875,-37.017687 175.269184,-37.017448 175.269226,-37.017270 175.269254,-37.017084 175.269499,-37.017093 175.269847,-37.016987 175.270035,-37.016886 175.270340,-37.016781 175.270547,-37.016637 175.270625,-37.016461 175.270701,-37.016081 175.270658,-37.015765 175.270657,-37.015513 175.270591,-37.015324 175.270604,-37.015115 175.270626,-37.014681 175.270767,-37.014472 175.270977,-37.014323 175.271108,-37.014127 175.271113,-37.013971 175.270978,-37.013618 175.270959,-37.013461 175.271010,-37.013302 175.271220,-37.012882 175.271185,-37.012664 175.271142,-37.012346 175.271130,-37.012145 175.271227,-37.011912 175.271528,-37.011495 175.271632,-37.011234 175.271670,-37.011076 175.271678,-37.010917 175.271603,-37.010498 175.270907,-37.010195 175.270633,-37.009974 175.270586,-37.009532 175.270306,-37.009220 175.269967,-37.008861 175.269518,-37.008411 175.269388,-37.008408 175.269248,-37.008335 175.269091,-37.008126 175.268946,-37.008081 175.268813,-37.008000 175.268580,-37.007932 175.268431,-37.007862 175.268313,-37.007733 175.268289,-37.007602 175.268226,-37.007496 175.268069,-37.007397 175.267899,-37.007327 175.267664,-37.007294 175.267615,-37.007225 175.267615,-37.007131 175.267666,-37.007026 175.267776,-37.006911 175.267889,-37.006882 175.267977,-37.006904 175.268164,-37.006987 175.268342,-37.007002 175.268581,-37.006954 175.268643,-37.006889 175.268663,-37.006773 175.268714,-37.006694 175.268941,-37.006569 175.268993,-37.006495 175.269003,-37.006383 175.268966,-37.006257 175.269012,-37.006135 175.269193,-37.005935 175.269351,-37.005637 175.269300,-37.005504 175.269199,-37.005384 175.269209,-37.005203 175.269360,-37.004609 175.269221,-37.003601 175.269106,-37.002846 175.269045,-37.002658 175.268511,-37.002108</coordinates></LineString></MultiGeometry></Placemark></Document></kml>