<?xml version='1.0' encoding='utf-8'?>
<kml xmlns="http://www.opengis.net/kml/2.2"><Document><name>Waiwhiu LINZ foot track 1</name><Style id="c"><LineStyle><color>ffff00ff</color><width>5</width></LineStyle></Style><Placemark><name>Waiwhiu LINZ foot track 1</name><description>Sheet row 1353; LINZ t50_fid(s) 3553685</description><styleUrl>#c</styleUrl><MultiGeometry><LineString><tessellate>1</tessellate><coordinates>174.597081,-36.343595 174.597190,-36.343707 174.597163,-36.344116 174.597384,-36.344337 174.597840,-36.344792 174.598127,-36.345039 174.598302,-36.345504 174.598688,-36.345679 174.599006,-36.346072 174.599149,-36.346240 174.599380,-36.346600 174.599777,-36.347869 174.599937,-36.348132 174.600320,-36.348322 174.600758,-36.348499 174.601064,-36.348670 174.601279,-36.348947 174.601464,-36.349545 174.601431,-36.350048 174.601544,-36.350262 174.601700,-36.350476 174.601708,-36.350861 174.601771,-36.351116 174.601967,-36.351557 174.601938,-36.351902 174.601845,-36.352276 174.601527,-36.352590 174.601549,-36.352963 174.601382,-36.353292 174.601402,-36.353560 174.601551,-36.353791 174.601662,-36.354286 174.601654,-36.354595 174.601773,-36.354743 174.601965,-36.354844</coordinates></LineString></MultiGeometry></Placemark></Document></kml>