<?xml version='1.0' encoding='utf-8'?>
<kml xmlns="http://www.opengis.net/kml/2.2"><Document><name>Takanini LINZ foot track 4</name><Style id="c"><LineStyle><color>ffff00ff</color><width>5</width></LineStyle></Style><Placemark><name>Takanini LINZ foot track 4</name><description>Sheet row 1296; LINZ t50_fid(s) 3584694</description><styleUrl>#c</styleUrl><MultiGeometry><LineString><tessellate>1</tessellate><coordinates>174.911396,-37.039988 174.911339,-37.040226 174.911340,-37.040603 174.911507,-37.040978</coordinates></LineString></MultiGeometry></Placemark></Document></kml>