<?xml version='1.0' encoding='utf-8'?>
<kml xmlns="http://www.opengis.net/kml/2.2"><Document><name>Te Henga / Waitākere LINZ foot track 3</name><Style id="c"><LineStyle><color>ffff00ff</color><width>5</width></LineStyle></Style><Placemark><name>Te Henga / Waitākere LINZ foot track 3</name><description>Sheet row 1434; LINZ t50_fid(s) 3553529</description><styleUrl>#c</styleUrl><MultiGeometry><LineString><tessellate>1</tessellate><coordinates>174.470096,-36.892653 174.470082,-36.892738 174.470033,-36.892777 174.469962,-36.892760 174.469462,-36.892345 174.469098,-36.891660 174.469037,-36.891192 174.468839,-36.890974 174.468682,-36.890909 174.468199,-36.890828 174.467730,-36.890670 174.467295,-36.890370 174.467036,-36.890125 174.466945,-36.890078 174.466618,-36.890029 174.466407,-36.890057 174.465802,-36.890006 174.465379,-36.889908 174.465146,-36.889757 174.465104,-36.889604 174.465112,-36.889337 174.465058,-36.889194 174.464592,-36.888891 174.464500,-36.888769 174.464407,-36.888545 174.464362,-36.888237 174.464475,-36.888102</coordinates></LineString></MultiGeometry></Placemark></Document></kml>