<?xml version='1.0' encoding='utf-8'?>
<kml xmlns="http://www.opengis.net/kml/2.2"><Document><name>Red Beach LINZ foot track 4</name><Style id="c"><LineStyle><color>ffff00ff</color><width>5</width></LineStyle></Style><Placemark><name>Red Beach LINZ foot track 4</name><description>Sheet row 1067; LINZ t50_fid(s) 3593385,3584881,3593384</description><styleUrl>#c</styleUrl><MultiGeometry><LineString><tessellate>1</tessellate><coordinates>174.722133,-36.617940 174.722194,-36.617650 174.721931,-36.617370 174.721661,-36.617140 174.721584,-36.617036</coordinates></LineString><LineString><tessellate>1</tessellate><coordinates>174.721796,-36.619105 174.721988,-36.618682 174.722133,-36.617940</coordinates></LineString><LineString><tessellate>1</tessellate><coordinates>174.722818,-36.617972 174.722668,-36.617976 174.722133,-36.617940</coordinates></LineString></MultiGeometry></Placemark></Document></kml>