<?xml version='1.0' encoding='utf-8'?>
<kml xmlns="http://www.opengis.net/kml/2.2"><Document><name>Bayview LINZ foot track 2</name><Style id="c"><LineStyle><color>ffff00ff</color><width>5</width></LineStyle></Style><Placemark><name>Bayview LINZ foot track 2</name><description>Sheet row 1098; LINZ t50_fid(s) 8467143</description><styleUrl>#c</styleUrl><MultiGeometry><LineString><tessellate>1</tessellate><coordinates>174.716531,-36.774600 174.716500,-36.774326 174.716383,-36.773439 174.716356,-36.773366 174.716320,-36.773330 174.716214,-36.773276 174.716134,-36.773234 174.716048,-36.773215 174.716003,-36.773231</coordinates></LineString></MultiGeometry></Placemark></Document></kml>