<?xml version='1.0' encoding='utf-8'?>
<kml xmlns="http://www.opengis.net/kml/2.2"><Document><name>Parau / Huia LINZ foot track 4</name><Style id="c"><LineStyle><color>ffff00ff</color><width>5</width></LineStyle></Style><Placemark><name>Parau / Huia LINZ foot track 4</name><description>Sheet row 1185; LINZ t50_fid(s) 3584265</description><styleUrl>#c</styleUrl><MultiGeometry><LineString><tessellate>1</tessellate><coordinates>174.633550,-36.971116 174.633210,-36.970789 174.633088,-36.970664 174.632354,-36.970075</coordinates></LineString></MultiGeometry></Placemark></Document></kml>