<?xml version='1.0' encoding='utf-8'?>
<kml xmlns="http://www.opengis.net/kml/2.2"><Document><name>Glendowie LINZ foot track 1</name><Style id="c"><LineStyle><color>ffff00ff</color><width>5</width></LineStyle></Style><Placemark><name>Glendowie LINZ foot track 1</name><description>Sheet row 821; LINZ t50_fid(s) 3554630,3584677,6082545,3593054,3554629</description><styleUrl>#c</styleUrl><MultiGeometry><LineString><tessellate>1</tessellate><coordinates>174.868269,-36.879828 174.867974,-36.880617 174.867712,-36.880877 174.867493,-36.880954 174.867321,-36.880959 174.867075,-36.880919 174.866909,-36.880922 174.866791,-36.880893 174.866598,-36.880774 174.866371,-36.880745 174.865849,-36.880772 174.865711,-36.880801 174.865432,-36.880866 174.864289,-36.880696 174.864062,-36.880707 174.863239,-36.880630 174.862676,-36.880565 174.862306,-36.880608 174.860969,-36.880475 174.859770,-36.880283 174.859701,-36.880230 174.859693,-36.880168</coordinates></LineString><LineString><tessellate>1</tessellate><coordinates>174.859800,-36.878394 174.859530,-36.879413 174.859542,-36.879527 174.859542,-36.879667 174.859437,-36.879746 174.859502,-36.879860 174.859651,-36.880039</coordinates></LineString><LineString><tessellate>1</tessellate><coordinates>174.859651,-36.880039 174.859693,-36.880168</coordinates></LineString><LineString><tessellate>1</tessellate><coordinates>174.859693,-36.880168 174.859589,-36.880286 174.859444,-36.880789</coordinates></LineString><LineString><tessellate>1</tessellate><coordinates>174.859651,-36.880039 174.858765,-36.879749 174.858595,-36.879661 174.858423,-36.879625 174.858231,-36.879542 174.857930,-36.879399 174.857694,-36.879254 174.857718,-36.879093 174.857712,-36.878821 174.857802,-36.878525 174.857941,-36.878313 174.858101,-36.878103 174.858175,-36.878004 174.858337,-36.877777 174.858430,-36.877593 174.858390,-36.877185 174.858276,-36.876964 174.858078,-36.876479 174.857836,-36.876232 174.857303,-36.876093 174.857295,-36.876091 174.857245,-36.875863 174.857062,-36.875725 174.856701,-36.875554 174.856590,-36.875369 174.856511,-36.875015 174.856418,-36.874804 174.856304,-36.874720 174.855820,-36.874492 174.855384,-36.874536 174.855147,-36.874514 174.854907,-36.874417 174.854732,-36.874266 174.854670,-36.874189 174.854666,-36.874036 174.854741,-36.873889 174.854744,-36.873799 174.854550,-36.873683 174.854350,-36.873664 174.854207,-36.873714 174.854067,-36.873668 174.853911,-36.873372 174.853614,-36.873216 174.853308,-36.873208</coordinates></LineString></MultiGeometry></Placemark></Document></kml>