<?xml version='1.0' encoding='utf-8'?>
<kml xmlns="http://www.opengis.net/kml/2.2"><Document><name>Glenfield LINZ foot track 10</name><Style id="c"><LineStyle><color>ffff00ff</color><width>5</width></LineStyle></Style><Placemark><name>Glenfield LINZ foot track 10</name><description>Sheet row 1132; LINZ t50_fid(s) 3593187</description><styleUrl>#c</styleUrl><MultiGeometry><LineString><tessellate>1</tessellate><coordinates>174.727861,-36.786650 174.727439,-36.786962 174.727372,-36.787107 174.726877,-36.787266 174.726664,-36.787226</coordinates></LineString></MultiGeometry></Placemark></Document></kml>