<?xml version='1.0' encoding='utf-8'?>
<kml xmlns="http://www.opengis.net/kml/2.2"><Document><name>Waterview LINZ foot track 1</name><Style id="c"><LineStyle><color>ffff00ff</color><width>5</width></LineStyle></Style><Placemark><name>Waterview LINZ foot track 1</name><description>Sheet row 818; LINZ t50_fid(s) 8465982,8466364</description><styleUrl>#c</styleUrl><MultiGeometry><LineString><tessellate>1</tessellate><coordinates>174.705063,-36.874016 174.705276,-36.874278 174.705495,-36.874634 174.705466,-36.875031 174.705527,-36.875380 174.705565,-36.875647 174.705413,-36.876029 174.705154,-36.876474 174.705016,-36.876882 174.704945,-36.877729 174.704509,-36.878167 174.704253,-36.878250 174.703990,-36.878452 174.703983,-36.878601 174.704174,-36.878846 174.704240,-36.879044 174.704225,-36.879276 174.704146,-36.879426 174.704070,-36.879708 174.704055,-36.879973 174.703987,-36.880165 174.703724,-36.880383 174.703531,-36.880494 174.703412,-36.880694 174.703375,-36.880901 174.703422,-36.881132 174.703406,-36.881356 174.703308,-36.881572 174.703488,-36.881793 174.703523,-36.881983 174.703435,-36.882431 174.703332,-36.882810 174.703211,-36.883145 174.703163,-36.883403 174.703179,-36.883651 174.703132,-36.883831 174.703061,-36.883985 174.703062,-36.884124 174.703057,-36.884251 174.702978,-36.884416 174.702847,-36.884571 174.702813,-36.884646 174.702800,-36.884773 174.702835,-36.884893 174.702821,-36.884999 174.702788,-36.885066 174.702741,-36.885104 174.702606,-36.885152 174.702527,-36.885218 174.702426,-36.885446 174.702393,-36.885656 174.702314,-36.885733 174.702177,-36.885770 174.702035,-36.885790 174.701986,-36.885816 174.701923,-36.885885 174.701880,-36.885919 174.701921,-36.885968 174.702028,-36.886022 174.702178,-36.886084 174.702318,-36.886077 174.702401,-36.886124 174.702444,-36.886160 174.702459,-36.886274 174.702493,-36.886438 174.702541,-36.886575 174.702669,-36.886781 174.702848,-36.887089 174.703048,-36.887080 174.703315,-36.886991 174.703565,-36.886849 174.703699,-36.886764 174.703854,-36.886757 174.704296,-36.886866 174.704429,-36.886941 174.704517,-36.886981 174.704610,-36.887084 174.704774,-36.887160 174.704808,-36.887283 174.704989,-36.887387 174.705018,-36.887604 174.704919,-36.887837 174.705047,-36.887895 174.705066,-36.887971 174.705039,-36.888027 174.704947,-36.888049 174.704907,-36.888203 174.704863,-36.888435 174.704803,-36.888647 174.704771,-36.888744 174.704786,-36.888841 174.704869,-36.888907 174.704894,-36.888972 174.705083,-36.888978 174.705129,-36.888928 174.705084,-36.888883 174.705080,-36.888831 174.705106,-36.888809 174.705143,-36.888828 174.705202,-36.888865 174.705306,-36.888861 174.705413,-36.888829 174.705495,-36.888850 174.705548,-36.888844 174.705602,-36.888808 174.705777,-36.888829 174.705854,-36.888762</coordinates></LineString><LineString><tessellate>1</tessellate><coordinates>174.705945,-36.888156 174.705815,-36.888224 174.705726,-36.888314 174.705671,-36.888445 174.705655,-36.888545 174.705673,-36.888643 174.705738,-36.888716 174.705854,-36.888762 174.705896,-36.888778 174.706056,-36.888837 174.706124,-36.888888 174.706281,-36.889071 174.706392,-36.889165 174.706551,-36.889277 174.706644,-36.889404 174.706684,-36.889525 174.706675,-36.889614 174.706624,-36.889706 174.706526,-36.889825 174.706554,-36.890031 174.706572,-36.890116 174.706611,-36.890209 174.706787,-36.890473 174.706855,-36.890689 174.706822,-36.890857 174.706752,-36.891167 174.706279,-36.891532 174.705965,-36.891760 174.705621,-36.892063 174.705277,-36.892316 174.704910,-36.892478 174.704606,-36.892723 174.704397,-36.892808 174.704197,-36.892890 174.704167,-36.892903 174.704012,-36.892995 174.703781,-36.893132 174.703576,-36.893184 174.703215,-36.893353 174.702924,-36.893516 174.702654,-36.893632 174.702506,-36.893721 174.702261,-36.893807 174.701966,-36.893960 174.701680,-36.894095</coordinates></LineString></MultiGeometry></Placemark></Document></kml>