<?xml version='1.0' encoding='utf-8'?>
<kml xmlns="http://www.opengis.net/kml/2.2"><Document><name>Papatoetoe LINZ foot track 7</name><Style id="c"><LineStyle><color>ffff00ff</color><width>5</width></LineStyle></Style><Placemark><name>Papatoetoe LINZ foot track 7</name><description>Sheet row 1263; LINZ t50_fid(s) 3592836</description><styleUrl>#c</styleUrl><MultiGeometry><LineString><tessellate>1</tessellate><coordinates>174.842923,-36.984713 174.842233,-36.984698 174.841402,-36.984939</coordinates></LineString></MultiGeometry></Placemark></Document></kml>