<?xml version='1.0' encoding='utf-8'?>
<kml xmlns="http://www.opengis.net/kml/2.2"><Document><name>Piha LINZ foot track 1</name><Style id="c"><LineStyle><color>ffff00ff</color><width>5</width></LineStyle></Style><Placemark><name>Piha LINZ foot track 1</name><description>Sheet row 1305; LINZ t50_fid(s) 3574936</description><styleUrl>#c</styleUrl><MultiGeometry><LineString><tessellate>1</tessellate><coordinates>174.471305,-36.954234 174.471099,-36.954332 174.470854,-36.954427 174.470785,-36.954457 174.470503,-36.954524 174.470479,-36.954490 174.470227,-36.954572 174.469906,-36.954677 174.469426,-36.954958 174.468738,-36.954945</coordinates></LineString></MultiGeometry></Placemark></Document></kml>