<?xml version='1.0' encoding='utf-8'?>
<kml xmlns="http://www.opengis.net/kml/2.2"><Document><name>Ōtara LINZ foot track 6</name><Style id="c"><LineStyle><color>ffff00ff</color><width>5</width></LineStyle></Style><Placemark><name>Ōtara LINZ foot track 6</name><description>Sheet row 1258; LINZ t50_fid(s) 3592977</description><styleUrl>#c</styleUrl><MultiGeometry><LineString><tessellate>1</tessellate><coordinates>174.872101,-36.962585 174.871946,-36.962859 174.871410,-36.963818</coordinates></LineString></MultiGeometry></Placemark></Document></kml>