<?xml version='1.0' encoding='utf-8'?>
<kml xmlns="http://www.opengis.net/kml/2.2"><Document><name>Piha / Karekare LINZ foot track 2</name><Style id="c"><LineStyle><color>ffff00ff</color><width>5</width></LineStyle></Style><Placemark><name>Piha / Karekare LINZ foot track 2</name><description>Sheet row 1427; LINZ t50_fid(s) 3584250</description><styleUrl>#c</styleUrl><MultiGeometry><LineString><tessellate>1</tessellate><coordinates>174.475603,-36.985264 174.475562,-36.985278 174.475176,-36.985409 174.474944,-36.985561 174.474719,-36.985720 174.474343,-36.985776 174.473901,-36.985712 174.473695,-36.985691 174.473355,-36.985686</coordinates></LineString></MultiGeometry></Placemark></Document></kml>