<?xml version='1.0' encoding='utf-8'?>
<kml xmlns="http://www.opengis.net/kml/2.2"><Document><name>Bucklands Beach LINZ foot track 3</name><Style id="c"><LineStyle><color>ffff00ff</color><width>5</width></LineStyle></Style><Placemark><name>Bucklands Beach LINZ foot track 3</name><description>Sheet row 957; LINZ t50_fid(s) 3584720</description><styleUrl>#c</styleUrl><MultiGeometry><LineString><tessellate>1</tessellate><coordinates>174.908904,-36.867525 174.909539,-36.867678 174.910062,-36.867787 174.910196,-36.867828 174.910321,-36.867867 174.910311,-36.868029 174.910490,-36.868139 174.910526,-36.868243</coordinates></LineString></MultiGeometry></Placemark></Document></kml>