<?xml version='1.0' encoding='utf-8'?>
<kml xmlns="http://www.opengis.net/kml/2.2"><Document><name>Mt Roskill LINZ foot track 3</name><Style id="c"><LineStyle><color>ffff00ff</color><width>5</width></LineStyle></Style><Placemark><name>Mt Roskill LINZ foot track 3</name><description>Sheet row 882; LINZ t50_fid(s) 3592934</description><styleUrl>#c</styleUrl><MultiGeometry><LineString><tessellate>1</tessellate><coordinates>174.737427,-36.901612 174.737085,-36.901911 174.736665,-36.902288 174.736276,-36.901991</coordinates></LineString></MultiGeometry></Placemark></Document></kml>