<?xml version='1.0' encoding='utf-8'?>
<kml xmlns="http://www.opengis.net/kml/2.2"><Document><name>Papakura LINZ foot track 4</name><Style id="c"><LineStyle><color>ffff00ff</color><width>5</width></LineStyle></Style><Placemark><name>Papakura LINZ foot track 4</name><description>Sheet row 1248; LINZ t50_fid(s) 3584689</description><styleUrl>#c</styleUrl><MultiGeometry><LineString><tessellate>1</tessellate><coordinates>174.928166,-37.065668 174.928354,-37.066089 174.928604,-37.066418 174.928698,-37.066459 174.928700,-37.066460 174.928797,-37.066512 174.929381,-37.067240 174.929386,-37.067247</coordinates></LineString></MultiGeometry></Placemark></Document></kml>