<?xml version='1.0' encoding='utf-8'?>
<kml xmlns="http://www.opengis.net/kml/2.2"><Document><name>Sandspit LINZ foot track 2</name><Style id="c"><LineStyle><color>ffff00ff</color><width>5</width></LineStyle></Style><Placemark><name>Sandspit LINZ foot track 2</name><description>Sheet row 1199; LINZ t50_fid(s) 7646329</description><styleUrl>#c</styleUrl><MultiGeometry><LineString><tessellate>1</tessellate><coordinates>174.728351,-36.392458 174.728191,-36.392518 174.728026,-36.392560 174.727957,-36.392558 174.727892,-36.392586 174.727825,-36.392654 174.727672,-36.392669 174.727555,-36.392638 174.727423,-36.392613 174.727376,-36.392620 174.727047,-36.392770 174.726849,-36.392807 174.726759,-36.392820 174.726696,-36.392808 174.726664,-36.392770 174.726608,-36.392579 174.726576,-36.392529 174.726498,-36.392438 174.726459,-36.392384 174.726415,-36.392355 174.726310,-36.392351 174.726136,-36.392370 174.725919,-36.392375</coordinates></LineString></MultiGeometry></Placemark></Document></kml>