<?xml version='1.0' encoding='utf-8'?>
<kml xmlns="http://www.opengis.net/kml/2.2"><Document><name>Te Atatū South LINZ foot track 5</name><Style id="c"><LineStyle><color>ffff00ff</color><width>5</width></LineStyle></Style><Placemark><name>Te Atatū South LINZ foot track 5</name><description>Sheet row 1390; LINZ t50_fid(s) 3584645</description><styleUrl>#c</styleUrl><MultiGeometry><LineString><tessellate>1</tessellate><coordinates>174.650525,-36.881392 174.651116,-36.881444 174.651721,-36.881771 174.651930,-36.881904</coordinates></LineString></MultiGeometry></Placemark></Document></kml>