<?xml version='1.0' encoding='utf-8'?>
<kml xmlns="http://www.opengis.net/kml/2.2"><Document><name>Muriwai LINZ foot track 1</name><Style id="c"><LineStyle><color>ffff00ff</color><width>5</width></LineStyle></Style><Placemark><name>Muriwai LINZ foot track 1</name><description>Sheet row 1337; LINZ t50_fid(s) 3553541</description><styleUrl>#c</styleUrl><MultiGeometry><LineString><tessellate>1</tessellate><coordinates>174.440256,-36.817967 174.440000,-36.817662 174.439868,-36.817247 174.440469,-36.816455 174.441292,-36.815303 174.442372,-36.813964 174.442477,-36.813780 174.442914,-36.813323 174.443127,-36.812881 174.442913,-36.812593 174.442618,-36.812465</coordinates></LineString></MultiGeometry></Placemark></Document></kml>