<?xml version='1.0' encoding='utf-8'?>
<kml xmlns="http://www.opengis.net/kml/2.2"><Document><name>Glen Eden LINZ foot track 5</name><Style id="c"><LineStyle><color>ffff00ff</color><width>5</width></LineStyle></Style><Placemark><name>Glen Eden LINZ foot track 5</name><description>Sheet row 1456; LINZ t50_fid(s) 3592910</description><styleUrl>#c</styleUrl><MultiGeometry><LineString><tessellate>1</tessellate><coordinates>174.660722,-36.896524 174.660094,-36.896272 174.659899,-36.896186 174.659851,-36.896165 174.659750,-36.896155 174.659677,-36.896282</coordinates></LineString></MultiGeometry></Placemark></Document></kml>