<?xml version='1.0' encoding='utf-8'?>
<kml xmlns="http://www.opengis.net/kml/2.2"><Document><name>Ōtara LINZ foot track 4</name><Style id="c"><LineStyle><color>ffff00ff</color><width>5</width></LineStyle></Style><Placemark><name>Ōtara LINZ foot track 4</name><description>Sheet row 1250; LINZ t50_fid(s) 3584657</description><styleUrl>#c</styleUrl><MultiGeometry><LineString><tessellate>1</tessellate><coordinates>174.887315,-36.959816 174.886732,-36.958791 174.886703,-36.958764 174.886630,-36.958696 174.886248,-36.958297 174.886243,-36.958291</coordinates></LineString></MultiGeometry></Placemark></Document></kml>