<?xml version='1.0' encoding='utf-8'?>
<kml xmlns="http://www.opengis.net/kml/2.2"><Document><name>Weymouth LINZ foot track 1</name><Style id="c"><LineStyle><color>ffff00ff</color><width>5</width></LineStyle></Style><Placemark><name>Weymouth LINZ foot track 1</name><description>Sheet row 1206; LINZ t50_fid(s) 3592757,8062688,8063894,8063320,8063893,8062687,3592751,8063896,8063895,8063319,8063318</description><styleUrl>#c</styleUrl><MultiGeometry><LineString><tessellate>1</tessellate><coordinates>174.856353,-37.021656 174.856351,-37.021647 174.856275,-37.021216 174.856253,-37.021090</coordinates></LineString><LineString><tessellate>1</tessellate><coordinates>174.856832,-37.026166 174.856835,-37.026102 174.856859,-37.026016 174.856868,-37.025961 174.856867,-37.025921 174.856858,-37.025886 174.856821,-37.025847 174.856771,-37.025814 174.856735,-37.025763 174.856692,-37.025638 174.856619,-37.025495 174.856590,-37.025459 174.856493,-37.025378 174.856468,-37.025330 174.856452,-37.025279 174.856453,-37.025142 174.856446,-37.025038 174.856430,-37.024953 174.856432,-37.024897 174.856431,-37.024842 174.856417,-37.024774 174.856394,-37.024624 174.856367,-37.024481 174.856353,-37.024429 174.856291,-37.024376 174.856214,-37.024308 174.856139,-37.024217 174.856086,-37.024154 174.856011,-37.024088 174.855972,-37.024027 174.855910,-37.023901 174.855859,-37.023819 174.855809,-37.023756 174.855740,-37.023724 174.855643,-37.023675 174.855552,-37.023570 174.855469,-37.023483 174.855455,-37.023454 174.855456,-37.023415 174.855442,-37.023382 174.855304,-37.023208 174.855123,-37.022977 174.854955,-37.022772 174.854898,-37.022696 174.854856,-37.022615 174.854808,-37.022490 174.854784,-37.022371 174.854798,-37.022209 174.854820,-37.022163 174.854882,-37.022087 174.854978,-37.022005 174.855070,-37.021903 174.855158,-37.021787 174.855219,-37.021738 174.855292,-37.021665 174.855365,-37.021570 174.855453,-37.021479 174.855556,-37.021406 174.855656,-37.021351 174.855795,-37.021302 174.855943,-37.021239 174.856080,-37.021167 174.856179,-37.021111 174.856253,-37.021090 174.856286,-37.021081 174.856615,-37.021001 174.856735,-37.020986 174.856898,-37.020956 174.857060,-37.020923 174.857168,-37.020910 174.857218,-37.020914 174.857283,-37.020929 174.857410,-37.020976 174.857548,-37.021013 174.857650,-37.021030 174.857751,-37.021065 174.857967,-37.021163 174.858238,-37.021268 174.858435,-37.021350 174.858520,-37.021379 174.858606,-37.021390 174.858759,-37.021393 174.858844,-37.021385 174.858919,-37.021333 174.858958,-37.021262 174.858967,-37.021195 174.858962,-37.021098 174.858940,-37.020987 174.858962,-37.020914 174.858991,-37.020847 174.858984,-37.020803 174.858977,-37.020727 174.858989,-37.020706 174.859008,-37.020696 174.859061,-37.020697 174.859095,-37.020720 174.859248,-37.020845 174.859327,-37.020902 174.859451,-37.020951 174.859660,-37.021014 174.859804,-37.021057 174.859949,-37.021072 174.860023,-37.021061 174.860073,-37.021038 174.860103,-37.020987 174.860099,-37.020941 174.860075,-37.020883 174.860024,-37.020822 174.859967,-37.020782 174.859808,-37.020708 174.859716,-37.020655 174.859653,-37.020606 174.859584,-37.020517 174.859525,-37.020403 174.859523,-37.020308 174.859583,-37.020240 174.859679,-37.020192 174.859770,-37.020157</coordinates></LineString><LineString><tessellate>1</tessellate><coordinates>174.856832,-37.026166 174.856898,-37.026132 174.856982,-37.026097 174.857094,-37.026090 174.857182,-37.026098 174.857321,-37.026125 174.857450,-37.026129 174.857612,-37.026129 174.857755,-37.026111 174.857889,-37.026102 174.857988,-37.026106 174.858076,-37.026111 174.858166,-37.026116</coordinates></LineString><LineString><tessellate>1</tessellate><coordinates>174.855176,-37.029715 174.855152,-37.029659 174.855116,-37.029629 174.855052,-37.029632 174.854985,-37.029683 174.854927,-37.029736 174.854831,-37.029771 174.854716,-37.029856 174.854662,-37.029887 174.854631,-37.029888 174.854615,-37.029863 174.854624,-37.029827 174.854737,-37.029669 174.854831,-37.029592 174.854916,-37.029536 174.854984,-37.029496 174.855002,-37.029453 174.855019,-37.029349 174.855136,-37.029253 174.855231,-37.029203 174.855309,-37.029174 174.855387,-37.029124 174.855467,-37.029022 174.855500,-37.028947 174.855501,-37.028890 174.855481,-37.028860 174.855431,-37.028804 174.855426,-37.028765 174.855434,-37.028684 174.855503,-37.028570 174.855589,-37.028466 174.855673,-37.028381 174.855738,-37.028338 174.855740,-37.028319 174.855720,-37.028279 174.855648,-37.028221 174.855607,-37.028187 174.855593,-37.028157 174.855612,-37.028106 174.855671,-37.028049 174.855822,-37.027955 174.855898,-37.027883 174.855981,-37.027794 174.856032,-37.027754 174.856089,-37.027670 174.856152,-37.027522 174.856177,-37.027449 174.856202,-37.027412 174.856245,-37.027331 174.856266,-37.027261 174.856299,-37.027136 174.856339,-37.027053 174.856408,-37.026928 174.856468,-37.026850 174.856540,-37.026754 174.856607,-37.026629 174.856655,-37.026469 174.856724,-37.026352 174.856802,-37.026227 174.856832,-37.026166</coordinates></LineString><LineString><tessellate>1</tessellate><coordinates>174.856553,-37.036335 174.856644,-37.036290 174.856833,-37.036205 174.856934,-37.036128 174.856998,-37.036054 174.857049,-37.035980 174.857111,-37.035933 174.857210,-37.035906 174.857258,-37.035893 174.857324,-37.035876</coordinates></LineString><LineString><tessellate>1</tessellate><coordinates>174.856553,-37.036335 174.856564,-37.036290 174.856607,-37.036236 174.856700,-37.036119 174.856741,-37.035999 174.856723,-37.035790 174.856623,-37.035509 174.856539,-37.035377 174.856489,-37.035281 174.856482,-37.035211 174.856499,-37.035054 174.856492,-37.034908 174.856479,-37.034828 174.856436,-37.034700 174.856416,-37.034633 174.856424,-37.034590 174.856444,-37.034549 174.856515,-37.034473 174.856535,-37.034419 174.856532,-37.034294 174.856538,-37.034228 174.856583,-37.034056 174.856633,-37.033954 174.856694,-37.033855 174.856742,-37.033826 174.856788,-37.033817 174.856924,-37.033817 174.857047,-37.033710 174.857244,-37.033577 174.857454,-37.033464 174.857404,-37.033369 174.857341,-37.033258 174.857220,-37.033198 174.857131,-37.033142 174.857062,-37.033068 174.857026,-37.032999 174.857003,-37.032879 174.856939,-37.032714 174.856889,-37.032567 174.856841,-37.032373 174.856773,-37.032209 174.856696,-37.032004 174.856656,-37.031902 174.856612,-37.031727 174.856555,-37.031685 174.856436,-37.031640 174.856387,-37.031592 174.856309,-37.031467 174.856225,-37.031406 174.856077,-37.031355 174.855972,-37.031330 174.855811,-37.031316 174.855654,-37.031314 174.855560,-37.031316 174.855507,-37.031308 174.855442,-37.031266 174.855226,-37.031079 174.855161,-37.031028 174.855170,-37.030979 174.855206,-37.030921 174.855348,-37.030805 174.855359,-37.030783</coordinates></LineString><LineString><tessellate>1</tessellate><coordinates>174.855891,-37.030772 174.855682,-37.030761 174.855409,-37.030781 174.855359,-37.030783</coordinates></LineString><LineString><tessellate>1</tessellate><coordinates>174.855402,-37.029947 174.855304,-37.029883 174.855244,-37.029900 174.855218,-37.029898 174.855194,-37.029881 174.855187,-37.029851 174.855189,-37.029775 174.855176,-37.029715</coordinates></LineString><LineString><tessellate>1</tessellate><coordinates>174.855359,-37.030783 174.855368,-37.030766 174.855380,-37.030550 174.855372,-37.030501 174.855356,-37.030462 174.855329,-37.030427 174.855297,-37.030409 174.855229,-37.030379 174.855206,-37.030362 174.855190,-37.030340 174.855172,-37.030289 174.855123,-37.030216 174.855073,-37.030155 174.855016,-37.030106 174.854981,-37.030062 174.854952,-37.030009 174.854934,-37.029967 174.854906,-37.029921 174.854911,-37.029898 174.854946,-37.029861 174.855045,-37.029787 174.855142,-37.029735 174.855176,-37.029715</coordinates></LineString><LineString><tessellate>1</tessellate><coordinates>174.859618,-37.042366 174.859651,-37.042292 174.859704,-37.042239 174.859700,-37.042185 174.859688,-37.042113 174.859686,-37.042043 174.859698,-37.041997 174.859695,-37.041978 174.859667,-37.041962 174.859587,-37.041919 174.859533,-37.041862 174.859482,-37.041774 174.859432,-37.041723 174.859375,-37.041677 174.859296,-37.041647 174.859202,-37.041637 174.859078,-37.041632 174.858972,-37.041615 174.858848,-37.041569 174.858589,-37.041423 174.858344,-37.041263 174.858166,-37.041158 174.858098,-37.041109 174.858013,-37.041014 174.857922,-37.040897 174.857888,-37.040830 174.857882,-37.040748 174.857914,-37.040629 174.857986,-37.040460 174.858021,-37.040372 174.858027,-37.040317 174.858021,-37.040227 174.857999,-37.040089 174.857944,-37.039841 174.857889,-37.039640 174.857820,-37.039447 174.857755,-37.039298 174.857693,-37.039163 174.857653,-37.039064 174.857605,-37.038990 174.857545,-37.038913 174.857477,-37.038837 174.857417,-37.038787 174.857342,-37.038738 174.857281,-37.038687 174.857230,-37.038620 174.857221,-37.038597 174.857234,-37.038561 174.857253,-37.038499 174.857245,-37.038464 174.857181,-37.038441 174.857108,-37.038452 174.857027,-37.038483 174.856962,-37.038475 174.856876,-37.038440 174.856711,-37.038438 174.856594,-37.038435 174.856554,-37.038407 174.856518,-37.038347 174.856463,-37.038240 174.856379,-37.038030 174.856328,-37.037934 174.856280,-37.037882 174.856215,-37.037850 174.856068,-37.037802 174.855848,-37.037749 174.855776,-37.037720 174.855740,-37.037688 174.855731,-37.037650 174.855740,-37.037609 174.855785,-37.037558 174.855880,-37.037489 174.856094,-37.037322 174.856131,-37.037276 174.856152,-37.037221 174.856181,-37.037108 174.856213,-37.037057 174.856328,-37.036904 174.856442,-37.036695 174.856513,-37.036535 174.856548,-37.036396 174.856553,-37.036335</coordinates></LineString><LineString><tessellate>1</tessellate><coordinates>174.860716,-37.042332 174.860528,-37.042284 174.860380,-37.042264 174.860277,-37.042279 174.860107,-37.042342 174.859937,-37.042393 174.859767,-37.042400 174.859618,-37.042366 174.859493,-37.042340 174.859360,-37.042351 174.859108,-37.042329 174.858631,-37.042253 174.858422,-37.042226 174.858197,-37.042200 174.858087,-37.042198 174.858025,-37.042216 174.858000,-37.042234 174.857987,-37.042260 174.857936,-37.042449 174.857880,-37.042744 174.857851,-37.042892 174.857834,-37.042922 174.857720,-37.042972 174.857648,-37.043022 174.857595,-37.043098 174.857553,-37.043194 174.857500,-37.043316 174.857486,-37.043391 174.857493,-37.043445 174.857539,-37.043492 174.857583,-37.043532 174.857597,-37.043566 174.857606,-37.043649 174.857586,-37.043694 174.857548,-37.043715 174.857468,-37.043753 174.857412,-37.043817 174.857361,-37.043907 174.857320,-37.044063 174.857324,-37.044205</coordinates></LineString></MultiGeometry></Placemark></Document></kml>