<?xml version='1.0' encoding='utf-8'?>
<kml xmlns="http://www.opengis.net/kml/2.2"><Document><name>Grey Lynn LINZ foot track 1</name><Style id="c"><LineStyle><color>ffff00ff</color><width>5</width></LineStyle></Style><Placemark><name>Grey Lynn LINZ foot track 1</name><description>Sheet row 827; LINZ t50_fid(s) 8520920,8520921,8520922,8520923,8520972,8520973</description><styleUrl>#c</styleUrl><MultiGeometry><LineString><tessellate>1</tessellate><coordinates>174.736557,-36.857482 174.736626,-36.857499 174.736719,-36.857557 174.737117,-36.857745 174.737327,-36.857905 174.737719,-36.858195 174.738057,-36.858337 174.738153,-36.858485 174.738257,-36.858874 174.738397,-36.859028 174.738630,-36.859105 174.739013,-36.859383</coordinates></LineString><LineString><tessellate>1</tessellate><coordinates>174.736643,-36.858298 174.736800,-36.858275 174.736849,-36.858361 174.736895,-36.858537 174.736952,-36.858597 174.737001,-36.858693 174.737058,-36.858770 174.737125,-36.858824 174.737178,-36.858863 174.737282,-36.858856 174.737289,-36.858913 174.737355,-36.859067 174.737443,-36.859249 174.737529,-36.859354 174.737645,-36.859540 174.737709,-36.859724 174.737766,-36.859756 174.737823,-36.859760 174.738116,-36.859755 174.738189,-36.859763 174.738266,-36.859786 174.738316,-36.859835 174.738328,-36.859765 174.738378,-36.859721 174.738544,-36.859627 174.738692,-36.859581 174.738832,-36.859523 174.738920,-36.859465 174.739013,-36.859383</coordinates></LineString><LineString><tessellate>1</tessellate><coordinates>174.741926,-36.861434 174.741852,-36.861588 174.741767,-36.861605 174.741667,-36.861608 174.741597,-36.861533 174.741464,-36.861568 174.741321,-36.861513 174.741215,-36.861495 174.740966,-36.861527 174.740475,-36.861783 174.740402,-36.861801 174.740341,-36.861798 174.740299,-36.861770 174.739513,-36.860912 174.739458,-36.860766 174.739450,-36.860705 174.739574,-36.860497</coordinates></LineString><LineString><tessellate>1</tessellate><coordinates>174.739574,-36.860497 174.739733,-36.860479 174.740159,-36.860509 174.740434,-36.860496 174.740630,-36.860609 174.740726,-36.860720 174.740969,-36.860966 174.741201,-36.861134 174.741653,-36.861314 174.741926,-36.861434</coordinates></LineString><LineString><tessellate>1</tessellate><coordinates>174.739013,-36.859383 174.739070,-36.859561 174.739325,-36.860071 174.739504,-36.860402 174.739574,-36.860497</coordinates></LineString><LineString><tessellate>1</tessellate><coordinates>174.741926,-36.861434 174.742162,-36.861483 174.742345,-36.861528 174.742515,-36.861569 174.742659,-36.861577 174.742680,-36.861574 174.742699,-36.861662 174.742704,-36.861723 174.742701,-36.861784 174.742704,-36.861929</coordinates></LineString></MultiGeometry></Placemark></Document></kml>