<?xml version='1.0' encoding='utf-8'?>
<kml xmlns="http://www.opengis.net/kml/2.2"><Document><name>Titirangi / Waitākere foothills LINZ foot track 2</name><Style id="c"><LineStyle><color>ffff00ff</color><width>5</width></LineStyle></Style><Placemark><name>Titirangi / Waitākere foothills LINZ foot track 2</name><description>Sheet row 1452; LINZ t50_fid(s) 8467127</description><styleUrl>#c</styleUrl><MultiGeometry><LineString><tessellate>1</tessellate><coordinates>174.677601,-36.923970 174.677473,-36.923575 174.677432,-36.923415 174.677429,-36.922845</coordinates></LineString></MultiGeometry></Placemark></Document></kml>