<?xml version='1.0' encoding='utf-8'?>
<kml xmlns="http://www.opengis.net/kml/2.2"><Document><name>Blockhouse Bay LINZ foot track 3</name><Style id="c"><LineStyle><color>ffff00ff</color><width>5</width></LineStyle></Style><Placemark><name>Blockhouse Bay LINZ foot track 3</name><description>Sheet row 900; LINZ t50_fid(s) 3592880</description><styleUrl>#c</styleUrl><MultiGeometry><LineString><tessellate>1</tessellate><coordinates>174.715886,-36.930932 174.716147,-36.930925 174.716857,-36.930927 174.717166,-36.930954</coordinates></LineString></MultiGeometry></Placemark></Document></kml>