<?xml version='1.0' encoding='utf-8'?>
<kml xmlns="http://www.opengis.net/kml/2.2"><Document><name>Milford LINZ foot track 2</name><Style id="c"><LineStyle><color>ffff00ff</color><width>5</width></LineStyle></Style><Placemark><name>Milford LINZ foot track 2</name><description>Sheet row 1075; LINZ t50_fid(s) 3584756</description><styleUrl>#c</styleUrl><MultiGeometry><LineString><tessellate>1</tessellate><coordinates>174.762928,-36.763561 174.764827,-36.764979 174.764966,-36.765086</coordinates></LineString></MultiGeometry></Placemark></Document></kml>