<?xml version='1.0' encoding='utf-8'?>
<kml xmlns="http://www.opengis.net/kml/2.2"><Document><name>Blockhouse Bay LINZ foot track 6</name><Style id="c"><LineStyle><color>ffff00ff</color><width>5</width></LineStyle></Style><Placemark><name>Blockhouse Bay LINZ foot track 6</name><description>Sheet row 1445; LINZ t50_fid(s) 3573819,3584629</description><styleUrl>#c</styleUrl><MultiGeometry><LineString><tessellate>1</tessellate><coordinates>174.693079,-36.927617 174.693154,-36.927163 174.693340,-36.926788 174.693341,-36.926734 174.693381,-36.926719 174.693407,-36.926675 174.693409,-36.926617 174.693475,-36.926526 174.693541,-36.926356 174.693689,-36.926095 174.693980,-36.925301</coordinates></LineString><LineString><tessellate>1</tessellate><coordinates>174.693079,-36.927617 174.693085,-36.927831 174.692989,-36.928461 174.692785,-36.928736 174.692647,-36.928829 174.692360,-36.928919 174.692139,-36.928932 174.691384,-36.928725 174.691096,-36.928566 174.690776,-36.928254 174.690703,-36.928014 174.690700,-36.927843 174.690818,-36.927597 174.691093,-36.927298 174.691522,-36.927202 174.692212,-36.927247 174.692582,-36.927353 174.692991,-36.927581 174.692998,-36.927606 174.693079,-36.927617</coordinates></LineString></MultiGeometry></Placemark></Document></kml>