<?xml version='1.0' encoding='utf-8'?>
<kml xmlns="http://www.opengis.net/kml/2.2"><Document><name>Hobsonville LINZ foot track 1</name><Style id="c"><LineStyle><color>ffff00ff</color><width>5</width></LineStyle></Style><Placemark><name>Hobsonville LINZ foot track 1</name><description>Sheet row 1028; LINZ t50_fid(s) 8520757,8520934,8521004,8521005</description><styleUrl>#c</styleUrl><MultiGeometry><LineString><tessellate>1</tessellate><coordinates>174.660487,-36.789067 174.660630,-36.789099 174.660712,-36.789100 174.660782,-36.789082 174.660836,-36.789060 174.660879,-36.789013 174.660897,-36.788973 174.660901,-36.788929 174.660890,-36.788875 174.660863,-36.788800 174.660856,-36.788709 174.660881,-36.788641 174.660938,-36.788567 174.661213,-36.788306 174.661372,-36.788159 174.661495,-36.788073 174.661638,-36.787993 174.662148,-36.787728 174.662348,-36.787630 174.662482,-36.787570 174.662578,-36.787534 174.662665,-36.787519 174.662746,-36.787510 174.662815,-36.787510 174.662917,-36.787536 174.662972,-36.787539 174.663040,-36.787527 174.663108,-36.787497 174.663161,-36.787457 174.663193,-36.787413 174.663202,-36.787376 174.663203,-36.787321 174.663181,-36.787254 174.663145,-36.787168 174.663147,-36.787110 174.663171,-36.787070 174.663232,-36.787037 174.663331,-36.787010 174.663445,-36.786974 174.663463,-36.786928 174.663484,-36.786766 174.663527,-36.786725 174.663598,-36.786704 174.663657,-36.786696 174.663734,-36.786710 174.663998,-36.786816 174.664085,-36.786825 174.664227,-36.786818 174.664343,-36.786826 174.664457,-36.786810 174.664623,-36.786740 174.664711,-36.786646 174.664781,-36.786575 174.664852,-36.786539 174.664941,-36.786518 174.665025,-36.786484 174.665067,-36.786431 174.665102,-36.786341 174.665145,-36.786318 174.665204,-36.786310 174.665370,-36.786367 174.665535,-36.786410 174.665636,-36.786461 174.665696,-36.786528 174.665753,-36.786589 174.665786,-36.786661 174.665797,-36.786731 174.665783,-36.786774 174.665830,-36.786813 174.665915,-36.786861 174.666016,-36.786872 174.666173,-36.786931 174.666319,-36.786995 174.666412,-36.787013 174.666491,-36.787013 174.666590,-36.787001 174.666685,-36.786960 174.666787,-36.786882 174.666844,-36.786811 174.666880,-36.786733 174.666964,-36.786673 174.667056,-36.786631 174.667191,-36.786615 174.667290,-36.786624 174.667414,-36.786660 174.667490,-36.786720 174.667557,-36.786758 174.667625,-36.786775 174.667697,-36.786763 174.667906,-36.786674 174.668057,-36.786638 174.668197,-36.786622 174.668268,-36.786634 174.668310,-36.786654 174.668348,-36.786692 174.668389,-36.786761 174.668434,-36.786903 174.668463,-36.787025 174.668505,-36.787128</coordinates></LineString><LineString><tessellate>1</tessellate><coordinates>174.659556,-36.791276 174.659472,-36.791234 174.659466,-36.791184 174.659392,-36.791110 174.659074,-36.790897 174.658860,-36.790798 174.658694,-36.790686 174.658587,-36.790585 174.658516,-36.790482 174.658448,-36.790337 174.658360,-36.790094 174.658284,-36.789830 174.658283,-36.789748 174.658313,-36.789662 174.658378,-36.789577 174.658486,-36.789476 174.658930,-36.789076 174.659038,-36.788997 174.659382,-36.788769 174.659450,-36.788737 174.659518,-36.788723 174.659580,-36.788719 174.659703,-36.788738 174.659849,-36.788772 174.660006,-36.788820 174.660190,-36.788897 174.660322,-36.788959 174.660442,-36.789035 174.660487,-36.789067</coordinates></LineString><LineString><tessellate>1</tessellate><coordinates>174.660487,-36.789067 174.660582,-36.789144 174.660680,-36.789197 174.660819,-36.789264 174.661000,-36.789342 174.661090,-36.789374 174.661219,-36.789448 174.661342,-36.789516 174.661410,-36.789565</coordinates></LineString><LineString><tessellate>1</tessellate><coordinates>174.668505,-36.787128 174.668559,-36.787294 174.668561,-36.787395 174.668529,-36.787481 174.668442,-36.787556 174.668288,-36.787650 174.668096,-36.787773 174.668056,-36.787805 174.668070,-36.787889 174.668081,-36.787931 174.668145,-36.787997 174.668151,-36.788055 174.668143,-36.788096 174.668071,-36.788146 174.667958,-36.788183 174.667783,-36.788240</coordinates></LineString></MultiGeometry></Placemark></Document></kml>