<?xml version='1.0' encoding='utf-8'?>
<kml xmlns="http://www.opengis.net/kml/2.2"><Document><name>Henderson LINZ foot track 3</name><Style id="c"><LineStyle><color>ffff00ff</color><width>5</width></LineStyle></Style><Placemark><name>Henderson LINZ foot track 3</name><description>Sheet row 1351; LINZ t50_fid(s) 3592522</description><styleUrl>#c</styleUrl><MultiGeometry><LineString><tessellate>1</tessellate><coordinates>174.619443,-36.890760 174.619647,-36.890652 174.619957,-36.890472 174.620458,-36.890140 174.620569,-36.890033</coordinates></LineString></MultiGeometry></Placemark></Document></kml>