<?xml version='1.0' encoding='utf-8'?>
<kml xmlns="http://www.opengis.net/kml/2.2"><Document><name>Pukekohe LINZ foot track 2</name><Style id="c"><LineStyle><color>ffff00ff</color><width>5</width></LineStyle></Style><Placemark><name>Pukekohe LINZ foot track 2</name><description>Sheet row 984; LINZ t50_fid(s) 3584440</description><styleUrl>#c</styleUrl><MultiGeometry><LineString><tessellate>1</tessellate><coordinates>174.909744,-37.201297 174.909775,-37.201292 174.910391,-37.201196 174.911029,-37.201151</coordinates></LineString></MultiGeometry></Placemark></Document></kml>