<?xml version='1.0' encoding='utf-8'?>
<kml xmlns="http://www.opengis.net/kml/2.2"><Document><name>Māngere Bridge LINZ foot track 8</name><Style id="c"><LineStyle><color>ffff00ff</color><width>5</width></LineStyle></Style><Placemark><name>Māngere Bridge LINZ foot track 8</name><description>Sheet row 1211; LINZ t50_fid(s) 8063326,3554618</description><styleUrl>#c</styleUrl><MultiGeometry><LineString><tessellate>1</tessellate><coordinates>174.765452,-36.952934 174.765381,-36.953218 174.765429,-36.953564 174.765653,-36.954192 174.765847,-36.954631 174.766024,-36.954923 174.766201,-36.955205 174.766838,-36.955532 174.767671,-36.955836 174.768292,-36.956047 174.768824,-36.956355 174.769322,-36.956937 174.769696,-36.957216 174.769796,-36.957270 174.770098,-36.957424 174.770327,-36.957480 174.770485,-36.957272 174.770566,-36.957105 174.770595,-36.957045</coordinates></LineString><LineString><tessellate>1</tessellate><coordinates>174.756823,-36.949217 174.759552,-36.950424 174.760347,-36.950871 174.760870,-36.951272 174.761040,-36.951031 174.761366,-36.951159 174.761224,-36.951442 174.761930,-36.951686 174.762130,-36.951728 174.763740,-36.952230 174.764253,-36.952437 174.764766,-36.952711 174.765452,-36.952934</coordinates></LineString></MultiGeometry></Placemark></Document></kml>