<?xml version='1.0' encoding='utf-8'?>
<kml xmlns="http://www.opengis.net/kml/2.2"><Document><name>Glenfield LINZ foot track 14</name><Style id="c"><LineStyle><color>ffff00ff</color><width>5</width></LineStyle></Style><Placemark><name>Glenfield LINZ foot track 14</name><description>Sheet row 1166; LINZ t50_fid(s) 3593183</description><styleUrl>#c</styleUrl><MultiGeometry><LineString><tessellate>1</tessellate><coordinates>174.725840,-36.794013 174.725798,-36.794588 174.725670,-36.794728 174.725347,-36.794759</coordinates></LineString></MultiGeometry></Placemark></Document></kml>