<?xml version='1.0' encoding='utf-8'?>
<kml xmlns="http://www.opengis.net/kml/2.2"><Document><name>Te Henga / Bethells Beach LINZ foot track 1</name><Style id="c"><LineStyle><color>ffff00ff</color><width>5</width></LineStyle></Style><Placemark><name>Te Henga / Bethells Beach LINZ foot track 1</name><description>Sheet row 1362; LINZ t50_fid(s) 3573051</description><styleUrl>#c</styleUrl><MultiGeometry><LineString><tessellate>1</tessellate><coordinates>174.454851,-36.890418 174.455246,-36.889869 174.455697,-36.889603 174.455934,-36.889384 174.456134,-36.889353 174.456756,-36.889044 174.457140,-36.888992 174.457575,-36.888985 174.458112,-36.889035 174.458520,-36.889119 174.458931,-36.889271 174.459117,-36.889450 174.459450,-36.889602 174.459482,-36.889833 174.459507,-36.889961 174.459704,-36.890074 174.459796,-36.890207 174.460154,-36.890243 174.460429,-36.890202 174.460640,-36.890228 174.460830,-36.890238 174.460989,-36.890186 174.461126,-36.890066 174.461282,-36.889528 174.461078,-36.889260 174.461164,-36.889173 174.461482,-36.889009 174.461508,-36.888792 174.461348,-36.888689 174.461196,-36.888449 174.461131,-36.888294 174.460792,-36.888286 174.460041,-36.888184 174.459714,-36.888180 174.459355,-36.888148 174.459359,-36.888015 174.459639,-36.887876 174.460164,-36.887786 174.460286,-36.887634 174.460172,-36.887474 174.459274,-36.887502 174.458469,-36.887175</coordinates></LineString></MultiGeometry></Placemark></Document></kml>