<?xml version='1.0' encoding='utf-8'?>
<kml xmlns="http://www.opengis.net/kml/2.2"><Document><name>Beachlands LINZ foot track 2</name><Style id="c"><LineStyle><color>ffff00ff</color><width>5</width></LineStyle></Style><Placemark><name>Beachlands LINZ foot track 2</name><description>Sheet row 1018; LINZ t50_fid(s) 3593131</description><styleUrl>#c</styleUrl><MultiGeometry><LineString><tessellate>1</tessellate><coordinates>175.002630,-36.884010 175.002460,-36.884034 175.000906,-36.883697 175.000861,-36.883687</coordinates></LineString></MultiGeometry></Placemark></Document></kml>