<?xml version='1.0' encoding='utf-8'?>
<kml xmlns="http://www.opengis.net/kml/2.2"><Document><name>Glenfield LINZ foot track 13</name><Style id="c"><LineStyle><color>ffff00ff</color><width>5</width></LineStyle></Style><Placemark><name>Glenfield LINZ foot track 13</name><description>Sheet row 1163; LINZ t50_fid(s) 3593184</description><styleUrl>#c</styleUrl><MultiGeometry><LineString><tessellate>1</tessellate><coordinates>174.715193,-36.786652 174.714798,-36.786864 174.714186,-36.787150 174.714157,-36.787195 174.714155,-36.787227</coordinates></LineString></MultiGeometry></Placemark></Document></kml>