<?xml version='1.0' encoding='utf-8'?>
<kml xmlns="http://www.opengis.net/kml/2.2"><Document><name>South Head / Kaipara LINZ foot track 7</name><Style id="c"><LineStyle><color>ffff00ff</color><width>5</width></LineStyle></Style><Placemark><name>South Head / Kaipara LINZ foot track 7</name><description>Sheet row 1177; LINZ t50_fid(s) 3584289</description><styleUrl>#c</styleUrl><MultiGeometry><LineString><tessellate>1</tessellate><coordinates>174.347459,-36.705382 174.347070,-36.705510 174.346807,-36.705655 174.346534,-36.705841 174.346290,-36.705955 174.345957,-36.706117 174.345910,-36.706229 174.345867,-36.706349 174.345696,-36.706406</coordinates></LineString></MultiGeometry></Placemark></Document></kml>