<?xml version='1.0' encoding='utf-8'?>
<kml xmlns="http://www.opengis.net/kml/2.2"><Document><name>Red Beach LINZ foot track 11</name><Style id="c"><LineStyle><color>ffff00ff</color><width>5</width></LineStyle></Style><Placemark><name>Red Beach LINZ foot track 11</name><description>Sheet row 1409; LINZ t50_fid(s) 3584884,6097723</description><styleUrl>#c</styleUrl><MultiGeometry><LineString><tessellate>1</tessellate><coordinates>174.697740,-36.600467 174.698077,-36.600544 174.698499,-36.600453 174.698824,-36.600329 174.699182,-36.600151 174.699641,-36.600183 174.699947,-36.600244 174.700263,-36.600213 174.700458,-36.600212 174.700639,-36.600704</coordinates></LineString><LineString><tessellate>1</tessellate><coordinates>174.697717,-36.602357 174.697871,-36.601931 174.697882,-36.601900 174.697928,-36.601702 174.697959,-36.601586 174.697938,-36.601437 174.697901,-36.601176 174.697772,-36.600974 174.697764,-36.600794 174.697740,-36.600467</coordinates></LineString></MultiGeometry></Placemark></Document></kml>