<?xml version='1.0' encoding='utf-8'?>
<kml xmlns="http://www.opengis.net/kml/2.2"><Document><name>South Head / Kaipara LINZ foot track 1</name><Style id="c"><LineStyle><color>ffff00ff</color><width>5</width></LineStyle></Style><Placemark><name>South Head / Kaipara LINZ foot track 1</name><description>Sheet row 1169; LINZ t50_fid(s) 3553562</description><styleUrl>#c</styleUrl><MultiGeometry><LineString><tessellate>1</tessellate><coordinates>174.363669,-36.720648 174.362854,-36.721022 174.362058,-36.721266 174.361860,-36.721287 174.361343,-36.721235 174.360820,-36.720984 174.360171,-36.720765 174.359493,-36.720642 174.359251,-36.720714 174.358852,-36.721027 174.358603,-36.721450 174.358519,-36.721690 174.358484,-36.722289 174.358576,-36.722723 174.358467,-36.722936 174.358215,-36.723167 174.358075,-36.723231</coordinates></LineString></MultiGeometry></Placemark></Document></kml>