<?xml version='1.0' encoding='utf-8'?>
<kml xmlns="http://www.opengis.net/kml/2.2"><Document><name>Waharau / Whakatīwai LINZ foot track 4</name><Style id="c"><LineStyle><color>ffff00ff</color><width>5</width></LineStyle></Style><Placemark><name>Waharau / Whakatīwai LINZ foot track 4</name><description>Sheet row 1461; LINZ t50_fid(s) 3531456</description><styleUrl>#c</styleUrl><MultiGeometry><LineString><tessellate>1</tessellate><coordinates>175.224080,-37.111141 175.224256,-37.111132 175.224624,-37.111134 175.224747,-37.111007 175.224913,-37.110891 175.225095,-37.110828 175.225340,-37.110874 175.225648,-37.110888 175.225839,-37.110893 175.225909,-37.111005 175.225953,-37.111049 175.226173,-37.110980 175.226435,-37.110981 175.226682,-37.111106 175.227192,-37.111153 175.227360,-37.111082 175.227503,-37.111088 175.227705,-37.111231 175.227880,-37.111432 175.228176,-37.111647 175.228372,-37.111824 175.228406,-37.112033 175.228575,-37.112488 175.228788,-37.112750 175.229247,-37.113013 175.229599,-37.113193 175.229929,-37.113356 175.230167,-37.113290 175.230470,-37.113278 175.230940,-37.113162 175.231197,-37.112999 175.231614,-37.113013 175.231902,-37.113212 175.231897,-37.113484 175.231925,-37.113802 175.232047,-37.114067 175.232144,-37.114195 175.232318,-37.114209 175.232423,-37.114371 175.232433,-37.114538 175.232610,-37.114779 175.232750,-37.114961 175.233010,-37.115204 175.233216,-37.115402 175.233420,-37.115545 175.233580,-37.115783 175.233783,-37.115880 175.234128,-37.115902 175.234369,-37.115796 175.234553,-37.115702 175.234906,-37.115409 175.235131,-37.115231 175.235331,-37.115182 175.235511,-37.115230 175.235689,-37.115209 175.235927,-37.115177 175.236160,-37.115225 175.236447,-37.115219</coordinates></LineString></MultiGeometry></Placemark></Document></kml>