<?xml version='1.0' encoding='utf-8'?>
<kml xmlns="http://www.opengis.net/kml/2.2"><Document><name>Milford LINZ foot track 4</name><Style id="c"><LineStyle><color>ffff00ff</color><width>5</width></LineStyle></Style><Placemark><name>Milford LINZ foot track 4</name><description>Sheet row 1080; LINZ t50_fid(s) 3584776,3593245</description><styleUrl>#c</styleUrl><MultiGeometry><LineString><tessellate>1</tessellate><coordinates>174.767752,-36.760353 174.767571,-36.760289 174.767468,-36.760301 174.767186,-36.760247 174.767038,-36.760592 174.766563,-36.761185</coordinates></LineString><LineString><tessellate>1</tessellate><coordinates>174.766638,-36.759981 174.766804,-36.760163 174.767186,-36.760247</coordinates></LineString></MultiGeometry></Placemark></Document></kml>