<?xml version='1.0' encoding='utf-8'?>
<kml xmlns="http://www.opengis.net/kml/2.2"><Document><name>Milford LINZ foot track 9</name><Style id="c"><LineStyle><color>ffff00ff</color><width>5</width></LineStyle></Style><Placemark><name>Milford LINZ foot track 9</name><description>Sheet row 1160; LINZ t50_fid(s) 3593222</description><styleUrl>#c</styleUrl><MultiGeometry><LineString><tessellate>1</tessellate><coordinates>174.750340,-36.769648 174.750303,-36.769787 174.750211,-36.769910 174.750106,-36.769998 174.749994,-36.770038 174.749368,-36.770210</coordinates></LineString></MultiGeometry></Placemark></Document></kml>