<?xml version='1.0' encoding='utf-8'?>
<kml xmlns="http://www.opengis.net/kml/2.2"><Document><name>Wattle Downs LINZ foot track 2</name><Style id="c"><LineStyle><color>ffff00ff</color><width>5</width></LineStyle></Style><Placemark><name>Wattle Downs LINZ foot track 2</name><description>Sheet row 1209; LINZ t50_fid(s) 8062689,8063891,8063646,8063890,8063645,8063888,8063889,8063887</description><styleUrl>#c</styleUrl><MultiGeometry><LineString><tessellate>1</tessellate><coordinates>174.875101,-37.048624 174.874949,-37.048477 174.874997,-37.048359 174.875035,-37.048277 174.875136,-37.048112 174.875208,-37.048000 174.875250,-37.047901 174.875277,-37.047839 174.875290,-37.047793 174.875309,-37.047716 174.875339,-37.047664 174.875392,-37.047608 174.875480,-37.047538 174.875550,-37.047500 174.875616,-37.047484 174.875780,-37.047451 174.875862,-37.047428 174.875914,-37.047399 174.875965,-37.047348 174.876004,-37.047317 174.876074,-37.047288 174.876136,-37.047260 174.876186,-37.047220 174.876319,-37.047065 174.876384,-37.047005 174.876414,-37.046993 174.876452,-37.046990 174.876512,-37.047009 174.876560,-37.047016 174.876642,-37.047014 174.876718,-37.046988 174.876795,-37.046983 174.876912,-37.046983 174.876961,-37.046971 174.877037,-37.046925 174.877070,-37.046866 174.877103,-37.046774 174.877134,-37.046741 174.877165,-37.046729 174.877247,-37.046715 174.877342,-37.046664 174.877481,-37.046580 174.877582,-37.046513 174.877729,-37.046428 174.877835,-37.046367 174.877876,-37.046350 174.877920,-37.046340 174.878016,-37.046343 174.878083,-37.046346 174.878143,-37.046345 174.878171,-37.046338 174.878255,-37.046293 174.878339,-37.046245 174.878384,-37.046197 174.878376,-37.046163 174.878360,-37.046094 174.878368,-37.046017 174.878388,-37.045994 174.878513,-37.045875 174.878657,-37.045750 174.878781,-37.045641 174.878864,-37.045545 174.878916,-37.045431 174.878948,-37.045351 174.878994,-37.045268 174.879048,-37.045209 174.879152,-37.045114 174.879232,-37.045058 174.879308,-37.045037 174.879427,-37.045016 174.879591,-37.045003 174.879694,-37.045010 174.879812,-37.045036 174.879897,-37.045072 174.880004,-37.045146 174.880057,-37.045198 174.880075,-37.045244 174.880082,-37.045323 174.880102,-37.045386 174.880131,-37.045433 174.880179,-37.045482 174.880275,-37.045557 174.880349,-37.045595 174.880463,-37.045652 174.880526,-37.045700 174.880568,-37.045749 174.880590,-37.045808 174.880614,-37.045853 174.880683,-37.045919 174.880766,-37.046005 174.880845,-37.046107 174.880900,-37.046215 174.880917,-37.046279 174.880924,-37.046342 174.880931,-37.046571 174.880932,-37.046690 174.880908,-37.046767 174.880831,-37.046921 174.880828,-37.046965 174.880829,-37.047057 174.880847,-37.047098 174.880889,-37.047141 174.880967,-37.047204 174.881009,-37.047200 174.881049,-37.047206 174.881096,-37.047234 174.881218,-37.047344 174.881287,-37.047395 174.881415,-37.047441 174.881564,-37.047462 174.881647,-37.047485 174.881694,-37.047545 174.881703,-37.047606 174.881710,-37.047674 174.881740,-37.047778 174.881766,-37.047848 174.881770,-37.047927 174.881742,-37.048053 174.881671,-37.048195 174.881636,-37.048252</coordinates></LineString><LineString><tessellate>1</tessellate><coordinates>174.884666,-37.047293 174.884716,-37.047252 174.884781,-37.047131 174.884852,-37.047017 174.884938,-37.046896 174.885012,-37.046819 174.885090,-37.046791 174.885220,-37.046791 174.885346,-37.046781 174.885448,-37.046783 174.885555,-37.046769 174.885608,-37.046795 174.885638,-37.046856 174.885671,-37.046916 174.885770,-37.046943</coordinates></LineString><LineString><tessellate>1</tessellate><coordinates>174.885770,-37.046943 174.885809,-37.046881 174.885894,-37.046843 174.886000,-37.046824 174.886139,-37.046788 174.886240,-37.046756 174.886306,-37.046715 174.886352,-37.046672 174.886450,-37.046528 174.886510,-37.046402 174.886535,-37.046319 174.886546,-37.046220 174.886545,-37.046093 174.886565,-37.045978 174.886603,-37.045872 174.886711,-37.045708 174.886827,-37.045549 174.886959,-37.045348 174.887025,-37.045221 174.887058,-37.045135 174.887079,-37.045072 174.887126,-37.045017 174.887263,-37.044914 174.887349,-37.044880 174.887437,-37.044850 174.887612,-37.044859</coordinates></LineString><LineString><tessellate>1</tessellate><coordinates>174.884666,-37.047293 174.884710,-37.047329 174.884728,-37.047417 174.884764,-37.047483 174.884827,-37.047531 174.884863,-37.047573 174.884931,-37.047693 174.884976,-37.047734 174.885041,-37.047742 174.885196,-37.047741 174.885261,-37.047710 174.885305,-37.047663 174.885359,-37.047586 174.885426,-37.047524 174.885601,-37.047426 174.885759,-37.047338 174.885835,-37.047259 174.885858,-37.047185 174.885840,-37.047129 174.885792,-37.047059 174.885771,-37.046999 174.885770,-37.046943</coordinates></LineString><LineString><tessellate>1</tessellate><coordinates>174.882580,-37.048626 174.882655,-37.048570 174.882779,-37.048504 174.882969,-37.048428 174.883135,-37.048374 174.883230,-37.048311 174.883277,-37.048249 174.883325,-37.048187 174.883375,-37.048161 174.883457,-37.048110 174.883501,-37.048054 174.883542,-37.047967 174.883628,-37.047895 174.883724,-37.047856 174.883889,-37.047823 174.884004,-37.047768 174.884073,-37.047686 174.884119,-37.047597 174.884147,-37.047500 174.884185,-37.047414 174.884245,-37.047383 174.884401,-37.047342 174.884458,-37.047293 174.884523,-37.047260 174.884595,-37.047266 174.884666,-37.047293</coordinates></LineString><LineString><tessellate>1</tessellate><coordinates>174.881636,-37.048252 174.881770,-37.048301 174.881937,-37.048388 174.882120,-37.048470 174.882257,-37.048525 174.882467,-37.048591 174.882580,-37.048626</coordinates></LineString><LineString><tessellate>1</tessellate><coordinates>174.882984,-37.049080 174.882885,-37.049016 174.882835,-37.048984 174.882749,-37.048959 174.882634,-37.048933 174.882587,-37.048904 174.882557,-37.048859 174.882551,-37.048815 174.882565,-37.048744 174.882569,-37.048665 174.882580,-37.048626</coordinates></LineString><LineString><tessellate>1</tessellate><coordinates>174.881636,-37.048252 174.881554,-37.048286 174.881492,-37.048320 174.881408,-37.048363 174.881318,-37.048437 174.881234,-37.048473 174.881163,-37.048487 174.881111,-37.048478 174.881038,-37.048403 174.880995,-37.048374 174.880936,-37.048334</coordinates></LineString></MultiGeometry></Placemark></Document></kml>