<?xml version='1.0' encoding='utf-8'?>
<kml xmlns="http://www.opengis.net/kml/2.2"><Document><name>Oneroa / western Waiheke LINZ foot track 1</name><Style id="c"><LineStyle><color>ffff00ff</color><width>5</width></LineStyle></Style><Placemark><name>Oneroa / western Waiheke LINZ foot track 1</name><description>Sheet row 1327; LINZ t50_fid(s) 6082515</description><styleUrl>#c</styleUrl><MultiGeometry><LineString><tessellate>1</tessellate><coordinates>175.001977,-36.776446 175.001974,-36.776450 175.001865,-36.776607 175.001846,-36.776712 175.001873,-36.776816 175.001852,-36.776887 175.001830,-36.776899 175.001724,-36.776899 175.001624,-36.776946 175.001543,-36.776945 175.001420,-36.776962 175.001353,-36.776988 175.001273,-36.777011 175.001241,-36.777073 175.001280,-36.777138 175.001426,-36.777184 175.001473,-36.777281 175.001539,-36.777318 175.001649,-36.777363 175.001677,-36.777421 175.001660,-36.777463 175.001583,-36.777517 175.001574,-36.777593 175.001635,-36.777632 175.001663,-36.777689 175.001617,-36.777796 175.001628,-36.777966 175.001570,-36.778143 175.001516,-36.778441 175.001566,-36.778632 175.001570,-36.778814 175.001560,-36.778926 175.001506,-36.779000 175.001369,-36.779072 175.001285,-36.779191 175.001132,-36.779281 175.001085,-36.779291 175.001060,-36.779372 175.000912,-36.779459 175.000804,-36.779567 175.000807,-36.779661 175.000779,-36.779721 175.000602,-36.779808 175.000629,-36.779876 175.000711,-36.779977 175.000679,-36.780043 175.000615,-36.780099 175.000494,-36.780158</coordinates></LineString></MultiGeometry></Placemark></Document></kml>