<?xml version='1.0' encoding='utf-8'?>
<kml xmlns="http://www.opengis.net/kml/2.2"><Document><name>Panmure LINZ foot track 5</name><Style id="c"><LineStyle><color>ffff00ff</color><width>5</width></LineStyle></Style><Placemark><name>Panmure LINZ foot track 5</name><description>Sheet row 894; LINZ t50_fid(s) 3584670</description><styleUrl>#c</styleUrl><MultiGeometry><LineString><tessellate>1</tessellate><coordinates>174.858789,-36.890896 174.857689,-36.891520</coordinates></LineString></MultiGeometry></Placemark></Document></kml>