<?xml version='1.0' encoding='utf-8'?>
<kml xmlns="http://www.opengis.net/kml/2.2"><Document><name>Stanmore Bay LINZ foot track 9</name><Style id="c"><LineStyle><color>ffff00ff</color><width>5</width></LineStyle></Style><Placemark><name>Stanmore Bay LINZ foot track 9</name><description>Sheet row 1146; LINZ t50_fid(s) 3593388</description><styleUrl>#c</styleUrl><MultiGeometry><LineString><tessellate>1</tessellate><coordinates>174.745546,-36.623541 174.746268,-36.623431 174.746903,-36.623202</coordinates></LineString></MultiGeometry></Placemark></Document></kml>