<?xml version='1.0' encoding='utf-8'?>
<kml xmlns="http://www.opengis.net/kml/2.2"><Document><name>Long Bay LINZ foot track 3</name><Style id="c"><LineStyle><color>ffff00ff</color><width>5</width></LineStyle></Style><Placemark><name>Long Bay LINZ foot track 3</name><description>Sheet row 1070; LINZ t50_fid(s) 8520942</description><styleUrl>#c</styleUrl><MultiGeometry><LineString><tessellate>1</tessellate><coordinates>174.735729,-36.683227 174.736029,-36.683204 174.736530,-36.683176 174.736705,-36.683138 174.736879,-36.683199 174.736920,-36.683064 174.736955,-36.683053 174.737100,-36.683114 174.737126,-36.682982 174.737155,-36.682975 174.737281,-36.683029 174.737304,-36.683021 174.737329,-36.682906 174.737353,-36.682896 174.737482,-36.682952 174.737505,-36.682942 174.737529,-36.682821 174.737563,-36.682814 174.737697,-36.682871 174.737719,-36.682823 174.738067,-36.682694</coordinates></LineString></MultiGeometry></Placemark></Document></kml>