<?xml version='1.0' encoding='utf-8'?>
<kml xmlns="http://www.opengis.net/kml/2.2"><Document><name>Glenfield LINZ foot track 7</name><Style id="c"><LineStyle><color>ffff00ff</color><width>5</width></LineStyle></Style><Placemark><name>Glenfield LINZ foot track 7</name><description>Sheet row 1107; LINZ t50_fid(s) 3584748</description><styleUrl>#c</styleUrl><MultiGeometry><LineString><tessellate>1</tessellate><coordinates>174.724618,-36.770555 174.724564,-36.770558 174.724156,-36.770308 174.724113,-36.770230 174.724013,-36.770010 174.723709,-36.769372</coordinates></LineString></MultiGeometry></Placemark></Document></kml>