<?xml version='1.0' encoding='utf-8'?>
<kml xmlns="http://www.opengis.net/kml/2.2"><Document><name>Kakamatua LINZ foot track 1</name><Style id="c"><LineStyle><color>ffff00ff</color><width>5</width></LineStyle></Style><Placemark><name>Kakamatua LINZ foot track 1</name><description>Sheet row 998; LINZ t50_fid(s) 3592494</description><styleUrl>#c</styleUrl><MultiGeometry><LineString><tessellate>1</tessellate><coordinates>174.577674,-37.003540 174.577672,-37.003551 174.577611,-37.003823 174.577557,-37.003991 174.577534,-37.004059 174.577523,-37.004187 174.577579,-37.004346 174.577465,-37.004654 174.577411,-37.004819</coordinates></LineString></MultiGeometry></Placemark></Document></kml>