<?xml version='1.0' encoding='utf-8'?>
<kml xmlns="http://www.opengis.net/kml/2.2"><Document><name>Takapuna LINZ foot track 1</name><Style id="c"><LineStyle><color>ffff00ff</color><width>5</width></LineStyle></Style><Placemark><name>Takapuna LINZ foot track 1</name><description>Sheet row 828; LINZ t50_fid(s) 3593231,3584773,3556078</description><styleUrl>#c</styleUrl><MultiGeometry><LineString><tessellate>1</tessellate><coordinates>174.782014,-36.804505 174.782023,-36.804478 174.781776,-36.803880 174.781671,-36.803874 174.781624,-36.803720 174.781629,-36.803664 174.781362,-36.803467 174.781252,-36.803242</coordinates></LineString><LineString><tessellate>1</tessellate><coordinates>174.781252,-36.803242 174.781487,-36.802695 174.781711,-36.802253 174.781845,-36.802161 174.782114,-36.801785</coordinates></LineString><LineString><tessellate>1</tessellate><coordinates>174.781165,-36.812488 174.781118,-36.812423 174.781055,-36.812336 174.780414,-36.811449 174.780246,-36.811217 174.779908,-36.810214 174.779704,-36.809673 174.779052,-36.807952 174.778971,-36.807797 174.778818,-36.807667 174.778746,-36.807422 174.778854,-36.806786 174.779007,-36.806500 174.779218,-36.806243 174.779471,-36.806001 174.779779,-36.805560 174.780209,-36.805002 174.780432,-36.804803 174.780519,-36.804751 174.780677,-36.804614 174.780725,-36.804511 174.780705,-36.804336 174.780895,-36.803949 174.780948,-36.803758 174.780953,-36.803547 174.780991,-36.803452 174.781252,-36.803242</coordinates></LineString></MultiGeometry></Placemark></Document></kml>