<?xml version='1.0' encoding='utf-8'?>
<kml xmlns="http://www.opengis.net/kml/2.2"><Document><name>Half Moon Bay LINZ foot track 6</name><Style id="c"><LineStyle><color>ffff00ff</color><width>5</width></LineStyle></Style><Placemark><name>Half Moon Bay LINZ foot track 6</name><description>Sheet row 961; LINZ t50_fid(s) 3584712</description><styleUrl>#c</styleUrl><MultiGeometry><LineString><tessellate>1</tessellate><coordinates>174.904454,-36.890172 174.904502,-36.890245 174.904527,-36.890289 174.904638,-36.890478 174.904761,-36.890715 174.905186,-36.891356</coordinates></LineString></MultiGeometry></Placemark></Document></kml>