<?xml version='1.0' encoding='utf-8'?>
<kml xmlns="http://www.opengis.net/kml/2.2"><Document><name>Pakuranga LINZ foot track 2</name><Style id="c"><LineStyle><color>ffff00ff</color><width>5</width></LineStyle></Style><Placemark><name>Pakuranga LINZ foot track 2</name><description>Sheet row 944; LINZ t50_fid(s) 3573828</description><styleUrl>#c</styleUrl><MultiGeometry><LineString><tessellate>1</tessellate><coordinates>174.867945,-36.916725 174.867874,-36.916713 174.867648,-36.916719 174.867414,-36.916683 174.866964,-36.916677 174.866833,-36.916706 174.866744,-36.916794 174.865989,-36.916959 174.865850,-36.917004 174.865836,-36.917008 174.865699,-36.917053 174.865221,-36.917240 174.864963,-36.917420 174.864494,-36.917847</coordinates></LineString></MultiGeometry></Placemark></Document></kml>