<?xml version='1.0' encoding='utf-8'?>
<kml xmlns="http://www.opengis.net/kml/2.2"><Document><name>Browns Bay LINZ foot track 18</name><Style id="c"><LineStyle><color>ffff00ff</color><width>5</width></LineStyle></Style><Placemark><name>Browns Bay LINZ foot track 18</name><description>Sheet row 1156; LINZ t50_fid(s) 3593255</description><styleUrl>#c</styleUrl><MultiGeometry><LineString><tessellate>1</tessellate><coordinates>174.737000,-36.722304 174.737344,-36.722709 174.737830,-36.723117</coordinates></LineString></MultiGeometry></Placemark></Document></kml>