<?xml version='1.0' encoding='utf-8'?>
<kml xmlns="http://www.opengis.net/kml/2.2"><Document><name>Te Atatū South LINZ foot track 3</name><Style id="c"><LineStyle><color>ffff00ff</color><width>5</width></LineStyle></Style><Placemark><name>Te Atatū South LINZ foot track 3</name><description>Sheet row 1358; LINZ t50_fid(s) 8466366,8467136,8465981</description><styleUrl>#c</styleUrl><MultiGeometry><LineString><tessellate>1</tessellate><coordinates>174.638198,-36.863456 174.638174,-36.863384 174.638138,-36.863343 174.638076,-36.863274 174.637959,-36.863211 174.637941,-36.863169 174.637954,-36.863129 174.638062,-36.863024 174.638615,-36.862691 174.638887,-36.862564 174.638909,-36.862503 174.638997,-36.862451 174.639118,-36.862408 174.639199,-36.862307 174.639267,-36.862215 174.639312,-36.862150 174.639307,-36.862087 174.639240,-36.862016 174.639241,-36.861965 174.639277,-36.861890 174.639276,-36.861827 174.639230,-36.861698 174.639242,-36.861591 174.639223,-36.861508 174.639232,-36.861417 174.639176,-36.861332 174.639157,-36.861242 174.639253,-36.861155 174.639191,-36.861082 174.639217,-36.860956 174.639201,-36.860833 174.639149,-36.860783 174.639135,-36.860727 174.639126,-36.860536 174.639101,-36.860460 174.639034,-36.860303 174.639021,-36.860046 174.639022,-36.859877 174.638998,-36.859725 174.638971,-36.859659 174.638924,-36.859596 174.638917,-36.859520 174.638958,-36.859372 174.638949,-36.859213 174.638972,-36.859104 174.638992,-36.859042 174.639062,-36.858889 174.639078,-36.858783 174.639120,-36.858688 174.639115,-36.858592 174.639013,-36.858109 174.639038,-36.857961 174.639081,-36.857860 174.639250,-36.857604 174.639353,-36.857512 174.639449,-36.857455 174.639637,-36.857377 174.639833,-36.857314 174.639935,-36.857294 174.640014,-36.857301 174.640112,-36.857319 174.640179,-36.857340 174.640239,-36.857372 174.640277,-36.857366 174.640396,-36.857308 174.640502,-36.857247 174.640545,-36.857191 174.640579,-36.857131 174.640605,-36.857005 174.640672,-36.856905 174.640747,-36.856830 174.640754,-36.856791 174.640742,-36.856732 174.640611,-36.856466 174.640602,-36.856413 174.640627,-36.856348 174.640801,-36.856151 174.640835,-36.856026 174.641041,-36.855589 174.641046,-36.855531 174.641104,-36.855406 174.641200,-36.855246 174.641310,-36.855078 174.641371,-36.854910 174.641409,-36.854791 174.641447,-36.854729 174.641408,-36.854664 174.641417,-36.854577 174.641472,-36.854512 174.641502,-36.854436 174.641505,-36.854300 174.641497,-36.854259 174.641480,-36.854194 174.641490,-36.854108 174.641480,-36.853916 174.641444,-36.853731 174.641418,-36.853663 174.641345,-36.853581 174.641346,-36.853479 174.641390,-36.853384 174.641568,-36.853139</coordinates></LineString><LineString><tessellate>1</tessellate><coordinates>174.638198,-36.863456 174.638284,-36.863400 174.638316,-36.863399 174.638408,-36.863420 174.638468,-36.863408 174.638757,-36.863280 174.638868,-36.863261</coordinates></LineString><LineString><tessellate>1</tessellate><coordinates>174.634348,-36.877370 174.634433,-36.877292 174.634440,-36.877235 174.634466,-36.877189 174.634485,-36.877178 174.634511,-36.877159 174.634630,-36.877051 174.634771,-36.876965 174.634829,-36.876882 174.634884,-36.876827 174.634897,-36.876794 174.634888,-36.876729 174.634859,-36.876675 174.634763,-36.876594 174.634692,-36.876524 174.634671,-36.876482 174.634630,-36.876401 174.634694,-36.876359 174.634755,-36.876350 174.634842,-36.876344 174.634927,-36.876306 174.635025,-36.876236 174.635099,-36.876146 174.635163,-36.876102 174.635270,-36.876061 174.635307,-36.876026 174.635314,-36.875974 174.635393,-36.875921 174.635441,-36.875862 174.635447,-36.875766 174.635423,-36.875695 174.635415,-36.875661 174.635451,-36.875617 174.635572,-36.875565 174.635708,-36.875503 174.635777,-36.875464 174.635860,-36.875416 174.635889,-36.875388 174.635888,-36.875353 174.635823,-36.875205 174.635796,-36.875103 174.635771,-36.875041 174.635702,-36.874977 174.635595,-36.874907 174.635537,-36.874847 174.635442,-36.874675 174.635371,-36.874607 174.635240,-36.874535 174.635174,-36.874471 174.635076,-36.874316 174.635058,-36.874251 174.635050,-36.874091 174.635086,-36.873915 174.635142,-36.873875 174.635194,-36.873790 174.635246,-36.873701 174.635286,-36.873687 174.635330,-36.873704 174.635430,-36.873850 174.635505,-36.873938 174.635567,-36.873971 174.635679,-36.874011 174.635519,-36.873579 174.635473,-36.873491 174.635474,-36.873405 174.635488,-36.873319 174.635475,-36.873248 174.635503,-36.873147 174.635470,-36.873033 174.635450,-36.872913 174.635447,-36.872814 174.635435,-36.872781 174.635363,-36.872719 174.635327,-36.872655 174.635133,-36.872192 174.635072,-36.872017 174.635013,-36.871872 174.634983,-36.871734 174.634976,-36.871642 174.634983,-36.871522 174.635004,-36.871421 174.635060,-36.871273 174.635151,-36.871111 174.635198,-36.871022 174.635242,-36.870931 174.635284,-36.870876 174.635370,-36.870805 174.635485,-36.870717 174.635766,-36.870508 174.635993,-36.870370 174.636288,-36.870181 174.636478,-36.870056 174.636674,-36.869832 174.636723,-36.869796 174.636788,-36.869786 174.636861,-36.869787 174.636970,-36.869809 174.637074,-36.869863 174.637142,-36.869888 174.637199,-36.869888 174.637247,-36.869868 174.637294,-36.869829 174.637326,-36.869782 174.637336,-36.869740 174.637330,-36.869684 174.637282,-36.869569 174.637112,-36.869275 174.637100,-36.869222 174.637138,-36.869066 174.637144,-36.868918 174.637131,-36.868547 174.637145,-36.868451 174.637150,-36.868342 174.637167,-36.868081 174.637155,-36.867948 174.637176,-36.867828 174.637162,-36.867699 174.637152,-36.867592 174.637103,-36.867423 174.637058,-36.867268 174.637021,-36.867058 174.636982,-36.866916 174.636853,-36.866491 174.636828,-36.866399 174.636816,-36.866254 174.636824,-36.866119 174.636859,-36.865909 174.636884,-36.865772 174.636878,-36.865638 174.636834,-36.865474 174.636753,-36.865246 174.636732,-36.865145 174.636708,-36.864977 174.636678,-36.864863 174.636644,-36.864782 174.636522,-36.864569 174.636514,-36.864519 174.636510,-36.864412 174.636478,-36.864317 174.636474,-36.864250 174.636496,-36.864204 174.636541,-36.864179 174.636569,-36.864164 174.636677,-36.864150 174.636779,-36.864089 174.636935,-36.863991 174.637164,-36.863809 174.637241,-36.863765 174.637312,-36.863755 174.637385,-36.863756 174.637500,-36.863754 174.637613,-36.863740 174.637709,-36.863707 174.637845,-36.863642 174.638036,-36.863536 174.638123,-36.863500 174.638198,-36.863456</coordinates></LineString></MultiGeometry></Placemark></Document></kml>