<?xml version='1.0' encoding='utf-8'?>
<kml xmlns="http://www.opengis.net/kml/2.2"><Document><name>Birkenhead LINZ foot track 8</name><Style id="c"><LineStyle><color>ffff00ff</color><width>5</width></LineStyle></Style><Placemark><name>Birkenhead LINZ foot track 8</name><description>Sheet row 889; LINZ t50_fid(s) 3593157</description><styleUrl>#c</styleUrl><MultiGeometry><LineString><tessellate>1</tessellate><coordinates>174.726812,-36.803240 174.727139,-36.803638 174.727532,-36.804201</coordinates></LineString></MultiGeometry></Placemark></Document></kml>