<?xml version='1.0' encoding='utf-8'?>
<kml xmlns="http://www.opengis.net/kml/2.2"><Document><name>Browns Bay LINZ foot track 10</name><Style id="c"><LineStyle><color>ffff00ff</color><width>5</width></LineStyle></Style><Placemark><name>Browns Bay LINZ foot track 10</name><description>Sheet row 1090; LINZ t50_fid(s) 3584797</description><styleUrl>#c</styleUrl><MultiGeometry><LineString><tessellate>1</tessellate><coordinates>174.749908,-36.699812 174.750624,-36.700133 174.751338,-36.700488 174.751869,-36.700658</coordinates></LineString></MultiGeometry></Placemark></Document></kml>