<?xml version='1.0' encoding='utf-8'?>
<kml xmlns="http://www.opengis.net/kml/2.2"><Document><name>Waiheke Island LINZ foot track 1</name><Style id="c"><LineStyle><color>ffff00ff</color><width>5</width></LineStyle></Style><Placemark><name>Waiheke Island LINZ foot track 1</name><description>Sheet row 1325; LINZ t50_fid(s) 7880150,7879451,7880149</description><styleUrl>#c</styleUrl><MultiGeometry><LineString><tessellate>1</tessellate><coordinates>175.026465,-36.783285 175.026483,-36.783279 175.026583,-36.783244 175.026473,-36.783052 175.026659,-36.782935 175.026637,-36.782875 175.026797,-36.782761 175.026766,-36.782644 175.026920,-36.782564 175.026912,-36.782420 175.027115,-36.782297 175.027030,-36.782131 175.027180,-36.781966 175.027332,-36.781852</coordinates></LineString><LineString><tessellate>1</tessellate><coordinates>175.027332,-36.781852 175.027391,-36.781864 175.027664,-36.781994 175.027710,-36.782069 175.027880,-36.782235 175.028134,-36.782368 175.028175,-36.782405 175.028304,-36.782574 175.028405,-36.782667 175.028436,-36.782681 175.028705,-36.782686 175.028795,-36.782691 175.029128,-36.782803 175.029496,-36.782934 175.029814,-36.783020 175.030115,-36.783058 175.030434,-36.783085 175.030716,-36.783120 175.031052,-36.783112 175.031180,-36.783088 175.031609,-36.782959 175.031709,-36.782911 175.031753,-36.782881 175.031951,-36.782691 175.032037,-36.782646 175.032420,-36.782593 175.032465,-36.782600 175.032546,-36.782616 175.032559,-36.782629 175.032568,-36.782635 175.032667,-36.782604 175.032833,-36.782547 175.032963,-36.782508 175.033157,-36.782458 175.033274,-36.782401 175.033443,-36.782357 175.033588,-36.782365</coordinates></LineString><LineString><tessellate>1</tessellate><coordinates>175.029285,-36.780214 175.029220,-36.780171 175.029196,-36.780185 175.029114,-36.780218 175.029045,-36.780237 175.028970,-36.780205 175.028903,-36.780209 175.028829,-36.780223 175.028812,-36.780281 175.028881,-36.780364 175.028914,-36.780492 175.028870,-36.780618 175.028801,-36.780729 175.028765,-36.780819 175.028619,-36.780906 175.028528,-36.780912 175.028397,-36.780930 175.028274,-36.781017 175.028186,-36.781046 175.028070,-36.781081 175.027983,-36.781064 175.027877,-36.781064 175.027852,-36.781096 175.027870,-36.781137 175.027812,-36.781218 175.027746,-36.781373 175.027684,-36.781463 175.027637,-36.781495 175.027561,-36.781495 175.027466,-36.781542 175.027386,-36.781696 175.027349,-36.781772 175.027332,-36.781852</coordinates></LineString></MultiGeometry></Placemark></Document></kml>