<?xml version='1.0' encoding='utf-8'?>
<kml xmlns="http://www.opengis.net/kml/2.2"><Document><name>Browns Bay LINZ foot track 12</name><Style id="c"><LineStyle><color>ffff00ff</color><width>5</width></LineStyle></Style><Placemark><name>Browns Bay LINZ foot track 12</name><description>Sheet row 1112; LINZ t50_fid(s) 3593264</description><styleUrl>#c</styleUrl><MultiGeometry><LineString><tessellate>1</tessellate><coordinates>174.749784,-36.718814 174.749722,-36.718290 174.749672,-36.718099 174.749304,-36.717474</coordinates></LineString></MultiGeometry></Placemark></Document></kml>