<?xml version='1.0' encoding='utf-8'?>
<kml xmlns="http://www.opengis.net/kml/2.2"><Document><name>Algies Bay LINZ foot track 1</name><Style id="c"><LineStyle><color>ffff00ff</color><width>5</width></LineStyle></Style><Placemark><name>Algies Bay LINZ foot track 1</name><description>Sheet row 811; LINZ t50_fid(s) 3574116</description><styleUrl>#c</styleUrl><MultiGeometry><LineString><tessellate>1</tessellate><coordinates>174.738791,-36.427818 174.738890,-36.427895 174.739011,-36.428149 174.739158,-36.428278 174.739714,-36.428439 174.739825,-36.428493 174.739880,-36.428613 174.739843,-36.428846 174.740003,-36.429087 174.739999,-36.429202 174.739876,-36.429537 174.739821,-36.429612 174.739881,-36.429733 174.739888,-36.429801 174.739909,-36.429862 174.739839,-36.429942 174.739561,-36.430084 174.739379,-36.430119 174.739264,-36.430103 174.739061,-36.430143 174.738798,-36.430094 174.738615,-36.430089 174.738195,-36.430188 174.737958,-36.430198</coordinates></LineString></MultiGeometry></Placemark></Document></kml>