<?xml version='1.0' encoding='utf-8'?>
<kml xmlns="http://www.opengis.net/kml/2.2"><Document><name>Te Atatū South LINZ foot track 4</name><Style id="c"><LineStyle><color>ffff00ff</color><width>5</width></LineStyle></Style><Placemark><name>Te Atatū South LINZ foot track 4</name><description>Sheet row 1380; LINZ t50_fid(s) 8466769</description><styleUrl>#c</styleUrl><MultiGeometry><LineString><tessellate>1</tessellate><coordinates>174.641850,-36.870984 174.641961,-36.871089 174.642032,-36.871168 174.642092,-36.871209 174.642219,-36.871255 174.642332,-36.871320 174.642409,-36.871348 174.642417,-36.871433 174.642465,-36.871509 174.642542,-36.871592 174.642674,-36.871718 174.642609,-36.871761 174.642590,-36.871798 174.642592,-36.871883 174.642580,-36.871950 174.642558,-36.872021 174.642434,-36.872095 174.642237,-36.872246 174.642129,-36.872313 174.642010,-36.872424 174.641958,-36.872496 174.641866,-36.872645 174.641803,-36.872708 174.641733,-36.872745 174.641643,-36.872775 174.641534,-36.872798 174.641474,-36.872838 174.641447,-36.872886 174.641416,-36.872963 174.641395,-36.873047 174.641392,-36.873129 174.641407,-36.873220 174.641458,-36.873375 174.641468,-36.873448 174.641511,-36.873527 174.641582,-36.873592 174.641677,-36.873654 174.642132,-36.873939 174.642447,-36.874148 174.642805,-36.874413</coordinates></LineString></MultiGeometry></Placemark></Document></kml>