<?xml version='1.0' encoding='utf-8'?>
<kml xmlns="http://www.opengis.net/kml/2.2"><Document><name>Māngere Bridge LINZ foot track 1</name><Style id="c"><LineStyle><color>ffff00ff</color><width>5</width></LineStyle></Style><Placemark><name>Māngere Bridge LINZ foot track 1</name><description>Sheet row 833; LINZ t50_fid(s) 6082502</description><styleUrl>#c</styleUrl><MultiGeometry><LineString><tessellate>1</tessellate><coordinates>174.786270,-36.937593 174.786815,-36.937608 174.787305,-36.937612 174.787553,-36.937585 174.787729,-36.937526 174.787861,-36.937404 174.787914,-36.937284 174.787926,-36.937164 174.787885,-36.936618 174.787924,-36.936458 174.788027,-36.936331 174.788181,-36.936243 174.788329,-36.936207 174.788632,-36.936117 174.788898,-36.935965 174.789121,-36.935790 174.789229,-36.935742 174.789231,-36.935741 174.789233,-36.935740 174.789332,-36.935696 174.789517,-36.935710 174.790028,-36.936323 174.790119,-36.936590 174.790278,-36.937288 174.790424,-36.937770 174.790568,-36.938178 174.790779,-36.938722 174.791055,-36.939259 174.791298,-36.939654 174.791447,-36.939867 174.791525,-36.939938 174.791642,-36.939976 174.791842,-36.939991 174.792171,-36.940032 174.792409,-36.940103 174.792582,-36.940269 174.792584,-36.940270</coordinates></LineString></MultiGeometry></Placemark></Document></kml>