<?xml version='1.0' encoding='utf-8'?>
<kml xmlns="http://www.opengis.net/kml/2.2"><Document><name>Waharau / Whakatīwai LINZ foot track 6</name><Style id="c"><LineStyle><color>ffff00ff</color><width>5</width></LineStyle></Style><Placemark><name>Waharau / Whakatīwai LINZ foot track 6</name><description>Sheet row 1463; LINZ t50_fid(s) 3573926</description><styleUrl>#c</styleUrl><MultiGeometry><LineString><tessellate>1</tessellate><coordinates>175.253957,-37.052551 175.253425,-37.052594 175.253182,-37.052740 175.252430,-37.052456 175.252109,-37.052389 175.251730,-37.051916 175.250839,-37.051766 175.249948,-37.052073 175.249666,-37.051904 175.249307,-37.051449 175.248879,-37.050281 175.249061,-37.050047 175.249624,-37.049774 175.249771,-37.049395 175.249446,-37.048553 175.249047,-37.047979 175.248486,-37.047448</coordinates></LineString></MultiGeometry></Placemark></Document></kml>