<?xml version='1.0' encoding='utf-8'?>
<kml xmlns="http://www.opengis.net/kml/2.2"><Document><name>Greenhithe LINZ foot track 4</name><Style id="c"><LineStyle><color>ffff00ff</color><width>5</width></LineStyle></Style><Placemark><name>Greenhithe LINZ foot track 4</name><description>Sheet row 1062; LINZ t50_fid(s) 8466776</description><styleUrl>#c</styleUrl><MultiGeometry><LineString><tessellate>1</tessellate><coordinates>174.685609,-36.764506 174.685660,-36.764505 174.685714,-36.764424 174.685879,-36.764287 174.686048,-36.764102 174.686174,-36.764020 174.686241,-36.763967 174.686304,-36.763869 174.686349,-36.763788 174.686392,-36.763780 174.686445,-36.763782 174.686600,-36.763794 174.686649,-36.763759 174.686738,-36.763735 174.686850,-36.763731 174.686944,-36.763740 174.687055,-36.763769 174.687266,-36.763852 174.687448,-36.763869 174.687534,-36.763876 174.687658,-36.763885 174.687816,-36.763883 174.688015,-36.763926 174.688139,-36.763935 174.688278,-36.763933 174.688386,-36.763966 174.688473,-36.764014 174.688590,-36.764101 174.688618,-36.764154 174.688656,-36.764281 174.688708,-36.764336 174.688733,-36.764381 174.688713,-36.764453 174.688692,-36.764464 174.688628,-36.764478 174.688623,-36.764508 174.688662,-36.764594</coordinates></LineString></MultiGeometry></Placemark></Document></kml>