<?xml version='1.0' encoding='utf-8'?>
<kml xmlns="http://www.opengis.net/kml/2.2"><Document><name>Henderson LINZ foot track 2</name><Style id="c"><LineStyle><color>ffff00ff</color><width>5</width></LineStyle></Style><Placemark><name>Henderson LINZ foot track 2</name><description>Sheet row 1340; LINZ t50_fid(s) 8466357,8467121,8466363</description><styleUrl>#c</styleUrl><MultiGeometry><LineString><tessellate>1</tessellate><coordinates>174.625191,-36.904819 174.625211,-36.904676 174.625224,-36.904500 174.625231,-36.904445 174.625381,-36.904095 174.625411,-36.903962 174.625427,-36.903802 174.625422,-36.903559 174.625395,-36.903036 174.625416,-36.902883 174.625470,-36.902746 174.625555,-36.902586 174.625613,-36.902465 174.625646,-36.902266 174.625691,-36.901941 174.625725,-36.901836 174.625792,-36.901728 174.625887,-36.901620 174.626100,-36.901399 174.626793,-36.900694 174.627111,-36.900411 174.627678,-36.899896 174.627754,-36.899856 174.627907,-36.899815 174.628394,-36.899695 174.628563,-36.899627 174.628702,-36.899547 174.628826,-36.899458 174.628889,-36.899395 174.628920,-36.899333 174.628992,-36.899066 174.629029,-36.898926</coordinates></LineString><LineString><tessellate>1</tessellate><coordinates>174.629029,-36.898926 174.628917,-36.898923 174.628799,-36.898921 174.628701,-36.898919 174.628492,-36.898891 174.628389,-36.898876 174.628262,-36.898875</coordinates></LineString><LineString><tessellate>1</tessellate><coordinates>174.629029,-36.898926 174.629085,-36.898723 174.629140,-36.898645 174.629228,-36.898575 174.629606,-36.898307 174.629678,-36.898228 174.630016,-36.897775 174.630197,-36.897568 174.630379,-36.897367 174.630482,-36.897275 174.630586,-36.897215 174.630679,-36.897191 174.630776,-36.897196 174.630975,-36.897219 174.631072,-36.897221 174.631196,-36.897181 174.631284,-36.897111 174.631375,-36.897003 174.631477,-36.896871 174.631579,-36.896734 174.631641,-36.896619 174.631672,-36.896534 174.631682,-36.896450 174.631676,-36.896339 174.631689,-36.896212 174.631712,-36.896141 174.631763,-36.896075 174.631851,-36.896019 174.631867,-36.896008 174.632043,-36.895902 174.632214,-36.895786 174.632337,-36.895664 174.632408,-36.895556 174.632446,-36.895451 174.632464,-36.895341 174.632448,-36.895192 174.632378,-36.894913 174.632376,-36.894838 174.632447,-36.894548 174.632495,-36.894356 174.632518,-36.894291 174.632553,-36.894238 174.632665,-36.894156 174.632838,-36.894044 174.632892,-36.894009 174.633056,-36.893907 174.633200,-36.893840 174.633565,-36.893679 174.633777,-36.893591 174.633918,-36.893544 174.634036,-36.893515</coordinates></LineString></MultiGeometry></Placemark></Document></kml>