<?xml version='1.0' encoding='utf-8'?>
<kml xmlns="http://www.opengis.net/kml/2.2"><Document><name>Māngere LINZ foot track 5</name><Style id="c"><LineStyle><color>ffff00ff</color><width>5</width></LineStyle></Style><Placemark><name>Māngere LINZ foot track 5</name><description>Sheet row 1230; LINZ t50_fid(s) 3592787,3584591,3584594</description><styleUrl>#c</styleUrl><MultiGeometry><LineString><tessellate>1</tessellate><coordinates>174.799388,-36.973212 174.799403,-36.972907 174.799439,-36.972619</coordinates></LineString><LineString><tessellate>1</tessellate><coordinates>174.799706,-36.970934 174.799580,-36.971881 174.799439,-36.972619</coordinates></LineString><LineString><tessellate>1</tessellate><coordinates>174.799439,-36.972619 174.798412,-36.973164 174.798048,-36.973206 174.797761,-36.973193</coordinates></LineString></MultiGeometry></Placemark></Document></kml>