<?xml version='1.0' encoding='utf-8'?>
<kml xmlns="http://www.opengis.net/kml/2.2"><Document><name>Pakuranga LINZ foot track 1</name><Style id="c"><LineStyle><color>ffff00ff</color><width>5</width></LineStyle></Style><Placemark><name>Pakuranga LINZ foot track 1</name><description>Sheet row 941; LINZ t50_fid(s) 6082517</description><styleUrl>#c</styleUrl><MultiGeometry><LineString><tessellate>1</tessellate><coordinates>174.881285,-36.897321 174.880755,-36.896848 174.880642,-36.896735 174.880056,-36.895972 174.879771,-36.895858 174.879728,-36.895733 174.879779,-36.895537 174.879876,-36.895417 174.880137,-36.895255 174.880402,-36.895004 174.880472,-36.894830 174.880755,-36.894521 174.880756,-36.894423 174.880693,-36.894268 174.880455,-36.893937 174.880521,-36.893922 174.880697,-36.893899 174.880867,-36.893857 174.881082,-36.893741</coordinates></LineString></MultiGeometry></Placemark></Document></kml>