<?xml version='1.0' encoding='utf-8'?>
<kml xmlns="http://www.opengis.net/kml/2.2"><Document><name>Wiri LINZ foot track 3</name><Style id="c"><LineStyle><color>ffff00ff</color><width>5</width></LineStyle></Style><Placemark><name>Wiri LINZ foot track 3</name><description>Sheet row 1229; LINZ t50_fid(s) 3592734,3592748,3584601</description><styleUrl>#c</styleUrl><MultiGeometry><LineString><tessellate>1</tessellate><coordinates>174.866310,-37.020012 174.866369,-37.019933 174.867119,-37.019505 174.867995,-37.019427</coordinates></LineString><LineString><tessellate>1</tessellate><coordinates>174.867995,-37.019427 174.868184,-37.019646 174.868896,-37.020033</coordinates></LineString><LineString><tessellate>1</tessellate><coordinates>174.869561,-37.018553 174.868758,-37.019041 174.868752,-37.019045 174.867995,-37.019427</coordinates></LineString></MultiGeometry></Placemark></Document></kml>