<?xml version='1.0' encoding='utf-8'?>
<kml xmlns="http://www.opengis.net/kml/2.2"><Document><name>Mt Roskill LINZ foot track 7</name><Style id="c"><LineStyle><color>ffff00ff</color><width>5</width></LineStyle></Style><Placemark><name>Mt Roskill LINZ foot track 7</name><description>Sheet row 1371; LINZ t50_fid(s) 3554621,8466362,8466765,8466766,8466767,8466986,8466988,8467129,8467130</description><styleUrl>#c</styleUrl><MultiGeometry><LineString><tessellate>1</tessellate><coordinates>174.722969,-36.903926 174.723135,-36.904103 174.723174,-36.904228 174.723212,-36.904294 174.723297,-36.904368 174.723406,-36.904416 174.723585,-36.904460 174.723950,-36.904597 174.724382,-36.904803 174.725445,-36.905352 174.726078,-36.905644 174.726494,-36.905991 174.726710,-36.906081 174.727208,-36.906238 174.727695,-36.906413 174.727859,-36.906512 174.728018,-36.906654 174.728115,-36.906734 174.728234,-36.906800 174.728406,-36.906892 174.729393,-36.907365 174.730020,-36.907671 174.730366,-36.907842 174.730716,-36.907978 174.731175,-36.908226 174.731529,-36.908425 174.732185,-36.908795 174.732704,-36.909082 174.733287,-36.909377 174.733909,-36.909648 174.734177,-36.909713 174.734258,-36.909738 174.734381,-36.909789 174.734600,-36.909868 174.735225,-36.910093 174.735627,-36.910233 174.735650,-36.910278 174.735655,-36.910339 174.735744,-36.910439 174.735840,-36.910487 174.736092,-36.910575 174.736311,-36.910633 174.736585,-36.910693 174.736888,-36.910732 174.737120,-36.910768 174.737317,-36.910811 174.737511,-36.910861 174.737731,-36.910936 174.737912,-36.911017 174.738034,-36.911089 174.738144,-36.911173 174.738269,-36.911276 174.738419,-36.911409 174.738547,-36.911534 174.738639,-36.911607 174.738729,-36.911656 174.738834,-36.911698 174.738927,-36.911710 174.739036,-36.911713 174.739125,-36.911696 174.739190,-36.911691 174.739229,-36.911699 174.739234,-36.911723 174.739184,-36.911995 174.739149,-36.912152 174.739141,-36.912225 174.739117,-36.912439 174.739194,-36.912481</coordinates></LineString><LineString><tessellate>1</tessellate><coordinates>174.743999,-36.922687 174.743409,-36.922696 174.742857,-36.922691 174.742609,-36.922677 174.742571,-36.922652 174.742533,-36.922613 174.742466,-36.922511</coordinates></LineString><LineString><tessellate>1</tessellate><coordinates>174.743999,-36.922687 174.744502,-36.922665 174.744699,-36.922629</coordinates></LineString><LineString><tessellate>1</tessellate><coordinates>174.743472,-36.919019 174.743342,-36.919047 174.743322,-36.919104 174.743362,-36.919276 174.743760,-36.920560 174.744118,-36.921721 174.744086,-36.921783 174.743993,-36.921876 174.743999,-36.922687</coordinates></LineString><LineString><tessellate>1</tessellate><coordinates>174.742466,-36.922511 174.742434,-36.922573 174.742390,-36.922603 174.742330,-36.922619 174.742162,-36.922608 174.742046,-36.922603 174.741970,-36.922623 174.741875,-36.922665 174.741676,-36.922742 174.741514,-36.922802 174.741372,-36.922875 174.741251,-36.922981 174.741191,-36.923055 174.741182,-36.923073 174.741156,-36.923125</coordinates></LineString><LineString><tessellate>1</tessellate><coordinates>174.742466,-36.922511 174.742444,-36.922456 174.742414,-36.922380 174.742408,-36.922269 174.742422,-36.922137 174.742355,-36.922042 174.742327,-36.921976 174.742313,-36.921893 174.742318,-36.921701 174.742309,-36.921633 174.742274,-36.921514 174.742205,-36.921405 174.742059,-36.921246 174.742063,-36.921191 174.742096,-36.921047 174.742140,-36.920742 174.742163,-36.920479 174.742095,-36.919730 174.742075,-36.919472 174.742091,-36.919400 174.742095,-36.919348 174.742077,-36.919281 174.742033,-36.919199 174.741988,-36.919077 174.741960,-36.918920 174.741932,-36.918118 174.741850,-36.917345 174.741852,-36.917195 174.741824,-36.917123 174.741759,-36.917017 174.741700,-36.916942 174.741527,-36.916797 174.741474,-36.916733 174.741457,-36.916678 174.741458,-36.916607 174.741478,-36.916530 174.741722,-36.916025 174.742224,-36.914968 174.742558,-36.914271 174.742826,-36.913716 174.742846,-36.913686 174.742889,-36.913676 174.743154,-36.913757 174.743207,-36.913769 174.743261,-36.913761 174.743304,-36.913741 174.743392,-36.913675</coordinates></LineString><LineString><tessellate>1</tessellate><coordinates>174.746013,-36.914828 174.744545,-36.916423 174.743789,-36.917259 174.743458,-36.917632 174.743282,-36.917876 174.743228,-36.917966</coordinates></LineString><LineString><tessellate>1</tessellate><coordinates>174.743392,-36.913675 174.743455,-36.913718 174.743589,-36.913808 174.743763,-36.913890 174.744015,-36.913973 174.744189,-36.914028 174.744295,-36.914086 174.744352,-36.914126 174.744450,-36.914225 174.744565,-36.914304 174.744760,-36.914367 174.744875,-36.914385 174.745003,-36.914381 174.745232,-36.914355 174.745396,-36.914362 174.745494,-36.914395 174.745600,-36.914466 174.745690,-36.914587 174.745810,-36.914750 174.745868,-36.914786 174.745939,-36.914814 174.746013,-36.914828</coordinates></LineString><LineString><tessellate>1</tessellate><coordinates>174.739194,-36.912481 174.739288,-36.912470 174.739412,-36.912148 174.739489,-36.911959 174.739531,-36.911918 174.739579,-36.911893 174.739631,-36.911896 174.739756,-36.911961 174.740459,-36.912297 174.741674,-36.912799 174.742790,-36.913251 174.743002,-36.913352 174.743131,-36.913443 174.743318,-36.913620 174.743392,-36.913675</coordinates></LineString></MultiGeometry></Placemark></Document></kml>