<?xml version='1.0' encoding='utf-8'?>
<kml xmlns="http://www.opengis.net/kml/2.2"><Document><name>Weymouth LINZ foot track 5</name><Style id="c"><LineStyle><color>ffff00ff</color><width>5</width></LineStyle></Style><Placemark><name>Weymouth LINZ foot track 5</name><description>Sheet row 1251; LINZ t50_fid(s) 3592732</description><styleUrl>#c</styleUrl><MultiGeometry><LineString><tessellate>1</tessellate><coordinates>174.868551,-37.030811 174.868710,-37.030747 174.869615,-37.030392 174.870065,-37.030626 174.870489,-37.030798</coordinates></LineString></MultiGeometry></Placemark></Document></kml>