<?xml version='1.0' encoding='utf-8'?>
<kml xmlns="http://www.opengis.net/kml/2.2"><Document><name>Ellerslie LINZ foot track 3</name><Style id="c"><LineStyle><color>ffff00ff</color><width>5</width></LineStyle></Style><Placemark><name>Ellerslie LINZ foot track 3</name><description>Sheet row 892; LINZ t50_fid(s) 3592997</description><styleUrl>#c</styleUrl><MultiGeometry><LineString><tessellate>1</tessellate><coordinates>174.799198,-36.907622 174.798049,-36.907050</coordinates></LineString></MultiGeometry></Placemark></Document></kml>