<?xml version='1.0' encoding='utf-8'?>
<kml xmlns="http://www.opengis.net/kml/2.2"><Document><name>West Harbour LINZ foot track 5</name><Style id="c"><LineStyle><color>ffff00ff</color><width>5</width></LineStyle></Style><Placemark><name>West Harbour LINZ foot track 5</name><description>Sheet row 1377; LINZ t50_fid(s) 8466772</description><styleUrl>#c</styleUrl><MultiGeometry><LineString><tessellate>1</tessellate><coordinates>174.635639,-36.822664 174.635670,-36.822786 174.635680,-36.822861 174.635661,-36.822943 174.635598,-36.823087 174.635582,-36.823145 174.635591,-36.823228 174.635620,-36.823336 174.635603,-36.823465 174.635434,-36.823881 174.635166,-36.824542 174.635139,-36.824560 174.635114,-36.824558 174.634961,-36.824479 174.634906,-36.824420 174.634846,-36.824405 174.634787,-36.824424 174.634712,-36.824494 174.634612,-36.824589 174.634494,-36.824653 174.634284,-36.824753 174.634154,-36.824828 174.634051,-36.824961 174.633921,-36.825078 174.633911,-36.825140 174.633896,-36.825244 174.633880,-36.825292 174.633813,-36.825383 174.633765,-36.825402 174.633573,-36.825386 174.633455,-36.825377 174.633277,-36.825363 174.633166,-36.825369 174.633084,-36.825407 174.633057,-36.825490 174.633070,-36.825587 174.633058,-36.825690 174.633015,-36.825813 174.632962,-36.826037 174.632850,-36.826393 174.632774,-36.826592 174.632685,-36.826729 174.632518,-36.826810 174.632267,-36.826906</coordinates></LineString></MultiGeometry></Placemark></Document></kml>