<?xml version='1.0' encoding='utf-8'?>
<kml xmlns="http://www.opengis.net/kml/2.2"><Document><name>Oneroa / western Waiheke LINZ foot track 2</name><Style id="c"><LineStyle><color>ffff00ff</color><width>5</width></LineStyle></Style><Placemark><name>Oneroa / western Waiheke LINZ foot track 2</name><description>Sheet row 1333; LINZ t50_fid(s) 3593285</description><styleUrl>#c</styleUrl><MultiGeometry><LineString><tessellate>1</tessellate><coordinates>175.007044,-36.784190 175.007053,-36.784184 175.007914,-36.783545 175.008137,-36.783315</coordinates></LineString></MultiGeometry></Placemark></Document></kml>