<?xml version='1.0' encoding='utf-8'?>
<kml xmlns="http://www.opengis.net/kml/2.2"><Document><name>West Harbour LINZ foot track 7</name><Style id="c"><LineStyle><color>ffff00ff</color><width>5</width></LineStyle></Style><Placemark><name>West Harbour LINZ foot track 7</name><description>Sheet row 1379; LINZ t50_fid(s) 8520978,8520979,8520980</description><styleUrl>#c</styleUrl><MultiGeometry><LineString><tessellate>1</tessellate><coordinates>174.622258,-36.820561 174.622474,-36.820601 174.622426,-36.820749 174.622408,-36.820873 174.622417,-36.820920 174.622500,-36.820983 174.622559,-36.821051 174.622557,-36.821051 174.622613,-36.821135 174.622628,-36.821185 174.622666,-36.821192 174.622692,-36.821217 174.622787,-36.821365 174.622841,-36.821409 174.622911,-36.821432 174.622969,-36.821438 174.623047,-36.821428 174.623110,-36.821410 174.623171,-36.821376 174.623233,-36.821300 174.623297,-36.821204 174.623349,-36.821142</coordinates></LineString><LineString><tessellate>1</tessellate><coordinates>174.624100,-36.820125 174.624000,-36.820152 174.623998,-36.820188 174.624019,-36.820258 174.624056,-36.820316 174.624123,-36.820360 174.624085,-36.820423 174.624006,-36.820662 174.623997,-36.820669 174.623956,-36.820599 174.623884,-36.820501 174.623867,-36.820508 174.623855,-36.820599 174.623850,-36.820606 174.623804,-36.820568 174.623738,-36.820481 174.623723,-36.820488 174.623768,-36.820701 174.623754,-36.820746 174.623746,-36.820799 174.623716,-36.820891 174.623674,-36.820955 174.623559,-36.821038 174.623464,-36.821109 174.623349,-36.821142</coordinates></LineString><LineString><tessellate>1</tessellate><coordinates>174.623349,-36.821142 174.623326,-36.821242 174.623288,-36.821326 174.623241,-36.821399 174.623170,-36.821471 174.623102,-36.821530 174.623001,-36.821582 174.622831,-36.821671 174.622687,-36.821669 174.622553,-36.821688 174.622589,-36.821743 174.622657,-36.821780 174.622749,-36.821826 174.622751,-36.821852 174.622676,-36.821846 174.622611,-36.821856 174.622324,-36.821901</coordinates></LineString></MultiGeometry></Placemark></Document></kml>