<?xml version='1.0' encoding='utf-8'?>
<kml xmlns="http://www.opengis.net/kml/2.2"><Document><name>Maraetai LINZ foot track 1</name><Style id="c"><LineStyle><color>ffff00ff</color><width>5</width></LineStyle></Style><Placemark><name>Maraetai LINZ foot track 1</name><description>Sheet row 931; LINZ t50_fid(s) 7879448,3554667</description><styleUrl>#c</styleUrl><MultiGeometry><LineString><tessellate>1</tessellate><coordinates>175.082668,-36.908443 175.082819,-36.908343 175.082883,-36.908123 175.082892,-36.907767 175.082981,-36.907562 175.083155,-36.907422 175.083418,-36.907321 175.083586,-36.907237 175.083706,-36.906975 175.083951,-36.906697 175.084376,-36.906278 175.085131,-36.905385 175.085524,-36.904951 175.085978,-36.904440 175.086281,-36.904181 175.086543,-36.904044 175.086789,-36.903999 175.086972,-36.903981 175.087077,-36.903918 175.087126,-36.903841 175.087159,-36.903760</coordinates></LineString><LineString><tessellate>1</tessellate><coordinates>175.097568,-36.900816 175.097203,-36.900887 175.096814,-36.901054 175.096526,-36.901155 175.096294,-36.901150 175.096019,-36.901163 175.095720,-36.901260 175.095264,-36.901363 175.094933,-36.901460 175.094601,-36.901535 175.094137,-36.901716 175.093784,-36.901852 175.093180,-36.902022 175.092642,-36.902236 175.092082,-36.902382 175.091613,-36.902413 175.091258,-36.902545 175.091039,-36.902557 175.090657,-36.902560 175.090377,-36.902603 175.090144,-36.902696 175.089895,-36.902976 175.089313,-36.903337 175.089211,-36.903437 175.088969,-36.903770 175.088731,-36.903935 175.088381,-36.903924 175.088116,-36.903943 175.087610,-36.903805 175.087161,-36.903765</coordinates></LineString></MultiGeometry></Placemark></Document></kml>