<?xml version='1.0' encoding='utf-8'?>
<kml xmlns="http://www.opengis.net/kml/2.2"><Document><name>Pakuranga LINZ foot track 9</name><Style id="c"><LineStyle><color>ffff00ff</color><width>5</width></LineStyle></Style><Placemark><name>Pakuranga LINZ foot track 9</name><description>Sheet row 979; LINZ t50_fid(s) 3593027</description><styleUrl>#c</styleUrl><MultiGeometry><LineString><tessellate>1</tessellate><coordinates>174.887382,-36.907974 174.887785,-36.908710 174.887858,-36.908891</coordinates></LineString></MultiGeometry></Placemark></Document></kml>