<?xml version='1.0' encoding='utf-8'?>
<kml xmlns="http://www.opengis.net/kml/2.2"><Document><name>West Harbour LINZ foot track 11</name><Style id="c"><LineStyle><color>ffff00ff</color><width>5</width></LineStyle></Style><Placemark><name>West Harbour LINZ foot track 11</name><description>Sheet row 1401; LINZ t50_fid(s) 8520993</description><styleUrl>#c</styleUrl><MultiGeometry><LineString><tessellate>1</tessellate><coordinates>174.627466,-36.822145 174.628105,-36.822222 174.628678,-36.822516</coordinates></LineString></MultiGeometry></Placemark></Document></kml>