<?xml version='1.0' encoding='utf-8'?>
<kml xmlns="http://www.opengis.net/kml/2.2"><Document><name>Browns Bay LINZ foot track 1</name><Style id="c"><LineStyle><color>ffff00ff</color><width>5</width></LineStyle></Style><Placemark><name>Browns Bay LINZ foot track 1</name><description>Sheet row 1029; LINZ t50_fid(s) 3573892,3584790,3584798,3584792,3573893,3593275,3593269</description><styleUrl>#c</styleUrl><MultiGeometry><LineString><tessellate>1</tessellate><coordinates>174.737105,-36.717190 174.737012,-36.717228 174.736953,-36.717260 174.736908,-36.717297 174.736866,-36.717362 174.736832,-36.717420 174.736799,-36.717461 174.736767,-36.717484 174.736693,-36.717507 174.736614,-36.717572 174.736578,-36.717624 174.736563,-36.717645 174.736521,-36.717683 174.736382,-36.717729 174.736302,-36.717774 174.736231,-36.717841 174.736175,-36.717925 174.736156,-36.718027 174.736117,-36.718171 174.736042,-36.718232 174.735950,-36.718253 174.735687,-36.718267 174.735610,-36.718293 174.735559,-36.718338 174.735514,-36.718378 174.735447,-36.718507 174.735346,-36.718619 174.734929,-36.719028 174.734852,-36.719110 174.734730,-36.719216 174.734635,-36.719264 174.734519,-36.719324 174.734119,-36.719565 174.733779,-36.719740 174.733584,-36.719864 174.733349,-36.719998 174.733207,-36.720046 174.733113,-36.720097 174.733069,-36.720146 174.733062,-36.720208 174.733096,-36.720308 174.733163,-36.720373</coordinates></LineString><LineString><tessellate>1</tessellate><coordinates>174.736877,-36.714574 174.737423,-36.714533 174.737421,-36.714589 174.737503,-36.714987 174.737595,-36.715121 174.737817,-36.715238 174.737861,-36.715302 174.737892,-36.715364 174.737970,-36.715735 174.737974,-36.715906 174.737947,-36.716244 174.737934,-36.716345 174.737919,-36.716433 174.737904,-36.716480 174.737853,-36.716540 174.737830,-36.716575 174.737795,-36.716725 174.737729,-36.716768 174.737673,-36.716783 174.737624,-36.716778 174.737585,-36.716752 174.737549,-36.716714 174.737499,-36.716669 174.737454,-36.716656 174.737393,-36.716666 174.737184,-36.716799 174.737078,-36.716912 174.737015,-36.716989 174.737105,-36.717190</coordinates></LineString><LineString><tessellate>1</tessellate><coordinates>174.737105,-36.717190 174.737186,-36.717144 174.737294,-36.717049 174.737365,-36.717014 174.737440,-36.716999 174.737570,-36.717016 174.737911,-36.717041 174.738010,-36.717034 174.738078,-36.717028 174.738194,-36.716994</coordinates></LineString><LineString><tessellate>1</tessellate><coordinates>174.738427,-36.718375 174.738267,-36.717230 174.738256,-36.717140 174.738194,-36.716994</coordinates></LineString><LineString><tessellate>1</tessellate><coordinates>174.738194,-36.716994 174.738417,-36.716893 174.738562,-36.716716 174.738873,-36.716634 174.739090,-36.716561 174.739247,-36.716507 174.739359,-36.716479 174.739539,-36.716448 174.739731,-36.716401 174.739836,-36.716364 174.739953,-36.716366 174.740063,-36.716365 174.740204,-36.716347 174.740866,-36.716275 174.741206,-36.716293 174.741542,-36.716462 174.741678,-36.716498</coordinates></LineString><LineString><tessellate>1</tessellate><coordinates>174.741219,-36.716782 174.741335,-36.716660 174.741678,-36.716498</coordinates></LineString><LineString><tessellate>1</tessellate><coordinates>174.741678,-36.716498 174.741813,-36.716521 174.742050,-36.716579 174.742113,-36.716627 174.742161,-36.716679 174.742191,-36.716705 174.742224,-36.716770</coordinates></LineString></MultiGeometry></Placemark></Document></kml>