<?xml version='1.0' encoding='utf-8'?>
<kml xmlns="http://www.opengis.net/kml/2.2"><Document><name>Browns Bay LINZ foot track 17</name><Style id="c"><LineStyle><color>ffff00ff</color><width>5</width></LineStyle></Style><Placemark><name>Browns Bay LINZ foot track 17</name><description>Sheet row 1139; LINZ t50_fid(s) 3584793</description><styleUrl>#c</styleUrl><MultiGeometry><LineString><tessellate>1</tessellate><coordinates>174.730558,-36.705624 174.730322,-36.705662 174.729757,-36.705678 174.729094,-36.705650</coordinates></LineString></MultiGeometry></Placemark></Document></kml>