<?xml version='1.0' encoding='utf-8'?>
<kml xmlns="http://www.opengis.net/kml/2.2"><Document><name>Glenfield LINZ foot track 4</name><Style id="c"><LineStyle><color>ffff00ff</color><width>5</width></LineStyle></Style><Placemark><name>Glenfield LINZ foot track 4</name><description>Sheet row 1085; LINZ t50_fid(s) 3584736</description><styleUrl>#c</styleUrl><MultiGeometry><LineString><tessellate>1</tessellate><coordinates>174.722356,-36.790971 174.722364,-36.790965 174.723064,-36.790405 174.723448,-36.790222 174.723560,-36.790150 174.723739,-36.790077 174.724153,-36.790048 174.724270,-36.790011 174.724384,-36.789901</coordinates></LineString></MultiGeometry></Placemark></Document></kml>