<?xml version='1.0' encoding='utf-8'?>
<kml xmlns="http://www.opengis.net/kml/2.2"><Document><name>Islington Bay, Rangitoto Island LINZ foot track 1</name><Style id="c"><LineStyle><color>ffff00ff</color><width>5</width></LineStyle></Style><Placemark><name>Islington Bay, Rangitoto Island LINZ foot track 1</name><description>Sheet row 1004; LINZ t50_fid(s) 3554676</description><styleUrl>#c</styleUrl><MultiGeometry><LineString><tessellate>1</tessellate><coordinates>174.895099,-36.778016 174.895042,-36.778027 174.894942,-36.777962 174.894798,-36.778006 174.894641,-36.778027 174.894404,-36.778161 174.894190,-36.778398 174.894185,-36.778499 174.894288,-36.778567 174.894418,-36.778704 174.894562,-36.778803 174.894580,-36.778907 174.894555,-36.779003 174.894546,-36.779142 174.894478,-36.779225 174.894345,-36.779265 174.894143,-36.779360 174.893938,-36.779491 174.893835,-36.779864 174.893707,-36.780133 174.893502,-36.780318 174.893447,-36.780491 174.893485,-36.780635 174.893509,-36.780769 174.893440,-36.780900 174.893329,-36.780902 174.893164,-36.780970 174.893119,-36.781053 174.893176,-36.781135 174.893188,-36.781248 174.892947,-36.781358 174.892596,-36.781579 174.892547,-36.782087 174.892540,-36.782100 174.892338,-36.782339 174.892100,-36.782540 174.891985,-36.782613 174.891720,-36.782743 174.891402,-36.782840 174.891239,-36.782972 174.891198,-36.783152 174.891316,-36.783427 174.891539,-36.783666 174.891545,-36.783694 174.891546,-36.783730 174.891515,-36.783837 174.891156,-36.784120 174.890989,-36.784307</coordinates></LineString></MultiGeometry></Placemark></Document></kml>