<?xml version='1.0' encoding='utf-8'?>
<kml xmlns="http://www.opengis.net/kml/2.2"><Document><name>Papakura LINZ foot track 3</name><Style id="c"><LineStyle><color>ffff00ff</color><width>5</width></LineStyle></Style><Placemark><name>Papakura LINZ foot track 3</name><description>Sheet row 1238; LINZ t50_fid(s) 3593084,3584693</description><styleUrl>#c</styleUrl><MultiGeometry><LineString><tessellate>1</tessellate><coordinates>174.951191,-37.056755 174.952447,-37.056359</coordinates></LineString><LineString><tessellate>1</tessellate><coordinates>174.951191,-37.056755 174.949746,-37.057188</coordinates></LineString></MultiGeometry></Placemark></Document></kml>