<?xml version='1.0' encoding='utf-8'?>
<kml xmlns="http://www.opengis.net/kml/2.2"><Document><name>Manurewa LINZ foot track 3</name><Style id="c"><LineStyle><color>ffff00ff</color><width>5</width></LineStyle></Style><Placemark><name>Manurewa LINZ foot track 3</name><description>Sheet row 1257; LINZ t50_fid(s) 3592814</description><styleUrl>#c</styleUrl><MultiGeometry><LineString><tessellate>1</tessellate><coordinates>174.898122,-37.011844 174.898279,-37.012256 174.898809,-37.013096 174.898813,-37.013102</coordinates></LineString></MultiGeometry></Placemark></Document></kml>