<?xml version='1.0' encoding='utf-8'?>
<kml xmlns="http://www.opengis.net/kml/2.2"><Document><name>Whitford LINZ foot track 1</name><Style id="c"><LineStyle><color>ffff00ff</color><width>5</width></LineStyle></Style><Placemark><name>Whitford LINZ foot track 1</name><description>Sheet row 1213; LINZ t50_fid(s) 3584696,3573838,3554635</description><styleUrl>#c</styleUrl><MultiGeometry><LineString><tessellate>1</tessellate><coordinates>174.963036,-36.979688 174.962755,-36.979511 174.961935,-36.979278 174.961667,-36.979215 174.961225,-36.979155 174.960906,-36.979138 174.960693,-36.979029 174.960675,-36.978893 174.960820,-36.978609 174.960785,-36.978346 174.960854,-36.978040 174.960952,-36.977811</coordinates></LineString><LineString><tessellate>1</tessellate><coordinates>174.963036,-36.979688 174.963041,-36.979283 174.962990,-36.978620 174.962808,-36.977800 174.963073,-36.977259 174.963070,-36.977106 174.963159,-36.976310 174.963326,-36.976172</coordinates></LineString><LineString><tessellate>1</tessellate><coordinates>174.956603,-36.981485 174.956789,-36.981716 174.957146,-36.982001 174.957417,-36.982149 174.957796,-36.982129 174.958402,-36.982004 174.958941,-36.982062 174.959538,-36.982156 174.959889,-36.982060 174.960360,-36.981935 174.960677,-36.981860 174.960899,-36.981794 174.961166,-36.981769 174.961434,-36.981813 174.961990,-36.981645 174.962505,-36.981242 174.962713,-36.980863 174.962970,-36.980567 174.963172,-36.980346 174.963270,-36.980137 174.963264,-36.979895 174.963036,-36.979688</coordinates></LineString></MultiGeometry></Placemark></Document></kml>