<?xml version='1.0' encoding='utf-8'?>
<kml xmlns="http://www.opengis.net/kml/2.2"><Document><name>Mairangi Bay LINZ foot track 12</name><Style id="c"><LineStyle><color>ffff00ff</color><width>5</width></LineStyle></Style><Placemark><name>Mairangi Bay LINZ foot track 12</name><description>Sheet row 1114; LINZ t50_fid(s) 3584785</description><styleUrl>#c</styleUrl><MultiGeometry><LineString><tessellate>1</tessellate><coordinates>174.753725,-36.736458 174.754200,-36.737807</coordinates></LineString></MultiGeometry></Placemark></Document></kml>