<?xml version='1.0' encoding='utf-8'?>
<kml xmlns="http://www.opengis.net/kml/2.2"><Document><name>Unsworth Heights LINZ foot track 6</name><Style id="c"><LineStyle><color>ffff00ff</color><width>5</width></LineStyle></Style><Placemark><name>Unsworth Heights LINZ foot track 6</name><description>Sheet row 1055; LINZ t50_fid(s) 8466778</description><styleUrl>#c</styleUrl><MultiGeometry><LineString><tessellate>1</tessellate><coordinates>174.721507,-36.738688 174.721668,-36.738820 174.721808,-36.738871 174.721989,-36.738890 174.722309,-36.738897 174.722549,-36.738871 174.722723,-36.738824 174.723008,-36.738738 174.723174,-36.738702 174.723350,-36.738692 174.723568,-36.738711 174.723757,-36.738679 174.724010,-36.738608 174.724194,-36.738572 174.724309,-36.738563 174.724481,-36.738586 174.724634,-36.738602 174.724723,-36.738657 174.724856,-36.738782 174.724951,-36.738911 174.725052,-36.739099 174.725149,-36.739277 174.725363,-36.739538 174.725477,-36.739659 174.725599,-36.739743 174.725748,-36.739800 174.725917,-36.739876 174.726046,-36.739885 174.726180,-36.739872 174.726345,-36.739799 174.726845,-36.739804</coordinates></LineString></MultiGeometry></Placemark></Document></kml>