<?xml version='1.0' encoding='utf-8'?>
<kml xmlns="http://www.opengis.net/kml/2.2"><Document><name>Huia / Cornwallis LINZ foot track 2</name><Style id="c"><LineStyle><color>ffff00ff</color><width>5</width></LineStyle></Style><Placemark><name>Huia / Cornwallis LINZ foot track 2</name><description>Sheet row 1412; LINZ t50_fid(s) 3573030,3584253,3584254</description><styleUrl>#c</styleUrl><MultiGeometry><LineString><tessellate>1</tessellate><coordinates>174.507000,-37.040089 174.507004,-37.040220 174.506988,-37.040346 174.506857,-37.040503 174.506743,-37.040767 174.506495,-37.041393 174.506509,-37.041921 174.506807,-37.042648</coordinates></LineString><LineString><tessellate>1</tessellate><coordinates>174.508929,-37.044906 174.508649,-37.044810 174.508442,-37.044731 174.508332,-37.044617 174.508273,-37.044598 174.508233,-37.044553 174.508065,-37.044470 174.507980,-37.044457 174.507860,-37.044364 174.507792,-37.044367 174.507631,-37.044306 174.507502,-37.044197 174.507308,-37.044091 174.507275,-37.043987 174.507153,-37.043964 174.507152,-37.043828 174.507157,-37.043699 174.507025,-37.043602 174.507008,-37.043517 174.507056,-37.043246 174.506935,-37.042904 174.506872,-37.042856 174.506807,-37.042648</coordinates></LineString><LineString><tessellate>1</tessellate><coordinates>174.506807,-37.042648 174.506734,-37.042814 174.506671,-37.043122 174.506622,-37.043338 174.506498,-37.043652 174.506522,-37.044081 174.506586,-37.044240 174.506674,-37.044429 174.506700,-37.044595 174.506671,-37.044687 174.506619,-37.044755 174.506483,-37.044843 174.506326,-37.045017</coordinates></LineString></MultiGeometry></Placemark></Document></kml>