<?xml version='1.0' encoding='utf-8'?>
<kml xmlns="http://www.opengis.net/kml/2.2"><Document><name>New Lynn LINZ foot track 2</name><Style id="c"><LineStyle><color>ffff00ff</color><width>5</width></LineStyle></Style><Placemark><name>New Lynn LINZ foot track 2</name><description>Sheet row 1450; LINZ t50_fid(s) 3584642</description><styleUrl>#c</styleUrl><MultiGeometry><LineString><tessellate>1</tessellate><coordinates>174.674219,-36.904194 174.674233,-36.904159 174.674344,-36.903876 174.674445,-36.903635 174.674506,-36.903476 174.674597,-36.903234 174.674645,-36.903114 174.675087,-36.902627 174.675147,-36.902562</coordinates></LineString></MultiGeometry></Placemark></Document></kml>