<?xml version='1.0' encoding='utf-8'?>
<kml xmlns="http://www.opengis.net/kml/2.2"><Document><name>Browns Bay LINZ foot track 5</name><Style id="c"><LineStyle><color>ffff00ff</color><width>5</width></LineStyle></Style><Placemark><name>Browns Bay LINZ foot track 5</name><description>Sheet row 1072; LINZ t50_fid(s) 3584795</description><styleUrl>#c</styleUrl><MultiGeometry><LineString><tessellate>1</tessellate><coordinates>174.751497,-36.704304 174.751309,-36.704429 174.750935,-36.704690 174.750574,-36.704960 174.749038,-36.705172 174.748808,-36.705195</coordinates></LineString></MultiGeometry></Placemark></Document></kml>