<?xml version='1.0' encoding='utf-8'?>
<kml xmlns="http://www.opengis.net/kml/2.2"><Document><name>Omaha Cove / Leigh LINZ foot track 2</name><Style id="c"><LineStyle><color>ffff00ff</color><width>5</width></LineStyle></Style><Placemark><name>Omaha Cove / Leigh LINZ foot track 2</name><description>Sheet row 1423; LINZ t50_fid(s) 8386177</description><styleUrl>#c</styleUrl><MultiGeometry><LineString><tessellate>1</tessellate><coordinates>174.756295,-36.311309 174.756354,-36.311219 174.756439,-36.310991 174.756568,-36.310829 174.756798,-36.310681 174.756825,-36.310669 174.757210,-36.310497 174.757281,-36.310470 174.757659,-36.310322 174.757867,-36.310241</coordinates></LineString></MultiGeometry></Placemark></Document></kml>