<?xml version='1.0' encoding='utf-8'?>
<kml xmlns="http://www.opengis.net/kml/2.2"><Document><name>Snells Beach LINZ foot track 1</name><Style id="c"><LineStyle><color>ffff00ff</color><width>5</width></LineStyle></Style><Placemark><name>Snells Beach LINZ foot track 1</name><description>Sheet row 1200; LINZ t50_fid(s) 3584938,8494012,3585342,3575016</description><styleUrl>#c</styleUrl><MultiGeometry><LineString><tessellate>1</tessellate><coordinates>174.729310,-36.409777 174.729366,-36.409704 174.729401,-36.409659 174.729404,-36.409621 174.729414,-36.409559 174.729442,-36.409494 174.729494,-36.409417 174.729510,-36.409371 174.729497,-36.409313 174.729521,-36.409261 174.729532,-36.409224 174.729547,-36.409175 174.729559,-36.409109 174.729597,-36.409060 174.729618,-36.408992 174.729649,-36.408936 174.729694,-36.408809 174.729726,-36.408706 174.729712,-36.408603 174.729747,-36.408529 174.729757,-36.408412</coordinates></LineString><LineString><tessellate>1</tessellate><coordinates>174.728719,-36.408992 174.728774,-36.408994 174.728832,-36.408987 174.729137,-36.409059 174.729163,-36.409082 174.729184,-36.409130 174.729206,-36.409152 174.729243,-36.409165 174.729287,-36.409170 174.729331,-36.409178 174.729480,-36.409207 174.729532,-36.409224</coordinates></LineString><LineString><tessellate>1</tessellate><coordinates>174.729310,-36.409777 174.729237,-36.409767 174.729067,-36.409740 174.728973,-36.409738 174.728890,-36.409777 174.728847,-36.409779 174.728725,-36.409731 174.728517,-36.409697 174.728314,-36.409624 174.728194,-36.409605 174.728145,-36.409618 174.728076,-36.409683 174.728001,-36.409719 174.727789,-36.409688 174.727599,-36.409658 174.727388,-36.409545 174.727307,-36.409458 174.727277,-36.409348 174.727125,-36.409230</coordinates></LineString><LineString><tessellate>1</tessellate><coordinates>174.730187,-36.421166 174.730270,-36.420946 174.730152,-36.420708 174.730072,-36.420347 174.729893,-36.420144 174.729711,-36.419832 174.729724,-36.419638 174.729806,-36.419534 174.729894,-36.419300 174.729607,-36.418129 174.729526,-36.417659 174.729528,-36.417449 174.729433,-36.416900 174.729407,-36.416553 174.729372,-36.415948 174.729386,-36.415921 174.729411,-36.415743 174.729392,-36.415551 174.729371,-36.415231 174.729338,-36.415056 174.729377,-36.414858 174.729360,-36.414593 174.729362,-36.414173 174.729322,-36.414014 174.729220,-36.413939 174.729160,-36.413838 174.729142,-36.413527 174.729138,-36.413177 174.729183,-36.412961 174.729267,-36.412834 174.729250,-36.412709 174.729229,-36.412578 174.729256,-36.412253 174.729245,-36.412085 174.729255,-36.411937 174.729299,-36.411757 174.729241,-36.411640 174.729207,-36.411543 174.729258,-36.411408 174.729329,-36.411218 174.729299,-36.410972 174.729383,-36.410839 174.729401,-36.410748 174.729359,-36.410538 174.729361,-36.410464 174.729379,-36.410371 174.729360,-36.410231 174.729383,-36.410160 174.729352,-36.410057 174.729321,-36.409963 174.729306,-36.409890 174.729310,-36.409777</coordinates></LineString></MultiGeometry></Placemark></Document></kml>