<?xml version='1.0' encoding='utf-8'?>
<kml xmlns="http://www.opengis.net/kml/2.2"><Document><name>Papatoetoe LINZ foot track 9</name><Style id="c"><LineStyle><color>ffff00ff</color><width>5</width></LineStyle></Style><Placemark><name>Papatoetoe LINZ foot track 9</name><description>Sheet row 1271; LINZ t50_fid(s) 3584617</description><styleUrl>#c</styleUrl><MultiGeometry><LineString><tessellate>1</tessellate><coordinates>174.842965,-36.971397 174.842624,-36.972495</coordinates></LineString></MultiGeometry></Placemark></Document></kml>