<?xml version='1.0' encoding='utf-8'?>
<kml xmlns="http://www.opengis.net/kml/2.2"><Document><name>Motuora Island LINZ foot track 1</name><Style id="c"><LineStyle><color>ffff00ff</color><width>5</width></LineStyle></Style><Placemark><name>Motuora Island LINZ foot track 1</name><description>Sheet row 1019; LINZ t50_fid(s) 3593428,3593423,6227519,6227496,6227478,3584923,6227497,3593418,6227518</description><styleUrl>#c</styleUrl><MultiGeometry><LineString><tessellate>1</tessellate><coordinates>174.791297,-36.507218 174.791543,-36.507004 174.791645,-36.506892 174.791750,-36.506744 174.791825,-36.506602 174.791846,-36.506463 174.791844,-36.506385 174.791816,-36.506299</coordinates></LineString><LineString><tessellate>1</tessellate><coordinates>174.791297,-36.507218 174.791042,-36.507532</coordinates></LineString><LineString><tessellate>1</tessellate><coordinates>174.791816,-36.506299 174.791682,-36.506005 174.791677,-36.505759 174.791649,-36.505524 174.791650,-36.505231 174.791624,-36.505192 174.791505,-36.505129 174.791442,-36.505121 174.791370,-36.505131 174.791338,-36.505121 174.791379,-36.504935 174.791383,-36.504724 174.791375,-36.504639 174.791351,-36.504597 174.791263,-36.504687 174.791188,-36.504735 174.791166,-36.504720 174.791223,-36.504613 174.791245,-36.504565 174.791218,-36.504527 174.791156,-36.504587 174.791111,-36.504650 174.791070,-36.504660 174.791087,-36.504614 174.791081,-36.504538 174.791098,-36.504482 174.791050,-36.504468 174.790932,-36.504525 174.790876,-36.504595 174.790776,-36.504617 174.790730,-36.504626 174.790649,-36.504696</coordinates></LineString><LineString><tessellate>1</tessellate><coordinates>174.790001,-36.508951 174.789631,-36.509499 174.789236,-36.509697 174.789033,-36.509799 174.788881,-36.510080 174.788805,-36.510185 174.788627,-36.510270 174.788461,-36.510324 174.788393,-36.510378 174.788232,-36.510526 174.787820,-36.510826 174.787287,-36.511054 174.786987,-36.511258 174.786619,-36.511595 174.786635,-36.511891 174.786676,-36.512291 174.786593,-36.512560</coordinates></LineString><LineString><tessellate>1</tessellate><coordinates>174.791816,-36.506299 174.791954,-36.506121 174.792168,-36.505780 174.792474,-36.505396 174.792975,-36.504848 174.793132,-36.504750 174.793252,-36.504715 174.793556,-36.504678 174.793790,-36.504628 174.793993,-36.504568 174.794117,-36.504511 174.794229,-36.504440 174.794325,-36.504335 174.794380,-36.504206 174.794504,-36.503801 174.794608,-36.503590 174.794752,-36.503408 174.794881,-36.503282 174.795558,-36.502796 174.795756,-36.502740 174.796119,-36.502655 174.796329,-36.502585 174.796654,-36.502454 174.797178,-36.502232 174.797998,-36.502142 174.798251,-36.502073 174.798409,-36.502010 174.798607,-36.501873 174.798730,-36.501738 174.798950,-36.501334 174.799315,-36.501090 174.799586,-36.500924 174.800151,-36.500718 174.800475,-36.500517</coordinates></LineString><LineString><tessellate>1</tessellate><coordinates>174.790774,-36.509560 174.790707,-36.509649 174.790519,-36.509818 174.790473,-36.509812 174.790430,-36.509755 174.790385,-36.509674 174.790355,-36.509555 174.790310,-36.509421 174.790155,-36.509088 174.790001,-36.508951</coordinates></LineString><LineString><tessellate>1</tessellate><coordinates>174.789556,-36.505095 174.789517,-36.505142 174.789457,-36.505247 174.789121,-36.505524 174.789054,-36.505584 174.789032,-36.505637 174.789041,-36.505692 174.789084,-36.505730 174.789158,-36.505740 174.789257,-36.505717 174.789348,-36.505686 174.789512,-36.505605 174.789637,-36.505543 174.789747,-36.505518 174.790112,-36.505490 174.790170,-36.505495 174.790207,-36.505518 174.790218,-36.505552 174.790206,-36.505586 174.790051,-36.505733 174.789908,-36.505890 174.789788,-36.506046 174.789763,-36.506110 174.789770,-36.506168 174.789787,-36.506216 174.789838,-36.506264 174.789992,-36.506328 174.790013,-36.506368 174.790045,-36.506494 174.790074,-36.506577 174.790115,-36.506657 174.790163,-36.506713 174.790217,-36.506740 174.790446,-36.506783 174.790544,-36.506805 174.790637,-36.506853 174.790838,-36.507003 174.790958,-36.507077 174.791151,-36.507142 174.791297,-36.507218</coordinates></LineString><LineString><tessellate>1</tessellate><coordinates>174.791042,-36.507532 174.790776,-36.507772 174.790711,-36.507854 174.790627,-36.508056 174.790600,-36.508221 174.790577,-36.508304 174.790126,-36.508806 174.790001,-36.508951</coordinates></LineString><LineString><tessellate>1</tessellate><coordinates>174.792146,-36.508646 174.792161,-36.508863 174.792215,-36.508949 174.792216,-36.508959 174.792171,-36.508946 174.792074,-36.508878 174.792032,-36.508813 174.791976,-36.508740 174.791878,-36.508648 174.791771,-36.508618 174.791740,-36.508562 174.791681,-36.508511 174.791607,-36.508510 174.791564,-36.508526 174.791624,-36.508586 174.791611,-36.508661 174.791606,-36.508727 174.791631,-36.508789 174.791625,-36.508811 174.791536,-36.508854 174.791475,-36.508852 174.791456,-36.508823 174.791421,-36.508771 174.791350,-36.508683 174.791287,-36.508660 174.791263,-36.508622 174.791273,-36.508494 174.791269,-36.508430 174.791253,-36.508361 174.791250,-36.508320 174.791271,-36.508229 174.791296,-36.508149 174.791383,-36.508004 174.791390,-36.507959 174.791378,-36.507918 174.791346,-36.507863 174.791183,-36.507690 174.791042,-36.507532</coordinates></LineString></MultiGeometry></Placemark></Document></kml>