<?xml version='1.0' encoding='utf-8'?>
<kml xmlns="http://www.opengis.net/kml/2.2"><Document><name>Ōtara LINZ foot track 5</name><Style id="c"><LineStyle><color>ffff00ff</color><width>5</width></LineStyle></Style><Placemark><name>Ōtara LINZ foot track 5</name><description>Sheet row 1253; LINZ t50_fid(s) 3584620</description><styleUrl>#c</styleUrl><MultiGeometry><LineString><tessellate>1</tessellate><coordinates>174.885071,-36.965780 174.884495,-36.966386 174.884439,-36.966445 174.883920,-36.967138</coordinates></LineString></MultiGeometry></Placemark></Document></kml>