<?xml version='1.0' encoding='utf-8'?>
<kml xmlns="http://www.opengis.net/kml/2.2"><Document><name>West Harbour LINZ foot track 4</name><Style id="c"><LineStyle><color>ffff00ff</color><width>5</width></LineStyle></Style><Placemark><name>West Harbour LINZ foot track 4</name><description>Sheet row 1364; LINZ t50_fid(s) 8520756,8520929,8520997</description><styleUrl>#c</styleUrl><MultiGeometry><LineString><tessellate>1</tessellate><coordinates>174.630714,-36.811622 174.630577,-36.811671 174.630537,-36.811697 174.630540,-36.811737 174.630588,-36.811911 174.630578,-36.812009 174.630543,-36.812114 174.630508,-36.812141 174.630439,-36.812135 174.630293,-36.812102 174.630231,-36.812056 174.630150,-36.811789 174.629983,-36.811437 174.629970,-36.811362 174.630000,-36.811296 174.630055,-36.811258 174.630175,-36.811189 174.630206,-36.811137 174.630201,-36.811056 174.630140,-36.810882 174.629984,-36.810527 174.629886,-36.810286 174.629793,-36.809996 174.629711,-36.809671 174.629703,-36.809584 174.629737,-36.809393 174.629790,-36.809145 174.629839,-36.809011 174.629948,-36.808826 174.629978,-36.808730 174.629977,-36.808664 174.629958,-36.808602 174.629874,-36.808500 174.629815,-36.808434 174.629804,-36.808385 174.629829,-36.808308 174.629927,-36.808099 174.629934,-36.808038 174.629914,-36.807980 174.629806,-36.807735 174.629848,-36.807563 174.629840,-36.806656 174.629841,-36.806523 174.629875,-36.806408 174.629916,-36.806336 174.629916,-36.806333 174.629990,-36.806235</coordinates></LineString><LineString><tessellate>1</tessellate><coordinates>174.629990,-36.806235 174.629893,-36.806267 174.629807,-36.806277 174.629727,-36.806263 174.629544,-36.806187 174.629219,-36.806048 174.629134,-36.806009 174.629065,-36.805965 174.628995,-36.805885 174.628895,-36.805652 174.628886,-36.805607 174.628895,-36.805527 174.628915,-36.805469 174.628961,-36.805405 174.629049,-36.805349 174.629349,-36.805205 174.629673,-36.805054 174.629772,-36.805012 174.630225,-36.804885 174.630293,-36.804882 174.630386,-36.804898 174.630460,-36.804925 174.630535,-36.804979 174.630581,-36.805025 174.630595,-36.805084 174.630586,-36.805139 174.630513,-36.805437 174.630457,-36.805497 174.630466,-36.805556 174.630529,-36.805714</coordinates></LineString><LineString><tessellate>1</tessellate><coordinates>174.629990,-36.806235 174.630061,-36.806149 174.630096,-36.806056 174.630139,-36.805861 174.630330,-36.805780 174.630383,-36.805766</coordinates></LineString></MultiGeometry></Placemark></Document></kml>