<?xml version='1.0' encoding='utf-8'?>
<kml xmlns="http://www.opengis.net/kml/2.2"><Document><name>Hibiscus Coast / Ōrewa LINZ foot track 4</name><Style id="c"><LineStyle><color>ffff00ff</color><width>5</width></LineStyle></Style><Placemark><name>Hibiscus Coast / Ōrewa LINZ foot track 4</name><description>Sheet row 1410; LINZ t50_fid(s) 3593378</description><styleUrl>#c</styleUrl><MultiGeometry><LineString><tessellate>1</tessellate><coordinates>174.690277,-36.602033 174.690927,-36.601840 174.690986,-36.601588 174.690833,-36.601286 174.690686,-36.601120</coordinates></LineString></MultiGeometry></Placemark></Document></kml>