<?xml version='1.0' encoding='utf-8'?>
<kml xmlns="http://www.opengis.net/kml/2.2"><Document><name>Rotoroa Island LINZ foot track 4</name><Style id="c"><LineStyle><color>ffff00ff</color><width>5</width></LineStyle></Style><Placemark><name>Rotoroa Island LINZ foot track 4</name><description>Sheet row 1197; LINZ t50_fid(s) 7880174,7879947,7879948,7880172,7879945</description><styleUrl>#c</styleUrl><MultiGeometry><LineString><tessellate>1</tessellate><coordinates>175.193584,-36.813707 175.193796,-36.813587 175.193996,-36.813522 175.194361,-36.813454 175.194526,-36.813482 175.194767,-36.813528 175.194931,-36.813515 175.195082,-36.813487 175.195275,-36.813392 175.195591,-36.813167 175.195840,-36.813015 175.195965,-36.812972 175.196103,-36.812950</coordinates></LineString><LineString><tessellate>1</tessellate><coordinates>175.193960,-36.816231 175.194089,-36.816097 175.194368,-36.815924 175.194521,-36.815763 175.194698,-36.815537 175.194883,-36.815371 175.195041,-36.815139 175.195168,-36.814954 175.195283,-36.814779 175.195456,-36.814633 175.195761,-36.814455 175.195890,-36.814336 175.195993,-36.814197 175.196033,-36.814028 175.196028,-36.813845 175.196066,-36.813636 175.196149,-36.813442 175.196234,-36.813308 175.196285,-36.813235</coordinates></LineString><LineString><tessellate>1</tessellate><coordinates>175.196251,-36.816044 175.196231,-36.815992 175.196217,-36.815954 175.196183,-36.815855 175.196187,-36.815670 175.196184,-36.815553 175.196140,-36.815452 175.196109,-36.815351 175.196106,-36.815255 175.196183,-36.815182 175.196320,-36.815126 175.196496,-36.815092 175.196631,-36.815062 175.196690,-36.815000 175.196715,-36.814893 175.196745,-36.814717 175.196777,-36.814505 175.196762,-36.814424 175.196696,-36.814344 175.196598,-36.814237 175.196561,-36.814154 175.196536,-36.814037 175.196530,-36.813951 175.196566,-36.813770 175.196540,-36.813638 175.196487,-36.813439 175.196455,-36.813319</coordinates></LineString><LineString><tessellate>1</tessellate><coordinates>175.196455,-36.813319 175.196711,-36.813225 175.196837,-36.813187 175.196906,-36.813188 175.197085,-36.813261 175.197232,-36.813302 175.197470,-36.813328 175.197606,-36.813333 175.197725,-36.813313 175.197784,-36.813274 175.197903,-36.813139 175.198027,-36.813028 175.198170,-36.812956 175.198395,-36.812879 175.198537,-36.812858 175.198629,-36.812882 175.198691,-36.812949 175.198726,-36.813060 175.198758,-36.813309 175.198812,-36.813529 175.198825,-36.813653 175.198817,-36.813811 175.198794,-36.813905 175.198655,-36.814109 175.198623,-36.814218 175.198508,-36.814376 175.198413,-36.814481 175.198377,-36.814571 175.198380,-36.814647 175.198397,-36.814718 175.198483,-36.814849 175.198602,-36.815037 175.198607,-36.815048</coordinates></LineString><LineString><tessellate>1</tessellate><coordinates>175.196455,-36.813319 175.196285,-36.813235 175.196184,-36.813111 175.196103,-36.812950 175.196023,-36.812793 175.195976,-36.812688 175.195972,-36.812545 175.196069,-36.812401 175.196173,-36.812308 175.196397,-36.812177 175.196896,-36.811959 175.197214,-36.811786 175.197392,-36.811605 175.197612,-36.811351 175.197890,-36.811107 175.198248,-36.810826 175.198365,-36.810702 175.198435,-36.810523 175.198495,-36.810410 175.198658,-36.810346 175.198983,-36.810239 175.199245,-36.810097 175.199393,-36.809977 175.199421,-36.809870 175.199387,-36.809784 175.199297,-36.809715 175.199144,-36.809656 175.199028,-36.809608 175.198957,-36.809538 175.198942,-36.809472 175.199009,-36.809379 175.199181,-36.809208 175.199317,-36.809099 175.199454,-36.809031 175.199599,-36.809003 175.199799,-36.808928 175.199968,-36.808869 175.200087,-36.808846 175.200183,-36.808875 175.200266,-36.808919 175.200325,-36.808984</coordinates></LineString></MultiGeometry></Placemark></Document></kml>