<?xml version='1.0' encoding='utf-8'?>
<kml xmlns="http://www.opengis.net/kml/2.2"><Document><name>Tryphena LINZ foot track 2</name><Style id="c"><LineStyle><color>ffff00ff</color><width>5</width></LineStyle></Style><Placemark><name>Tryphena LINZ foot track 2</name><description>Sheet row 1322; LINZ t50_fid(s) 3574187</description><styleUrl>#c</styleUrl><MultiGeometry><LineString><tessellate>1</tessellate><coordinates>175.462860,-36.305123 175.463192,-36.304909 175.463989,-36.304497 175.464538,-36.304221 175.464926,-36.303909 175.465485,-36.303932 175.465798,-36.304017 175.465996,-36.303982 175.466306,-36.304010 175.466589,-36.304070 175.466931,-36.304098 175.467092,-36.304056</coordinates></LineString></MultiGeometry></Placemark></Document></kml>