<?xml version='1.0' encoding='utf-8'?>
<kml xmlns="http://www.opengis.net/kml/2.2"><Document><name>Papakura LINZ foot track 14</name><Style id="c"><LineStyle><color>ffff00ff</color><width>5</width></LineStyle></Style><Placemark><name>Papakura LINZ foot track 14</name><description>Sheet row 1300; LINZ t50_fid(s) 3593071</description><styleUrl>#c</styleUrl><MultiGeometry><LineString><tessellate>1</tessellate><coordinates>174.937581,-37.052879 174.937594,-37.052875 174.938740,-37.052498</coordinates></LineString></MultiGeometry></Placemark></Document></kml>