<?xml version='1.0' encoding='utf-8'?>
<kml xmlns="http://www.opengis.net/kml/2.2"><Document><name>Omaha LINZ foot track 1</name><Style id="c"><LineStyle><color>ffff00ff</color><width>5</width></LineStyle></Style><Placemark><name>Omaha LINZ foot track 1</name><description>Sheet row 1179; LINZ t50_fid(s) 3574141,3584941,3574140,3593449,3584945,3593450,3584946,3584943,3584944,3554938,3584947</description><styleUrl>#c</styleUrl><MultiGeometry><LineString><tessellate>1</tessellate><coordinates>174.788042,-36.350885 174.788310,-36.351044 174.788513,-36.351141 174.788871,-36.351220 174.789150,-36.351237 174.789456,-36.351317 174.789971,-36.351452 174.790283,-36.351500 174.790663,-36.351583 174.790779,-36.351605 174.790926,-36.351591 174.791070,-36.351548 174.791212,-36.351551 174.791614,-36.351490 174.791908,-36.351418 174.792297,-36.351272 174.792878,-36.351037 174.792920,-36.351209 174.792775,-36.351713 174.792698,-36.351966 174.792677,-36.352121 174.792650,-36.352169 174.792591,-36.352192 174.792310,-36.352296 174.792278,-36.352312 174.792243,-36.352354 174.792131,-36.352387 174.792029,-36.352466</coordinates></LineString><LineString><tessellate>1</tessellate><coordinates>174.787386,-36.353335 174.787389,-36.353163 174.787501,-36.352956 174.787484,-36.352803 174.787647,-36.352533 174.787745,-36.352315 174.787888,-36.352034 174.787928,-36.351829 174.787970,-36.351407 174.787956,-36.351097 174.787997,-36.350938 174.788042,-36.350885</coordinates></LineString><LineString><tessellate>1</tessellate><coordinates>174.785440,-36.348303 174.785572,-36.348418 174.785719,-36.348503 174.785929,-36.348559 174.786088,-36.348843 174.786288,-36.349079 174.786443,-36.349246 174.786577,-36.349420 174.786737,-36.349441 174.786907,-36.349619 174.787054,-36.349728 174.787228,-36.350053 174.787434,-36.350243 174.787763,-36.350395 174.787852,-36.350499 174.788042,-36.350885</coordinates></LineString><LineString><tessellate>1</tessellate><coordinates>174.784600,-36.347293 174.784674,-36.347350 174.784737,-36.347577 174.784829,-36.347845 174.785440,-36.348303</coordinates></LineString><LineString><tessellate>1</tessellate><coordinates>174.784350,-36.350111 174.784442,-36.350024 174.784478,-36.349969 174.784515,-36.349899 174.784609,-36.349795 174.784769,-36.349487 174.784856,-36.349394 174.784857,-36.349394 174.785145,-36.349088 174.785393,-36.348815 174.785373,-36.348586 174.785440,-36.348303</coordinates></LineString><LineString><tessellate>1</tessellate><coordinates>174.784600,-36.347293 174.784302,-36.347452 174.783975,-36.347668 174.783704,-36.347650 174.783625,-36.347647</coordinates></LineString><LineString><tessellate>1</tessellate><coordinates>174.783625,-36.347647 174.783243,-36.347878 174.783023,-36.347965 174.782792,-36.348148 174.782585,-36.348181 174.782502,-36.348274 174.782062,-36.348429 174.781893,-36.348541</coordinates></LineString><LineString><tessellate>1</tessellate><coordinates>174.779507,-36.343490 174.779612,-36.343294 174.779737,-36.343106 174.779910,-36.342787 174.779918,-36.342772 174.780164,-36.341860 174.780286,-36.341806 174.780439,-36.341862 174.780636,-36.341964 174.780918,-36.341978 174.781117,-36.341852 174.781128,-36.341682 174.781227,-36.341617</coordinates></LineString><LineString><tessellate>1</tessellate><coordinates>174.778825,-36.339820 174.779081,-36.339781 174.779463,-36.339737 174.779792,-36.339786 174.780031,-36.339835 174.780207,-36.339926 174.780311,-36.340076 174.780422,-36.340168 174.780469,-36.340366 174.780694,-36.340731 174.780884,-36.340821 174.780988,-36.340925 174.780984,-36.341083 174.780864,-36.341196 174.780895,-36.341294 174.781135,-36.341373 174.781231,-36.341441 174.781227,-36.341617</coordinates></LineString><LineString><tessellate>1</tessellate><coordinates>174.781227,-36.341617 174.781303,-36.341750 174.781479,-36.342186 174.781582,-36.342278 174.781628,-36.342376 174.781697,-36.342580 174.781847,-36.342811 174.781931,-36.343003 174.782153,-36.343233 174.782169,-36.343315 174.782168,-36.343589 174.782186,-36.343735 174.782421,-36.343907 174.782562,-36.344063 174.782618,-36.344319 174.782643,-36.344471 174.782805,-36.344614 174.782859,-36.344760 174.782870,-36.344900 174.782988,-36.345009 174.783141,-36.345053 174.783267,-36.345215 174.783365,-36.345401 174.783489,-36.345469 174.783669,-36.345741 174.783680,-36.345893 174.783753,-36.345956 174.783773,-36.346189 174.784055,-36.346512 174.784281,-36.346585 174.784376,-36.346636 174.784408,-36.346799 174.784600,-36.347293</coordinates></LineString><LineString><tessellate>1</tessellate><coordinates>174.783625,-36.347647 174.782597,-36.346831 174.782462,-36.346689</coordinates></LineString></MultiGeometry></Placemark></Document></kml>