<?xml version='1.0' encoding='utf-8'?>
<kml xmlns="http://www.opengis.net/kml/2.2"><Document><name>Red Beach LINZ foot track 2</name><Style id="c"><LineStyle><color>ffff00ff</color><width>5</width></LineStyle></Style><Placemark><name>Red Beach LINZ foot track 2</name><description>Sheet row 1035; LINZ t50_fid(s) 3556118</description><styleUrl>#c</styleUrl><MultiGeometry><LineString><tessellate>1</tessellate><coordinates>174.708347,-36.602990 174.708409,-36.602970 174.708515,-36.602888 174.708673,-36.603098 174.708950,-36.603484 174.709119,-36.603731 174.709458,-36.604256 174.709670,-36.604466 174.709807,-36.604681 174.710029,-36.605014 174.710217,-36.605366 174.710400,-36.605580 174.710514,-36.605651 174.710581,-36.605664 174.710673,-36.605683 174.710822,-36.605806 174.710909,-36.605901 174.711076,-36.606028 174.711147,-36.606135 174.711236,-36.606288 174.711387,-36.606490 174.711629,-36.606748 174.711864,-36.607191 174.712096,-36.607474 174.712292,-36.607662 174.712461,-36.607942 174.712541,-36.608005 174.712711,-36.608012 174.712866,-36.608104 174.713241,-36.608232 174.713674,-36.608693 174.713768,-36.608851 174.714012,-36.609018 174.714056,-36.609131 174.714147,-36.609297 174.714245,-36.609445 174.714441,-36.609679 174.714538,-36.609788 174.714620,-36.609927 174.714727,-36.610056 174.714759,-36.610202 174.714806,-36.610271 174.714646,-36.610410 174.714210,-36.610647 174.713969,-36.610800 174.713685,-36.610949</coordinates></LineString></MultiGeometry></Placemark></Document></kml>