<?xml version='1.0' encoding='utf-8'?>
<kml xmlns="http://www.opengis.net/kml/2.2"><Document><name>Milford LINZ foot track 1</name><Style id="c"><LineStyle><color>ffff00ff</color><width>5</width></LineStyle></Style><Placemark><name>Milford LINZ foot track 1</name><description>Sheet row 1071; LINZ t50_fid(s) 3584775</description><styleUrl>#c</styleUrl><MultiGeometry><LineString><tessellate>1</tessellate><coordinates>174.773915,-36.772501 174.773981,-36.772422 174.773986,-36.772377 174.773961,-36.772329 174.773888,-36.772247 174.773211,-36.771424 174.772789,-36.770922 174.772525,-36.770657 174.772400,-36.770845</coordinates></LineString></MultiGeometry></Placemark></Document></kml>