<?xml version='1.0' encoding='utf-8'?>
<kml xmlns="http://www.opengis.net/kml/2.2"><Document><name>Unsworth Heights LINZ foot track 10</name><Style id="c"><LineStyle><color>ffff00ff</color><width>5</width></LineStyle></Style><Placemark><name>Unsworth Heights LINZ foot track 10</name><description>Sheet row 1099; LINZ t50_fid(s) 3593211,3593213,3593212</description><styleUrl>#c</styleUrl><MultiGeometry><LineString><tessellate>1</tessellate><coordinates>174.729980,-36.761986 174.729837,-36.761878 174.729360,-36.761682 174.729344,-36.761612</coordinates></LineString><LineString><tessellate>1</tessellate><coordinates>174.730400,-36.761805 174.730213,-36.761851 174.730122,-36.761835 174.729980,-36.761986</coordinates></LineString><LineString><tessellate>1</tessellate><coordinates>174.729980,-36.761986 174.729914,-36.762478</coordinates></LineString></MultiGeometry></Placemark></Document></kml>