<?xml version='1.0' encoding='utf-8'?>
<kml xmlns="http://www.opengis.net/kml/2.2"><Document><name>Milford LINZ foot track 10</name><Style id="c"><LineStyle><color>ffff00ff</color><width>5</width></LineStyle></Style><Placemark><name>Milford LINZ foot track 10</name><description>Sheet row 1162; LINZ t50_fid(s) 8521014</description><styleUrl>#c</styleUrl><MultiGeometry><LineString><tessellate>1</tessellate><coordinates>174.741390,-36.764878 174.742043,-36.764833 174.742158,-36.764813 174.742398,-36.764695 174.742467,-36.764651 174.742526,-36.764544</coordinates></LineString></MultiGeometry></Placemark></Document></kml>