<?xml version='1.0' encoding='utf-8'?>
<kml xmlns="http://www.opengis.net/kml/2.2"><Document><name>Māngere LINZ foot track 7</name><Style id="c"><LineStyle><color>ffff00ff</color><width>5</width></LineStyle></Style><Placemark><name>Māngere LINZ foot track 7</name><description>Sheet row 1233; LINZ t50_fid(s) 3584590,3584596</description><styleUrl>#c</styleUrl><MultiGeometry><LineString><tessellate>1</tessellate><coordinates>174.804553,-36.976942 174.804523,-36.976929 174.804435,-36.976893 174.804005,-36.976697 174.803753,-36.976581 174.803456,-36.976447 174.803022,-36.976260 174.802603,-36.976168 174.802171,-36.976116</coordinates></LineString><LineString><tessellate>1</tessellate><coordinates>174.805732,-36.976944 174.805669,-36.977118 174.805361,-36.977169 174.805167,-36.977189 174.804553,-36.976942</coordinates></LineString></MultiGeometry></Placemark></Document></kml>