<?xml version='1.0' encoding='utf-8'?>
<kml xmlns="http://www.opengis.net/kml/2.2"><Document><name>Te Henga / Bethells Beach LINZ foot track 2</name><Style id="c"><LineStyle><color>ffff00ff</color><width>5</width></LineStyle></Style><Placemark><name>Te Henga / Bethells Beach LINZ foot track 2</name><description>Sheet row 1435; LINZ t50_fid(s) 3553523</description><styleUrl>#c</styleUrl><MultiGeometry><LineString><tessellate>1</tessellate><coordinates>174.459283,-36.899175 174.459294,-36.899076 174.459224,-36.899062 174.459109,-36.898852 174.458979,-36.898730 174.458809,-36.898642 174.458513,-36.898555 174.458091,-36.898382 174.458030,-36.898323 174.458094,-36.898096 174.458028,-36.897879 174.457881,-36.897500 174.457521,-36.897074 174.456973,-36.896390 174.456518,-36.896022 174.455964,-36.895965 174.455592,-36.895807 174.455447,-36.895667 174.455429,-36.895509 174.455340,-36.895273 174.455064,-36.894917 174.455157,-36.894793 174.455819,-36.894795 174.456116,-36.894741 174.456366,-36.894406</coordinates></LineString></MultiGeometry></Placemark></Document></kml>