<?xml version='1.0' encoding='utf-8'?>
<kml xmlns="http://www.opengis.net/kml/2.2"><Document><name>Waharau / Whakatīwai LINZ foot track 2</name><Style id="c"><LineStyle><color>ffff00ff</color><width>5</width></LineStyle></Style><Placemark><name>Waharau / Whakatīwai LINZ foot track 2</name><description>Sheet row 1459; LINZ t50_fid(s) 3531511</description><styleUrl>#c</styleUrl><MultiGeometry><LineString><tessellate>1</tessellate><coordinates>175.275293,-37.045361 175.275181,-37.045643 175.275162,-37.045831 175.275247,-37.045975 175.275212,-37.046159 175.275120,-37.046299 175.274890,-37.046421 175.274719,-37.046453 175.274418,-37.046390 175.274250,-37.046389 175.274010,-37.046483 175.273695,-37.046465 175.273596,-37.046540 175.273574,-37.046678 175.273485,-37.046761 175.273304,-37.046805 175.273088,-37.046712 175.272791,-37.046766 175.272652,-37.046887 175.272666,-37.046996 175.272772,-37.047153 175.272686,-37.047315 175.272638,-37.047412 175.272545,-37.047531 175.272426,-37.047468 175.272358,-37.047372 175.272295,-37.047312 175.272113,-37.047332 175.272038,-37.047382 175.272053,-37.047545 175.271574,-37.047948 175.271353,-37.048022 175.271124,-37.048022 175.270629,-37.047909 175.270493,-37.047920 175.270116,-37.047870 175.269919,-37.047895 175.269714,-37.047820 175.269301,-37.047752 175.268911,-37.047788 175.268732,-37.047885 175.268556,-37.048099 175.268844,-37.048858 175.268720,-37.048865 175.268485,-37.048788 175.268313,-37.048807 175.268098,-37.048905 175.267806,-37.048988 175.267325,-37.049351 175.267087,-37.049432 175.267017,-37.049564 175.267029,-37.049791 175.267161,-37.049976 175.267083,-37.050075 175.267039,-37.050258 175.266863,-37.050347 175.266606,-37.050425 175.266572,-37.050603 175.265776,-37.051254 175.265594,-37.051464 175.265460,-37.051755 175.265126,-37.051932 175.264904,-37.052068 175.264810,-37.052180 175.264816,-37.052390 175.264778,-37.052469 175.264638,-37.052531 175.264531,-37.052602 175.264415,-37.052746 175.264185,-37.052865 175.264075,-37.053018 175.264082,-37.053247 175.264168,-37.053460 175.264104,-37.053599 175.263894,-37.053715 175.263797,-37.053828 175.263945,-37.054133 175.264067,-37.054221 175.264061,-37.054372 175.263950,-37.054360 175.263730,-37.054295 175.263432,-37.054090 175.263223,-37.054059 175.262752,-37.054068 175.262376,-37.053994 175.262061,-37.053836 175.261882,-37.053684 175.261362,-37.053651 175.261231,-37.053681 175.261081,-37.053680 175.260826,-37.053759 175.260418,-37.053759 175.260040,-37.053766 175.259882,-37.053676 175.259794,-37.053491 175.259673,-37.053337 175.259462,-37.053248 175.259392,-37.053028 175.259311,-37.052916 175.258892,-37.052858 175.258676,-37.052923 175.258661,-37.052925 175.258293,-37.052901 175.258083,-37.053035 175.257919,-37.053234 175.257726,-37.053327 175.257122,-37.053241 175.256938,-37.053083 175.255875,-37.052551 175.255488,-37.052240 175.255094,-37.052099 175.254565,-37.052112 175.254484,-37.052240 175.254477,-37.052444 175.254355,-37.052514 175.254280,-37.052630 175.254095,-37.052651</coordinates></LineString></MultiGeometry></Placemark></Document></kml>