<?xml version='1.0' encoding='utf-8'?>
<kml xmlns="http://www.opengis.net/kml/2.2"><Document><name>Tryphena LINZ foot track 4</name><Style id="c"><LineStyle><color>ffff00ff</color><width>5</width></LineStyle></Style><Placemark><name>Tryphena LINZ foot track 4</name><description>Sheet row 1324; LINZ t50_fid(s) 3593480</description><styleUrl>#c</styleUrl><MultiGeometry><LineString><tessellate>1</tessellate><coordinates>175.497069,-36.310307 175.496930,-36.309914 175.496927,-36.309910 175.496910,-36.309887 175.496857,-36.309821 175.496747,-36.309692 175.496587,-36.309516 175.496422,-36.309346 175.496301,-36.309227 175.496238,-36.309169 175.496216,-36.309150 175.496212,-36.309147 175.496211,-36.309147</coordinates></LineString></MultiGeometry></Placemark></Document></kml>