<?xml version='1.0' encoding='utf-8'?>
<kml xmlns="http://www.opengis.net/kml/2.2"><Document><name>Mt Albert LINZ foot track 3</name><Style id="c"><LineStyle><color>ffff00ff</color><width>5</width></LineStyle></Style><Placemark><name>Mt Albert LINZ foot track 3</name><description>Sheet row 855; LINZ t50_fid(s) 3584646</description><styleUrl>#c</styleUrl><MultiGeometry><LineString><tessellate>1</tessellate><coordinates>174.707895,-36.891540 174.707903,-36.891544 174.707993,-36.891660 174.708542,-36.892061 174.709152,-36.892534 174.709220,-36.892545 174.709329,-36.892483 174.709758,-36.892133 174.709806,-36.892141 174.710134,-36.892424 174.710347,-36.892598</coordinates></LineString></MultiGeometry></Placemark></Document></kml>