<?xml version='1.0' encoding='utf-8'?>
<kml xmlns="http://www.opengis.net/kml/2.2"><Document><name>Papatoetoe LINZ foot track 5</name><Style id="c"><LineStyle><color>ffff00ff</color><width>5</width></LineStyle></Style><Placemark><name>Papatoetoe LINZ foot track 5</name><description>Sheet row 1259; LINZ t50_fid(s) 3592793</description><styleUrl>#c</styleUrl><MultiGeometry><LineString><tessellate>1</tessellate><coordinates>174.836044,-36.984382 174.835039,-36.983915 174.834912,-36.983852 174.834725,-36.983625</coordinates></LineString></MultiGeometry></Placemark></Document></kml>