<?xml version='1.0' encoding='utf-8'?>
<kml xmlns="http://www.opengis.net/kml/2.2"><Document><name>Takapuna LINZ foot track 4</name><Style id="c"><LineStyle><color>ffff00ff</color><width>5</width></LineStyle></Style><Placemark><name>Takapuna LINZ foot track 4</name><description>Sheet row 1046; LINZ t50_fid(s) 3554675</description><styleUrl>#c</styleUrl><MultiGeometry><LineString><tessellate>1</tessellate><coordinates>174.766235,-36.790898 174.766242,-36.790962 174.766411,-36.790992 174.766545,-36.790862 174.766625,-36.790860 174.766674,-36.790976 174.766677,-36.791009 174.766645,-36.791064 174.766668,-36.791167 174.766642,-36.791276 174.766429,-36.791541 174.766189,-36.791690 174.766149,-36.791873 174.766107,-36.792046 174.766157,-36.792303 174.766151,-36.792498 174.766274,-36.792806 174.766361,-36.792871 174.766565,-36.792987 174.766626,-36.793058 174.766636,-36.793162 174.766626,-36.793270 174.766584,-36.793373 174.766496,-36.793468 174.766208,-36.793653 174.765983,-36.793835 174.765953,-36.794026 174.766013,-36.794250 174.766101,-36.794365 174.766301,-36.794435 174.766788,-36.794461 174.766879,-36.794486 174.766921,-36.794523 174.766944,-36.794633 174.766953,-36.794917 174.766985,-36.795079 174.767040,-36.795219 174.767006,-36.795319 174.766885,-36.795442 174.766799,-36.795534 174.766708,-36.795594 174.766632,-36.795664 174.766570,-36.795791 174.766541,-36.795871 174.766468,-36.795976 174.766413,-36.796020 174.766315,-36.796032</coordinates></LineString></MultiGeometry></Placemark></Document></kml>