<?xml version='1.0' encoding='utf-8'?>
<kml xmlns="http://www.opengis.net/kml/2.2"><Document><name>Manurewa LINZ foot track 9</name><Style id="c"><LineStyle><color>ffff00ff</color><width>5</width></LineStyle></Style><Placemark><name>Manurewa LINZ foot track 9</name><description>Sheet row 1292; LINZ t50_fid(s) 3592767</description><styleUrl>#c</styleUrl><MultiGeometry><LineString><tessellate>1</tessellate><coordinates>174.889256,-37.020752 174.888082,-37.020381 174.888065,-37.020375</coordinates></LineString></MultiGeometry></Placemark></Document></kml>