<?xml version='1.0' encoding='utf-8'?>
<kml xmlns="http://www.opengis.net/kml/2.2"><Document><name>Snells Beach LINZ foot track 4</name><Style id="c"><LineStyle><color>ffff00ff</color><width>5</width></LineStyle></Style><Placemark><name>Snells Beach LINZ foot track 4</name><description>Sheet row 1203; LINZ t50_fid(s) 8493889</description><styleUrl>#c</styleUrl><MultiGeometry><LineString><tessellate>1</tessellate><coordinates>174.728331,-36.426012 174.728864,-36.425819 174.729101,-36.425435 174.729176,-36.425401 174.729290,-36.425375 174.729628,-36.425466 174.730188,-36.425430 174.730275,-36.425426 174.730279,-36.425426</coordinates></LineString></MultiGeometry></Placemark></Document></kml>