<?xml version='1.0' encoding='utf-8'?>
<kml xmlns="http://www.opengis.net/kml/2.2"><Document><name>Half Moon Bay LINZ foot track 3</name><Style id="c"><LineStyle><color>ffff00ff</color><width>5</width></LineStyle></Style><Placemark><name>Half Moon Bay LINZ foot track 3</name><description>Sheet row 936; LINZ t50_fid(s) 6638772,6638867,6638648,6638773</description><styleUrl>#c</styleUrl><MultiGeometry><LineString><tessellate>1</tessellate><coordinates>174.900488,-36.904255 174.900553,-36.904331 174.900722,-36.904393 174.901133,-36.904490 174.902777,-36.904891</coordinates></LineString><LineString><tessellate>1</tessellate><coordinates>174.902777,-36.904891 174.902741,-36.905046 174.902247,-36.906110 174.902167,-36.906274 174.902102,-36.906339 174.902018,-36.906407</coordinates></LineString><LineString><tessellate>1</tessellate><coordinates>174.902777,-36.904891 174.903276,-36.906526 174.903230,-36.906650 174.903383,-36.906750 174.903468,-36.906858 174.903527,-36.906977 174.903560,-36.907070 174.903610,-36.907106 174.903711,-36.907122 174.903892,-36.907122 174.903985,-36.907109 174.904049,-36.907114 174.904126,-36.907155 174.904160,-36.907196 174.904200,-36.907268 174.904554,-36.907326 174.904593,-36.907515 174.904624,-36.907560 174.904681,-36.907601 174.904757,-36.907609 174.904914,-36.907604 174.905225,-36.907655</coordinates></LineString><LineString><tessellate>1</tessellate><coordinates>174.902777,-36.904891 174.903534,-36.903224 174.903690,-36.903271 174.903751,-36.903270 174.903924,-36.903238 174.904142,-36.903299 174.904198,-36.903298 174.904482,-36.903264 174.904533,-36.903337 174.904585,-36.903421 174.904629,-36.903455 174.904684,-36.903459 174.904783,-36.903443 174.904833,-36.903457 174.904939,-36.903505 174.905049,-36.903507</coordinates></LineString></MultiGeometry></Placemark></Document></kml>