<?xml version='1.0' encoding='utf-8'?>
<kml xmlns="http://www.opengis.net/kml/2.2"><Document><name>Pukekohe LINZ foot track 1</name><Style id="c"><LineStyle><color>ffff00ff</color><width>5</width></LineStyle></Style><Placemark><name>Pukekohe LINZ foot track 1</name><description>Sheet row 983; LINZ t50_fid(s) 3592626</description><styleUrl>#c</styleUrl><MultiGeometry><LineString><tessellate>1</tessellate><coordinates>174.894086,-37.200119 174.894063,-37.200342 174.893876,-37.200634 174.893287,-37.200950 174.893209,-37.200992</coordinates></LineString></MultiGeometry></Placemark></Document></kml>