<?xml version='1.0' encoding='utf-8'?>
<kml xmlns="http://www.opengis.net/kml/2.2"><Document><name>Te Piringa / Cascade Kauri LINZ foot track 3</name><Style id="c"><LineStyle><color>ffff00ff</color><width>5</width></LineStyle></Style><Placemark><name>Te Piringa / Cascade Kauri LINZ foot track 3</name><description>Sheet row 1439; LINZ t50_fid(s) 3585316</description><styleUrl>#c</styleUrl><MultiGeometry><LineString><tessellate>1</tessellate><coordinates>174.527873,-36.898493 174.528526,-36.898728 174.529019,-36.899008 174.529463,-36.899136 174.529652,-36.899191 174.530160,-36.899237 174.530385,-36.899283</coordinates></LineString></MultiGeometry></Placemark></Document></kml>