<?xml version='1.0' encoding='utf-8'?>
<kml xmlns="http://www.opengis.net/kml/2.2"><Document><name>Western Springs LINZ foot track 1</name><Style id="c"><LineStyle><color>ffff00ff</color><width>5</width></LineStyle></Style><Placemark><name>Western Springs LINZ foot track 1</name><description>Sheet row 820; LINZ t50_fid(s) 3592938,3592939,3592941,3584651,3592940,3554622,3556070,3592942,3592943</description><styleUrl>#c</styleUrl><MultiGeometry><LineString><tessellate>1</tessellate><coordinates>174.720597,-36.866807 174.720546,-36.866925 174.720471,-36.867084 174.720358,-36.867142 174.720222,-36.867191 174.720006,-36.867251 174.719867,-36.867307 174.719815,-36.867355 174.719764,-36.867433 174.719704,-36.867615 174.719640,-36.867763 174.719750,-36.867989</coordinates></LineString><LineString><tessellate>1</tessellate><coordinates>174.720726,-36.866043 174.720635,-36.866480 174.720597,-36.866807</coordinates></LineString><LineString><tessellate>1</tessellate><coordinates>174.720211,-36.865323 174.720441,-36.865192 174.720620,-36.865099 174.720781,-36.864998 174.720905,-36.864866</coordinates></LineString><LineString><tessellate>1</tessellate><coordinates>174.720905,-36.864866 174.720878,-36.865008 174.720861,-36.865142 174.720798,-36.865331 174.720680,-36.865712 174.720717,-36.865900 174.720726,-36.866043</coordinates></LineString><LineString><tessellate>1</tessellate><coordinates>174.720726,-36.866043 174.721034,-36.866073 174.721342,-36.866181 174.721440,-36.866378 174.721425,-36.866486 174.721406,-36.866619 174.721209,-36.866819 174.720883,-36.866853 174.720597,-36.866807</coordinates></LineString><LineString><tessellate>1</tessellate><coordinates>174.721272,-36.864891 174.721500,-36.864657 174.721848,-36.864648 174.722181,-36.864691 174.722601,-36.864817 174.723129,-36.864760 174.723580,-36.864681 174.723813,-36.864688 174.724013,-36.864740 174.724117,-36.864801 174.724288,-36.864968 174.724429,-36.865389 174.724838,-36.865610 174.725210,-36.865898 174.725320,-36.865952 174.725585,-36.866082 174.725704,-36.866224 174.725816,-36.866360 174.726166,-36.866552 174.726368,-36.866730</coordinates></LineString><LineString><tessellate>1</tessellate><coordinates>174.721272,-36.864891 174.721646,-36.865013 174.721940,-36.865504 174.722077,-36.865880 174.722102,-36.866114 174.722010,-36.866794 174.722159,-36.867272 174.722322,-36.867429 174.722636,-36.867645 174.722913,-36.867649 174.723156,-36.867541 174.723177,-36.867297 174.723117,-36.867184 174.723067,-36.867149 174.722840,-36.866987 174.722826,-36.866798 174.722991,-36.866724 174.723323,-36.866812 174.723535,-36.866741 174.723700,-36.866865 174.723913,-36.867042 174.723924,-36.867051 174.724072,-36.867133 174.724278,-36.867127 174.724792,-36.867293 174.725537,-36.867542 174.725762,-36.867687 174.726085,-36.867675 174.726470,-36.867544 174.726642,-36.867385 174.726730,-36.867183 174.726574,-36.866823 174.726368,-36.866730</coordinates></LineString><LineString><tessellate>1</tessellate><coordinates>174.726368,-36.866730 174.726432,-36.866313 174.726733,-36.866080 174.726994,-36.865919</coordinates></LineString><LineString><tessellate>1</tessellate><coordinates>174.720905,-36.864866 174.721078,-36.864824 174.721272,-36.864891</coordinates></LineString></MultiGeometry></Placemark></Document></kml>