<?xml version='1.0' encoding='utf-8'?>
<kml xmlns="http://www.opengis.net/kml/2.2"><Document><name>Grey Lynn LINZ foot track 2</name><Style id="c"><LineStyle><color>ffff00ff</color><width>5</width></LineStyle></Style><Placemark><name>Grey Lynn LINZ foot track 2</name><description>Sheet row 885; LINZ t50_fid(s) 3593154</description><styleUrl>#c</styleUrl><MultiGeometry><LineString><tessellate>1</tessellate><coordinates>174.735327,-36.856688 174.734734,-36.856154 174.734641,-36.856050 174.734394,-36.855750</coordinates></LineString></MultiGeometry></Placemark></Document></kml>