<?xml version='1.0' encoding='utf-8'?>
<kml xmlns="http://www.opengis.net/kml/2.2"><Document><name>Whakanewha / central Waiheke LINZ foot track 9</name><Style id="c"><LineStyle><color>ffff00ff</color><width>5</width></LineStyle></Style><Placemark><name>Whakanewha / central Waiheke LINZ foot track 9</name><description>Sheet row 1469; LINZ t50_fid(s) 7879934,7880157,7880158,7880161,7880162</description><styleUrl>#c</styleUrl><MultiGeometry><LineString><tessellate>1</tessellate><coordinates>175.072883,-36.821857 175.072857,-36.822044 175.072873,-36.822189 175.072955,-36.822296 175.073091,-36.822383 175.073260,-36.822484 175.073422,-36.822531 175.073623,-36.822572 175.073764,-36.822654 175.073850,-36.822774 175.073918,-36.822940 175.074088,-36.823033 175.074291,-36.823116 175.074574,-36.823216 175.074662,-36.823280 175.074869,-36.823083 175.074971,-36.823032 175.075121,-36.822976 175.075325,-36.822916 175.075555,-36.822886 175.075770,-36.822894 175.075856,-36.822984 175.075883,-36.823113 175.075944,-36.823295</coordinates></LineString><LineString><tessellate>1</tessellate><coordinates>175.073612,-36.824357 175.073509,-36.824444 175.073391,-36.824526 175.073297,-36.824620 175.073209,-36.824723 175.073088,-36.824788 175.072943,-36.824872 175.072774,-36.824966 175.072699,-36.825076 175.072549,-36.825194 175.072490,-36.825284 175.072455,-36.825466 175.072425,-36.825580</coordinates></LineString><LineString><tessellate>1</tessellate><coordinates>175.074112,-36.824524 175.074011,-36.824653 175.073938,-36.824773 175.073909,-36.824902 175.073890,-36.825093 175.073836,-36.825211 175.073785,-36.825320 175.073742,-36.825443 175.073718,-36.825561 175.073678,-36.825642 175.073606,-36.825685 175.073525,-36.825651 175.073383,-36.825608 175.073257,-36.825617 175.073211,-36.825690 175.073160,-36.825836 175.073147,-36.825984 175.073117,-36.826263 175.073056,-36.826360 175.072946,-36.826469 175.072860,-36.826548 175.072798,-36.826610 175.072884,-36.826769</coordinates></LineString><LineString><tessellate>1</tessellate><coordinates>175.074662,-36.823280 175.074676,-36.823378 175.074778,-36.823508 175.074912,-36.823727 175.074965,-36.823908 175.074896,-36.824092 175.074762,-36.824243 175.074547,-36.824384 175.074273,-36.824522 175.074112,-36.824524 175.073994,-36.824526 175.073775,-36.824466 175.073612,-36.824357 175.073716,-36.824261 175.073753,-36.824088 175.073640,-36.824036 175.073533,-36.824024 175.073420,-36.823968 175.073286,-36.823856 175.073082,-36.823706 175.072959,-36.823594 175.072825,-36.823573 175.072707,-36.823611 175.072554,-36.823612 175.072480,-36.823536 175.072457,-36.823364 175.072433,-36.823233 175.072428,-36.822989 175.072380,-36.822841 175.072372,-36.822624 175.072396,-36.822443 175.072495,-36.822192 175.072610,-36.822050 175.072686,-36.821945 175.072723,-36.821866 175.072782,-36.821794</coordinates></LineString><LineString><tessellate>1</tessellate><coordinates>175.072480,-36.823536 175.072454,-36.823759 175.072434,-36.824026 175.072527,-36.824237 175.072515,-36.824348 175.072499,-36.824546 175.072446,-36.824703 175.072230,-36.824774</coordinates></LineString></MultiGeometry></Placemark></Document></kml>