<?xml version='1.0' encoding='utf-8'?>
<kml xmlns="http://www.opengis.net/kml/2.2"><Document><name>Te Atatū South LINZ foot track 2</name><Style id="c"><LineStyle><color>ffff00ff</color><width>5</width></LineStyle></Style><Placemark><name>Te Atatū South LINZ foot track 2</name><description>Sheet row 1189; LINZ t50_fid(s) 8467135</description><styleUrl>#c</styleUrl><MultiGeometry><LineString><tessellate>1</tessellate><coordinates>174.649119,-36.869912 174.649674,-36.870398 174.649860,-36.870927</coordinates></LineString></MultiGeometry></Placemark></Document></kml>