<?xml version='1.0' encoding='utf-8'?>
<kml xmlns="http://www.opengis.net/kml/2.2"><Document><name>Panmure LINZ foot track 3</name><Style id="c"><LineStyle><color>ffff00ff</color><width>5</width></LineStyle></Style><Placemark><name>Panmure LINZ foot track 3</name><description>Sheet row 884; LINZ t50_fid(s) 3593018</description><styleUrl>#c</styleUrl><MultiGeometry><LineString><tessellate>1</tessellate><coordinates>174.857832,-36.898019 174.857517,-36.898385 174.857504,-36.898850 174.857154,-36.898931 174.857089,-36.898921</coordinates></LineString></MultiGeometry></Placemark></Document></kml>