<?xml version='1.0' encoding='utf-8'?>
<kml xmlns="http://www.opengis.net/kml/2.2"><Document><name>Mahurangi Island LINZ foot track 1</name><Style id="c"><LineStyle><color>ffff00ff</color><width>5</width></LineStyle></Style><Placemark><name>Mahurangi Island LINZ foot track 1</name><description>Sheet row 1011; LINZ t50_fid(s) 7646319,3556119,3574101</description><styleUrl>#c</styleUrl><MultiGeometry><LineString><tessellate>1</tessellate><coordinates>174.708344,-36.534402 174.708620,-36.534582 174.708718,-36.534605 174.708894,-36.534562 174.709236,-36.534500 174.709705,-36.534456 174.710103,-36.534392 174.710321,-36.534378 174.710659,-36.534432 174.710949,-36.534554 174.711214,-36.534685 174.711319,-36.534720 174.711501,-36.534696 174.711673,-36.534602 174.711769,-36.534432</coordinates></LineString><LineString><tessellate>1</tessellate><coordinates>174.705316,-36.539862 174.705619,-36.539996 174.705863,-36.540167 174.706046,-36.540255 174.706207,-36.540420 174.706312,-36.540690 174.706375,-36.540922 174.707154,-36.541122 174.708326,-36.541033 174.709284,-36.540796 174.709801,-36.540706 174.710391,-36.540686 174.710847,-36.540803 174.711129,-36.540895 174.711390,-36.540988 174.711798,-36.541115 174.711994,-36.541106 174.712483,-36.541142 174.713352,-36.541128 174.713815,-36.541035 174.714137,-36.540786 174.714215,-36.540503 174.714214,-36.540066 174.714015,-36.539677 174.713890,-36.539362 174.713859,-36.538513 174.713862,-36.538231 174.714194,-36.537499 174.714225,-36.537088 174.714165,-36.536756 174.714096,-36.536543 174.713899,-36.536316 174.713388,-36.536196 174.713354,-36.535976 174.713012,-36.535431 174.712267,-36.534862 174.711769,-36.534432 174.711761,-36.534425 174.711740,-36.534307 174.711829,-36.534145 174.711877,-36.533958 174.712014,-36.533280 174.712009,-36.533062 174.711981,-36.532962 174.711822,-36.532774 174.711521,-36.532403</coordinates></LineString><LineString><tessellate>1</tessellate><coordinates>174.713388,-36.536196 174.713386,-36.536195 174.711865,-36.536306 174.710255,-36.536324 174.709407,-36.536294 174.708916,-36.536209 174.708433,-36.535775 174.708266,-36.535489 174.708283,-36.535235 174.708122,-36.534921 174.708348,-36.534824 174.708718,-36.534605</coordinates></LineString></MultiGeometry></Placemark></Document></kml>