<?xml version='1.0' encoding='utf-8'?>
<kml xmlns="http://www.opengis.net/kml/2.2"><Document><name>The Gardens LINZ foot track 1</name><Style id="c"><LineStyle><color>ffff00ff</color><width>5</width></LineStyle></Style><Placemark><name>The Gardens LINZ foot track 1</name><description>Sheet row 1220; LINZ t50_fid(s) 8062691</description><styleUrl>#c</styleUrl><MultiGeometry><LineString><tessellate>1</tessellate><coordinates>174.889530,-37.005332 174.889700,-37.005400 174.889864,-37.005467 174.890119,-37.005538 174.890222,-37.005543 174.890231,-37.005545 174.890363,-37.005614 174.890419,-37.005642 174.890727,-37.005673 174.890750,-37.005675 174.891149,-37.005657 174.891265,-37.005598 174.891353,-37.005544 174.891409,-37.005550 174.891543,-37.005564 174.891674,-37.005585 174.891688,-37.005606 174.891733,-37.005644 174.891772,-37.005666 174.891811,-37.005687 174.891906,-37.005704 174.891972,-37.005702 174.892056,-37.005699 174.892135,-37.005669 174.892206,-37.005643 174.892540,-37.005508 174.892643,-37.005493 174.892748,-37.005480 174.892838,-37.005494 174.892901,-37.005522 174.893253,-37.005802 174.893284,-37.005826 174.893332,-37.005844 174.893434,-37.005856 174.893626,-37.005867 174.893778,-37.005770 174.893921,-37.005710 174.893981,-37.005635 174.894185,-37.005601 174.894280,-37.005571 174.894423,-37.005493 174.894556,-37.005458 174.894676,-37.005439 174.894887,-37.005420 174.895000,-37.005390 174.895185,-37.005315 174.895327,-37.005284 174.895461,-37.005282 174.895652,-37.005329 174.895852,-37.005328 174.895982,-37.005345 174.896084,-37.005374 174.896227,-37.005434 174.896306,-37.005519 174.896463,-37.005710 174.896610,-37.005813 174.896730,-37.005898 174.897042,-37.006173 174.897116,-37.006237 174.897630,-37.006655 174.897722,-37.006729 174.897832,-37.006716 174.897748,-37.007091 174.897573,-37.007040 174.897458,-37.007054 174.897182,-37.007172 174.897092,-37.007208</coordinates></LineString></MultiGeometry></Placemark></Document></kml>