<?xml version='1.0' encoding='utf-8'?>
<kml xmlns="http://www.opengis.net/kml/2.2"><Document><name>Greenhithe LINZ foot track 2</name><Style id="c"><LineStyle><color>ffff00ff</color><width>5</width></LineStyle></Style><Placemark><name>Greenhithe LINZ foot track 2</name><description>Sheet row 1048; LINZ t50_fid(s) 8466368</description><styleUrl>#c</styleUrl><MultiGeometry><LineString><tessellate>1</tessellate><coordinates>174.679659,-36.762183 174.679665,-36.762262 174.679651,-36.762360 174.679664,-36.762412 174.679713,-36.762465 174.679852,-36.762556 174.679953,-36.762644 174.680187,-36.762784 174.680339,-36.762904 174.680514,-36.762989 174.680696,-36.763063 174.680801,-36.763128 174.680950,-36.763163 174.681211,-36.763208 174.681369,-36.763216 174.681945,-36.763208 174.682077,-36.763208 174.682197,-36.763220 174.682302,-36.763164 174.682410,-36.763131 174.682552,-36.763103 174.682638,-36.763098 174.682752,-36.763035 174.682850,-36.763004 174.682973,-36.762999 174.683057,-36.762957 174.683202,-36.762834 174.683362,-36.762743 174.683467,-36.762685 174.683512,-36.762674 174.683672,-36.762695 174.683868,-36.762683 174.684108,-36.762652 174.684298,-36.762612 174.684394,-36.762576 174.684446,-36.762525 174.684510,-36.762490 174.684602,-36.762472 174.684692,-36.762477 174.684779,-36.762451 174.684912,-36.762412 174.685001,-36.762435 174.685066,-36.762380 174.685221,-36.762254 174.685667,-36.762067 174.686154,-36.761862 174.686343,-36.761857 174.686405,-36.761843 174.686450,-36.761765</coordinates></LineString></MultiGeometry></Placemark></Document></kml>