<?xml version='1.0' encoding='utf-8'?>
<kml xmlns="http://www.opengis.net/kml/2.2"><Document><name>Māngere LINZ foot track 12</name><Style id="c"><LineStyle><color>ffff00ff</color><width>5</width></LineStyle></Style><Placemark><name>Māngere LINZ foot track 12</name><description>Sheet row 1254; LINZ t50_fid(s) 3584592</description><styleUrl>#c</styleUrl><MultiGeometry><LineString><tessellate>1</tessellate><coordinates>174.795318,-36.969523 174.795142,-36.969520 174.795062,-36.969521 174.795054,-36.969521 174.794484,-36.969564 174.793995,-36.969743 174.793579,-36.970037</coordinates></LineString></MultiGeometry></Placemark></Document></kml>