<?xml version='1.0' encoding='utf-8'?>
<kml xmlns="http://www.opengis.net/kml/2.2"><Document><name>Rangitoto / Motutapu LINZ foot track 1</name><Style id="c"><LineStyle><color>ffff00ff</color><width>5</width></LineStyle></Style><Placemark><name>Rangitoto / Motutapu LINZ foot track 1</name><description>Sheet row 1431; LINZ t50_fid(s) 3554674</description><styleUrl>#c</styleUrl><MultiGeometry><LineString><tessellate>1</tessellate><coordinates>174.889542,-36.829800 174.889745,-36.829561 174.890109,-36.829568 174.890595,-36.829703 174.890863,-36.829778 174.891235,-36.829817 174.891525,-36.829802 174.891694,-36.829631 174.891832,-36.829503 174.892007,-36.829376 174.892404,-36.829463 174.892970,-36.829486 174.893322,-36.829446 174.893635,-36.829549 174.893989,-36.829437 174.894185,-36.829248 174.894317,-36.828966 174.894613,-36.828731 174.895035,-36.828588 174.895415,-36.828644 174.895442,-36.828652 174.895625,-36.828675</coordinates></LineString></MultiGeometry></Placemark></Document></kml>