<?xml version='1.0' encoding='utf-8'?>
<kml xmlns="http://www.opengis.net/kml/2.2"><Document><name>Red Beach LINZ foot track 1</name><Style id="c"><LineStyle><color>ffff00ff</color><width>5</width></LineStyle></Style><Placemark><name>Red Beach LINZ foot track 1</name><description>Sheet row 916; LINZ t50_fid(s) 7645698</description><styleUrl>#c</styleUrl><MultiGeometry><LineString><tessellate>1</tessellate><coordinates>174.699578,-36.593149 174.699666,-36.593712 174.699697,-36.593818 174.699717,-36.593883 174.699887,-36.594025 174.700098,-36.594198 174.700164,-36.594289 174.700172,-36.594357 174.700147,-36.594406 174.700210,-36.594525 174.700254,-36.594664 174.700275,-36.594825 174.700295,-36.594933 174.700285,-36.594995 174.700223,-36.595113 174.700208,-36.595198 174.700233,-36.595416 174.700260,-36.595719 174.700260,-36.595987 174.700339,-36.596134 174.700338,-36.596217 174.700388,-36.596503 174.700390,-36.596585 174.700341,-36.596743 174.700325,-36.596835 174.700328,-36.596955 174.700354,-36.597093 174.700331,-36.597232 174.700257,-36.597437 174.700223,-36.597577 174.700162,-36.597784 174.700001,-36.598186 174.699879,-36.598418 174.699774,-36.598551 174.699650,-36.598753 174.699598,-36.598809 174.699552,-36.598852 174.699506,-36.598887 174.699374,-36.598943 174.699252,-36.599027 174.699138,-36.599092 174.699078,-36.599129 174.698960,-36.599218 174.698874,-36.599266 174.698631,-36.599295 174.698452,-36.599361 174.698345,-36.599383 174.698260,-36.599436 174.698223,-36.599435 174.698126,-36.599401 174.697952,-36.599280</coordinates></LineString></MultiGeometry></Placemark></Document></kml>