<?xml version='1.0' encoding='utf-8'?>
<kml xmlns="http://www.opengis.net/kml/2.2"><Document><name>Papakura LINZ foot track 1</name><Style id="c"><LineStyle><color>ffff00ff</color><width>5</width></LineStyle></Style><Placemark><name>Papakura LINZ foot track 1</name><description>Sheet row 1216; LINZ t50_fid(s) 8062692</description><styleUrl>#c</styleUrl><MultiGeometry><LineString><tessellate>1</tessellate><coordinates>174.916859,-37.063747 174.916604,-37.063421 174.916576,-37.063366 174.916571,-37.063295 174.916590,-37.063239 174.916648,-37.063182 174.916822,-37.063083 174.916923,-37.063043 174.917003,-37.063018 174.917124,-37.063001 174.917214,-37.062978 174.917282,-37.062951 174.917339,-37.062908 174.917430,-37.062816 174.917489,-37.062772 174.917551,-37.062744 174.917632,-37.062717 174.917786,-37.062685 174.917889,-37.062656 174.917995,-37.062622 174.918114,-37.062568 174.918201,-37.062534 174.918272,-37.062523 174.918629,-37.062520 174.918717,-37.062516 174.918790,-37.062505 174.918901,-37.062469 174.919106,-37.062353 174.919227,-37.062263 174.919392,-37.062090 174.919518,-37.061986 174.919672,-37.061882 174.919783,-37.061836 174.919924,-37.061807 174.920111,-37.061766 174.920173,-37.061736 174.920248,-37.061669 174.920344,-37.061584 174.920426,-37.061530 174.920619,-37.061440 174.920695,-37.061393 174.920848,-37.061273 174.920995,-37.061143 174.921072,-37.061078 174.921123,-37.061050 174.921205,-37.061027 174.921345,-37.061017 174.921474,-37.061024 174.921582,-37.061043 174.921767,-37.061083 174.921885,-37.061131 174.921953,-37.061186 174.922014,-37.061266 174.922086,-37.061358 174.922181,-37.061472 174.922278,-37.061566 174.922356,-37.061694 174.922389,-37.061739 174.922430,-37.061769 174.922513,-37.061812 174.922573,-37.061856 174.922620,-37.061906 174.922649,-37.061953 174.922658,-37.062013 174.922683,-37.062139 174.922681,-37.062176 174.922661,-37.062223 174.922600,-37.062306 174.922493,-37.062396 174.922356,-37.062519 174.922299,-37.062575 174.922280,-37.062617 174.922276,-37.062652 174.922289,-37.062694 174.922315,-37.062715 174.922350,-37.062722 174.922398,-37.062713 174.922463,-37.062670 174.922797,-37.062391 174.922956,-37.062253 174.923013,-37.062198 174.922993,-37.062130 174.922971,-37.062040 174.922966,-37.061987 174.922977,-37.061939 174.923020,-37.061861 174.923049,-37.061801 174.923083,-37.061660 174.923122,-37.061437 174.923119,-37.061375 174.923096,-37.061326 174.923041,-37.061258 174.922998,-37.061207 174.922986,-37.061160 174.922997,-37.061099 174.923006,-37.061036 174.923002,-37.060961 174.923012,-37.060907 174.923048,-37.060827 174.923073,-37.060815 174.923116,-37.060836 174.923220,-37.060926 174.923244,-37.060975 174.923249,-37.061049 174.923254,-37.061101 174.923304,-37.061160 174.923412,-37.061259 174.923458,-37.061327 174.923517,-37.061450 174.923637,-37.061643 174.923727,-37.061759 174.923782,-37.061865 174.923690,-37.061947</coordinates></LineString></MultiGeometry></Placemark></Document></kml>