<?xml version='1.0' encoding='utf-8'?>
<kml xmlns="http://www.opengis.net/kml/2.2"><Document><name>Panmure LINZ foot track 1</name><Style id="c"><LineStyle><color>ffff00ff</color><width>5</width></LineStyle></Style><Placemark><name>Panmure LINZ foot track 1</name><description>Sheet row 819; LINZ t50_fid(s) 3531486</description><styleUrl>#c</styleUrl><MultiGeometry><LineString><tessellate>1</tessellate><coordinates>174.854511,-36.902738 174.854364,-36.902717 174.853721,-36.902069 174.853551,-36.901897 174.853425,-36.901847 174.853326,-36.901835 174.853067,-36.901853 174.852849,-36.901848 174.852713,-36.901845 174.852332,-36.901851 174.852056,-36.901855 174.851763,-36.901852 174.851384,-36.901798 174.850944,-36.901760 174.850641,-36.901746 174.850126,-36.901804 174.849975,-36.901687 174.849806,-36.901663 174.849576,-36.901761 174.849378,-36.901924 174.849335,-36.902067 174.848527,-36.902171 174.847932,-36.902329 174.847351,-36.902755 174.846288,-36.903310 174.846024,-36.903382 174.845960,-36.903532 174.845574,-36.903762 174.845506,-36.903916 174.845388,-36.904138 174.845290,-36.904620 174.845132,-36.904887 174.844898,-36.905135 174.844699,-36.905311 174.844370,-36.905468 174.844239,-36.905630 174.844159,-36.905838 174.844094,-36.906113 174.843874,-36.906256 174.843734,-36.906368 174.843909,-36.906622 174.843969,-36.906794 174.844111,-36.907028 174.844183,-36.907143 174.844383,-36.907320 174.844600,-36.907382 174.844813,-36.907427 174.845015,-36.907514 174.845409,-36.907524 174.845544,-36.907591 174.846009,-36.907848 174.846196,-36.907954 174.846436,-36.908114 174.846660,-36.908270 174.846995,-36.908430 174.847247,-36.908484 174.847651,-36.908431 174.847740,-36.908434 174.847781,-36.908462 174.847791,-36.908531 174.848048,-36.908512 174.848332,-36.908425 174.848545,-36.908466 174.848907,-36.908443 174.849324,-36.908298 174.849698,-36.908028 174.849892,-36.908051 174.850071,-36.908043 174.850391,-36.907935 174.850646,-36.907907 174.850929,-36.907809 174.851251,-36.907780 174.851366,-36.907693 174.851466,-36.907610 174.851648,-36.907577 174.851884,-36.907512 174.852470,-36.907362 174.852644,-36.907334 174.852613,-36.907239 174.852640,-36.907139 174.852791,-36.907004 174.852872,-36.906903 174.852916,-36.906741 174.852997,-36.906628 174.853120,-36.906550 174.853363,-36.906466 174.853614,-36.906395 174.853796,-36.906236 174.854109,-36.906149 174.854361,-36.906116 174.854658,-36.905994 174.854863,-36.905849 174.854980,-36.905839 174.855123,-36.905886 174.855202,-36.905938 174.855376,-36.906179 174.855499,-36.906439 174.855676,-36.906777 174.856068,-36.907264 174.856296,-36.907637 174.856368,-36.907718 174.856442,-36.907876 174.856452,-36.908008 174.856498,-36.908120 174.856599,-36.908303 174.856628,-36.908467 174.856788,-36.908689 174.856791,-36.908816 174.856594,-36.908954 174.856452,-36.909150 174.856387,-36.909379 174.856446,-36.909580 174.856432,-36.909875 174.856402,-36.910016 174.856324,-36.910058 174.856272,-36.910042</coordinates></LineString></MultiGeometry></Placemark></Document></kml>