<?xml version='1.0' encoding='utf-8'?>
<kml xmlns="http://www.opengis.net/kml/2.2"><Document><name>Mt Albert LINZ foot track 1</name><Style id="c"><LineStyle><color>ffff00ff</color><width>5</width></LineStyle></Style><Placemark><name>Mt Albert LINZ foot track 1</name><description>Sheet row 816; LINZ t50_fid(s) 6250315,6250157,6250316,8520555,8520918,8520919,8520969,6249958,8520883,8520884,8520917,8520970,8520971</description><styleUrl>#c</styleUrl><MultiGeometry><LineString><tessellate>1</tessellate><coordinates>174.725540,-36.896295 174.725608,-36.896334 174.725623,-36.896375 174.725648,-36.896398 174.725682,-36.896414 174.725719,-36.896421 174.725756,-36.896420 174.725939,-36.896415 174.725986,-36.896424 174.726037,-36.896445 174.726088,-36.896460</coordinates></LineString><LineString><tessellate>1</tessellate><coordinates>174.726088,-36.896460 174.726133,-36.896451 174.726181,-36.896487 174.726222,-36.896527 174.726281,-36.896563 174.726364,-36.896579 174.726442,-36.896608 174.726507,-36.896653 174.726533,-36.896702 174.726568,-36.896756 174.726655,-36.896804 174.726770,-36.896862 174.726890,-36.896904 174.726993,-36.896955 174.727113,-36.896980 174.727249,-36.897022 174.727398,-36.897109 174.727451,-36.897132 174.727459,-36.897136 174.727550,-36.897176 174.727696,-36.897248 174.727836,-36.897337 174.727988,-36.897391 174.728068,-36.897397 174.728218,-36.897398 174.728366,-36.897425 174.728490,-36.897475</coordinates></LineString><LineString><tessellate>1</tessellate><coordinates>174.729346,-36.896822 174.729268,-36.897178 174.729248,-36.897262 174.729232,-36.897295 174.729197,-36.897323 174.729165,-36.897336 174.729079,-36.897338 174.728992,-36.897329 174.728913,-36.897322 174.728857,-36.897324 174.728777,-36.897340 174.728648,-36.897382 174.728568,-36.897414 174.728508,-36.897440 174.728490,-36.897475</coordinates></LineString><LineString><tessellate>1</tessellate><coordinates>174.712678,-36.899545 174.713000,-36.899681 174.713492,-36.899841 174.714419,-36.900093 174.715125,-36.900295 174.715115,-36.900409 174.715136,-36.900475 174.715172,-36.900535 174.715217,-36.900590 174.715291,-36.900635 174.715377,-36.900675 174.715482,-36.900691 174.715609,-36.900689 174.715766,-36.900671 174.715918,-36.900636 174.716034,-36.900591 174.716149,-36.900536 174.716283,-36.900446 174.716362,-36.900376 174.716960,-36.899849 174.717426,-36.899388 174.717679,-36.899108 174.717825,-36.898932 174.718069,-36.898593 174.718211,-36.898663 174.718276,-36.898666 174.718312,-36.898649 174.718336,-36.898604 174.718345,-36.898535 174.718369,-36.898487 174.718448,-36.898412 174.718598,-36.898318 174.718744,-36.898235 174.718837,-36.898183 174.718989,-36.898089 174.719146,-36.897988 174.719268,-36.897936 174.719397,-36.897907 174.719502,-36.897909 174.719570,-36.897881 174.719719,-36.897813 174.719811,-36.897781 174.719896,-36.897749 174.719994,-36.897715 174.720059,-36.897703 174.720121,-36.897697 174.720179,-36.897690 174.720237,-36.897665 174.720301,-36.897631 174.720365,-36.897586 174.720447,-36.897551 174.720535,-36.897531 174.720621,-36.897527 174.720706,-36.897515 174.720771,-36.897492 174.720852,-36.897460 174.720948,-36.897437 174.721238,-36.897375 174.721521,-36.897313 174.721688,-36.897269 174.721845,-36.897248 174.722050,-36.897223 174.722194,-36.897207 174.722337,-36.897209 174.722528,-36.897211 174.722694,-36.897205 174.722818,-36.897193 174.723189,-36.897130</coordinates></LineString><LineString><tessellate>1</tessellate><coordinates>174.723189,-36.897130 174.723182,-36.897060 174.723101,-36.896803 174.723074,-36.896740 174.723039,-36.896700 174.722849,-36.896572 174.722797,-36.896516 174.722769,-36.896424 174.722769,-36.896317 174.722791,-36.896238 174.722788,-36.896110 174.722762,-36.896007 174.722712,-36.895926 174.722646,-36.895847 174.722608,-36.895767 174.722567,-36.895614 174.722599,-36.895470 174.722610,-36.895356 174.722600,-36.895290 174.722528,-36.895204 174.722435,-36.895156 174.722301,-36.895119 174.722165,-36.894943</coordinates></LineString><LineString><tessellate>1</tessellate><coordinates>174.723189,-36.897130 174.723313,-36.897103 174.723397,-36.897099 174.723622,-36.897104 174.723716,-36.897097 174.723862,-36.897057 174.723975,-36.897037 174.724205,-36.897014 174.724576,-36.896962 174.724807,-36.896911 174.724956,-36.896872 174.725242,-36.896759 174.725317,-36.896739 174.725395,-36.896737 174.725610,-36.896736 174.725707,-36.896724 174.725796,-36.896717 174.725870,-36.896680 174.725903,-36.896638 174.725914,-36.896620 174.725930,-36.896591 174.725953,-36.896538 174.725983,-36.896508 174.726017,-36.896488 174.726088,-36.896460</coordinates></LineString><LineString><tessellate>1</tessellate><coordinates>174.712678,-36.899545 174.712628,-36.899639 174.712631,-36.899696 174.712716,-36.899927 174.712834,-36.900244 174.713003,-36.900717</coordinates></LineString><LineString><tessellate>1</tessellate><coordinates>174.728490,-36.897475 174.728621,-36.897562 174.728702,-36.897608 174.728862,-36.897635 174.728995,-36.897682 174.729104,-36.897732 174.729200,-36.897802 174.729282,-36.897890 174.729341,-36.897931 174.729481,-36.897983 174.729620,-36.898053 174.729704,-36.898108 174.729767,-36.898149 174.729858,-36.898232 174.729927,-36.898312 174.729987,-36.898407 174.730073,-36.898522 174.730201,-36.898626 174.730344,-36.898708 174.730380,-36.898786 174.730419,-36.898892 174.730454,-36.898968 174.730576,-36.899052 174.730685,-36.899110 174.730751,-36.899188 174.730799,-36.899258 174.730877,-36.899336 174.730995,-36.899411 174.731118,-36.899535 174.731187,-36.899615 174.731202,-36.899736 174.731260,-36.899831 174.731317,-36.900015 174.731328,-36.900049 174.731513,-36.900342 174.731746,-36.900683 174.731947,-36.900927 174.732067,-36.901055 174.732124,-36.901142 174.732177,-36.901213 174.732313,-36.901310 174.732386,-36.901392 174.732443,-36.901490 174.732498,-36.901619 174.732524,-36.901704 174.732599,-36.901782 174.732698,-36.901847 174.732890,-36.901969 174.733052,-36.902085 174.733177,-36.902180 174.733344,-36.902296 174.733505,-36.902415 174.733574,-36.902456 174.733635,-36.902487 174.733625,-36.902528 174.733586,-36.902696 174.733583,-36.902705 174.733660,-36.902752 174.733792,-36.902848 174.733926,-36.902941 174.734114,-36.903079 174.734306,-36.903205 174.734452,-36.903322 174.734595,-36.903424 174.734721,-36.903513 174.734853,-36.903591 174.735076,-36.903701 174.735223,-36.903768 174.735334,-36.903793 174.735466,-36.903788 174.735564,-36.903769 174.735679,-36.903702 174.735788,-36.903650 174.735946,-36.903585 174.736123,-36.903537 174.736359,-36.903478 174.736547,-36.903498 174.736699,-36.903545 174.736837,-36.903581 174.737043,-36.903603 174.737255,-36.903718 174.737311,-36.903759 174.737436,-36.903829 174.737531,-36.903959 174.737641,-36.904104 174.737739,-36.904204 174.737838,-36.904327 174.737926,-36.904424 174.737993,-36.904506 174.738139,-36.904592 174.738270,-36.904637 174.738405,-36.904706 174.738651,-36.904827</coordinates></LineString><LineString><tessellate>1</tessellate><coordinates>174.705677,-36.894851 174.705852,-36.894688 174.705860,-36.894681 174.705965,-36.894628 174.706055,-36.894617 174.706132,-36.894624 174.706216,-36.894662 174.706659,-36.894986 174.706908,-36.895223 174.707098,-36.895461 174.707614,-36.896128 174.707774,-36.896335 174.707849,-36.896389 174.707913,-36.896418 174.707988,-36.896433 174.708066,-36.896442 174.708150,-36.896452 174.708269,-36.896496 174.708489,-36.896641 174.708941,-36.896948 174.709145,-36.897073</coordinates></LineString><LineString><tessellate>1</tessellate><coordinates>174.712678,-36.899545 174.711923,-36.899204 174.711806,-36.899127 174.711655,-36.899015 174.711476,-36.898909 174.710747,-36.898524 174.710316,-36.898276 174.710189,-36.898230 174.709958,-36.898161 174.709763,-36.898088</coordinates></LineString><LineString><tessellate>1</tessellate><coordinates>174.709763,-36.898088 174.709720,-36.898149 174.709724,-36.898180 174.709778,-36.898248 174.710039,-36.898576 174.710118,-36.898673 174.710174,-36.898728 174.710189,-36.898758 174.710171,-36.898773 174.710142,-36.898774 174.710075,-36.898736 174.710041,-36.898736 174.710030,-36.898757 174.710033,-36.898780 174.710314,-36.898990 174.710520,-36.899154 174.710413,-36.899290 174.710337,-36.899362 174.710214,-36.899468</coordinates></LineString><LineString><tessellate>1</tessellate><coordinates>174.709763,-36.898088 174.709489,-36.897913 174.709300,-36.897759 174.709246,-36.897669 174.709235,-36.897588 174.709297,-36.897337 174.709291,-36.897291 174.709282,-36.897233 174.709258,-36.897175 174.709145,-36.897073</coordinates></LineString><LineString><tessellate>1</tessellate><coordinates>174.709145,-36.897073 174.709224,-36.897021 174.709389,-36.896938 174.709478,-36.896872 174.709815,-36.896565 174.709906,-36.896501</coordinates></LineString></MultiGeometry></Placemark></Document></kml>