<?xml version='1.0' encoding='utf-8'?>
<kml xmlns="http://www.opengis.net/kml/2.2"><Document><name>Greenhithe LINZ foot track 3</name><Style id="c"><LineStyle><color>ffff00ff</color><width>5</width></LineStyle></Style><Placemark><name>Greenhithe LINZ foot track 3</name><description>Sheet row 1056; LINZ t50_fid(s) 8466775</description><styleUrl>#c</styleUrl><MultiGeometry><LineString><tessellate>1</tessellate><coordinates>174.682575,-36.764177 174.682382,-36.763780 174.682288,-36.763726 174.682271,-36.763689 174.682320,-36.763657 174.682441,-36.763634 174.682546,-36.763643 174.682648,-36.763625 174.682753,-36.763592 174.682808,-36.763554 174.682872,-36.763498 174.682960,-36.763468 174.683066,-36.763492 174.683125,-36.763470 174.683242,-36.763395 174.683322,-36.763325 174.683417,-36.763270 174.683531,-36.763234 174.683776,-36.763178 174.683995,-36.763074 174.684079,-36.763031 174.684174,-36.763011 174.684279,-36.763004 174.684378,-36.763027 174.684451,-36.763036 174.684532,-36.762993 174.684635,-36.762888 174.684754,-36.762771 174.684800,-36.762708 174.684844,-36.762650 174.684933,-36.762632 174.685000,-36.762615 174.685095,-36.762613 174.685187,-36.762642 174.685215,-36.762637 174.685274,-36.762600 174.685346,-36.762523 174.685400,-36.762468 174.685521,-36.762407 174.685614,-36.762323 174.685678,-36.762279 174.685752,-36.762233 174.685867,-36.762179 174.685912,-36.762140 174.685938,-36.762080 174.685987,-36.762053 174.686099,-36.762024 174.686184,-36.761970 174.686231,-36.761957 174.686392,-36.761969 174.686528,-36.761979 174.686581,-36.761943 174.686658,-36.761904 174.686726,-36.761869 174.686751,-36.761777</coordinates></LineString></MultiGeometry></Placemark></Document></kml>