<?xml version='1.0' encoding='utf-8'?>
<kml xmlns="http://www.opengis.net/kml/2.2"><Document><name>Long Bay LINZ foot track 2</name><Style id="c"><LineStyle><color>ffff00ff</color><width>5</width></LineStyle></Style><Placemark><name>Long Bay LINZ foot track 2</name><description>Sheet row 1027; LINZ t50_fid(s) 8221955</description><styleUrl>#c</styleUrl><MultiGeometry><LineString><tessellate>1</tessellate><coordinates>174.745903,-36.679572 174.745949,-36.679593 174.745997,-36.679614 174.746279,-36.679800 174.746386,-36.679920 174.746368,-36.679984 174.746360,-36.680012 174.746424,-36.680136 174.746516,-36.680256 174.746644,-36.680296 174.746771,-36.680260 174.746961,-36.680117 174.747155,-36.679897 174.747394,-36.679860 174.747811,-36.679930 174.748154,-36.680061 174.748406,-36.680339 174.748576,-36.680576 174.748942,-36.681327 174.749394,-36.682320 174.749733,-36.683121 174.750211,-36.684186 174.750642,-36.685115 174.750817,-36.685526 174.751123,-36.686115 174.751444,-36.686771 174.751766,-36.687409 174.752179,-36.688167 174.752308,-36.688443 174.752364,-36.688624 174.752328,-36.688697 174.752040,-36.688694 174.751582,-36.688875 174.751525,-36.689134 174.751522,-36.689150 174.751578,-36.689194 174.751685,-36.689280 174.751921,-36.689072 174.752160,-36.688988 174.752473,-36.689033 174.752668,-36.689121 174.752861,-36.689107 174.752976,-36.689174 174.753256,-36.689229 174.753442,-36.689325 174.753555,-36.689370 174.753556,-36.689439 174.753591,-36.689534 174.753588,-36.689631 174.753709,-36.689766 174.753870,-36.689883 174.754049,-36.689973 174.754180,-36.690008 174.754218,-36.690047 174.754251,-36.690132 174.754304,-36.690179 174.754329,-36.690234 174.754444,-36.690296 174.754471,-36.690351 174.754479,-36.690395 174.754242,-36.690575 174.754195,-36.690695 174.754173,-36.690767</coordinates></LineString></MultiGeometry></Placemark></Document></kml>