<?xml version='1.0' encoding='utf-8'?>
<kml xmlns="http://www.opengis.net/kml/2.2"><Document><name>Motuihe Island LINZ foot track 1</name><Style id="c"><LineStyle><color>ffff00ff</color><width>5</width></LineStyle></Style><Placemark><name>Motuihe Island LINZ foot track 1</name><description>Sheet row 1014; LINZ t50_fid(s) 8225051,8224233,8223207,8224232,8225054,8225057,8225056,8224235,8223209,8224236,8224234,8223208,8225053,8225055,8224694,8225052</description><styleUrl>#c</styleUrl><MultiGeometry><LineString><tessellate>1</tessellate><coordinates>174.945692,-36.811176 174.945762,-36.810856</coordinates></LineString><LineString><tessellate>1</tessellate><coordinates>174.946428,-36.813898 174.947138,-36.812869 174.947145,-36.812844 174.947345,-36.812118 174.946789,-36.811248 174.946069,-36.811006 174.945692,-36.811176 174.945471,-36.811596 174.944649,-36.811692 174.944186,-36.812262 174.944391,-36.813454 174.944316,-36.813547 174.943951,-36.813386 174.943642,-36.813610 174.943841,-36.814352 174.943403,-36.814153 174.943207,-36.814220 174.943384,-36.814590 174.943165,-36.815260 174.943464,-36.815168 174.943744,-36.814795 174.944010,-36.814971 174.943747,-36.815586 174.943906,-36.815557 174.944936,-36.815371 174.944882,-36.814799 174.945374,-36.814759 174.946428,-36.813898</coordinates></LineString><LineString><tessellate>1</tessellate><coordinates>174.946428,-36.813898 174.946280,-36.814960 174.944911,-36.815982 174.944403,-36.816076 174.943512,-36.817147</coordinates></LineString><LineString><tessellate>1</tessellate><coordinates>174.943512,-36.817147 174.943971,-36.817540 174.944007,-36.818123 174.944389,-36.818863 174.944156,-36.819365 174.944266,-36.819930 174.944016,-36.820613 174.943003,-36.821735 174.943374,-36.822231 174.941491,-36.822112 174.941527,-36.821214 174.940690,-36.820710 174.940453,-36.820177 174.940665,-36.819991 174.941328,-36.819957 174.942064,-36.819065 174.943278,-36.818912 174.943443,-36.818471 174.943261,-36.818242 174.943147,-36.817790 174.943512,-36.817147</coordinates></LineString><LineString><tessellate>1</tessellate><coordinates>174.943906,-36.815557 174.943889,-36.815636 174.943835,-36.815891 174.943329,-36.816004 174.943145,-36.816379 174.942511,-36.816734 174.942449,-36.817092 174.941864,-36.817661 174.942237,-36.818166 174.943261,-36.818242</coordinates></LineString><LineString><tessellate>1</tessellate><coordinates>174.942167,-36.806959 174.941335,-36.806694</coordinates></LineString><LineString><tessellate>1</tessellate><coordinates>174.952872,-36.812800 174.952899,-36.813288 174.953934,-36.812797</coordinates></LineString><LineString><tessellate>1</tessellate><coordinates>174.952148,-36.809109 174.951849,-36.809370</coordinates></LineString><LineString><tessellate>1</tessellate><coordinates>174.951600,-36.814330 174.951337,-36.814415 174.949932,-36.813853 174.948863,-36.813223 174.948299,-36.812891 174.947145,-36.812844 174.946302,-36.812809</coordinates></LineString><LineString><tessellate>1</tessellate><coordinates>174.952872,-36.812800 174.952638,-36.811497 174.952180,-36.810720 174.952273,-36.809564 174.951849,-36.809370 174.950540,-36.809160 174.950047,-36.808743 174.950240,-36.807520 174.948876,-36.807816 174.948446,-36.807649 174.947779,-36.807636 174.947201,-36.807658 174.946062,-36.807156 174.945292,-36.807112 174.945150,-36.806882</coordinates></LineString><LineString><tessellate>1</tessellate><coordinates>174.950540,-36.809160 174.949986,-36.809227 174.949353,-36.808728 174.949048,-36.809048 174.947437,-36.809380 174.947145,-36.809809</coordinates></LineString><LineString><tessellate>1</tessellate><coordinates>174.947145,-36.809809 174.947315,-36.808735 174.947779,-36.807636</coordinates></LineString><LineString><tessellate>1</tessellate><coordinates>174.942167,-36.806959 174.942383,-36.808343 174.943617,-36.809426 174.944780,-36.810370 174.945548,-36.810406 174.945762,-36.810856 174.946999,-36.810650 174.947342,-36.810614 174.948137,-36.810966 174.948425,-36.812523 174.948823,-36.812997 174.948863,-36.813223 174.949257,-36.815457 174.949557,-36.815805 174.949785,-36.815913 174.950343,-36.815570 174.951216,-36.815622 174.951590,-36.814920 174.951600,-36.814330 174.952218,-36.813321 174.952872,-36.812800</coordinates></LineString><LineString><tessellate>1</tessellate><coordinates>174.946999,-36.810650 174.947145,-36.809809</coordinates></LineString><LineString><tessellate>1</tessellate><coordinates>174.945150,-36.806882 174.945306,-36.806722</coordinates></LineString><LineString><tessellate>1</tessellate><coordinates>174.945150,-36.806882 174.944677,-36.806734 174.944312,-36.806943 174.943789,-36.806721 174.943198,-36.806734 174.942871,-36.806478 174.942167,-36.806959</coordinates></LineString><LineString><tessellate>1</tessellate><coordinates>174.943686,-36.810208 174.943685,-36.810205 174.943617,-36.809426</coordinates></LineString></MultiGeometry></Placemark></Document></kml>