<?xml version='1.0' encoding='utf-8'?>
<kml xmlns="http://www.opengis.net/kml/2.2"><Document><name>Oneroa / western Waiheke LINZ foot track 5</name><Style id="c"><LineStyle><color>ffff00ff</color><width>5</width></LineStyle></Style><Placemark><name>Oneroa / western Waiheke LINZ foot track 5</name><description>Sheet row 1480; LINZ t50_fid(s) 6082531,6082536,6082549</description><styleUrl>#c</styleUrl><MultiGeometry><LineString><tessellate>1</tessellate><coordinates>175.000964,-36.776356 175.001010,-36.776219 175.000891,-36.776093 175.000776,-36.776005 175.000761,-36.775949 175.000946,-36.775894 175.000949,-36.775845 175.001050,-36.775779 175.001072,-36.775719 175.000977,-36.775661 175.000837,-36.775648 175.000817,-36.775588 175.000876,-36.775550 175.000800,-36.775465 175.000729,-36.775260 175.000810,-36.775150 175.000975,-36.775038 175.000971,-36.774900 175.001085,-36.774797 175.001120,-36.774684 175.001153,-36.774548 175.001206,-36.774412 175.001300,-36.774257</coordinates></LineString><LineString><tessellate>1</tessellate><coordinates>175.001300,-36.774257 175.001349,-36.774170 175.001336,-36.774039 175.001540,-36.774041</coordinates></LineString><LineString><tessellate>1</tessellate><coordinates>175.001300,-36.774257 175.000956,-36.774139 175.000417,-36.774006 175.000014,-36.773915 174.999528,-36.773874 174.999345,-36.773833 174.999253,-36.773784</coordinates></LineString></MultiGeometry></Placemark></Document></kml>