<?xml version='1.0' encoding='utf-8'?>
<kml xmlns="http://www.opengis.net/kml/2.2"><Document><name>Ihumoana Island LINZ foot track 1</name><Style id="c"><LineStyle><color>ffff00ff</color><width>5</width></LineStyle></Style><Placemark><name>Ihumoana Island LINZ foot track 1</name><description>Sheet row 1003; LINZ t50_fid(s) 3573048</description><styleUrl>#c</styleUrl><MultiGeometry><LineString><tessellate>1</tessellate><coordinates>174.448853,-36.891883 174.448663,-36.892046 174.448421,-36.892142 174.448247,-36.892227 174.448103,-36.892245 174.447950,-36.892196 174.447838,-36.892200 174.447636,-36.892305 174.447471,-36.892253 174.447128,-36.892315 174.446748,-36.892305 174.446384,-36.892416 174.446150,-36.892443 174.445733,-36.892456 174.445501,-36.892565</coordinates></LineString></MultiGeometry></Placemark></Document></kml>