<?xml version='1.0' encoding='utf-8'?>
<kml xmlns="http://www.opengis.net/kml/2.2"><Document><name>Waharau / Whakatīwai LINZ foot track 5</name><Style id="c"><LineStyle><color>ffff00ff</color><width>5</width></LineStyle></Style><Placemark><name>Waharau / Whakatīwai LINZ foot track 5</name><description>Sheet row 1462; LINZ t50_fid(s) 3554707</description><styleUrl>#c</styleUrl><MultiGeometry><LineString><tessellate>1</tessellate><coordinates>175.268929,-37.037896 175.268901,-37.037823 175.268774,-37.037706 175.268679,-37.037260 175.268791,-37.036727 175.269040,-37.036405 175.269346,-37.035938 175.269470,-37.035709 175.269676,-37.035329 175.269783,-37.035063 175.270108,-37.034954 175.270518,-37.034914 175.271081,-37.034659 175.271250,-37.034289 175.271379,-37.033893 175.271461,-37.033714 175.271671,-37.033562 175.271816,-37.033475 175.271996,-37.033453 175.272254,-37.033512 175.273024,-37.033513 175.273230,-37.033410 175.273408,-37.033475 175.273635,-37.033436 175.273824,-37.033559 175.274176,-37.033544 175.274666,-37.033630 175.275025,-37.033521 175.275248,-37.033517 175.275530,-37.033566 175.275883,-37.033378 175.276068,-37.033196 175.276648,-37.033008 175.276903,-37.033012</coordinates></LineString></MultiGeometry></Placemark></Document></kml>