<?xml version='1.0' encoding='utf-8'?>
<kml xmlns="http://www.opengis.net/kml/2.2"><Document><name>Glenfield LINZ foot track 9</name><Style id="c"><LineStyle><color>ffff00ff</color><width>5</width></LineStyle></Style><Placemark><name>Glenfield LINZ foot track 9</name><description>Sheet row 1121; LINZ t50_fid(s) 3593188</description><styleUrl>#c</styleUrl><MultiGeometry><LineString><tessellate>1</tessellate><coordinates>174.718583,-36.778162 174.718699,-36.778306 174.718771,-36.778356 174.718924,-36.778366 174.719061,-36.778378 174.719376,-36.778388 174.719934,-36.778328 174.720089,-36.778296</coordinates></LineString></MultiGeometry></Placemark></Document></kml>