<?xml version='1.0' encoding='utf-8'?>
<kml xmlns="http://www.opengis.net/kml/2.2"><Document><name>Papakura LINZ foot track 13</name><Style id="c"><LineStyle><color>ffff00ff</color><width>5</width></LineStyle></Style><Placemark><name>Papakura LINZ foot track 13</name><description>Sheet row 1298; LINZ t50_fid(s) 3593066</description><styleUrl>#c</styleUrl><MultiGeometry><LineString><tessellate>1</tessellate><coordinates>174.932117,-37.066020 174.932285,-37.066288 174.932773,-37.066880</coordinates></LineString></MultiGeometry></Placemark></Document></kml>