<?xml version='1.0' encoding='utf-8'?>
<kml xmlns="http://www.opengis.net/kml/2.2"><Document><name>Mission Bay LINZ foot track 3</name><Style id="c"><LineStyle><color>ffff00ff</color><width>5</width></LineStyle></Style><Placemark><name>Mission Bay LINZ foot track 3</name><description>Sheet row 878; LINZ t50_fid(s) 3584668</description><styleUrl>#c</styleUrl><MultiGeometry><LineString><tessellate>1</tessellate><coordinates>174.826950,-36.857554 174.828013,-36.857619 174.828149,-36.857584 174.828785,-36.857342</coordinates></LineString></MultiGeometry></Placemark></Document></kml>