<?xml version='1.0' encoding='utf-8'?>
<kml xmlns="http://www.opengis.net/kml/2.2"><Document><name>Ihumoana Island LINZ foot track 3</name><Style id="c"><LineStyle><color>ffff00ff</color><width>5</width></LineStyle></Style><Placemark><name>Ihumoana Island LINZ foot track 3</name><description>Sheet row 1438; LINZ t50_fid(s) 3584271</description><styleUrl>#c</styleUrl><MultiGeometry><LineString><tessellate>1</tessellate><coordinates>174.450555,-36.905668 174.450450,-36.905905 174.450052,-36.906846 174.450307,-36.907214 174.450150,-36.907636 174.450672,-36.907987 174.451180,-36.908151 174.451599,-36.908138 174.451833,-36.908103 174.451926,-36.908006 174.452126,-36.907965</coordinates></LineString></MultiGeometry></Placemark></Document></kml>