<?xml version='1.0' encoding='utf-8'?>
<kml xmlns="http://www.opengis.net/kml/2.2"><Document><name>Unsworth Heights LINZ foot track 7</name><Style id="c"><LineStyle><color>ffff00ff</color><width>5</width></LineStyle></Style><Placemark><name>Unsworth Heights LINZ foot track 7</name><description>Sheet row 1060; LINZ t50_fid(s) 8466779</description><styleUrl>#c</styleUrl><MultiGeometry><LineString><tessellate>1</tessellate><coordinates>174.722375,-36.738029 174.722493,-36.738097 174.722669,-36.738145 174.722889,-36.738214 174.722994,-36.738218 174.723153,-36.738219 174.723298,-36.738223 174.723549,-36.738157 174.724041,-36.738078 174.724381,-36.738034 174.724762,-36.737975 174.724899,-36.737928 174.725016,-36.737857 174.725107,-36.737805 174.725204,-36.737792 174.725293,-36.737827 174.725361,-36.737861 174.725380,-36.737900 174.725386,-36.737975 174.725442,-36.738001 174.725516,-36.737997 174.725582,-36.737963 174.725696,-36.737889 174.725799,-36.737870 174.725941,-36.737919 174.726023,-36.737926 174.726674,-36.737977 174.726728,-36.737896 174.726921,-36.737903</coordinates></LineString></MultiGeometry></Placemark></Document></kml>