<?xml version='1.0' encoding='utf-8'?>
<kml xmlns="http://www.opengis.net/kml/2.2"><Document><name>Maraetai LINZ foot track 4</name><Style id="c"><LineStyle><color>ffff00ff</color><width>5</width></LineStyle></Style><Placemark><name>Maraetai LINZ foot track 4</name><description>Sheet row 951; LINZ t50_fid(s) 3584722</description><styleUrl>#c</styleUrl><MultiGeometry><LineString><tessellate>1</tessellate><coordinates>175.032012,-36.877216 175.032095,-36.877370 175.032256,-36.877577 175.032262,-36.877987 175.032713,-36.878763 175.033019,-36.879156</coordinates></LineString></MultiGeometry></Placemark></Document></kml>