<?xml version='1.0' encoding='utf-8'?>
<kml xmlns="http://www.opengis.net/kml/2.2"><Document><name>Pollen Island LINZ foot track 1</name><Style id="c"><LineStyle><color>ffff00ff</color><width>5</width></LineStyle></Style><Placemark><name>Pollen Island LINZ foot track 1</name><description>Sheet row 1187; LINZ t50_fid(s) 3531500</description><styleUrl>#c</styleUrl><MultiGeometry><LineString><tessellate>1</tessellate><coordinates>174.652724,-36.849503 174.652649,-36.849691 174.652544,-36.849857 174.652533,-36.849915 174.652497,-36.849934 174.652391,-36.849944 174.652340,-36.849967 174.652305,-36.850010 174.652281,-36.850058 174.652286,-36.850101 174.652334,-36.850169 174.652612,-36.850428 174.652945,-36.850920 174.653085,-36.851173 174.653192,-36.851391 174.653385,-36.851840 174.653578,-36.852283 174.653846,-36.852894 174.654691,-36.854773 174.654916,-36.855278 174.654996,-36.855766 174.655036,-36.855993 174.655250,-36.856228 174.655514,-36.856643 174.655723,-36.857204 174.655810,-36.857579 174.655850,-36.857956 174.655900,-36.858139 174.656131,-36.858289 174.656385,-36.858454 174.656640,-36.858630 174.656758,-36.858823 174.656748,-36.859003</coordinates></LineString></MultiGeometry></Placemark></Document></kml>