<?xml version='1.0' encoding='utf-8'?>
<kml xmlns="http://www.opengis.net/kml/2.2"><Document><name>Swanson / Waitākere Ranges LINZ foot track 1</name><Style id="c"><LineStyle><color>ffff00ff</color><width>5</width></LineStyle></Style><Placemark><name>Swanson / Waitākere Ranges LINZ foot track 1</name><description>Sheet row 1310; LINZ t50_fid(s) 8466763</description><styleUrl>#c</styleUrl><MultiGeometry><LineString><tessellate>1</tessellate><coordinates>174.609062,-36.869638 174.609173,-36.869694 174.609220,-36.869791 174.609335,-36.870108 174.609381,-36.870190 174.609441,-36.870239 174.609653,-36.870389 174.609760,-36.870415 174.609812,-36.870424 174.610192,-36.870451 174.610317,-36.870445 174.610373,-36.870430 174.610410,-36.870404 174.610439,-36.870366 174.610481,-36.870270 174.610522,-36.870226 174.610602,-36.870186 174.610676,-36.870157 174.610712,-36.870149 174.610986,-36.870150 174.611098,-36.870137 174.611284,-36.870151 174.611474,-36.870179 174.611667,-36.870222 174.611755,-36.870250 174.611833,-36.870299 174.611883,-36.870320 174.611918,-36.870369 174.612005,-36.870431 174.612105,-36.870564 174.612183,-36.870625 174.612315,-36.870706 174.612369,-36.870760 174.612426,-36.870833 174.612491,-36.870880 174.612601,-36.870994 174.612717,-36.871107 174.612801,-36.871151 174.612959,-36.871247 174.613171,-36.871491 174.613213,-36.871515 174.613260,-36.871518 174.613307,-36.871507 174.613352,-36.871468 174.613416,-36.871413 174.613546,-36.871165 174.613621,-36.871201 174.613679,-36.871265 174.613726,-36.871406 174.613821,-36.871521 174.614025,-36.871708 174.614136,-36.871826 174.614187,-36.871945 174.614226,-36.872102 174.614261,-36.872253 174.614298,-36.872307 174.614449,-36.872408 174.614628,-36.872515 174.614956,-36.872688 174.615316,-36.872999 174.615484,-36.873077</coordinates></LineString></MultiGeometry></Placemark></Document></kml>