<?xml version='1.0' encoding='utf-8'?>
<kml xmlns="http://www.opengis.net/kml/2.2"><Document><name>Manurewa LINZ foot track 2</name><Style id="c"><LineStyle><color>ffff00ff</color><width>5</width></LineStyle></Style><Placemark><name>Manurewa LINZ foot track 2</name><description>Sheet row 1255; LINZ t50_fid(s) 3584613</description><styleUrl>#c</styleUrl><MultiGeometry><LineString><tessellate>1</tessellate><coordinates>174.892817,-37.012085 174.892876,-37.012187 174.893029,-37.012525 174.892875,-37.012688 174.892491,-37.013384 174.892483,-37.013399</coordinates></LineString></MultiGeometry></Placemark></Document></kml>