<?xml version='1.0' encoding='utf-8'?>
<kml xmlns="http://www.opengis.net/kml/2.2"><Document><name>Milford LINZ foot track 7</name><Style id="c"><LineStyle><color>ffff00ff</color><width>5</width></LineStyle></Style><Placemark><name>Milford LINZ foot track 7</name><description>Sheet row 1147; LINZ t50_fid(s) 8521015</description><styleUrl>#c</styleUrl><MultiGeometry><LineString><tessellate>1</tessellate><coordinates>174.744266,-36.763214 174.745040,-36.763509 174.745509,-36.763764</coordinates></LineString></MultiGeometry></Placemark></Document></kml>