<?xml version='1.0' encoding='utf-8'?>
<kml xmlns="http://www.opengis.net/kml/2.2"><Document><name>Ōtāhuhu LINZ foot track 1</name><Style id="c"><LineStyle><color>ffff00ff</color><width>5</width></LineStyle></Style><Placemark><name>Ōtāhuhu LINZ foot track 1</name><description>Sheet row 938; LINZ t50_fid(s) 8062697</description><styleUrl>#c</styleUrl><MultiGeometry><LineString><tessellate>1</tessellate><coordinates>174.862552,-36.943354 174.862832,-36.943187 174.862936,-36.942985 174.863032,-36.942905 174.863149,-36.942881 174.863290,-36.942882 174.863466,-36.942876 174.863656,-36.942823 174.863776,-36.942758 174.863941,-36.942633 174.864018,-36.942588 174.864150,-36.942548 174.864395,-36.942488 174.864586,-36.942488 174.864985,-36.942485 174.865217,-36.942519 174.865345,-36.942514 174.865575,-36.942466 174.865968,-36.942378 174.866179,-36.942369 174.866414,-36.942393 174.866631,-36.942471 174.866947,-36.942601 174.867132,-36.942649 174.867355,-36.942664 174.867551,-36.942667 174.867807,-36.942754 174.867997,-36.942855 174.868181,-36.943006 174.868294,-36.943170 174.868376,-36.943332 174.868394,-36.943429 174.868406,-36.943573 174.868367,-36.943916 174.868351,-36.944073 174.868358,-36.944174 174.868380,-36.944296 174.868454,-36.944426 174.868624,-36.944669 174.868687,-36.944847 174.868698,-36.944988 174.868699,-36.945176 174.868682,-36.945424</coordinates></LineString></MultiGeometry></Placemark></Document></kml>