<?xml version='1.0' encoding='utf-8'?>
<kml xmlns="http://www.opengis.net/kml/2.2"><Document><name>Devonport LINZ foot track 1</name><Style id="c"><LineStyle><color>ffff00ff</color><width>5</width></LineStyle></Style><Placemark><name>Devonport LINZ foot track 1</name><description>Sheet row 840; LINZ t50_fid(s) 3573881,3593233,3584760</description><styleUrl>#c</styleUrl><MultiGeometry><LineString><tessellate>1</tessellate><coordinates>174.787132,-36.813655 174.787147,-36.813805 174.786681,-36.813809 174.786394,-36.813857 174.785597,-36.813942 174.785531,-36.814042 174.784559,-36.814296 174.784227,-36.814509 174.783996,-36.814578 174.783772,-36.814544 174.783728,-36.813953</coordinates></LineString><LineString><tessellate>1</tessellate><coordinates>174.788262,-36.812775 174.788026,-36.812895 174.787923,-36.812953 174.787533,-36.813310 174.787132,-36.813655</coordinates></LineString><LineString><tessellate>1</tessellate><coordinates>174.787132,-36.813655 174.787584,-36.813956 174.787781,-36.814014 174.787831,-36.814058 174.787601,-36.814224 174.787369,-36.814543 174.787195,-36.814759 174.786895,-36.815097 174.786809,-36.815355</coordinates></LineString></MultiGeometry></Placemark></Document></kml>