<?xml version='1.0' encoding='utf-8'?>
<kml xmlns="http://www.opengis.net/kml/2.2"><Document><name>Northcote LINZ foot track 9</name><Style id="c"><LineStyle><color>ffff00ff</color><width>5</width></LineStyle></Style><Placemark><name>Northcote LINZ foot track 9</name><description>Sheet row 1158; LINZ t50_fid(s) 8520938</description><styleUrl>#c</styleUrl><MultiGeometry><LineString><tessellate>1</tessellate><coordinates>174.742074,-36.798558 174.742748,-36.798613 174.743363,-36.798673</coordinates></LineString></MultiGeometry></Placemark></Document></kml>