<?xml version='1.0' encoding='utf-8'?>
<kml xmlns="http://www.opengis.net/kml/2.2"><Document><name>Panmure LINZ foot track 7</name><Style id="c"><LineStyle><color>ffff00ff</color><width>5</width></LineStyle></Style><Placemark><name>Panmure LINZ foot track 7</name><description>Sheet row 977; LINZ t50_fid(s) 3593023</description><styleUrl>#c</styleUrl><MultiGeometry><LineString><tessellate>1</tessellate><coordinates>174.861415,-36.893367 174.861452,-36.893295 174.861589,-36.892826 174.861569,-36.892680 174.861416,-36.892568 174.861278,-36.892473</coordinates></LineString></MultiGeometry></Placemark></Document></kml>