<?xml version='1.0' encoding='utf-8'?>
<kml xmlns="http://www.opengis.net/kml/2.2"><Document><name>Mt Roskill LINZ foot track 4</name><Style id="c"><LineStyle><color>ffff00ff</color><width>5</width></LineStyle></Style><Placemark><name>Mt Roskill LINZ foot track 4</name><description>Sheet row 887; LINZ t50_fid(s) 3592881</description><styleUrl>#c</styleUrl><MultiGeometry><LineString><tessellate>1</tessellate><coordinates>174.727699,-36.926001 174.727826,-36.926021 174.728513,-36.925995 174.728441,-36.925941 174.728465,-36.925575 174.728487,-36.925504</coordinates></LineString></MultiGeometry></Placemark></Document></kml>