<?xml version='1.0' encoding='utf-8'?>
<kml xmlns="http://www.opengis.net/kml/2.2"><Document><name>Stanmore Bay LINZ foot track 7</name><Style id="c"><LineStyle><color>ffff00ff</color><width>5</width></LineStyle></Style><Placemark><name>Stanmore Bay LINZ foot track 7</name><description>Sheet row 1135; LINZ t50_fid(s) 6082537</description><styleUrl>#c</styleUrl><MultiGeometry><LineString><tessellate>1</tessellate><coordinates>174.757677,-36.633294 174.757532,-36.633312 174.757079,-36.633314 174.756203,-36.633219 174.756203,-36.633219</coordinates></LineString></MultiGeometry></Placemark></Document></kml>