<?xml version='1.0' encoding='utf-8'?>
<kml xmlns="http://www.opengis.net/kml/2.2"><Document><name>Warren's Creek, Aotea LINZ foot track 1</name><Style id="c"><LineStyle><color>ffff00ff</color><width>5</width></LineStyle></Style><Placemark><name>Warren's Creek, Aotea LINZ foot track 1</name><description>Sheet row 992; LINZ t50_fid(s) 8174634</description><styleUrl>#c</styleUrl><MultiGeometry><LineString><tessellate>1</tessellate><coordinates>175.365146,-36.180823 175.365317,-36.181392 175.366246,-36.182049</coordinates></LineString></MultiGeometry></Placemark></Document></kml>