<?xml version='1.0' encoding='utf-8'?>
<kml xmlns="http://www.opengis.net/kml/2.2"><Document><name>Silverdale LINZ foot track 1</name><Style id="c"><LineStyle><color>ffff00ff</color><width>5</width></LineStyle></Style><Placemark><name>Silverdale LINZ foot track 1</name><description>Sheet row 1022; LINZ t50_fid(s) 7644984,7645688,7646136</description><styleUrl>#c</styleUrl><MultiGeometry><LineString><tessellate>1</tessellate><coordinates>174.622681,-36.613937 174.622957,-36.614038 174.623345,-36.613921 174.623620,-36.613884 174.623820,-36.613993 174.623968,-36.614009 174.624330,-36.613971 174.624589,-36.614031 174.624800,-36.614224 174.624987,-36.614385 174.625279,-36.614496 174.625587,-36.614669 174.625826,-36.614812 174.625997,-36.615099 174.626348,-36.615378 174.626521,-36.615606 174.626571,-36.615751 174.626639,-36.615805 174.626693,-36.615849 174.626726,-36.616048 174.626861,-36.616086 174.627066,-36.616051 174.627230,-36.616149 174.627506,-36.615909 174.627478,-36.615837 174.627491,-36.615739 174.627611,-36.615668 174.627643,-36.615129 174.627453,-36.614645 174.627461,-36.614344 174.627196,-36.613681 174.627137,-36.613259 174.627084,-36.612473 174.627097,-36.612050 174.627001,-36.611941 174.626712,-36.611829 174.626587,-36.611715 174.626531,-36.611432 174.626497,-36.611184 174.626501,-36.611010 174.626619,-36.610823 174.626699,-36.610561 174.626854,-36.610391 174.626878,-36.610148 174.627013,-36.609775 174.626938,-36.609585 174.626691,-36.609484 174.626412,-36.609523 174.626235,-36.609288 174.626133,-36.609231 174.625839,-36.609241 174.625593,-36.609192 174.625349,-36.609196 174.625318,-36.609098 174.625403,-36.609021 174.625524,-36.608985 174.625747,-36.609005 174.626019,-36.608926 174.626406,-36.608915 174.626602,-36.608657 174.626877,-36.608411 174.627016,-36.608183 174.626963,-36.608068 174.626703,-36.607996 174.626536,-36.607917 174.626271,-36.607938 174.625934,-36.607966 174.625696,-36.607923 174.625378,-36.607811 174.625270,-36.607842 174.625034,-36.607880 174.624421,-36.607755 174.624210,-36.607636 174.624164,-36.607486 174.624052,-36.607291 174.623920,-36.607142 174.623571,-36.606927 174.623488,-36.606889 174.623417,-36.606856 174.623411,-36.606854 174.623249,-36.606659 174.623166,-36.606487 174.622964,-36.606426 174.622926,-36.606345 174.622868,-36.606288 174.622659,-36.606273 174.622566,-36.606304 174.622351,-36.606229</coordinates></LineString><LineString><tessellate>1</tessellate><coordinates>174.626639,-36.615805 174.626866,-36.615697 174.626911,-36.615617 174.626934,-36.615504 174.626829,-36.615397 174.626681,-36.615249 174.626593,-36.615046 174.626653,-36.614911 174.626676,-36.614802 174.626563,-36.614587 174.626463,-36.614513 174.626229,-36.614458 174.626034,-36.614298 174.625873,-36.614025 174.625672,-36.613823 174.625477,-36.613638 174.625406,-36.613472 174.625149,-36.613280 174.625135,-36.613130 174.625220,-36.612962 174.625376,-36.612788 174.625390,-36.612709 174.625309,-36.612547 174.625328,-36.612447 174.625509,-36.612215 174.625595,-36.612084 174.625727,-36.611995 174.625815,-36.611756 174.625777,-36.611677 174.625717,-36.611519 174.625654,-36.611458 174.625420,-36.611398 174.625311,-36.611375 174.625208,-36.611439 174.625125,-36.611419 174.625083,-36.611382 174.625061,-36.611316 174.624940,-36.611246 174.624847,-36.611223 174.624815,-36.611181 174.624549,-36.610851 174.624590,-36.610567 174.624687,-36.610278 174.624840,-36.610167 174.624865,-36.610104 174.624725,-36.609864 174.624495,-36.609775 174.624494,-36.609688 174.624526,-36.609503 174.624491,-36.609428 174.624164,-36.609415 174.623932,-36.609422 174.623679,-36.609502 174.623490,-36.609473 174.623317,-36.609417 174.623029,-36.609403 174.622972,-36.609324 174.622775,-36.608893 174.622748,-36.608679 174.622611,-36.608467 174.622656,-36.608270 174.622609,-36.608146 174.622579,-36.608003 174.622598,-36.607891 174.622577,-36.607664 174.622646,-36.607507 174.622645,-36.607333 174.622626,-36.607199 174.622718,-36.607102 174.623185,-36.606935 174.623417,-36.606856</coordinates></LineString><LineString><tessellate>1</tessellate><coordinates>174.630588,-36.608332 174.630595,-36.608270 174.630548,-36.608083 174.630639,-36.607864 174.630550,-36.607782 174.630240,-36.607898 174.630116,-36.607760 174.630079,-36.607648 174.629723,-36.607639 174.629575,-36.607606 174.628903,-36.607454 174.628866,-36.607315 174.628645,-36.607164 174.628435,-36.607062 174.627981,-36.606935 174.627685,-36.606904 174.627371,-36.606832 174.627214,-36.607004 174.627126,-36.607115 174.626929,-36.607271 174.626814,-36.607314 174.626644,-36.607303 174.625168,-36.606876 174.624593,-36.606758 174.624333,-36.606803 174.624148,-36.606673 174.623905,-36.606641 174.623740,-36.606664 174.623640,-36.606834 174.623488,-36.606889</coordinates></LineString></MultiGeometry></Placemark></Document></kml>