<?xml version='1.0' encoding='utf-8'?>
<kml xmlns="http://www.opengis.net/kml/2.2"><Document><name>Chamberlins Island LINZ foot track 1</name><Style id="c"><LineStyle><color>ffff00ff</color><width>5</width></LineStyle></Style><Placemark><name>Chamberlins Island LINZ foot track 1</name><description>Sheet row 912; LINZ t50_fid(s) 7878454</description><styleUrl>#c</styleUrl><MultiGeometry><LineString><tessellate>1</tessellate><coordinates>175.189124,-36.894561 175.189324,-36.894515 175.189446,-36.894534 175.189641,-36.894626 175.189770,-36.894642 175.189955,-36.894706 175.190108,-36.894770 175.190338,-36.894871 175.190491,-36.894966 175.190757,-36.895135 175.191060,-36.895274 175.191305,-36.895340 175.191481,-36.895312 175.191718,-36.895311 175.192003,-36.895283 175.192372,-36.895191 175.192498,-36.895123 175.192722,-36.894911 175.192961,-36.894746 175.193308,-36.894644 175.194074,-36.894534 175.194550,-36.894457 175.194788,-36.894261 175.195408,-36.893823 175.195702,-36.893590 175.196156,-36.893198 175.196518,-36.892879 175.196941,-36.892466 175.197021,-36.892299 175.197067,-36.892214 175.197079,-36.892149 175.196995,-36.892075 175.196790,-36.892022 175.196599,-36.891982 175.196461,-36.891920 175.196351,-36.891827 175.196263,-36.891711 175.196191,-36.891443 175.196219,-36.891191 175.196193,-36.890896 175.196005,-36.890374 175.195822,-36.889858 175.195775,-36.889443 175.195818,-36.888795 175.196031,-36.888493 175.196350,-36.888199 175.196395,-36.888078 175.196337,-36.887908 175.196225,-36.887569 175.196356,-36.887179 175.196399,-36.886816 175.196579,-36.886638 175.196883,-36.886419 175.197024,-36.886260 175.197025,-36.886125 175.197033,-36.885798 175.197217,-36.885407 175.197528,-36.885174 175.198065,-36.884905 175.198648,-36.884723 175.198887,-36.884584 175.199035,-36.884318 175.199129,-36.884064 175.199302,-36.883922 175.199478,-36.883741 175.199547,-36.883498 175.199526,-36.883247 175.199441,-36.883042 175.199416,-36.882790 175.199437,-36.882470 175.199368,-36.882197 175.199326,-36.881836 175.199384,-36.881529 175.199512,-36.881217 175.199554,-36.880843 175.199563,-36.880541 175.199708,-36.880339 175.199949,-36.880108 175.200079,-36.879849 175.200156,-36.879471 175.200181,-36.879233 175.200181,-36.878941 175.200102,-36.878662 175.199920,-36.878480 175.199854,-36.878339 175.199864,-36.878066 175.199933,-36.877851 175.200031,-36.877711 175.200328,-36.877588 175.200704,-36.877424 175.200874,-36.877190 175.200812,-36.877024 175.200682,-36.876814 175.200581,-36.876538 175.200329,-36.876244 175.200223,-36.876076 175.200198,-36.875842 175.200267,-36.875616 175.200323,-36.875413 175.200300,-36.875221 175.200202,-36.875056 175.199870,-36.874877 175.199514,-36.874660 175.199417,-36.874346 175.199310,-36.874006 175.199143,-36.873914 175.198854,-36.873869 175.198570,-36.873814 175.198296,-36.873663 175.198142,-36.873570 175.198222,-36.873422 175.198309,-36.873218 175.198264,-36.873041 175.198073,-36.872860 175.197800,-36.872588 175.197591,-36.872375 175.197183,-36.872208 175.196729,-36.871936 175.196416,-36.871679 175.196214,-36.871419 175.196197,-36.871288 175.196092,-36.871013 175.195913,-36.870800 175.195700,-36.870601 175.195715,-36.870366 175.195751,-36.870216 175.195680,-36.870068 175.195364,-36.870017 175.195116,-36.869990 175.194864,-36.870001 175.194658,-36.869909 175.194587,-36.869765 175.194526,-36.869638 175.194354,-36.869503 175.194235,-36.869363 175.194204,-36.869193 175.194130,-36.869091 175.193958,-36.869094 175.193692,-36.869227 175.193505,-36.869341 175.193337,-36.869500 175.193084,-36.869615 175.192845,-36.869634 175.192713,-36.869636 175.192333,-36.869671 175.192013,-36.869610 175.191852,-36.869549 175.191733,-36.869420 175.191491,-36.869293 175.191118,-36.869235 175.190790,-36.869241 175.190499,-36.869265 175.190151,-36.869470 175.189903,-36.869617 175.189608,-36.869818 175.189293,-36.870083 175.189029,-36.870433 175.188371,-36.871280</coordinates></LineString></MultiGeometry></Placemark></Document></kml>