<?xml version='1.0' encoding='utf-8'?>
<kml xmlns="http://www.opengis.net/kml/2.2"><Document><name>Glendowie LINZ foot track 8</name><Style id="c"><LineStyle><color>ffff00ff</color><width>5</width></LineStyle></Style><Placemark><name>Glendowie LINZ foot track 8</name><description>Sheet row 954; LINZ t50_fid(s) 3584683</description><styleUrl>#c</styleUrl><MultiGeometry><LineString><tessellate>1</tessellate><coordinates>174.877414,-36.871446 174.877427,-36.871522 174.877133,-36.872031 174.877013,-36.872223 174.876893,-36.872389 174.876728,-36.872545 174.876698,-36.872659 174.876251,-36.872894 174.876169,-36.872989</coordinates></LineString></MultiGeometry></Placemark></Document></kml>