<?xml version='1.0' encoding='utf-8'?>
<kml xmlns="http://www.opengis.net/kml/2.2"><Document><name>Ōrākei LINZ foot track 2</name><Style id="c"><LineStyle><color>ffff00ff</color><width>5</width></LineStyle></Style><Placemark><name>Ōrākei LINZ foot track 2</name><description>Sheet row 869; LINZ t50_fid(s) 3584666</description><styleUrl>#c</styleUrl><MultiGeometry><LineString><tessellate>1</tessellate><coordinates>174.818389,-36.859067 174.817537,-36.859801 174.816854,-36.860390</coordinates></LineString></MultiGeometry></Placemark></Document></kml>