<?xml version='1.0' encoding='utf-8'?>
<kml xmlns="http://www.opengis.net/kml/2.2"><Document><name>Papatoetoe LINZ foot track 10</name><Style id="c"><LineStyle><color>ffff00ff</color><width>5</width></LineStyle></Style><Placemark><name>Papatoetoe LINZ foot track 10</name><description>Sheet row 1277; LINZ t50_fid(s) 3592841</description><styleUrl>#c</styleUrl><MultiGeometry><LineString><tessellate>1</tessellate><coordinates>174.859418,-36.972226 174.858888,-36.972671 174.858619,-36.973110</coordinates></LineString></MultiGeometry></Placemark></Document></kml>