<?xml version='1.0' encoding='utf-8'?>
<kml xmlns="http://www.opengis.net/kml/2.2"><Document><name>Takapuna LINZ foot track 3</name><Style id="c"><LineStyle><color>ffff00ff</color><width>5</width></LineStyle></Style><Placemark><name>Takapuna LINZ foot track 3</name><description>Sheet row 888; LINZ t50_fid(s) 3593243</description><styleUrl>#c</styleUrl><MultiGeometry><LineString><tessellate>1</tessellate><coordinates>174.783061,-36.802269 174.783584,-36.801590 174.783819,-36.801411 174.783889,-36.801348</coordinates></LineString></MultiGeometry></Placemark></Document></kml>