<?xml version='1.0' encoding='utf-8'?>
<kml xmlns="http://www.opengis.net/kml/2.2"><Document><name>Glendowie LINZ foot track 4</name><Style id="c"><LineStyle><color>ffff00ff</color><width>5</width></LineStyle></Style><Placemark><name>Glendowie LINZ foot track 4</name><description>Sheet row 939; LINZ t50_fid(s) 3584684,3593057,3593060,6082532</description><styleUrl>#c</styleUrl><MultiGeometry><LineString><tessellate>1</tessellate><coordinates>174.874197,-36.859387 174.874140,-36.859624 174.874130,-36.859820 174.874149,-36.860016 174.874211,-36.860183 174.874307,-36.860296 174.874532,-36.860403 174.874857,-36.860478 174.875111,-36.860555 174.875422,-36.860683 174.875663,-36.860829 174.875890,-36.861010 174.876133,-36.861243 174.876272,-36.861356 174.876447,-36.861457 174.876637,-36.861485</coordinates></LineString><LineString><tessellate>1</tessellate><coordinates>174.875870,-36.862526 174.876637,-36.861485</coordinates></LineString><LineString><tessellate>1</tessellate><coordinates>174.876637,-36.861485 174.876958,-36.861133 174.876927,-36.860639</coordinates></LineString><LineString><tessellate>1</tessellate><coordinates>174.876637,-36.861485 174.876762,-36.861514 174.877208,-36.861465 174.877396,-36.861478 174.877530,-36.861539 174.877920,-36.861741 174.878005,-36.861847 174.878056,-36.861962 174.878126,-36.861995 174.878198,-36.862012 174.878306,-36.862000</coordinates></LineString></MultiGeometry></Placemark></Document></kml>