<?xml version='1.0' encoding='utf-8'?>
<kml xmlns="http://www.opengis.net/kml/2.2"><Document><name>Henderson LINZ foot track 6</name><Style id="c"><LineStyle><color>ffff00ff</color><width>5</width></LineStyle></Style><Placemark><name>Henderson LINZ foot track 6</name><description>Sheet row 1400; LINZ t50_fid(s) 3592524</description><styleUrl>#c</styleUrl><MultiGeometry><LineString><tessellate>1</tessellate><coordinates>174.626815,-36.870706 174.628160,-36.870877</coordinates></LineString></MultiGeometry></Placemark></Document></kml>