<?xml version='1.0' encoding='utf-8'?>
<kml xmlns="http://www.opengis.net/kml/2.2"><Document><name>Half Moon Bay LINZ foot track 1</name><Style id="c"><LineStyle><color>ffff00ff</color><width>5</width></LineStyle></Style><Placemark><name>Half Moon Bay LINZ foot track 1</name><description>Sheet row 926; LINZ t50_fid(s) 6082511,3593127,3584717,3584718,6082528,3573860,3593130,6082546,3593122,6082527,3593128,3584716,3584715,3573858</description><styleUrl>#c</styleUrl><MultiGeometry><LineString><tessellate>1</tessellate><coordinates>174.917618,-36.879639 174.917639,-36.879801 174.917771,-36.880065 174.917841,-36.880581 174.917854,-36.880937 174.917760,-36.881235 174.917802,-36.881634 174.917758,-36.881812 174.917473,-36.882236 174.917234,-36.882428 174.916752,-36.883231 174.916714,-36.883377 174.916709,-36.883685 174.916710,-36.883926 174.916650,-36.884064 174.916679,-36.884140 174.916852,-36.884220 174.917038,-36.884367 174.917234,-36.884603 174.917380,-36.884737 174.917661,-36.884844 174.917855,-36.884841 174.917996,-36.884775 174.918130,-36.884667 174.918474,-36.884592 174.918742,-36.884457 174.918879,-36.884459 174.919015,-36.884609 174.919169,-36.884712 174.919283,-36.884703 174.919335,-36.884594 174.919410,-36.884389 174.919591,-36.884036 174.919568,-36.883903 174.919198,-36.883458 174.919102,-36.883269 174.919152,-36.882978 174.919334,-36.882786 174.919463,-36.882712 174.920014,-36.882530</coordinates></LineString><LineString><tessellate>1</tessellate><coordinates>174.916263,-36.879276 174.916527,-36.879345 174.916745,-36.879435 174.916956,-36.879456 174.917113,-36.879522 174.917260,-36.879506 174.917417,-36.879526 174.917618,-36.879639</coordinates></LineString><LineString><tessellate>1</tessellate><coordinates>174.917618,-36.879639 174.917752,-36.879646 174.917889,-36.879678 174.917979,-36.879779</coordinates></LineString><LineString><tessellate>1</tessellate><coordinates>174.918989,-36.878145 174.918967,-36.878273 174.918662,-36.878566 174.918492,-36.878775 174.918410,-36.878924 174.918345,-36.879119 174.918302,-36.879335 174.918282,-36.879437 174.918245,-36.879512 174.918130,-36.879586 174.918041,-36.879681 174.917979,-36.879779</coordinates></LineString><LineString><tessellate>1</tessellate><coordinates>174.917979,-36.879779 174.918076,-36.880017 174.918129,-36.880002 174.918208,-36.879976 174.918283,-36.880025 174.918308,-36.880113 174.918382,-36.880137 174.918478,-36.880129 174.918510,-36.880019 174.918538,-36.880018 174.918616,-36.880086 174.918656,-36.880083 174.918669,-36.880032 174.918667,-36.879964 174.918679,-36.879884 174.918749,-36.879817 174.918838,-36.879777 174.918898,-36.879776 174.918975,-36.879797 174.919053,-36.879851 174.919147,-36.879881 174.919241,-36.879884 174.919340,-36.879871 174.919658,-36.879897 174.920053,-36.879868 174.920386,-36.879846 174.920652,-36.879842</coordinates></LineString><LineString><tessellate>1</tessellate><coordinates>174.920652,-36.879842 174.920588,-36.880026 174.920596,-36.880137 174.920674,-36.880385 174.920551,-36.880516 174.920450,-36.880688 174.920322,-36.880834</coordinates></LineString><LineString><tessellate>1</tessellate><coordinates>174.920652,-36.879842 174.920807,-36.879831 174.920874,-36.879828 174.920868,-36.879769</coordinates></LineString><LineString><tessellate>1</tessellate><coordinates>174.920322,-36.880834 174.920471,-36.880784 174.920652,-36.880766 174.920704,-36.880767</coordinates></LineString><LineString><tessellate>1</tessellate><coordinates>174.920014,-36.882530 174.920073,-36.882462 174.920134,-36.882440 174.920244,-36.882464 174.920369,-36.882488 174.920437,-36.882596</coordinates></LineString><LineString><tessellate>1</tessellate><coordinates>174.920322,-36.880834 174.920207,-36.880932 174.920028,-36.881167 174.919958,-36.881181 174.919649,-36.881131 174.919538,-36.881177 174.919478,-36.881353 174.919507,-36.881651 174.919478,-36.881716 174.919391,-36.881745 174.919276,-36.881755 174.919142,-36.881713 174.919068,-36.881722 174.919019,-36.881770 174.919018,-36.881862 174.919037,-36.881952 174.919075,-36.882015 174.919199,-36.882049 174.919362,-36.882094 174.919510,-36.882153 174.919599,-36.882203 174.919640,-36.882258 174.919675,-36.882375 174.919732,-36.882442 174.919840,-36.882507 174.920014,-36.882530</coordinates></LineString><LineString><tessellate>1</tessellate><coordinates>174.912799,-36.875441 174.912862,-36.875263 174.912920,-36.875247 174.912960,-36.875045 174.912978,-36.874946 174.913007,-36.874781 174.913111,-36.874476</coordinates></LineString><LineString><tessellate>1</tessellate><coordinates>174.912799,-36.875441 174.912693,-36.875879 174.912606,-36.876151 174.912592,-36.876321 174.912482,-36.876604 174.912430,-36.876872 174.912389,-36.877082</coordinates></LineString><LineString><tessellate>1</tessellate><coordinates>174.913435,-36.881095 174.913653,-36.881091 174.913720,-36.880681 174.913713,-36.880538 174.913740,-36.880385 174.913823,-36.880163 174.914054,-36.879918 174.914362,-36.879789 174.914525,-36.879711 174.914733,-36.879758 174.915528,-36.879979 174.915632,-36.879968 174.915801,-36.879887 174.915945,-36.879788 174.916105,-36.879578 174.916263,-36.879276</coordinates></LineString><LineString><tessellate>1</tessellate><coordinates>174.912799,-36.875441 174.912869,-36.875378 174.912972,-36.875337 174.913011,-36.875278 174.913161,-36.875352 174.914374,-36.876094 174.914588,-36.876177 174.914693,-36.876262 174.914815,-36.876274 174.914892,-36.876327 174.914995,-36.876477 174.915269,-36.876668 174.915392,-36.876877 174.915397,-36.876940 174.915183,-36.877236 174.915087,-36.877434 174.915072,-36.877594 174.915086,-36.877693 174.915127,-36.877792 174.915259,-36.877949 174.915305,-36.878061 174.915279,-36.878267 174.915328,-36.878351 174.915453,-36.878408 174.915602,-36.878458 174.915715,-36.878482 174.915885,-36.878444 174.916099,-36.878435 174.916212,-36.878474 174.916276,-36.878550 174.916334,-36.878705 174.916336,-36.878911 174.916263,-36.879276</coordinates></LineString></MultiGeometry></Placemark></Document></kml>