<?xml version='1.0' encoding='utf-8'?>
<kml xmlns="http://www.opengis.net/kml/2.2"><Document><name>Glendowie LINZ foot track 2</name><Style id="c"><LineStyle><color>ffff00ff</color><width>5</width></LineStyle></Style><Placemark><name>Glendowie LINZ foot track 2</name><description>Sheet row 862; LINZ t50_fid(s) 3584680</description><styleUrl>#c</styleUrl><MultiGeometry><LineString><tessellate>1</tessellate><coordinates>174.857752,-36.868506 174.857748,-36.869171 174.857594,-36.869510 174.857583,-36.869533 174.857183,-36.870522</coordinates></LineString></MultiGeometry></Placemark></Document></kml>