<?xml version='1.0' encoding='utf-8'?>
<kml xmlns="http://www.opengis.net/kml/2.2"><Document><name>Massey LINZ foot track 1</name><Style id="c"><LineStyle><color>ffff00ff</color><width>5</width></LineStyle></Style><Placemark><name>Massey LINZ foot track 1</name><description>Sheet row 1383; LINZ t50_fid(s) 8466992</description><styleUrl>#c</styleUrl><MultiGeometry><LineString><tessellate>1</tessellate><coordinates>174.614739,-36.823047 174.615095,-36.822940 174.615166,-36.822977 174.615239,-36.822978 174.615435,-36.822909 174.615566,-36.822807 174.615702,-36.822696 174.615812,-36.822606 174.616038,-36.822420 174.616236,-36.822258 174.616382,-36.822139 174.616433,-36.822114 174.616510,-36.822105 174.616574,-36.822108 174.616640,-36.822138 174.616681,-36.822173 174.616727,-36.822242 174.616785,-36.822294 174.616842,-36.822326 174.616906,-36.822334 174.616981,-36.822330 174.617032,-36.822310 174.617074,-36.822275 174.617106,-36.822228 174.617128,-36.822165 174.617108,-36.822101 174.617085,-36.822050 174.617087,-36.821999 174.617102,-36.821959 174.617153,-36.821919 174.617298,-36.821830</coordinates></LineString></MultiGeometry></Placemark></Document></kml>