<?xml version='1.0' encoding='utf-8'?>
<kml xmlns="http://www.opengis.net/kml/2.2"><Document><name>Red Beach LINZ foot track 9</name><Style id="c"><LineStyle><color>ffff00ff</color><width>5</width></LineStyle></Style><Placemark><name>Red Beach LINZ foot track 9</name><description>Sheet row 1119; LINZ t50_fid(s) 3593390</description><styleUrl>#c</styleUrl><MultiGeometry><LineString><tessellate>1</tessellate><coordinates>174.706067,-36.609288 174.706045,-36.609431 174.706073,-36.609754 174.707017,-36.610188 174.707024,-36.610192</coordinates></LineString></MultiGeometry></Placemark></Document></kml>