<?xml version='1.0' encoding='utf-8'?>
<kml xmlns="http://www.opengis.net/kml/2.2"><Document><name>Tiritiri Matangi Island LINZ foot track 1</name><Style id="c"><LineStyle><color>ffff00ff</color><width>5</width></LineStyle></Style><Placemark><name>Tiritiri Matangi Island LINZ foot track 1</name><description>Sheet row 1441; LINZ t50_fid(s) 3556122,3574105,3574107,3574108,3574109,3584905,3584906,3584908,3584910,3593403,3593407,3593408,3593410,3593414,3593415,3593416,5959907,6227516,6227517,6227527</description><styleUrl>#c</styleUrl><MultiGeometry><LineString><tessellate>1</tessellate><coordinates>174.893202,-36.605627 174.893314,-36.605307 174.893355,-36.604983 174.893385,-36.604629 174.893355,-36.604256 174.893263,-36.604085 174.892909,-36.603833 174.892470,-36.603549 174.892381,-36.603484</coordinates></LineString><LineString><tessellate>1</tessellate><coordinates>174.892381,-36.603484 174.892331,-36.603591 174.891831,-36.603701 174.891731,-36.604140 174.891351,-36.604440 174.890871,-36.604710 174.890135,-36.605175 174.889842,-36.605285 174.889694,-36.605368 174.889561,-36.605459 174.889523,-36.605533 174.889515,-36.605641 174.889545,-36.605721 174.889634,-36.605806</coordinates></LineString><LineString><tessellate>1</tessellate><coordinates>174.890545,-36.597993 174.890329,-36.597977 174.889997,-36.598010 174.889724,-36.598070 174.889545,-36.598139 174.888876,-36.598539 174.888753,-36.598543 174.888672,-36.598608 174.888582,-36.598701 174.888524,-36.598847</coordinates></LineString><LineString><tessellate>1</tessellate><coordinates>174.890416,-36.595498 174.890184,-36.596080 174.890094,-36.596313 174.890222,-36.596515 174.890503,-36.596819 174.891054,-36.597290 174.891106,-36.597438 174.891068,-36.597582 174.890907,-36.597717 174.890698,-36.597814 174.890545,-36.597993</coordinates></LineString><LineString><tessellate>1</tessellate><coordinates>174.890416,-36.595498 174.890461,-36.595491 174.890605,-36.595423 174.890831,-36.595425 174.891281,-36.595363 174.891398,-36.595400 174.891399,-36.595466 174.891191,-36.595581 174.890987,-36.595643 174.890892,-36.595700 174.890867,-36.595728 174.890473,-36.596175 174.890451,-36.596331 174.890481,-36.596651 174.890861,-36.596881 174.891311,-36.597071 174.891791,-36.597141 174.892021,-36.597331 174.892131,-36.597661 174.892494,-36.597815 174.892918,-36.597874 174.893135,-36.597856 174.893229,-36.597877 174.893285,-36.597912 174.893300,-36.597971 174.893289,-36.598070 174.893311,-36.598110 174.893356,-36.598139 174.893440,-36.598154 174.893443,-36.598182 174.893418,-36.598228 174.893341,-36.598276 174.893214,-36.598316 174.893065,-36.598314 174.892772,-36.598487 174.892769,-36.598636 174.892526,-36.598778 174.892372,-36.598884 174.892547,-36.598885 174.892790,-36.598960 174.893097,-36.598985 174.893209,-36.599001 174.893383,-36.599024 174.893444,-36.599062 174.893471,-36.599153 174.893586,-36.599361 174.893785,-36.599426</coordinates></LineString><LineString><tessellate>1</tessellate><coordinates>174.892372,-36.598884 174.892153,-36.598910 174.891839,-36.598926 174.891377,-36.599044 174.891070,-36.599065 174.890785,-36.599141 174.890597,-36.599304 174.890381,-36.599651</coordinates></LineString><LineString><tessellate>1</tessellate><coordinates>174.890159,-36.600341 174.890080,-36.600392</coordinates></LineString><LineString><tessellate>1</tessellate><coordinates>174.890159,-36.600341 174.890154,-36.600264 174.890207,-36.600072 174.890381,-36.599651 174.890218,-36.599442 174.890180,-36.599013 174.890197,-36.598588 174.890359,-36.598200 174.890492,-36.598060 174.890545,-36.597993</coordinates></LineString><LineString><tessellate>1</tessellate><coordinates>174.892678,-36.601057 174.892501,-36.600821 174.892434,-36.600609 174.892391,-36.600451 174.892379,-36.600450 174.892353,-36.600379 174.892222,-36.600331 174.892059,-36.600361 174.891401,-36.600559 174.891048,-36.600540 174.890463,-36.600430 174.890212,-36.600373 174.890159,-36.600341</coordinates></LineString><LineString><tessellate>1</tessellate><coordinates>174.891142,-36.602477 174.890885,-36.602122 174.890814,-36.601731 174.890662,-36.601403 174.890357,-36.600928 174.890189,-36.600677</coordinates></LineString><LineString><tessellate>1</tessellate><coordinates>174.892381,-36.603484 174.892276,-36.603407 174.892178,-36.603361 174.891705,-36.603102 174.891507,-36.602890 174.891339,-36.602641 174.891142,-36.602477</coordinates></LineString><LineString><tessellate>1</tessellate><coordinates>174.892541,-36.602601 174.892481,-36.602747 174.892391,-36.603141 174.892370,-36.603189 174.892368,-36.603193 174.892378,-36.603366 174.892381,-36.603484</coordinates></LineString><LineString><tessellate>1</tessellate><coordinates>174.892514,-36.601547 174.892358,-36.601696 174.892226,-36.601891 174.892371,-36.602231 174.892541,-36.602601</coordinates></LineString><LineString><tessellate>1</tessellate><coordinates>174.892514,-36.601547 174.892678,-36.601057</coordinates></LineString><LineString><tessellate>1</tessellate><coordinates>174.893111,-36.601291 174.892691,-36.601541 174.892514,-36.601547</coordinates></LineString><LineString><tessellate>1</tessellate><coordinates>174.893111,-36.601291 174.892731,-36.601101 174.892678,-36.601057</coordinates></LineString><LineString><tessellate>1</tessellate><coordinates>174.892541,-36.602601 174.892687,-36.602573 174.892939,-36.602519 174.893295,-36.602541 174.893761,-36.602600 174.894097,-36.602627 174.894520,-36.602615 174.895209,-36.602527 174.895575,-36.602400 174.895871,-36.602301 174.895945,-36.602175</coordinates></LineString><LineString><tessellate>1</tessellate><coordinates>174.894522,-36.600879 174.894341,-36.601051 174.893951,-36.601211 174.893111,-36.601291</coordinates></LineString><LineString><tessellate>1</tessellate><coordinates>174.887616,-36.602840 174.887695,-36.602798 174.887711,-36.602734 174.887759,-36.602666 174.887874,-36.602561 174.888050,-36.602492 174.888106,-36.602535 174.888181,-36.602661 174.888211,-36.602981 174.888291,-36.603241 174.888451,-36.603431 174.889058,-36.602968 174.889134,-36.602910 174.889508,-36.602827 174.890243,-36.602722 174.890458,-36.602553 174.890688,-36.602439 174.891111,-36.602491 174.891142,-36.602477</coordinates></LineString><LineString><tessellate>1</tessellate><coordinates>174.891142,-36.602477 174.891231,-36.602731 174.891041,-36.603121 174.890821,-36.603471 174.890467,-36.603776 174.890068,-36.603948 174.889650,-36.604181 174.889306,-36.604390 174.888742,-36.604493 174.888612,-36.604511 174.888411,-36.604691 174.888378,-36.604770</coordinates></LineString></MultiGeometry></Placemark></Document></kml>