<?xml version='1.0' encoding='utf-8'?>
<kml xmlns="http://www.opengis.net/kml/2.2"><Document><name>Browns Bay LINZ foot track 6</name><Style id="c"><LineStyle><color>ffff00ff</color><width>5</width></LineStyle></Style><Placemark><name>Browns Bay LINZ foot track 6</name><description>Sheet row 1073; LINZ t50_fid(s) 3593276,3593273,3593265</description><styleUrl>#c</styleUrl><MultiGeometry><LineString><tessellate>1</tessellate><coordinates>174.749016,-36.706267 174.748920,-36.706267 174.748741,-36.706262 174.748660,-36.706254 174.748609,-36.706214 174.748566,-36.706144 174.748542,-36.705932 174.748500,-36.705752</coordinates></LineString><LineString><tessellate>1</tessellate><coordinates>174.749016,-36.706267 174.748915,-36.706478 174.748813,-36.706619 174.748553,-36.706809</coordinates></LineString><LineString><tessellate>1</tessellate><coordinates>174.750106,-36.706269 174.749016,-36.706267</coordinates></LineString></MultiGeometry></Placemark></Document></kml>