<?xml version='1.0' encoding='utf-8'?>
<kml xmlns="http://www.opengis.net/kml/2.2"><Document><name>Red Beach LINZ foot track 7</name><Style id="c"><LineStyle><color>ffff00ff</color><width>5</width></LineStyle></Style><Placemark><name>Red Beach LINZ foot track 7</name><description>Sheet row 1101; LINZ t50_fid(s) 8494001</description><styleUrl>#c</styleUrl><MultiGeometry><LineString><tessellate>1</tessellate><coordinates>174.703974,-36.606613 174.703978,-36.606774 174.703973,-36.606836 174.703922,-36.606889 174.703756,-36.607068 174.703641,-36.607189 174.703552,-36.607246 174.703285,-36.607373 174.703165,-36.607450 174.703132,-36.607484 174.703081,-36.607549 174.703011,-36.607659 174.702918,-36.607815</coordinates></LineString></MultiGeometry></Placemark></Document></kml>