<?xml version='1.0' encoding='utf-8'?>
<kml xmlns="http://www.opengis.net/kml/2.2"><Document><name>Waiuku / Āwhitu LINZ foot track 1</name><Style id="c"><LineStyle><color>ffff00ff</color><width>5</width></LineStyle></Style><Placemark><name>Waiuku / Āwhitu LINZ foot track 1</name><description>Sheet row 1484; LINZ t50_fid(s) 3573532,3573533,3573534,3584447,3592638</description><styleUrl>#c</styleUrl><MultiGeometry><LineString><tessellate>1</tessellate><coordinates>174.657159,-37.098629 174.656653,-37.098379 174.655909,-37.097745 174.655447,-37.097342 174.655090,-37.096910 174.654793,-37.096644</coordinates></LineString><LineString><tessellate>1</tessellate><coordinates>174.654793,-37.096644 174.654741,-37.096914 174.655155,-37.097764 174.655251,-37.097940 174.655704,-37.098482 174.656326,-37.098762 174.656756,-37.098793 174.657159,-37.098629</coordinates></LineString><LineString><tessellate>1</tessellate><coordinates>174.656265,-37.096182 174.656742,-37.096823 174.657250,-37.097602 174.657658,-37.098074 174.657893,-37.098354 174.657795,-37.098538 174.657551,-37.098623 174.657159,-37.098629</coordinates></LineString><LineString><tessellate>1</tessellate><coordinates>174.654793,-37.096644 174.655021,-37.096393 174.655403,-37.096259 174.655850,-37.096219 174.656265,-37.096182</coordinates></LineString><LineString><tessellate>1</tessellate><coordinates>174.654221,-37.093855 174.654533,-37.094393 174.654950,-37.094924 174.655440,-37.095044 174.655809,-37.095264 174.656041,-37.095487 174.656182,-37.095732 174.656265,-37.096182</coordinates></LineString></MultiGeometry></Placemark></Document></kml>