<?xml version='1.0' encoding='utf-8'?>
<kml xmlns="http://www.opengis.net/kml/2.2"><Document><name>Birkenhead LINZ foot track 7</name><Style id="c"><LineStyle><color>ffff00ff</color><width>5</width></LineStyle></Style><Placemark><name>Birkenhead LINZ foot track 7</name><description>Sheet row 880; LINZ t50_fid(s) 3584731</description><styleUrl>#c</styleUrl><MultiGeometry><LineString><tessellate>1</tessellate><coordinates>174.705072,-36.818142 174.705193,-36.818287 174.705979,-36.819348 174.705981,-36.819352</coordinates></LineString></MultiGeometry></Placemark></Document></kml>