<?xml version='1.0' encoding='utf-8'?>
<kml xmlns="http://www.opengis.net/kml/2.2"><Document><name>Mairangi Bay LINZ foot track 10</name><Style id="c"><LineStyle><color>ffff00ff</color><width>5</width></LineStyle></Style><Placemark><name>Mairangi Bay LINZ foot track 10</name><description>Sheet row 1110; LINZ t50_fid(s) 3593254</description><styleUrl>#c</styleUrl><MultiGeometry><LineString><tessellate>1</tessellate><coordinates>174.739136,-36.730506 174.739598,-36.730696 174.739869,-36.730705 174.740104,-36.730875 174.740375,-36.731022 174.740413,-36.731296</coordinates></LineString></MultiGeometry></Placemark></Document></kml>