<?xml version='1.0' encoding='utf-8'?>
<kml xmlns="http://www.opengis.net/kml/2.2"><Document><name>South Head / Kaipara LINZ foot track 3</name><Style id="c"><LineStyle><color>ffff00ff</color><width>5</width></LineStyle></Style><Placemark><name>South Head / Kaipara LINZ foot track 3</name><description>Sheet row 1171; LINZ t50_fid(s) 3573063</description><styleUrl>#c</styleUrl><MultiGeometry><LineString><tessellate>1</tessellate><coordinates>174.358121,-36.715592 174.357483,-36.715730 174.357254,-36.715754 174.357079,-36.715840 174.356453,-36.715936 174.355574,-36.716022 174.354732,-36.716281 174.354000,-36.716702 174.353841,-36.716857</coordinates></LineString></MultiGeometry></Placemark></Document></kml>