<?xml version='1.0' encoding='utf-8'?>
<kml xmlns="http://www.opengis.net/kml/2.2"><Document><name>West Harbour LINZ foot track 3</name><Style id="c"><LineStyle><color>ffff00ff</color><width>5</width></LineStyle></Style><Placemark><name>West Harbour LINZ foot track 3</name><description>Sheet row 1363; LINZ t50_fid(s) 8520924,8520925,8520926,8520981,8520982,8520983,8520984</description><styleUrl>#c</styleUrl><MultiGeometry><LineString><tessellate>1</tessellate><coordinates>174.601295,-36.815703 174.601416,-36.815533 174.601543,-36.815466 174.601772,-36.815370 174.601982,-36.815313 174.602239,-36.815198 174.602454,-36.815136 174.602626,-36.815078 174.602843,-36.815002 174.603193,-36.814910 174.603420,-36.814826 174.603689,-36.814699 174.604006,-36.814590 174.604310,-36.814480 174.604515,-36.814385 174.604703,-36.814285</coordinates></LineString><LineString><tessellate>1</tessellate><coordinates>174.605227,-36.813528 174.605385,-36.813702 174.605457,-36.813735 174.605509,-36.813744 174.605555,-36.813740 174.605581,-36.813737 174.605757,-36.813713 174.605795,-36.813717 174.605837,-36.813739 174.605967,-36.813873 174.606043,-36.813894 174.606237,-36.813896 174.606306,-36.813908 174.606413,-36.813939 174.606440,-36.813946 174.606544,-36.813973 174.606593,-36.813975 174.606645,-36.813967 174.606699,-36.813950 174.606728,-36.813939 174.606781,-36.813912 174.606803,-36.813888 174.606818,-36.813857 174.606821,-36.813793 174.606852,-36.813747 174.606939,-36.813704</coordinates></LineString><LineString><tessellate>1</tessellate><coordinates>174.605523,-36.813104 174.605711,-36.812795 174.606358,-36.811725 174.606390,-36.811708 174.606930,-36.811564 174.606980,-36.811580 174.607078,-36.811692 174.607093,-36.811713 174.607149,-36.811709 174.607184,-36.811723 174.607205,-36.811751 174.607201,-36.811840 174.607214,-36.811885 174.607253,-36.811931 174.607266,-36.812025 174.607314,-36.812085 174.607321,-36.812106 174.607322,-36.812170 174.607385,-36.812241</coordinates></LineString><LineString><tessellate>1</tessellate><coordinates>174.604703,-36.814285 174.604798,-36.814273 174.604897,-36.814278 174.605162,-36.814331 174.605713,-36.814469 174.605752,-36.814494 174.605766,-36.814541 174.605736,-36.814863 174.605792,-36.814959</coordinates></LineString><LineString><tessellate>1</tessellate><coordinates>174.606877,-36.812634 174.606712,-36.812618 174.606586,-36.812650 174.606490,-36.812669 174.606456,-36.812680 174.606349,-36.812791 174.606281,-36.812829 174.606229,-36.812840 174.606126,-36.812831 174.606033,-36.812808 174.605961,-36.812803 174.605903,-36.812816 174.605858,-36.812839 174.605821,-36.812882 174.605797,-36.812940 174.605772,-36.812986 174.605725,-36.813017 174.605588,-36.813066 174.605523,-36.813104</coordinates></LineString><LineString><tessellate>1</tessellate><coordinates>174.604703,-36.814285 174.604711,-36.814243 174.604850,-36.814068 174.604918,-36.813982 174.604958,-36.813884 174.604986,-36.813783 174.605131,-36.813608 174.605227,-36.813528</coordinates></LineString><LineString><tessellate>1</tessellate><coordinates>174.605523,-36.813104 174.605443,-36.813170 174.605341,-36.813292 174.605310,-36.813345 174.605271,-36.813477 174.605227,-36.813528</coordinates></LineString></MultiGeometry></Placemark></Document></kml>