<?xml version='1.0' encoding='utf-8'?>
<kml xmlns="http://www.opengis.net/kml/2.2"><Document><name>Bombay LINZ foot track 1</name><Style id="c"><LineStyle><color>ffff00ff</color><width>5</width></LineStyle></Style><Placemark><name>Bombay LINZ foot track 1</name><description>Sheet row 980; LINZ t50_fid(s) 8405113,8405112</description><styleUrl>#c</styleUrl><MultiGeometry><LineString><tessellate>1</tessellate><coordinates>175.073821,-37.233261 175.074302,-37.233653 175.074460,-37.233533 175.075175,-37.233087 175.076750,-37.230956 175.077620,-37.230492 175.077709,-37.230443 175.084014,-37.226869 175.090445,-37.220046 175.092927,-37.217775 175.093627,-37.216483</coordinates></LineString><LineString><tessellate>1</tessellate><coordinates>175.058218,-37.255854 175.058111,-37.255326 175.052503,-37.246212 175.052410,-37.245945 175.052586,-37.245701 175.052933,-37.245518 175.055866,-37.244329 175.056194,-37.243916 175.057195,-37.242322 175.057592,-37.242023 175.058824,-37.241720 175.059729,-37.241380 175.060553,-37.240948 175.061749,-37.240280 175.062383,-37.240050 175.062940,-37.239873 175.064266,-37.239662 175.065445,-37.239339 175.066791,-37.238898 175.067466,-37.238740 175.067937,-37.238562 175.068942,-37.238093 175.069407,-37.237634 175.070268,-37.236920 175.071527,-37.236308 175.071780,-37.236197 175.071655,-37.236015 175.071450,-37.235622 175.072176,-37.234976 175.072911,-37.234065 175.073305,-37.233713 175.073821,-37.233261 175.073536,-37.233027 175.073318,-37.232450 175.070948,-37.223808 175.070828,-37.223663 175.070576,-37.223344 175.070305,-37.222993 175.070208,-37.222871</coordinates></LineString></MultiGeometry></Placemark></Document></kml>