<?xml version='1.0' encoding='utf-8'?>
<kml xmlns="http://www.opengis.net/kml/2.2"><Document><name>Crocodile Island LINZ foot track 4</name><Style id="c"><LineStyle><color>ffff00ff</color><width>5</width></LineStyle></Style><Placemark><name>Crocodile Island LINZ foot track 4</name><description>Sheet row 918; LINZ t50_fid(s) 3593382,3593381,3593380</description><styleUrl>#c</styleUrl><MultiGeometry><LineString><tessellate>1</tessellate><coordinates>174.688722,-36.592885 174.688362,-36.591934 174.688317,-36.591803</coordinates></LineString><LineString><tessellate>1</tessellate><coordinates>174.688408,-36.593628 174.688882,-36.593307 174.688722,-36.592885</coordinates></LineString><LineString><tessellate>1</tessellate><coordinates>174.688722,-36.592885 174.687876,-36.592809</coordinates></LineString></MultiGeometry></Placemark></Document></kml>