<?xml version='1.0' encoding='utf-8'?>
<kml xmlns="http://www.opengis.net/kml/2.2"><Document><name>Takanini LINZ foot track 3</name><Style id="c"><LineStyle><color>ffff00ff</color><width>5</width></LineStyle></Style><Placemark><name>Takanini LINZ foot track 3</name><description>Sheet row 1279; LINZ t50_fid(s) 3593091</description><styleUrl>#c</styleUrl><MultiGeometry><LineString><tessellate>1</tessellate><coordinates>174.909767,-37.044642 174.909776,-37.044684 174.909803,-37.044809 174.910196,-37.045363 174.910187,-37.045651 174.910187,-37.045659</coordinates></LineString></MultiGeometry></Placemark></Document></kml>