<?xml version='1.0' encoding='utf-8'?>
<kml xmlns="http://www.opengis.net/kml/2.2"><Document><name>Mt Roskill LINZ foot track 6</name><Style id="c"><LineStyle><color>ffff00ff</color><width>5</width></LineStyle></Style><Placemark><name>Mt Roskill LINZ foot track 6</name><description>Sheet row 909; LINZ t50_fid(s) 3592887</description><styleUrl>#c</styleUrl><MultiGeometry><LineString><tessellate>1</tessellate><coordinates>174.731449,-36.916397 174.731842,-36.916155 174.731829,-36.916091 174.732005,-36.915960 174.732059,-36.915860 174.732155,-36.915636</coordinates></LineString></MultiGeometry></Placemark></Document></kml>