<?xml version='1.0' encoding='utf-8'?>
<kml xmlns="http://www.opengis.net/kml/2.2"><Document><name>Whakanewha / central Waiheke LINZ foot track 8</name><Style id="c"><LineStyle><color>ffff00ff</color><width>5</width></LineStyle></Style><Placemark><name>Whakanewha / central Waiheke LINZ foot track 8</name><description>Sheet row 1468; LINZ t50_fid(s) 3554692</description><styleUrl>#c</styleUrl><MultiGeometry><LineString><tessellate>1</tessellate><coordinates>175.039449,-36.816788 175.039776,-36.817086 175.039857,-36.817438 175.040151,-36.817822 175.040431,-36.818205 175.040961,-36.818379 175.041333,-36.818441 175.041815,-36.818433 175.042171,-36.818461 175.042560,-36.818541 175.042615,-36.818535 175.042743,-36.818629 175.042805,-36.818756 175.043023,-36.818949 175.043250,-36.819003 175.043523,-36.819191 175.043779,-36.819267 175.044079,-36.819256 175.044247,-36.819253 175.044416,-36.819423 175.044564,-36.819506 175.044576,-36.819661 175.044739,-36.819759 175.044841,-36.819973 175.044965,-36.820054 175.045073,-36.820081 175.045073,-36.820163 175.045135,-36.820193 175.045201,-36.819948 175.045174,-36.819756 175.045235,-36.819539 175.045703,-36.819291 175.046114,-36.819239 175.046327,-36.819235 175.046841,-36.819189 175.047051,-36.819325 175.047246,-36.819328 175.047523,-36.819594 175.047750,-36.819635 175.048026,-36.819573 175.048192,-36.819554 175.048349,-36.819618 175.048261,-36.819757 175.048033,-36.819825 175.048085,-36.820006 175.048420,-36.819930 175.048772,-36.819798 175.049039,-36.819702 175.049570,-36.819709 175.049843,-36.819522 175.050210,-36.819481 175.050593,-36.819225 175.050794,-36.819203 175.051199,-36.819174 175.051554,-36.819168 175.051825,-36.819197 175.052062,-36.819045 175.052084,-36.818793 175.052163,-36.818563 175.052355,-36.818297 175.052520,-36.818077 175.052728,-36.817914 175.052941,-36.817787 175.053334,-36.817670 175.053658,-36.817729 175.053886,-36.817741 175.054062,-36.817747</coordinates></LineString></MultiGeometry></Placemark></Document></kml>