<?xml version='1.0' encoding='utf-8'?>
<kml xmlns="http://www.opengis.net/kml/2.2"><Document><name>Māngere / Onehunga LINZ foot track 1</name><Style id="c"><LineStyle><color>ffff00ff</color><width>5</width></LineStyle></Style><Placemark><name>Māngere / Onehunga LINZ foot track 1</name><description>Sheet row 831; LINZ t50_fid(s) 6638316</description><styleUrl>#c</styleUrl><MultiGeometry><LineString><tessellate>1</tessellate><coordinates>174.771221,-36.923631 174.771328,-36.923708 174.771466,-36.923886 174.771581,-36.924002 174.771646,-36.924123 174.771666,-36.924195 174.771663,-36.924270 174.771638,-36.924357 174.771447,-36.924802 174.771323,-36.925041 174.771267,-36.925117 174.771276,-36.925153 174.771366,-36.925151 174.771724,-36.925171 174.771858,-36.925147 174.772017,-36.925080 174.772185,-36.924959 174.772363,-36.924752 174.772412,-36.924719 174.772483,-36.924707 174.772532,-36.924714 174.772641,-36.924773 174.772753,-36.924793 174.772916,-36.924862 174.773001,-36.924865 174.773210,-36.924811 174.773349,-36.924806 174.773461,-36.924825 174.773619,-36.924906 174.773728,-36.924972 174.774471,-36.925378 174.774698,-36.925507 174.774798,-36.925592 174.774845,-36.925660 174.774855,-36.925742 174.774845,-36.925857 174.774869,-36.925932 174.774937,-36.925981 174.775041,-36.926009 174.775116,-36.925997 174.775195,-36.925938 174.775340,-36.925807 174.775442,-36.925769 174.775536,-36.925761 174.775644,-36.925788 174.775803,-36.925886 174.776034,-36.926033 174.776253,-36.926206 174.776427,-36.926361 174.776573,-36.926506 174.776670,-36.926631 174.776708,-36.926727 174.776702,-36.926842 174.776594,-36.927020 174.776446,-36.927219 174.776408,-36.927310 174.776437,-36.927410 174.776529,-36.927480 174.776828,-36.927648 174.777045,-36.927760 174.777203,-36.927819 174.777396,-36.927852 174.777557,-36.927828 174.777653,-36.927751 174.777678,-36.927668 174.777684,-36.927531 174.777708,-36.927434 174.777760,-36.927347 174.777871,-36.927288 174.778102,-36.927231 174.778280,-36.927210 174.778482,-36.927207 174.778662,-36.927204</coordinates></LineString></MultiGeometry></Placemark></Document></kml>