<?xml version='1.0' encoding='utf-8'?>
<kml xmlns="http://www.opengis.net/kml/2.2"><Document><name>Whangaparapara, Aotea / Great Barrier LINZ foot track 2</name><Style id="c"><LineStyle><color>ffff00ff</color><width>5</width></LineStyle></Style><Placemark><name>Whangaparapara, Aotea / Great Barrier LINZ foot track 2</name><description>Sheet row 1369; LINZ t50_fid(s) 3574186</description><styleUrl>#c</styleUrl><MultiGeometry><LineString><tessellate>1</tessellate><coordinates>175.384099,-36.216361 175.384000,-36.216194 175.383964,-36.216092 175.383818,-36.215996 175.383794,-36.215939 175.383919,-36.215695 175.383871,-36.215571 175.383638,-36.215500 175.383441,-36.215392 175.383566,-36.214590 175.383666,-36.214258 175.383790,-36.214161 175.383835,-36.214010</coordinates></LineString></MultiGeometry></Placemark></Document></kml>