<?xml version='1.0' encoding='utf-8'?>
<kml xmlns="http://www.opengis.net/kml/2.2"><Document><name>Hibiscus Coast / Ōrewa LINZ foot track 3</name><Style id="c"><LineStyle><color>ffff00ff</color><width>5</width></LineStyle></Style><Placemark><name>Hibiscus Coast / Ōrewa LINZ foot track 3</name><description>Sheet row 1128; LINZ t50_fid(s) 3593376</description><styleUrl>#c</styleUrl><MultiGeometry><LineString><tessellate>1</tessellate><coordinates>174.689921,-36.601644 174.689424,-36.602556 174.689234,-36.602763</coordinates></LineString></MultiGeometry></Placemark></Document></kml>