<?xml version='1.0' encoding='utf-8'?>
<kml xmlns="http://www.opengis.net/kml/2.2"><Document><name>Weymouth LINZ foot track 9</name><Style id="c"><LineStyle><color>ffff00ff</color><width>5</width></LineStyle></Style><Placemark><name>Weymouth LINZ foot track 9</name><description>Sheet row 1301; LINZ t50_fid(s) 3592723</description><styleUrl>#c</styleUrl><MultiGeometry><LineString><tessellate>1</tessellate><coordinates>174.861468,-37.046592 174.861468,-37.046605 174.861466,-37.047327 174.861759,-37.047446</coordinates></LineString></MultiGeometry></Placemark></Document></kml>