<?xml version='1.0' encoding='utf-8'?>
<kml xmlns="http://www.opengis.net/kml/2.2"><Document><name>Hillsborough LINZ foot track 2</name><Style id="c"><LineStyle><color>ffff00ff</color><width>5</width></LineStyle></Style><Placemark><name>Hillsborough LINZ foot track 2</name><description>Sheet row 839; LINZ t50_fid(s) 3554620</description><styleUrl>#c</styleUrl><MultiGeometry><LineString><tessellate>1</tessellate><coordinates>174.734923,-36.933342 174.735372,-36.933119 174.735683,-36.933086 174.735905,-36.933226 174.736171,-36.933237 174.736409,-36.933157 174.736914,-36.932822 174.737205,-36.932818 174.737618,-36.933003 174.738068,-36.933017 174.738543,-36.933000 174.738729,-36.933008 174.738957,-36.933153 174.739247,-36.933138 174.739388,-36.932934 174.739501,-36.932667 174.739734,-36.932473 174.740059,-36.932245 174.740271,-36.932232 174.740748,-36.932320 174.741255,-36.932493 174.741681,-36.932635 174.742107,-36.932778 174.742361,-36.932851 174.742544,-36.932878 174.742681,-36.932873 174.742808,-36.932845</coordinates></LineString></MultiGeometry></Placemark></Document></kml>