<?xml version='1.0' encoding='utf-8'?>
<kml xmlns="http://www.opengis.net/kml/2.2"><Document><name>Takapuna LINZ foot track 2</name><Style id="c"><LineStyle><color>ffff00ff</color><width>5</width></LineStyle></Style><Placemark><name>Takapuna LINZ foot track 2</name><description>Sheet row 861; LINZ t50_fid(s) 3584772</description><styleUrl>#c</styleUrl><MultiGeometry><LineString><tessellate>1</tessellate><coordinates>174.772414,-36.802142 174.773092,-36.801259 174.773094,-36.801256 174.773856,-36.800391</coordinates></LineString></MultiGeometry></Placemark></Document></kml>