<?xml version='1.0' encoding='utf-8'?>
<kml xmlns="http://www.opengis.net/kml/2.2"><Document><name>Te Atatū South LINZ foot track 7</name><Style id="c"><LineStyle><color>ffff00ff</color><width>5</width></LineStyle></Style><Placemark><name>Te Atatū South LINZ foot track 7</name><description>Sheet row 1396; LINZ t50_fid(s) 8467134</description><styleUrl>#c</styleUrl><MultiGeometry><LineString><tessellate>1</tessellate><coordinates>174.644841,-36.880298 174.644649,-36.880269 174.643864,-36.880208 174.643634,-36.880184 174.643432,-36.880181</coordinates></LineString></MultiGeometry></Placemark></Document></kml>