<?xml version='1.0' encoding='utf-8'?>
<kml xmlns="http://www.opengis.net/kml/2.2"><Document><name>Matakana LINZ foot track 1</name><Style id="c"><LineStyle><color>ffff00ff</color><width>5</width></LineStyle></Style><Placemark><name>Matakana LINZ foot track 1</name><description>Sheet row 1012; LINZ t50_fid(s) 100118694</description><styleUrl>#c</styleUrl><MultiGeometry><LineString><tessellate>1</tessellate><coordinates>174.738993,-36.353650 174.738594,-36.353632 174.738396,-36.353467 174.738336,-36.353414 174.738242,-36.353457 174.738130,-36.353678 174.738127,-36.353843 174.738047,-36.353856 174.738009,-36.353827 174.737956,-36.353739 174.737790,-36.353499 174.737679,-36.353412 174.737452,-36.353398 174.737183,-36.353467 174.733939,-36.354791 174.732429,-36.356834 174.731744,-36.357751 174.731219,-36.358442 174.730829,-36.358977</coordinates></LineString></MultiGeometry></Placemark></Document></kml>