<?xml version='1.0' encoding='utf-8'?>
<kml xmlns="http://www.opengis.net/kml/2.2"><Document><name>Red Beach LINZ foot track 6</name><Style id="c"><LineStyle><color>ffff00ff</color><width>5</width></LineStyle></Style><Placemark><name>Red Beach LINZ foot track 6</name><description>Sheet row 1081; LINZ t50_fid(s) 7646324</description><styleUrl>#c</styleUrl><MultiGeometry><LineString><tessellate>1</tessellate><coordinates>174.717809,-36.615736 174.717765,-36.615863 174.717531,-36.616524 174.717508,-36.616643 174.717480,-36.616684 174.717225,-36.616876 174.717186,-36.616974 174.717104,-36.617032 174.716418,-36.617332</coordinates></LineString></MultiGeometry></Placemark></Document></kml>