<?xml version='1.0' encoding='utf-8'?>
<kml xmlns="http://www.opengis.net/kml/2.2"><Document><name>Blockhouse Bay LINZ foot track 7</name><Style id="c"><LineStyle><color>ffff00ff</color><width>5</width></LineStyle></Style><Placemark><name>Blockhouse Bay LINZ foot track 7</name><description>Sheet row 1451; LINZ t50_fid(s) 3584630</description><styleUrl>#c</styleUrl><MultiGeometry><LineString><tessellate>1</tessellate><coordinates>174.695285,-36.919310 174.695271,-36.917904</coordinates></LineString></MultiGeometry></Placemark></Document></kml>