<?xml version='1.0' encoding='utf-8'?>
<kml xmlns="http://www.opengis.net/kml/2.2"><Document><name>Ōrewa LINZ foot track 2</name><Style id="c"><LineStyle><color>ffff00ff</color><width>5</width></LineStyle></Style><Placemark><name>Ōrewa LINZ foot track 2</name><description>Sheet row 920; LINZ t50_fid(s) 3584887</description><styleUrl>#c</styleUrl><MultiGeometry><LineString><tessellate>1</tessellate><coordinates>174.689515,-36.576514 174.689554,-36.576459 174.689582,-36.576421 174.689627,-36.576392 174.690073,-36.576151 174.690891,-36.575927 174.690904,-36.575924</coordinates></LineString></MultiGeometry></Placemark></Document></kml>