<?xml version='1.0' encoding='utf-8'?>
<kml xmlns="http://www.opengis.net/kml/2.2"><Document><name>Hūnua / south-east Auckland LINZ foot track 1</name><Style id="c"><LineStyle><color>ffff00ff</color><width>5</width></LineStyle></Style><Placemark><name>Hūnua / south-east Auckland LINZ foot track 1</name><description>Sheet row 1000; LINZ t50_fid(s) 3531519,3573932</description><styleUrl>#c</styleUrl><MultiGeometry><LineString><tessellate>1</tessellate><coordinates>175.272244,-36.986596 175.271972,-36.986257 175.271640,-36.985896 175.271360,-36.985718 175.270958,-36.985554 175.270770,-36.985386 175.270597,-36.985218 175.270409,-36.985038 175.270069,-36.984922 175.269834,-36.984718 175.269436,-36.984664 175.269220,-36.984590 175.268801,-36.984533 175.268569,-36.984399 175.268345,-36.984169 175.268028,-36.984051 175.267755,-36.984035 175.267440,-36.983950 175.267169,-36.983910 175.266873,-36.983825 175.266637,-36.983816 175.266356,-36.983888 175.266112,-36.983954 175.266020,-36.983907 175.265946,-36.983715 175.265805,-36.983507 175.265757,-36.983378 175.265599,-36.983313 175.265485,-36.983359 175.265404,-36.983308 175.265298,-36.983334 175.265210,-36.983410 175.264964,-36.983419 175.264814,-36.983369 175.264596,-36.983237 175.264460,-36.983158 175.264259,-36.983145 175.264099,-36.983183 175.263916,-36.983272 175.263794,-36.983268 175.263752,-36.983233 175.263731,-36.983129 175.263834,-36.982755 175.263828,-36.982625 175.263824,-36.982530 175.263648,-36.982004 175.263449,-36.981835 175.263071,-36.981436 175.262911,-36.981360 175.262775,-36.981368 175.262511,-36.981462 175.262350,-36.981494 175.262207,-36.981476 175.262079,-36.981398 175.261952,-36.981275 175.261718,-36.981036 175.261582,-36.980723 175.261518,-36.980542 175.261297,-36.980188 175.261224,-36.980119 175.261223,-36.979995 175.261267,-36.979903 175.261511,-36.979845 175.261719,-36.979786 175.261826,-36.979671 175.261949,-36.979472 175.262011,-36.979304 175.262063,-36.979082 175.262071,-36.978432 175.262042,-36.978273 175.261979,-36.978107 175.261662,-36.977673 175.261296,-36.977224 175.261158,-36.977055 175.260770,-36.976861 175.260282,-36.976861 175.259461,-36.976769 175.259130,-36.976743 175.259035,-36.976751 175.258916,-36.976783</coordinates></LineString><LineString><tessellate>1</tessellate><coordinates>175.277868,-36.989599 175.276027,-36.988340 175.275122,-36.987910 175.274312,-36.987475 175.274305,-36.987425 175.274321,-36.987302 175.274306,-36.987216 175.274202,-36.987111 175.274034,-36.987039 175.273784,-36.987006 175.273433,-36.986981 175.273076,-36.986907 175.272244,-36.986596</coordinates></LineString></MultiGeometry></Placemark></Document></kml>