<?xml version='1.0' encoding='utf-8'?>
<kml xmlns="http://www.opengis.net/kml/2.2"><Document><name>Māngere LINZ foot track 10</name><Style id="c"><LineStyle><color>ffff00ff</color><width>5</width></LineStyle></Style><Placemark><name>Māngere LINZ foot track 10</name><description>Sheet row 1246; LINZ t50_fid(s) 3592788</description><styleUrl>#c</styleUrl><MultiGeometry><LineString><tessellate>1</tessellate><coordinates>174.808616,-36.972508 174.807992,-36.972279 174.807636,-36.971948 174.807593,-36.971908 174.807283,-36.971619 174.806818,-36.971475 174.806673,-36.971525</coordinates></LineString></MultiGeometry></Placemark></Document></kml>