<?xml version='1.0' encoding='utf-8'?>
<kml xmlns="http://www.opengis.net/kml/2.2"><Document><name>Albany LINZ foot track 1</name><Style id="c"><LineStyle><color>ffff00ff</color><width>5</width></LineStyle></Style><Placemark><name>Albany LINZ foot track 1</name><description>Sheet row 1031; LINZ t50_fid(s) 8466370</description><styleUrl>#c</styleUrl><MultiGeometry><LineString><tessellate>1</tessellate><coordinates>174.695762,-36.723043 174.695826,-36.723134 174.696174,-36.723230 174.696423,-36.723234 174.696518,-36.723252 174.696839,-36.723337 174.696994,-36.723377 174.697138,-36.723380 174.697232,-36.723356 174.697324,-36.723332 174.697393,-36.723346 174.697489,-36.723381 174.697620,-36.723432 174.697753,-36.723467 174.697898,-36.723493 174.698031,-36.723491 174.698198,-36.723447 174.698283,-36.723438 174.698385,-36.723465 174.698507,-36.723519 174.698792,-36.723572 174.698892,-36.723563 174.699118,-36.723523 174.699252,-36.723474 174.699340,-36.723415 174.699414,-36.723325 174.699460,-36.723242 174.699532,-36.723091 174.699574,-36.722962 174.699636,-36.722876 174.699751,-36.722720 174.699853,-36.722619 174.699956,-36.722544 174.700089,-36.722485 174.700252,-36.722443 174.700478,-36.722416 174.700616,-36.722422 174.700763,-36.722458 174.700952,-36.722515 174.701244,-36.722565 174.701502,-36.722592 174.701716,-36.722602 174.701840,-36.722583 174.702016,-36.722526 174.702199,-36.722473 174.702341,-36.722441 174.702425,-36.722440 174.702628,-36.722461 174.702703,-36.722458 174.702789,-36.722443 174.702876,-36.722409 174.702922,-36.722361 174.702972,-36.722245 174.702987,-36.722155 174.702977,-36.722021 174.702988,-36.721944 174.703040,-36.721892 174.703208,-36.721811 174.703392,-36.721759 174.703550,-36.721681 174.703677,-36.721652 174.703873,-36.721635 174.704008,-36.721625 174.704152,-36.721569 174.704218,-36.721505 174.704291,-36.721428 174.704371,-36.721381 174.704539,-36.721332 174.704575,-36.721317 174.704679,-36.721273 174.704739,-36.721215 174.704760,-36.721111 174.704772,-36.721029 174.704780,-36.720937 174.704817,-36.720860 174.705080,-36.720601 174.705252,-36.720448 174.705376,-36.720369 174.705495,-36.720316 174.705606,-36.720291 174.705772,-36.720272 174.705852,-36.720278 174.705949,-36.720312 174.706135,-36.720395 174.706271,-36.720463 174.706372,-36.720496 174.706466,-36.720506 174.706641,-36.720487 174.706946,-36.720472 174.707098,-36.720451 174.707245,-36.720392 174.707401,-36.720339 174.707612,-36.720261 174.707806,-36.720221 174.707961,-36.720189 174.708205,-36.720174 174.708379,-36.720138 174.708558,-36.720077 174.708721,-36.720031 174.708874,-36.720012 174.709040,-36.719994 174.709156,-36.720019 174.709255,-36.720073 174.709389,-36.720103 174.709493,-36.720181</coordinates></LineString></MultiGeometry></Placemark></Document></kml>