<?xml version='1.0' encoding='utf-8'?>
<kml xmlns="http://www.opengis.net/kml/2.2"><Document><name>Papakura LINZ foot track 10</name><Style id="c"><LineStyle><color>ffff00ff</color><width>5</width></LineStyle></Style><Placemark><name>Papakura LINZ foot track 10</name><description>Sheet row 1288; LINZ t50_fid(s) 3593065</description><styleUrl>#c</styleUrl><MultiGeometry><LineString><tessellate>1</tessellate><coordinates>174.932918,-37.068057 174.932900,-37.068065 174.932654,-37.068177 174.931864,-37.068672</coordinates></LineString></MultiGeometry></Placemark></Document></kml>