<?xml version='1.0' encoding='utf-8'?>
<kml xmlns="http://www.opengis.net/kml/2.2"><Document><name>Browns Bay LINZ foot track 4</name><Style id="c"><LineStyle><color>ffff00ff</color><width>5</width></LineStyle></Style><Placemark><name>Browns Bay LINZ foot track 4</name><description>Sheet row 1066; LINZ t50_fid(s) 3573894</description><styleUrl>#c</styleUrl><MultiGeometry><LineString><tessellate>1</tessellate><coordinates>174.750921,-36.721144 174.750972,-36.721131 174.751069,-36.721083 174.751121,-36.721011 174.751171,-36.720979 174.751358,-36.720775 174.751492,-36.720579 174.751471,-36.720429 174.751316,-36.720029 174.751226,-36.719845 174.751193,-36.719545 174.751137,-36.719155 174.750965,-36.718926 174.750529,-36.718731</coordinates></LineString></MultiGeometry></Placemark></Document></kml>