<?xml version='1.0' encoding='utf-8'?>
<kml xmlns="http://www.opengis.net/kml/2.2"><Document><name>Mairangi Bay LINZ foot track 1</name><Style id="c"><LineStyle><color>ffff00ff</color><width>5</width></LineStyle></Style><Placemark><name>Mairangi Bay LINZ foot track 1</name><description>Sheet row 1036; LINZ t50_fid(s) 6082541,6082548,6082504</description><styleUrl>#c</styleUrl><MultiGeometry><LineString><tessellate>1</tessellate><coordinates>174.753466,-36.726304 174.753696,-36.726392 174.754159,-36.726737 174.754240,-36.726786 174.754352,-36.726810 174.754534,-36.726979 174.754664,-36.727010 174.754767,-36.727023 174.754844,-36.727075 174.754838,-36.727172 174.754786,-36.727259 174.754788,-36.727331 174.754860,-36.727366 174.754966,-36.727325 174.755042,-36.727334 174.755065,-36.727391 174.755076,-36.727449</coordinates></LineString><LineString><tessellate>1</tessellate><coordinates>174.754543,-36.728185 174.754618,-36.727982 174.754679,-36.727625 174.754723,-36.727565 174.754894,-36.727570 174.754899,-36.727545 174.755076,-36.727449</coordinates></LineString><LineString><tessellate>1</tessellate><coordinates>174.755076,-36.727449 174.755169,-36.727405 174.755377,-36.727356 174.755483,-36.727348 174.755575,-36.727330 174.755628,-36.727346 174.755685,-36.727457 174.755734,-36.727593 174.755792,-36.727699 174.755821,-36.727795 174.755819,-36.727890 174.755782,-36.727996 174.755798,-36.728169 174.755838,-36.728245 174.755924,-36.728295 174.756040,-36.728363 174.756084,-36.728431 174.756175,-36.728621 174.756267,-36.728840 174.756347,-36.728998 174.756930,-36.729537 174.757087,-36.729636 174.757107,-36.729716 174.757115,-36.729800 174.757157,-36.729877 174.757125,-36.729952 174.757053,-36.730010 174.756994,-36.730079 174.756925,-36.730116 174.756903,-36.730152 174.756916,-36.730191 174.756932,-36.730244 174.756944,-36.730338 174.756864,-36.730385 174.756767,-36.730435 174.756702,-36.730434 174.756460,-36.730344 174.756361,-36.730332 174.756123,-36.730337 174.756005,-36.730354 174.755860,-36.730383 174.755771,-36.730428 174.755271,-36.730817 174.754880,-36.730964 174.754742,-36.731033 174.754665,-36.731113 174.754530,-36.731284 174.754482,-36.731381 174.754420,-36.731489 174.754307,-36.731508 174.754163,-36.731556 174.754063,-36.731604 174.753880,-36.731625 174.753600,-36.731811</coordinates></LineString></MultiGeometry></Placemark></Document></kml>