<?xml version='1.0' encoding='utf-8'?>
<kml xmlns="http://www.opengis.net/kml/2.2"><Document><name>Titirangi LINZ foot track 3</name><Style id="c"><LineStyle><color>ffff00ff</color><width>5</width></LineStyle></Style><Placemark><name>Titirangi LINZ foot track 3</name><description>Sheet row 1307; LINZ t50_fid(s) 3584626</description><styleUrl>#c</styleUrl><MultiGeometry><LineString><tessellate>1</tessellate><coordinates>174.657118,-36.951919 174.657032,-36.951747 174.656577,-36.951335 174.656219,-36.951200</coordinates></LineString></MultiGeometry></Placemark></Document></kml>