<?xml version='1.0' encoding='utf-8'?>
<kml xmlns="http://www.opengis.net/kml/2.2"><Document><name>Te Arai Point LINZ foot track 1</name><Style id="c"><LineStyle><color>ffff00ff</color><width>5</width></LineStyle></Style><Placemark><name>Te Arai Point LINZ foot track 1</name><description>Sheet row 1311; LINZ t50_fid(s) 3517619</description><styleUrl>#c</styleUrl><MultiGeometry><LineString><tessellate>1</tessellate><coordinates>174.630509,-36.139353 174.631318,-36.139359 174.631865,-36.139644 174.632930,-36.140947 174.633953,-36.142397 174.635349,-36.144428 174.636514,-36.146138 174.637321,-36.147626 174.638450,-36.148844 174.640043,-36.150548 174.640847,-36.151629 174.641775,-36.152819 174.643499,-36.154958 174.644786,-36.156448 174.646117,-36.158211 174.646894,-36.159031 174.646988,-36.159347 174.646973,-36.159516 174.646944,-36.159619 174.646957,-36.159720 174.646994,-36.159886 174.647049,-36.159960 174.647174,-36.160031 174.647320,-36.160078 174.647366,-36.160093 174.647461,-36.160102 174.647749,-36.160120 174.647772,-36.160188 174.647665,-36.160269 174.647516,-36.160356 174.647507,-36.160414 174.647613,-36.160445 174.647940,-36.160430 174.648161,-36.160380 174.648366,-36.160421 174.648652,-36.160550 174.648868,-36.160657 174.648996,-36.160777 174.649274,-36.161075 174.649296,-36.161265 174.649365,-36.161358 174.649504,-36.161390 174.649603,-36.161487 174.649638,-36.161616 174.649532,-36.162124 174.649542,-36.162301 174.649649,-36.162505 174.649851,-36.162664 174.650023,-36.162803 174.650086,-36.162900 174.650124,-36.163017 174.650266,-36.163162 174.650269,-36.163295 174.650330,-36.163338 174.650423,-36.163435 174.650406,-36.163494 174.650235,-36.163707 174.649952,-36.164019 174.649736,-36.164389 174.649598,-36.164569 174.649434,-36.164648 174.649091,-36.164695 174.648855,-36.164591 174.648808,-36.164513 174.648639,-36.164522 174.648607,-36.164669 174.648609,-36.164791 174.648496,-36.164826 174.648361,-36.164838 174.648178,-36.164808 174.648031,-36.164865 174.647629,-36.164969 174.647381,-36.165005 174.647309,-36.165203 174.647170,-36.165524 174.647202,-36.165650 174.647246,-36.165870 174.647248,-36.165878</coordinates></LineString></MultiGeometry></Placemark></Document></kml>