<?xml version='1.0' encoding='utf-8'?>
<kml xmlns="http://www.opengis.net/kml/2.2"><Document><name>Māngere LINZ foot track 2</name><Style id="c"><LineStyle><color>ffff00ff</color><width>5</width></LineStyle></Style><Placemark><name>Māngere LINZ foot track 2</name><description>Sheet row 1222; LINZ t50_fid(s) 3532397</description><styleUrl>#c</styleUrl><MultiGeometry><LineString><tessellate>1</tessellate><coordinates>174.774247,-36.966194 174.774262,-36.966154 174.774373,-36.965877 174.774467,-36.965084 174.774484,-36.964620 174.774520,-36.963991 174.774596,-36.963039 174.774654,-36.962583 174.774752,-36.962273 174.774921,-36.962063 174.775201,-36.961868 174.775447,-36.961673 174.775702,-36.961471 174.775971,-36.961136 174.776112,-36.960797 174.776174,-36.960392 174.776107,-36.960014 174.775964,-36.959721 174.775699,-36.959414 174.775415,-36.959149 174.774813,-36.958811 174.774765,-36.958687 174.774792,-36.958583</coordinates></LineString></MultiGeometry></Placemark></Document></kml>