<?xml version='1.0' encoding='utf-8'?>
<kml xmlns="http://www.opengis.net/kml/2.2"><Document><name>Takanini LINZ foot track 2</name><Style id="c"><LineStyle><color>ffff00ff</color><width>5</width></LineStyle></Style><Placemark><name>Takanini LINZ foot track 2</name><description>Sheet row 1240; LINZ t50_fid(s) 3593092,3593079,3593080,3593093</description><styleUrl>#c</styleUrl><MultiGeometry><LineString><tessellate>1</tessellate><coordinates>174.916390,-37.044817 174.917070,-37.045399</coordinates></LineString><LineString><tessellate>1</tessellate><coordinates>174.916703,-37.045678 174.917070,-37.045399</coordinates></LineString><LineString><tessellate>1</tessellate><coordinates>174.917070,-37.045399 174.917322,-37.045715</coordinates></LineString><LineString><tessellate>1</tessellate><coordinates>174.917070,-37.045399 174.917583,-37.045104</coordinates></LineString></MultiGeometry></Placemark></Document></kml>