<?xml version='1.0' encoding='utf-8'?>
<kml xmlns="http://www.opengis.net/kml/2.2"><Document><name>Glenfield LINZ foot track 2</name><Style id="c"><LineStyle><color>ffff00ff</color><width>5</width></LineStyle></Style><Placemark><name>Glenfield LINZ foot track 2</name><description>Sheet row 1049; LINZ t50_fid(s) 3584745,3593198,3593206,3593205</description><styleUrl>#c</styleUrl><MultiGeometry><LineString><tessellate>1</tessellate><coordinates>174.732748,-36.782550 174.732594,-36.782571 174.732495,-36.782662 174.732415,-36.782703 174.732131,-36.782798 174.732055,-36.782837 174.732031,-36.782872 174.732021,-36.782917 174.732038,-36.782966 174.732058,-36.783052 174.732125,-36.783068 174.732170,-36.783129 174.732232,-36.783278 174.732311,-36.783397 174.732400,-36.783468 174.732526,-36.783558 174.732632,-36.783586 174.732970,-36.783573 174.733195,-36.783549 174.733309,-36.783511 174.733442,-36.783507 174.733481,-36.783443 174.733487,-36.783372 174.733474,-36.783318 174.733421,-36.783210</coordinates></LineString><LineString><tessellate>1</tessellate><coordinates>174.735147,-36.784062 174.734920,-36.783880 174.734721,-36.783702 174.734635,-36.783659 174.734250,-36.783548 174.734160,-36.783498 174.734052,-36.783408 174.733965,-36.783323 174.733802,-36.783251 174.733674,-36.783242 174.733527,-36.783285 174.733421,-36.783210</coordinates></LineString><LineString><tessellate>1</tessellate><coordinates>174.733491,-36.781805 174.733061,-36.782146 174.733023,-36.782265 174.732987,-36.782284 174.732886,-36.782385 174.732769,-36.782462 174.732748,-36.782550</coordinates></LineString><LineString><tessellate>1</tessellate><coordinates>174.733421,-36.783210 174.733187,-36.783041 174.732931,-36.782801 174.732810,-36.782651 174.732748,-36.782550</coordinates></LineString></MultiGeometry></Placemark></Document></kml>