<?xml version='1.0' encoding='utf-8'?>
<kml xmlns="http://www.opengis.net/kml/2.2"><Document><name>Te Atatū Peninsula LINZ foot track 3</name><Style id="c"><LineStyle><color>ffff00ff</color><width>5</width></LineStyle></Style><Placemark><name>Te Atatū Peninsula LINZ foot track 3</name><description>Sheet row 1381; LINZ t50_fid(s) 8466773</description><styleUrl>#c</styleUrl><MultiGeometry><LineString><tessellate>1</tessellate><coordinates>174.660524,-36.832850 174.660636,-36.832832 174.660742,-36.832796 174.660799,-36.832746 174.660869,-36.832680 174.660994,-36.832600 174.661102,-36.832521 174.661114,-36.832492 174.661129,-36.832374 174.661126,-36.832334 174.661092,-36.832232 174.661066,-36.832129 174.661038,-36.832079 174.660968,-36.831989 174.660878,-36.831915 174.660813,-36.831815 174.660736,-36.831714 174.660683,-36.831637 174.660611,-36.831553 174.660521,-36.831409 174.660488,-36.831361 174.660436,-36.831302 174.660416,-36.831270 174.660402,-36.831221 174.660396,-36.831179 174.660341,-36.831069 174.660270,-36.831075 174.660223,-36.831068 174.660193,-36.831053 174.660108,-36.830981 174.660046,-36.830937 174.659999,-36.830898 174.659966,-36.830873 174.659920,-36.830865 174.659865,-36.830871 174.659782,-36.830832 174.659695,-36.830771 174.659499,-36.830668 174.659394,-36.830605 174.659283,-36.830515 174.659153,-36.830435 174.659023,-36.830349 174.658952,-36.830318 174.658908,-36.830299 174.658874,-36.830291 174.658837,-36.830291 174.658771,-36.830319 174.658605,-36.830372 174.658418,-36.830468 174.658000,-36.830784</coordinates></LineString></MultiGeometry></Placemark></Document></kml>