<?xml version='1.0' encoding='utf-8'?>
<kml xmlns="http://www.opengis.net/kml/2.2"><Document><name>Browns Bay LINZ foot track 2</name><Style id="c"><LineStyle><color>ffff00ff</color><width>5</width></LineStyle></Style><Placemark><name>Browns Bay LINZ foot track 2</name><description>Sheet row 1054; LINZ t50_fid(s) 8467146,8467145,8467147,8467148</description><styleUrl>#c</styleUrl><MultiGeometry><LineString><tessellate>1</tessellate><coordinates>174.738789,-36.723729 174.738746,-36.723568 174.738759,-36.723525 174.738852,-36.723421 174.738981,-36.723311 174.739063,-36.723190 174.739201,-36.723069 174.739563,-36.722799 174.739626,-36.722787 174.739694,-36.722800 174.739783,-36.722850 174.739916,-36.722947 174.740097,-36.722996 174.740144,-36.723023 174.740167,-36.723062 174.740167,-36.723092 174.740157,-36.723126 174.740116,-36.723163 174.740061,-36.723196 174.740008,-36.723195 174.739947,-36.723178 174.739865,-36.723170 174.739779,-36.723185 174.739674,-36.723262 174.739587,-36.723354 174.739451,-36.723501 174.739413,-36.723584 174.739373,-36.723611 174.739278,-36.723638 174.739080,-36.723694 174.739003,-36.723713 174.738918,-36.723711 174.738789,-36.723729</coordinates></LineString><LineString><tessellate>1</tessellate><coordinates>174.737599,-36.724111 174.737712,-36.724095 174.737913,-36.724103 174.738040,-36.724059 174.738525,-36.723935 174.738671,-36.723859 174.738747,-36.723787 174.738789,-36.723729</coordinates></LineString><LineString><tessellate>1</tessellate><coordinates>174.737599,-36.724111 174.737515,-36.724143 174.737361,-36.724234 174.737254,-36.724332</coordinates></LineString><LineString><tessellate>1</tessellate><coordinates>174.737312,-36.723459 174.737357,-36.723577 174.737382,-36.723596 174.737443,-36.723632 174.737454,-36.723658 174.737448,-36.723703 174.737415,-36.723806 174.737427,-36.723854 174.737464,-36.723908 174.737539,-36.723964 174.737599,-36.724111</coordinates></LineString></MultiGeometry></Placemark></Document></kml>