<?xml version='1.0' encoding='utf-8'?>
<kml xmlns="http://www.opengis.net/kml/2.2"><Document><name>Mt Roskill LINZ foot track 8</name><Style id="c"><LineStyle><color>ffff00ff</color><width>5</width></LineStyle></Style><Placemark><name>Mt Roskill LINZ foot track 8</name><description>Sheet row 1373; LINZ t50_fid(s) 100126219</description><styleUrl>#c</styleUrl><MultiGeometry><LineString><tessellate>1</tessellate><coordinates>174.746013,-36.914828 174.746123,-36.914811 174.746212,-36.914777 174.746296,-36.914710 174.746387,-36.914604 174.746462,-36.914557 174.746542,-36.914531 174.746640,-36.914525 174.747795,-36.914593 174.749430,-36.914694 174.750106,-36.914856 174.750905,-36.915048 174.751259,-36.915136 174.752356,-36.915406 174.752412,-36.915441 174.752433,-36.915505</coordinates></LineString></MultiGeometry></Placemark></Document></kml>