<?xml version='1.0' encoding='utf-8'?>
<kml xmlns="http://www.opengis.net/kml/2.2"><Document><name>Ōrākei LINZ foot track 3</name><Style id="c"><LineStyle><color>ffff00ff</color><width>5</width></LineStyle></Style><Placemark><name>Ōrākei LINZ foot track 3</name><description>Sheet row 879; LINZ t50_fid(s) 3584667</description><styleUrl>#c</styleUrl><MultiGeometry><LineString><tessellate>1</tessellate><coordinates>174.817160,-36.858134 174.817564,-36.857856 174.817602,-36.857741 174.817504,-36.856858 174.817546,-36.856772</coordinates></LineString></MultiGeometry></Placemark></Document></kml>