<?xml version='1.0' encoding='utf-8'?>
<kml xmlns="http://www.opengis.net/kml/2.2"><Document><name>Mairangi Bay LINZ foot track 18</name><Style id="c"><LineStyle><color>ffff00ff</color><width>5</width></LineStyle></Style><Placemark><name>Mairangi Bay LINZ foot track 18</name><description>Sheet row 1145; LINZ t50_fid(s) 3593224</description><styleUrl>#c</styleUrl><MultiGeometry><LineString><tessellate>1</tessellate><coordinates>174.743064,-36.753514 174.742360,-36.752972 174.742021,-36.752720</coordinates></LineString></MultiGeometry></Placemark></Document></kml>