<?xml version='1.0' encoding='utf-8'?>
<kml xmlns="http://www.opengis.net/kml/2.2"><Document><name>Parau / Huia LINZ foot track 1</name><Style id="c"><LineStyle><color>ffff00ff</color><width>5</width></LineStyle></Style><Placemark><name>Parau / Huia LINZ foot track 1</name><description>Sheet row 1182; LINZ t50_fid(s) 3592515,3584276,3584275</description><styleUrl>#c</styleUrl><MultiGeometry><LineString><tessellate>1</tessellate><coordinates>174.633788,-36.967003 174.633529,-36.966858</coordinates></LineString><LineString><tessellate>1</tessellate><coordinates>174.632130,-36.964722 174.632821,-36.965821 174.633529,-36.966858</coordinates></LineString><LineString><tessellate>1</tessellate><coordinates>174.633053,-36.969063 174.632961,-36.968351 174.632948,-36.967771 174.633125,-36.967324 174.633529,-36.966858</coordinates></LineString></MultiGeometry></Placemark></Document></kml>