<?xml version='1.0' encoding='utf-8'?>
<kml xmlns="http://www.opengis.net/kml/2.2"><Document><name>Manukau LINZ foot track 1</name><Style id="c"><LineStyle><color>ffff00ff</color><width>5</width></LineStyle></Style><Placemark><name>Manukau LINZ foot track 1</name><description>Sheet row 1212; LINZ t50_fid(s) 3584604,3592809,3592810,3592819,3592826,3584605,3592828,3592827,3592817,3592818,3584603</description><styleUrl>#c</styleUrl><MultiGeometry><LineString><tessellate>1</tessellate><coordinates>174.884852,-37.003128 174.884607,-37.003023 174.884109,-37.002801 174.883860,-37.002592 174.883644,-37.002310 174.883630,-37.002283 174.883452,-37.001971 174.883414,-37.001935 174.883083,-37.001278 174.883008,-37.000822 174.883065,-37.000660</coordinates></LineString><LineString><tessellate>1</tessellate><coordinates>174.882560,-36.998608 174.882105,-36.998737 174.882041,-36.998858 174.881555,-36.999017 174.881108,-36.998978 174.880920,-36.998846</coordinates></LineString><LineString><tessellate>1</tessellate><coordinates>174.882560,-36.998608 174.882421,-36.998458 174.882291,-36.998363 174.882023,-36.998234 174.881895,-36.998033 174.881518,-36.997971 174.881121,-36.997929 174.880833,-36.997998</coordinates></LineString><LineString><tessellate>1</tessellate><coordinates>174.882560,-36.998608 174.882793,-36.998799 174.882962,-36.998868 174.883172,-36.998843</coordinates></LineString><LineString><tessellate>1</tessellate><coordinates>174.882214,-37.001104 174.882397,-37.001032 174.882473,-37.000961 174.882546,-37.000870 174.882636,-37.000841 174.882784,-37.000773 174.883065,-37.000660</coordinates></LineString><LineString><tessellate>1</tessellate><coordinates>174.883172,-36.998843 174.883211,-36.999164 174.883274,-36.999356 174.883358,-36.999608 174.883384,-36.999864 174.883293,-36.999990 174.883130,-37.000031 174.882995,-37.000202 174.883065,-37.000660</coordinates></LineString><LineString><tessellate>1</tessellate><coordinates>174.883711,-36.998801 174.883481,-36.998823 174.883172,-36.998843</coordinates></LineString><LineString><tessellate>1</tessellate><coordinates>174.883771,-37.000565 174.883296,-37.000638 174.883065,-37.000660</coordinates></LineString><LineString><tessellate>1</tessellate><coordinates>174.880920,-36.998846 174.880899,-36.998912 174.880757,-36.999424</coordinates></LineString><LineString><tessellate>1</tessellate><coordinates>174.880833,-36.997998 174.880536,-36.998362 174.880542,-36.998418 174.880549,-36.998474 174.880721,-36.998686 174.880827,-36.998787 174.880920,-36.998846</coordinates></LineString><LineString><tessellate>1</tessellate><coordinates>174.880757,-36.999424 174.880741,-36.999502 174.880736,-36.999537 174.880720,-36.999672 174.880665,-37.000124 174.880526,-37.000346 174.879971,-37.000694 174.879643,-37.000804 174.879235,-37.000975 174.878703,-37.001132 174.878700,-37.001133 174.878580,-37.001175</coordinates></LineString></MultiGeometry></Placemark></Document></kml>