<?xml version='1.0' encoding='utf-8'?>
<kml xmlns="http://www.opengis.net/kml/2.2"><Document><name>Te Atatū Peninsula LINZ foot track 1</name><Style id="c"><LineStyle><color>ffff00ff</color><width>5</width></LineStyle></Style><Placemark><name>Te Atatū Peninsula LINZ foot track 1</name><description>Sheet row 1186; LINZ t50_fid(s) 3584725,3593142,3573865,3593143,3554668</description><styleUrl>#c</styleUrl><MultiGeometry><LineString><tessellate>1</tessellate><coordinates>174.653864,-36.847852 174.653849,-36.847930 174.653922,-36.848067 174.653943,-36.848157 174.653932,-36.848289 174.653961,-36.848401 174.653960,-36.848470 174.653994,-36.848558 174.653937,-36.848656 174.653955,-36.848746 174.653936,-36.848856 174.653967,-36.849054 174.653903,-36.849195 174.653775,-36.849340 174.653632,-36.849417 174.653504,-36.849449 174.653455,-36.849428 174.653446,-36.849381 174.653527,-36.849183 174.653564,-36.849122 174.653306,-36.849024</coordinates></LineString><LineString><tessellate>1</tessellate><coordinates>174.653166,-36.847738 174.653274,-36.847787 174.653426,-36.847822 174.653557,-36.847839 174.653864,-36.847852</coordinates></LineString><LineString><tessellate>1</tessellate><coordinates>174.653864,-36.847852 174.654040,-36.847802 174.654202,-36.847744 174.654295,-36.847680 174.654526,-36.847468 174.654875,-36.846956 174.654953,-36.846832 174.655050,-36.846714 174.655127,-36.846562 174.655188,-36.846432 174.655224,-36.846317 174.655242,-36.846198 174.655423,-36.845876 174.655443,-36.845656 174.655481,-36.845575 174.655563,-36.845499 174.655806,-36.845312 174.655893,-36.845229 174.655943,-36.845165 174.656062,-36.844984 174.656224,-36.844824 174.656401,-36.844655 174.656566,-36.844443 174.656586,-36.844394 174.656578,-36.844343 174.656543,-36.844308 174.656496,-36.844295 174.656436,-36.844299 174.656307,-36.844313</coordinates></LineString><LineString><tessellate>1</tessellate><coordinates>174.656307,-36.844313 174.656130,-36.844389 174.656022,-36.844450 174.655921,-36.844478 174.655758,-36.844470 174.655689,-36.844477 174.655605,-36.844458</coordinates></LineString><LineString><tessellate>1</tessellate><coordinates>174.661696,-36.839199 174.661462,-36.839255 174.661277,-36.839409 174.661163,-36.839686 174.660977,-36.839857 174.660700,-36.840126 174.659997,-36.840529 174.659642,-36.840923 174.659422,-36.841175 174.659117,-36.841398 174.658918,-36.841519 174.658588,-36.841706 174.658394,-36.841789 174.658236,-36.841895 174.657962,-36.842165 174.657873,-36.842301 174.657783,-36.842421 174.657429,-36.842864 174.657090,-36.843295 174.656823,-36.843696 174.656513,-36.843960 174.656395,-36.844154 174.656307,-36.844313</coordinates></LineString></MultiGeometry></Placemark></Document></kml>