<?xml version='1.0' encoding='utf-8'?>
<kml xmlns="http://www.opengis.net/kml/2.2"><Document><name>Arataki / Waitākere LINZ foot track 2</name><Style id="c"><LineStyle><color>ffff00ff</color><width>5</width></LineStyle></Style><Placemark><name>Arataki / Waitākere LINZ foot track 2</name><description>Sheet row 997; LINZ t50_fid(s) 3584274</description><styleUrl>#c</styleUrl><MultiGeometry><LineString><tessellate>1</tessellate><coordinates>174.602060,-36.956280 174.601647,-36.955860 174.600435,-36.955507 174.599607,-36.955146</coordinates></LineString></MultiGeometry></Placemark></Document></kml>