<?xml version='1.0' encoding='utf-8'?>
<kml xmlns="http://www.opengis.net/kml/2.2"><Document><name>Glendowie LINZ foot track 3</name><Style id="c"><LineStyle><color>ffff00ff</color><width>5</width></LineStyle></Style><Placemark><name>Glendowie LINZ foot track 3</name><description>Sheet row 932; LINZ t50_fid(s) 6638769,6638770,6638315</description><styleUrl>#c</styleUrl><MultiGeometry><LineString><tessellate>1</tessellate><coordinates>174.878230,-36.862608 174.878308,-36.862716 174.878394,-36.862838 174.878316,-36.863075 174.878245,-36.863378 174.878244,-36.863531 174.878269,-36.863595 174.878393,-36.863712 174.878498,-36.863849 174.878563,-36.864019 174.878664,-36.864152 174.878792,-36.864270 174.878944,-36.864391 174.879113,-36.864479 174.879640,-36.864598 174.879828,-36.864679</coordinates></LineString><LineString><tessellate>1</tessellate><coordinates>174.879828,-36.864679 174.879926,-36.864508 174.879994,-36.864348 174.880001,-36.864084 174.880032,-36.863870 174.880032,-36.863685 174.880021,-36.863450 174.880036,-36.863331 174.880083,-36.863218 174.880116,-36.863080 174.880125,-36.862906 174.880153,-36.862768 174.880149,-36.862584 174.880162,-36.862513 174.880184,-36.862443 174.880186,-36.862397 174.880185,-36.862359 174.880162,-36.862299 174.880145,-36.862221 174.880139,-36.862083</coordinates></LineString><LineString><tessellate>1</tessellate><coordinates>174.879828,-36.864679 174.879698,-36.864924 174.879689,-36.865024 174.879749,-36.865114 174.879928,-36.865270 174.880343,-36.865435 174.880649,-36.865726 174.880721,-36.865834 174.880745,-36.866018 174.880958,-36.866298 174.881045,-36.866518 174.881543,-36.867364 174.881419,-36.867810 174.881315,-36.867996 174.881209,-36.868206 174.881176,-36.868474 174.881216,-36.868899 174.881468,-36.869347 174.882176,-36.869700 174.882370,-36.869849 174.882437,-36.869867 174.882608,-36.869847 174.882692,-36.869972 174.882804,-36.870234 174.882771,-36.870364 174.882624,-36.870498 174.882688,-36.870579 174.882706,-36.870702 174.882628,-36.870806 174.882412,-36.870906 174.882275,-36.871113 174.882198,-36.871356 174.882200,-36.871612 174.882083,-36.871767 174.881953,-36.871913 174.881702,-36.871972</coordinates></LineString></MultiGeometry></Placemark></Document></kml>