<?xml version='1.0' encoding='utf-8'?>
<kml xmlns="http://www.opengis.net/kml/2.2"><Document><name>Whakanewha / central Waiheke LINZ foot track 14</name><Style id="c"><LineStyle><color>ffff00ff</color><width>5</width></LineStyle></Style><Placemark><name>Whakanewha / central Waiheke LINZ foot track 14</name><description>Sheet row 1474; LINZ t50_fid(s) 3573914,3573915,3593289</description><styleUrl>#c</styleUrl><MultiGeometry><LineString><tessellate>1</tessellate><coordinates>175.072743,-36.814356 175.072503,-36.814194 175.072348,-36.814179 175.072128,-36.814150 175.071829,-36.814188 175.071365,-36.814218 175.071076,-36.814135 175.070879,-36.813952 175.070832,-36.813733 175.070713,-36.813361 175.070556,-36.813100 175.070401,-36.812949 175.070208,-36.812790 175.069967,-36.812682 175.069738,-36.812461 175.069654,-36.812192 175.069471,-36.811934</coordinates></LineString><LineString><tessellate>1</tessellate><coordinates>175.069471,-36.811934 175.069716,-36.812045 175.070011,-36.812176 175.070169,-36.812448 175.070476,-36.812695 175.070879,-36.812919 175.071281,-36.813154 175.071503,-36.813267 175.071740,-36.813420 175.071935,-36.813571 175.072202,-36.813795 175.072463,-36.813971 175.072674,-36.814180 175.072743,-36.814356</coordinates></LineString><LineString><tessellate>1</tessellate><coordinates>175.069304,-36.811840 175.069471,-36.811934</coordinates></LineString></MultiGeometry></Placemark></Document></kml>