<?xml version='1.0' encoding='utf-8'?>
<kml xmlns="http://www.opengis.net/kml/2.2"><Document><name>Algies Bay LINZ foot track 3</name><Style id="c"><LineStyle><color>ffff00ff</color><width>5</width></LineStyle></Style><Placemark><name>Algies Bay LINZ foot track 3</name><description>Sheet row 813; LINZ t50_fid(s) 100053497</description><styleUrl>#c</styleUrl><MultiGeometry><LineString><tessellate>1</tessellate><coordinates>174.740124,-36.434504 174.740395,-36.434398 174.740860,-36.434198 174.740953,-36.434148 174.741143,-36.433994 174.741190,-36.433970 174.741790,-36.433879</coordinates></LineString></MultiGeometry></Placemark></Document></kml>