<?xml version='1.0' encoding='utf-8'?>
<kml xmlns="http://www.opengis.net/kml/2.2"><Document><name>Mairangi Bay LINZ foot track 5</name><Style id="c"><LineStyle><color>ffff00ff</color><width>5</width></LineStyle></Style><Placemark><name>Mairangi Bay LINZ foot track 5</name><description>Sheet row 1093; LINZ t50_fid(s) 100053423</description><styleUrl>#c</styleUrl><MultiGeometry><LineString><tessellate>1</tessellate><coordinates>174.746536,-36.738605 174.746625,-36.738649 174.746767,-36.738617 174.747010,-36.738996 174.747257,-36.739388 174.747669,-36.739973</coordinates></LineString></MultiGeometry></Placemark></Document></kml>