<?xml version='1.0' encoding='utf-8'?>
<kml xmlns="http://www.opengis.net/kml/2.2"><Document><name>Manurewa LINZ foot track 1</name><Style id="c"><LineStyle><color>ffff00ff</color><width>5</width></LineStyle></Style><Placemark><name>Manurewa LINZ foot track 1</name><description>Sheet row 1223; LINZ t50_fid(s) 3554614</description><styleUrl>#c</styleUrl><MultiGeometry><LineString><tessellate>1</tessellate><coordinates>174.885352,-37.031700 174.885343,-37.031704 174.884818,-37.031919 174.883473,-37.032473 174.882943,-37.032625 174.882083,-37.032646 174.880594,-37.029906 174.880591,-37.029899 174.880487,-37.029704 174.880467,-37.029667 174.880190,-37.029156 174.879763,-37.028368 174.879620,-37.028140</coordinates></LineString></MultiGeometry></Placemark></Document></kml>