<?xml version='1.0' encoding='utf-8'?>
<kml xmlns="http://www.opengis.net/kml/2.2"><Document><name>Whakanewha / central Waiheke LINZ foot track 4</name><Style id="c"><LineStyle><color>ffff00ff</color><width>5</width></LineStyle></Style><Placemark><name>Whakanewha / central Waiheke LINZ foot track 4</name><description>Sheet row 995; LINZ t50_fid(s) 3584813</description><styleUrl>#c</styleUrl><MultiGeometry><LineString><tessellate>1</tessellate><coordinates>175.086743,-36.798073 175.086816,-36.797750 175.086826,-36.797406 175.086865,-36.797133 175.086990,-36.796830 175.086931,-36.796644 175.086687,-36.796218 175.086507,-36.795907</coordinates></LineString></MultiGeometry></Placemark></Document></kml>