<?xml version='1.0' encoding='utf-8'?>
<kml xmlns="http://www.opengis.net/kml/2.2"><Document><name>Puhoi / Moirs Hill / Warkworth LINZ foot track 2</name><Style id="c"><LineStyle><color>ffff00ff</color><width>5</width></LineStyle></Style><Placemark><name>Puhoi / Moirs Hill / Warkworth LINZ foot track 2</name><description>Sheet row 1195; LINZ t50_fid(s) 3556032</description><styleUrl>#c</styleUrl><MultiGeometry><LineString><tessellate>1</tessellate><coordinates>174.601926,-36.470292 174.602001,-36.470577 174.602060,-36.470847 174.602227,-36.471174 174.602251,-36.471221 174.602557,-36.471626 174.602805,-36.471963 174.603150,-36.472338 174.603310,-36.472603 174.603448,-36.472893 174.603446,-36.473239 174.603203,-36.473699 174.603056,-36.473951 174.603035,-36.474202 174.602841,-36.474740 174.602863,-36.474937 174.602867,-36.474978 174.603055,-36.475474 174.603228,-36.475946 174.603210,-36.476404 174.603168,-36.476716 174.603036,-36.476876 174.603005,-36.476885 174.602368,-36.477080 174.602405,-36.477467 174.601976,-36.478232 174.601651,-36.478967 174.601722,-36.479684 174.601616,-36.480426 174.601256,-36.481220 174.601057,-36.481792 174.601171,-36.482054 174.601107,-36.482749 174.601101,-36.483015</coordinates></LineString></MultiGeometry></Placemark></Document></kml>