<?xml version='1.0' encoding='utf-8'?>
<kml xmlns="http://www.opengis.net/kml/2.2"><Document><name>Weymouth LINZ foot track 6</name><Style id="c"><LineStyle><color>ffff00ff</color><width>5</width></LineStyle></Style><Placemark><name>Weymouth LINZ foot track 6</name><description>Sheet row 1252; LINZ t50_fid(s) 3592733</description><styleUrl>#c</styleUrl><MultiGeometry><LineString><tessellate>1</tessellate><coordinates>174.858987,-37.022289 174.858982,-37.022299 174.858870,-37.022528 174.858726,-37.022583 174.858478,-37.022715 174.858236,-37.023007 174.858087,-37.023210 174.858133,-37.023458 174.858311,-37.023687</coordinates></LineString></MultiGeometry></Placemark></Document></kml>