<?xml version='1.0' encoding='utf-8'?>
<kml xmlns="http://www.opengis.net/kml/2.2"><Document><name>Beach Haven LINZ foot track 4</name><Style id="c"><LineStyle><color>ffff00ff</color><width>5</width></LineStyle></Style><Placemark><name>Beach Haven LINZ foot track 4</name><description>Sheet row 1375; LINZ t50_fid(s) 3593150</description><styleUrl>#c</styleUrl><MultiGeometry><LineString><tessellate>1</tessellate><coordinates>174.693335,-36.806290 174.692240,-36.806942 174.691523,-36.807056 174.691507,-36.807059</coordinates></LineString></MultiGeometry></Placemark></Document></kml>