<?xml version='1.0' encoding='utf-8'?>
<kml xmlns="http://www.opengis.net/kml/2.2"><Document><name>West Harbour LINZ foot track 1</name><Style id="c"><LineStyle><color>ffff00ff</color><width>5</width></LineStyle></Style><Placemark><name>West Harbour LINZ foot track 1</name><description>Sheet row 1091; LINZ t50_fid(s) 8520986</description><styleUrl>#c</styleUrl><MultiGeometry><LineString><tessellate>1</tessellate><coordinates>174.619707,-36.787587 174.619834,-36.787549 174.619927,-36.787518 174.620018,-36.787487 174.620142,-36.787450 174.620360,-36.787385 174.620554,-36.787327 174.620666,-36.787295 174.620701,-36.787282 174.620721,-36.787272 174.620734,-36.787266 174.620763,-36.787246 174.620825,-36.787202 174.620936,-36.787117 174.620990,-36.787071 174.621036,-36.787026 174.621069,-36.786994 174.621098,-36.786960 174.621114,-36.786913 174.621126,-36.786866 174.621112,-36.786777 174.621108,-36.786733 174.621108,-36.786688 174.621114,-36.786621 174.621113,-36.786553 174.621108,-36.786512</coordinates></LineString></MultiGeometry></Placemark></Document></kml>