<?xml version='1.0' encoding='utf-8'?>
<kml xmlns="http://www.opengis.net/kml/2.2"><Document><name>Devonport LINZ foot track 2</name><Style id="c"><LineStyle><color>ffff00ff</color><width>5</width></LineStyle></Style><Placemark><name>Devonport LINZ foot track 2</name><description>Sheet row 883; LINZ t50_fid(s) 3593230</description><styleUrl>#c</styleUrl><MultiGeometry><LineString><tessellate>1</tessellate><coordinates>174.793162,-36.811177 174.792817,-36.811105 174.791581,-36.811345</coordinates></LineString></MultiGeometry></Placemark></Document></kml>