<?xml version='1.0' encoding='utf-8'?>
<kml xmlns="http://www.opengis.net/kml/2.2"><Document><name>Great Barrier Island LINZ foot track 1</name><Style id="c"><LineStyle><color>ffff00ff</color><width>5</width></LineStyle></Style><Placemark><name>Great Barrier Island LINZ foot track 1</name><description>Sheet row 989; LINZ t50_fid(s) 3555007</description><styleUrl>#c</styleUrl><MultiGeometry><LineString><tessellate>1</tessellate><coordinates>175.486962,-36.183404 175.486639,-36.183572 175.486383,-36.183664 175.486208,-36.183673 175.485871,-36.183612 175.485511,-36.183552 175.485018,-36.183630 175.484736,-36.183611 175.484439,-36.183624 175.484151,-36.183685 175.483903,-36.183783 175.483601,-36.183876 175.483323,-36.183987 175.482913,-36.184044 175.482592,-36.184008 175.482344,-36.183877 175.482141,-36.183715 175.482029,-36.183556 175.481820,-36.183443 175.481523,-36.183449 175.481209,-36.183635 175.480902,-36.183827 175.480524,-36.183909 175.480197,-36.183928 175.479966,-36.183865 175.479741,-36.183715 175.479568,-36.183546 175.479368,-36.183494 175.479010,-36.183495 175.478796,-36.183469 175.478679,-36.183340 175.478676,-36.183336</coordinates></LineString></MultiGeometry></Placemark></Document></kml>