<?xml version='1.0' encoding='utf-8'?>
<kml xmlns="http://www.opengis.net/kml/2.2"><Document><name>Waitākere Ranges LINZ foot track 2</name><Style id="c"><LineStyle><color>ffff00ff</color><width>5</width></LineStyle></Style><Placemark><name>Waitākere Ranges LINZ foot track 2</name><description>Sheet row 1346; LINZ t50_fid(s) 3584288</description><styleUrl>#c</styleUrl><MultiGeometry><LineString><tessellate>1</tessellate><coordinates>174.631888,-36.912335 174.632783,-36.912505 174.632979,-36.912523 174.633075,-36.912491 174.633134,-36.912392 174.633346,-36.911705 174.633354,-36.911551 174.633306,-36.911335</coordinates></LineString></MultiGeometry></Placemark></Document></kml>