<?xml version='1.0' encoding='utf-8'?>
<kml xmlns="http://www.opengis.net/kml/2.2"><Document><name>Devonport LINZ foot track 4</name><Style id="c"><LineStyle><color>ffff00ff</color><width>5</width></LineStyle></Style><Placemark><name>Devonport LINZ foot track 4</name><description>Sheet row 911; LINZ t50_fid(s) 3593234</description><styleUrl>#c</styleUrl><MultiGeometry><LineString><tessellate>1</tessellate><coordinates>174.793923,-36.810844 174.794097,-36.810885 174.795132,-36.810697</coordinates></LineString></MultiGeometry></Placemark></Document></kml>