<?xml version='1.0' encoding='utf-8'?>
<kml xmlns="http://www.opengis.net/kml/2.2"><Document><name>Unsworth Heights LINZ foot track 2</name><Style id="c"><LineStyle><color>ffff00ff</color><width>5</width></LineStyle></Style><Placemark><name>Unsworth Heights LINZ foot track 2</name><description>Sheet row 1033; LINZ t50_fid(s) 8520891,8520892,8520940,8521010</description><styleUrl>#c</styleUrl><MultiGeometry><LineString><tessellate>1</tessellate><coordinates>174.716772,-36.759074 174.716719,-36.759061 174.716672,-36.759008 174.716606,-36.758748 174.716554,-36.758618 174.716450,-36.758385 174.716358,-36.758213 174.716282,-36.758106 174.716248,-36.758042 174.716162,-36.757922 174.716090,-36.757781 174.715804,-36.756927 174.715763,-36.756768 174.715669,-36.756569 174.715633,-36.756277 174.715557,-36.756290 174.715447,-36.756220 174.715409,-36.756179 174.715370,-36.756065 174.715339,-36.756012 174.715239,-36.755917 174.715168,-36.755840 174.715061,-36.755676 174.714929,-36.755507 174.714756,-36.755343</coordinates></LineString><LineString><tessellate>1</tessellate><coordinates>174.717708,-36.759590 174.717925,-36.759507 174.718000,-36.759499 174.718426,-36.759889 174.718502,-36.759933 174.718502,-36.759936 174.718554,-36.759926 174.718660,-36.759867 174.719740,-36.759177 174.719711,-36.759139 174.719790,-36.759100 174.719841,-36.759092 174.719973,-36.759132 174.720060,-36.759115 174.720198,-36.759055</coordinates></LineString><LineString><tessellate>1</tessellate><coordinates>174.718719,-36.761646 174.718690,-36.761522 174.718693,-36.761471 174.718737,-36.761409 174.718750,-36.761365 174.718746,-36.761316 174.718730,-36.761274 174.718677,-36.761190 174.718566,-36.761083 174.718221,-36.760747 174.717961,-36.760485 174.717899,-36.760406 174.717858,-36.760324 174.717849,-36.760253 174.717861,-36.760157 174.717863,-36.760029 174.717844,-36.759949 174.717803,-36.759829 174.717744,-36.759675 174.717708,-36.759590 174.717599,-36.759326 174.717466,-36.759124 174.717347,-36.758987 174.717240,-36.758939 174.717160,-36.758944 174.717052,-36.758974 174.716846,-36.759062 174.716772,-36.759074</coordinates></LineString><LineString><tessellate>1</tessellate><coordinates>174.715602,-36.760052 174.715799,-36.760057 174.715882,-36.760050 174.715915,-36.760035 174.715963,-36.760004 174.716030,-36.759950 174.716089,-36.759881 174.716442,-36.759421 174.716541,-36.759295 174.716638,-36.759201 174.716765,-36.759099 174.716772,-36.759074</coordinates></LineString></MultiGeometry></Placemark></Document></kml>