<?xml version='1.0' encoding='utf-8'?>
<kml xmlns="http://www.opengis.net/kml/2.2"><Document><name>Bombay LINZ foot track 2</name><Style id="c"><LineStyle><color>ffff00ff</color><width>5</width></LineStyle></Style><Placemark><name>Bombay LINZ foot track 2</name><description>Sheet row 982; LINZ t50_fid(s) 8405449</description><styleUrl>#c</styleUrl><MultiGeometry><LineString><tessellate>1</tessellate><coordinates>175.055580,-37.219945 175.055934,-37.219863 175.056149,-37.220000 175.056375,-37.220744 175.057235,-37.221197 175.064598,-37.219979 175.064311,-37.218727 175.069267,-37.217913</coordinates></LineString></MultiGeometry></Placemark></Document></kml>