<?xml version='1.0' encoding='utf-8'?>
<kml xmlns="http://www.opengis.net/kml/2.2"><Document><name>Māngere Bridge LINZ foot track 3</name><Style id="c"><LineStyle><color>ffff00ff</color><width>5</width></LineStyle></Style><Placemark><name>Māngere Bridge LINZ foot track 3</name><description>Sheet row 857; LINZ t50_fid(s) 3593697</description><styleUrl>#c</styleUrl><MultiGeometry><LineString><tessellate>1</tessellate><coordinates>174.792891,-36.945429 174.792845,-36.945456 174.792860,-36.945554 174.792917,-36.945630 174.793017,-36.945917 174.793002,-36.945919 174.792921,-36.945932 174.792778,-36.945453 174.792501,-36.945516 174.792269,-36.945569 174.792416,-36.946043 174.792338,-36.946061 174.792280,-36.946074 174.792124,-36.945642 174.792054,-36.945583</coordinates></LineString></MultiGeometry></Placemark></Document></kml>