<?xml version='1.0' encoding='utf-8'?>
<kml xmlns="http://www.opengis.net/kml/2.2"><Document><name>Albany LINZ foot track 3</name><Style id="c"><LineStyle><color>ffff00ff</color><width>5</width></LineStyle></Style><Placemark><name>Albany LINZ foot track 3</name><description>Sheet row 1044; LINZ t50_fid(s) 8520941,8521024,8521025,8521026</description><styleUrl>#c</styleUrl><MultiGeometry><LineString><tessellate>1</tessellate><coordinates>174.708733,-36.725760 174.709756,-36.725746 174.709891,-36.725912 174.709945,-36.726035 174.709971,-36.726168 174.709968,-36.726299 174.709944,-36.726405 174.709833,-36.726545 174.709704,-36.726662 174.709572,-36.726749 174.709397,-36.726843 174.709250,-36.726903 174.709113,-36.726937 174.708974,-36.726964 174.708766,-36.726976</coordinates></LineString><LineString><tessellate>1</tessellate><coordinates>174.708766,-36.726976 174.708178,-36.726994 174.708011,-36.726976 174.707853,-36.726923 174.707723,-36.726847 174.707621,-36.726765 174.707536,-36.726684 174.707468,-36.726586 174.707409,-36.726469 174.707381,-36.726368 174.707381,-36.726251 174.707405,-36.726147 174.707465,-36.726034 174.707543,-36.725948 174.707610,-36.725894 174.707720,-36.725837 174.707825,-36.725806 174.707939,-36.725788 174.708062,-36.725781 174.708733,-36.725760</coordinates></LineString><LineString><tessellate>1</tessellate><coordinates>174.708766,-36.726976 174.708762,-36.726686 174.708761,-36.726648 174.708748,-36.726048 174.708733,-36.725760</coordinates></LineString><LineString><tessellate>1</tessellate><coordinates>174.708766,-36.726976 174.708770,-36.727250 174.708690,-36.727521</coordinates></LineString></MultiGeometry></Placemark></Document></kml>