<?xml version='1.0' encoding='utf-8'?>
<kml xmlns="http://www.opengis.net/kml/2.2"><Document><name>Whakanewha / central Waiheke LINZ foot track 1</name><Style id="c"><LineStyle><color>ffff00ff</color><width>5</width></LineStyle></Style><Placemark><name>Whakanewha / central Waiheke LINZ foot track 1</name><description>Sheet row 929; LINZ t50_fid(s) 7878453</description><styleUrl>#c</styleUrl><MultiGeometry><LineString><tessellate>1</tessellate><coordinates>175.111318,-36.814888 175.111281,-36.814876 175.111193,-36.814857 175.110902,-36.814799 175.110613,-36.814812 175.110329,-36.814806 175.110052,-36.814731 175.109816,-36.814589 175.109577,-36.814460 175.109359,-36.814370 175.109653,-36.814241 175.109898,-36.814128 175.109634,-36.814034 175.109365,-36.813952 175.109097,-36.813881 175.108815,-36.813859 175.108533,-36.813817 175.108266,-36.813741 175.108032,-36.813613 175.107839,-36.813446 175.107589,-36.813340 175.107319,-36.813271 175.107052,-36.813199 175.106791,-36.813098 175.106539,-36.812990 175.106293,-36.812875 175.106189,-36.812653 175.106122,-36.812425 175.106064,-36.812203 175.106007,-36.811976 175.105929,-36.811757 175.105844,-36.811526 175.105770,-36.811293 175.105676,-36.811071 175.105578,-36.810855 175.105489,-36.810635 175.105402,-36.810410 175.105325,-36.810189 175.105229,-36.809972 175.105138,-36.809757 175.104999,-36.809543 175.104802,-36.809377 175.104577,-36.809215 175.104374,-36.809057 175.104159,-36.808890 175.104106,-36.808660 175.104130,-36.808430 175.104138,-36.808185 175.104160,-36.807955 175.103929,-36.807820 175.103657,-36.807754 175.103379,-36.807713 175.103112,-36.807640 175.102831,-36.807583 175.102550,-36.807555 175.102274,-36.807473 175.101997,-36.807418 175.101722,-36.807350 175.101436,-36.807326 175.101171,-36.807238 175.100880,-36.807192 175.100602,-36.807120 175.100338,-36.807041 175.100061,-36.806981 175.099781,-36.806902 175.099507,-36.806840 175.099237,-36.806764 175.098962,-36.806706 175.098682,-36.806645 175.098398,-36.806585 175.098109,-36.806522 175.097844,-36.806444 175.097570,-36.806390 175.097297,-36.806328 175.097012,-36.806302 175.096730,-36.806239 175.096446,-36.806212 175.096484,-36.806435 175.096584,-36.806660 175.096565,-36.806887 175.096460,-36.807109 175.096183,-36.807039 175.095987,-36.806871 175.095794,-36.806704 175.095553,-36.806581 175.095273,-36.806538 175.095014,-36.806448 175.094728,-36.806396 175.094469,-36.806308 175.094196,-36.806241 175.093922,-36.806172 175.093648,-36.806096 175.093418,-36.805956 175.093199,-36.805814 175.093058,-36.805613 175.092873,-36.805437 175.092613,-36.805346 175.092331,-36.805310 175.092033,-36.805285 175.091746,-36.805267 175.091458,-36.805274 175.091171,-36.805291 175.090883,-36.805331 175.090600,-36.805349 175.090319,-36.805376 175.090035,-36.805391 175.089749,-36.805394 175.089459,-36.805386 175.089171,-36.805316 175.088899,-36.805245 175.088607,-36.805288 175.088370,-36.805167 175.088138,-36.805022 175.087929,-36.804871 175.087754,-36.804679 175.087628,-36.804471 175.087404,-36.804316 175.087123,-36.804273 175.086843,-36.804205 175.086569,-36.804122 175.086350,-36.804065 175.086347,-36.804064</coordinates></LineString></MultiGeometry></Placemark></Document></kml>