<?xml version='1.0' encoding='utf-8'?>
<kml xmlns="http://www.opengis.net/kml/2.2"><Document><name>Karamuramu Island LINZ foot track 3</name><Style id="c"><LineStyle><color>ffff00ff</color><width>5</width></LineStyle></Style><Placemark><name>Karamuramu Island LINZ foot track 3</name><description>Sheet row 1010; LINZ t50_fid(s) 8405864,8405865,8405938</description><styleUrl>#c</styleUrl><MultiGeometry><LineString><tessellate>1</tessellate><coordinates>175.140415,-36.938748 175.140579,-36.938572 175.140657,-36.938522 175.140671,-36.938495 175.140677,-36.938438 175.140693,-36.938405 175.140733,-36.938390 175.140783,-36.938379 175.140809,-36.938359 175.140855,-36.938313 175.140894,-36.938253 175.140916,-36.938239 175.140966,-36.938206 175.141056,-36.938173 175.141288,-36.938118 175.141405,-36.938073 175.141566,-36.938051 175.142057,-36.938037 175.142159,-36.938011 175.142410,-36.937938 175.142500,-36.937921 175.142652,-36.937911 175.142776,-36.937888 175.142915,-36.937882 175.143029,-36.937894 175.143152,-36.937921 175.143283,-36.937931 175.143352,-36.937937 175.143519,-36.937921 175.143623,-36.937928</coordinates></LineString><LineString><tessellate>1</tessellate><coordinates>175.140106,-36.936791 175.140069,-36.936885 175.140049,-36.936930 175.139921,-36.937012 175.139852,-36.937074 175.139854,-36.937128 175.139884,-36.937260 175.139873,-36.937350 175.139857,-36.937426 175.139830,-36.937492 175.139839,-36.937546 175.139896,-36.937618 175.139894,-36.937715 175.139932,-36.937763 175.139954,-36.937823 175.139986,-36.937845 175.140031,-36.937853 175.140154,-36.937857 175.140272,-36.937884 175.140384,-36.937878 175.140499,-36.937868 175.140632,-36.937857 175.140777,-36.937812 175.140884,-36.937821 175.140989,-36.937808 175.141065,-36.937824 175.141149,-36.937858 175.141194,-36.937861 175.141272,-36.937858 175.141451,-36.937892 175.141516,-36.937900 175.141567,-36.937916 175.141640,-36.937924 175.141647,-36.937940 175.141634,-36.937956 175.141534,-36.937945 175.141474,-36.937953 175.141402,-36.937982 175.141311,-36.937992 175.141269,-36.938001 175.141192,-36.938035 175.141099,-36.938037 175.141009,-36.938072 175.140952,-36.938071 175.140883,-36.938070 175.140850,-36.938080 175.140831,-36.938115 175.140840,-36.938167 175.140862,-36.938197 175.140916,-36.938239</coordinates></LineString><LineString><tessellate>1</tessellate><coordinates>175.142991,-36.936739 175.143024,-36.936808 175.143014,-36.936895 175.143055,-36.936931 175.143063,-36.937000 175.142741,-36.937008 175.142572,-36.937029 175.142527,-36.937057 175.142497,-36.937104 175.142517,-36.937158 175.142556,-36.937207 175.142696,-36.937293 175.142793,-36.937447 175.142931,-36.937550 175.143134,-36.937660 175.143185,-36.937736 175.143190,-36.937805 175.143282,-36.937897 175.143283,-36.937931</coordinates></LineString></MultiGeometry></Placemark></Document></kml>