<?xml version='1.0' encoding='utf-8'?>
<kml xmlns="http://www.opengis.net/kml/2.2"><Document><name>Te Atatū South LINZ foot track 6</name><Style id="c"><LineStyle><color>ffff00ff</color><width>5</width></LineStyle></Style><Placemark><name>Te Atatū South LINZ foot track 6</name><description>Sheet row 1392; LINZ t50_fid(s) 3592918</description><styleUrl>#c</styleUrl><MultiGeometry><LineString><tessellate>1</tessellate><coordinates>174.652176,-36.882762 174.652237,-36.882641 174.652279,-36.882396 174.652364,-36.882188 174.652426,-36.882072 174.652656,-36.881781 174.652689,-36.881686</coordinates></LineString></MultiGeometry></Placemark></Document></kml>