<?xml version='1.0' encoding='utf-8'?>
<kml xmlns="http://www.opengis.net/kml/2.2"><Document><name>Unsworth Heights LINZ foot track 8</name><Style id="c"><LineStyle><color>ffff00ff</color><width>5</width></LineStyle></Style><Placemark><name>Unsworth Heights LINZ foot track 8</name><description>Sheet row 1092; LINZ t50_fid(s) 8467002</description><styleUrl>#c</styleUrl><MultiGeometry><LineString><tessellate>1</tessellate><coordinates>174.722902,-36.766963 174.723136,-36.766967 174.723453,-36.766953 174.723497,-36.766953 174.723536,-36.766966 174.723576,-36.766997 174.723606,-36.767035 174.723663,-36.767095 174.723846,-36.767205 174.723956,-36.767284 174.724007,-36.767305 174.724119,-36.767328 174.724244,-36.767342 174.724401,-36.767360 174.724467,-36.767372 174.724572,-36.767401 174.724731,-36.767418 174.724890,-36.767443</coordinates></LineString></MultiGeometry></Placemark></Document></kml>