<?xml version='1.0' encoding='utf-8'?>
<kml xmlns="http://www.opengis.net/kml/2.2"><Document><name>Stony Batter / Opopo Bay, Waiheke LINZ foot track 1</name><Style id="c"><LineStyle><color>ffff00ff</color><width>5</width></LineStyle></Style><Placemark><name>Stony Batter / Opopo Bay, Waiheke LINZ foot track 1</name><description>Sheet row 1308; LINZ t50_fid(s) 7879950</description><styleUrl>#c</styleUrl><MultiGeometry><LineString><tessellate>1</tessellate><coordinates>175.174851,-36.759856 175.174835,-36.759933 175.174902,-36.760526 175.175032,-36.761088 175.175180,-36.761421 175.175431,-36.761792 175.175846,-36.762201 175.176109,-36.762567 175.176160,-36.762785 175.176129,-36.763045 175.176064,-36.763203 175.176026,-36.763319</coordinates></LineString></MultiGeometry></Placemark></Document></kml>