<?xml version='1.0' encoding='utf-8'?>
<kml xmlns="http://www.opengis.net/kml/2.2"><Document><name>Karamuramu Island LINZ foot track 2</name><Style id="c"><LineStyle><color>ffff00ff</color><width>5</width></LineStyle></Style><Placemark><name>Karamuramu Island LINZ foot track 2</name><description>Sheet row 1009; LINZ t50_fid(s) 8405715</description><styleUrl>#c</styleUrl><MultiGeometry><LineString><tessellate>1</tessellate><coordinates>175.142002,-36.941977 175.141956,-36.941940 175.141927,-36.941895 175.141850,-36.941861 175.141810,-36.941820 175.141788,-36.941758 175.141776,-36.941677 175.141790,-36.941627 175.141830,-36.941544 175.141832,-36.941512 175.141813,-36.941487 175.141764,-36.941454 175.141658,-36.941428 175.141559,-36.941414 175.141408,-36.941407 175.141292,-36.941389 175.141143,-36.941318 175.140982,-36.941291 175.140871,-36.941253 175.140787,-36.941202 175.140728,-36.941125 175.140670,-36.941067 175.140641,-36.941010 175.140587,-36.940846 175.140535,-36.940769 175.140505,-36.940702 175.140493,-36.940640 175.140490,-36.940595 175.140517,-36.940173 175.140540,-36.940120 175.140628,-36.940061 175.140688,-36.940012 175.140783,-36.939964 175.140890,-36.939924 175.140939,-36.939872 175.140974,-36.939815 175.141021,-36.939735 175.141104,-36.939702 175.141142,-36.939676 175.141172,-36.939629 175.141174,-36.939593 175.141132,-36.939553 175.141129,-36.939510 175.141142,-36.939378 175.141163,-36.939297 175.141159,-36.939241 175.141111,-36.939168 175.141107,-36.939118 175.141123,-36.939074 175.141185,-36.938997 175.141230,-36.938935 175.141250,-36.938874 175.141320,-36.938846 175.141375,-36.938834 175.141426,-36.938833 175.141465,-36.938841 175.141530,-36.938858 175.141599,-36.938851 175.141704,-36.938836 175.141777,-36.938816 175.141922,-36.938798 175.142015,-36.938780 175.142064,-36.938759 175.142083,-36.938750 175.142106,-36.938747 175.142174,-36.938785 175.142256,-36.938790 175.142395,-36.938767 175.142490,-36.938747 175.142548,-36.938707 175.142579,-36.938656 175.142602,-36.938594 175.142608,-36.938534 175.142610,-36.938424 175.142612,-36.938406 175.142664,-36.938368 175.142713,-36.938346 175.142800,-36.938271 175.142849,-36.938241 175.142904,-36.938233 175.142971,-36.938241 175.143070,-36.938262 175.143149,-36.938291 175.143215,-36.938299 175.143312,-36.938299 175.143437,-36.938285 175.143514,-36.938280 175.143528,-36.938296 175.143511,-36.938327 175.143432,-36.938407 175.143388,-36.938488 175.143347,-36.938573 175.143348,-36.938600 175.143370,-36.938621 175.143404,-36.938648 175.143458,-36.938664 175.143591,-36.938655 175.143683,-36.938644 175.143746,-36.938645 175.143859,-36.938692 175.143946,-36.938798 175.143960,-36.938836 175.143923,-36.938893 175.143904,-36.938975 175.143845,-36.939123 175.143754,-36.939420 175.143719,-36.939523 175.143564,-36.939843 175.143439,-36.940063 175.143343,-36.940220 175.143275,-36.940346 175.143178,-36.940589 175.143029,-36.940850 175.142904,-36.941028 175.142749,-36.941237 175.142636,-36.941417 175.142590,-36.941476 175.142514,-36.941564 175.142447,-36.941671 175.142340,-36.941860 175.142243,-36.941966 175.142160,-36.941987 175.142104,-36.941978 175.142052,-36.941989 175.142002,-36.941977</coordinates></LineString></MultiGeometry></Placemark></Document></kml>