<?xml version='1.0' encoding='utf-8'?>
<kml xmlns="http://www.opengis.net/kml/2.2"><Document><name>Rotoroa Island LINZ foot track 2</name><Style id="c"><LineStyle><color>ffff00ff</color><width>5</width></LineStyle></Style><Placemark><name>Rotoroa Island LINZ foot track 2</name><description>Sheet row 934; LINZ t50_fid(s) 3554697</description><styleUrl>#c</styleUrl><MultiGeometry><LineString><tessellate>1</tessellate><coordinates>175.147752,-36.844398 175.147460,-36.844410 175.147169,-36.844444 175.146863,-36.844594 175.146643,-36.844783 175.146525,-36.845063 175.145939,-36.845479 175.145950,-36.845654 175.145737,-36.845888 175.145609,-36.846082 175.145481,-36.846292 175.145296,-36.846487 175.145062,-36.846676 175.144758,-36.846854 175.144733,-36.847185 175.144467,-36.847466 175.144139,-36.847403 175.144335,-36.847068 175.144066,-36.846632 175.143806,-36.846526 175.142931,-36.846304 175.142441,-36.846144 175.142013,-36.846006 175.141363,-36.846002 175.140879,-36.846078 175.140524,-36.846191 175.139907,-36.846376 175.139755,-36.846489 175.139294,-36.846566 175.138795,-36.846520 175.138558,-36.846385 175.138149,-36.846090 175.137777,-36.845683 175.137976,-36.845445 175.138122,-36.845406 175.138858,-36.845428 175.139016,-36.845383</coordinates></LineString></MultiGeometry></Placemark></Document></kml>