<?xml version='1.0' encoding='utf-8'?>
<kml xmlns="http://www.opengis.net/kml/2.2"><Document><name>Henderson / Swanson LINZ foot track 1</name><Style id="c"><LineStyle><color>ffff00ff</color><width>5</width></LineStyle></Style><Placemark><name>Henderson / Swanson LINZ foot track 1</name><description>Sheet row 1365; LINZ t50_fid(s) 8466367</description><styleUrl>#c</styleUrl><MultiGeometry><LineString><tessellate>1</tessellate><coordinates>174.637802,-36.838094 174.637746,-36.838184 174.637742,-36.838327 174.637711,-36.838510 174.637690,-36.838597 174.637665,-36.838637 174.637610,-36.838693 174.637543,-36.838745 174.637478,-36.838781 174.637389,-36.838805 174.637293,-36.838816 174.637199,-36.838815 174.637089,-36.838826 174.636986,-36.838816 174.636880,-36.838793 174.636618,-36.838705 174.636471,-36.838669 174.636359,-36.838654 174.636298,-36.838660 174.636221,-36.838684 174.636107,-36.838734 174.635968,-36.838829 174.635834,-36.838891 174.635726,-36.838924 174.635612,-36.838937 174.635487,-36.838935 174.635365,-36.838918 174.635252,-36.838886 174.635122,-36.838846 174.634986,-36.838831 174.634758,-36.838836 174.634651,-36.838858 174.634525,-36.838909 174.634368,-36.838996 174.634238,-36.839092 174.634160,-36.839138 174.634083,-36.839164 174.633989,-36.839188 174.633880,-36.839206 174.633755,-36.839213 174.633692,-36.839224 174.633676,-36.839248 174.633697,-36.839327 174.633723,-36.839363 174.633727,-36.839410 174.633690,-36.839452 174.633580,-36.839548 174.633521,-36.839650 174.633460,-36.839764 174.633398,-36.839995 174.633361,-36.840175 174.633343,-36.840351 174.633352,-36.840652 174.633359,-36.840832 174.633358,-36.840919 174.633334,-36.841060 174.633349,-36.841140 174.633383,-36.841181 174.633442,-36.841193 174.633556,-36.841200 174.633621,-36.841206 174.633694,-36.841242 174.633798,-36.841314 174.633965,-36.841419 174.634110,-36.841475 174.634299,-36.841507 174.634477,-36.841568 174.634609,-36.841637 174.634684,-36.841734 174.634754,-36.841887 174.634910,-36.842203 174.634985,-36.842300 174.635081,-36.842379 174.635242,-36.842492 174.635307,-36.842567 174.635377,-36.842688 174.635463,-36.842753 174.635565,-36.842807 174.635755,-36.842890 174.635845,-36.842950 174.636077,-36.843066 174.636293,-36.843173 174.636509,-36.843270 174.636698,-36.843301 174.636931,-36.843316 174.637071,-36.843314 174.637358,-36.843295 174.637591,-36.843281 174.637765,-36.843240 174.637914,-36.843187 174.638006,-36.843137 174.638062,-36.843098 174.638150,-36.842998</coordinates></LineString></MultiGeometry></Placemark></Document></kml>