<?xml version='1.0' encoding='utf-8'?>
<kml xmlns="http://www.opengis.net/kml/2.2"><Document><name>Hūnua Falls LINZ foot track 2</name><Style id="c"><LineStyle><color>ffff00ff</color><width>5</width></LineStyle></Style><Placemark><name>Hūnua Falls LINZ foot track 2</name><description>Sheet row 1002; LINZ t50_fid(s) 6097596</description><styleUrl>#c</styleUrl><MultiGeometry><LineString><tessellate>1</tessellate><coordinates>175.072923,-37.037698 175.072688,-37.037917 175.072608,-37.038105 175.072602,-37.038283 175.072838,-37.038771 175.073026,-37.039065 175.073179,-37.039303 175.073248,-37.039410 175.073271,-37.039454 175.073537,-37.039856 175.074045,-37.040454 175.074329,-37.041052 175.074387,-37.041080 175.074391,-37.041136 175.074997,-37.041699 175.075370,-37.042093 175.075581,-37.042321 175.076080,-37.042858 175.076552,-37.043420 175.077687,-37.044436 175.077989,-37.044874 175.078158,-37.045312 175.078333,-37.046467 175.078496,-37.046588 175.078675,-37.046661 175.079110,-37.046619 175.079163,-37.046587 175.079276,-37.046516</coordinates></LineString></MultiGeometry></Placemark></Document></kml>