<?xml version='1.0' encoding='utf-8'?>
<kml xmlns="http://www.opengis.net/kml/2.2"><Document><name>Northcote LINZ foot track 8</name><Style id="c"><LineStyle><color>ffff00ff</color><width>5</width></LineStyle></Style><Placemark><name>Northcote LINZ foot track 8</name><description>Sheet row 1157; LINZ t50_fid(s) 3593207</description><styleUrl>#c</styleUrl><MultiGeometry><LineString><tessellate>1</tessellate><coordinates>174.746000,-36.793576 174.745841,-36.793443 174.745706,-36.793342 174.745533,-36.793194 174.745157,-36.792773</coordinates></LineString></MultiGeometry></Placemark></Document></kml>