<?xml version='1.0' encoding='utf-8'?>
<kml xmlns="http://www.opengis.net/kml/2.2"><Document><name>Glenfield LINZ foot track 3</name><Style id="c"><LineStyle><color>ffff00ff</color><width>5</width></LineStyle></Style><Placemark><name>Glenfield LINZ foot track 3</name><description>Sheet row 1084; LINZ t50_fid(s) 3584740</description><styleUrl>#c</styleUrl><MultiGeometry><LineString><tessellate>1</tessellate><coordinates>174.711901,-36.785061 174.711902,-36.784875 174.711866,-36.784810 174.711780,-36.784654 174.711389,-36.784223 174.710942,-36.783914 174.710717,-36.783694 174.710658,-36.783529 174.710737,-36.783390</coordinates></LineString></MultiGeometry></Placemark></Document></kml>