<?xml version='1.0' encoding='utf-8'?>
<kml xmlns="http://www.opengis.net/kml/2.2"><Document><name>Ōrākei LINZ foot track 1</name><Style id="c"><LineStyle><color>ffff00ff</color><width>5</width></LineStyle></Style><Placemark><name>Ōrākei LINZ foot track 1</name><description>Sheet row 858; LINZ t50_fid(s) 3584759</description><styleUrl>#c</styleUrl><MultiGeometry><LineString><tessellate>1</tessellate><coordinates>174.817687,-36.852783 174.818151,-36.852131 174.818572,-36.851746 174.818800,-36.851619 174.818988,-36.851538 174.819325,-36.851427 174.819789,-36.851401 174.819991,-36.851340</coordinates></LineString></MultiGeometry></Placemark></Document></kml>