<?xml version='1.0' encoding='utf-8'?>
<kml xmlns="http://www.opengis.net/kml/2.2"><Document><name>Whakanewha / central Waiheke LINZ foot track 2</name><Style id="c"><LineStyle><color>ffff00ff</color><width>5</width></LineStyle></Style><Placemark><name>Whakanewha / central Waiheke LINZ foot track 2</name><description>Sheet row 930; LINZ t50_fid(s) 7878812</description><styleUrl>#c</styleUrl><MultiGeometry><LineString><tessellate>1</tessellate><coordinates>175.127429,-36.821268 175.127166,-36.821244 175.126880,-36.821200 175.126712,-36.821006 175.126481,-36.820868 175.126185,-36.820829 175.125889,-36.820825 175.125607,-36.820868 175.125304,-36.820878 175.125003,-36.820871 175.124732,-36.820811 175.124587,-36.820617 175.124308,-36.820650 175.124137,-36.820830 175.123862,-36.820886 175.123924,-36.820692 175.123842,-36.820675 175.123722,-36.820723 175.123558,-36.820887 175.123356,-36.821130 175.123164,-36.821146 175.122978,-36.821123 175.122879,-36.821028 175.122742,-36.820708 175.122637,-36.820684 175.122340,-36.820696 175.122076,-36.820758 175.121844,-36.820801 175.121538,-36.820755 175.121479,-36.820653 175.121475,-36.820524 175.121656,-36.820365 175.122029,-36.820223 175.122490,-36.820047 175.122473,-36.819909 175.122443,-36.819918 175.122147,-36.819935 175.121892,-36.820031 175.121611,-36.820055 175.121313,-36.820080 175.121089,-36.820217 175.120803,-36.820189 175.120541,-36.820096 175.120606,-36.819868 175.120861,-36.819758 175.121129,-36.819670 175.121403,-36.819599 175.121683,-36.819525 175.121725,-36.819297 175.121495,-36.819165 175.121208,-36.819137 175.120919,-36.819206 175.120641,-36.819253 175.120364,-36.819214 175.120097,-36.819170 175.120000,-36.819163 175.119913,-36.819216 175.119862,-36.819304 175.119780,-36.819321 175.119713,-36.819359 175.119711,-36.819435 175.119662,-36.819484 175.119611,-36.819568 175.119675,-36.819644 175.119621,-36.819716 175.119615,-36.819806 175.119566,-36.819946 175.119552,-36.820044 175.119465,-36.820101 175.119351,-36.820103 175.119064,-36.820046 175.118798,-36.819942 175.118606,-36.820110 175.118352,-36.820185 175.118340,-36.820188 175.118070,-36.820267 175.117796,-36.820333 175.117608,-36.820150 175.117344,-36.820064 175.117107,-36.819934 175.116853,-36.819810 175.116564,-36.819765 175.116301,-36.819655 175.116005,-36.819628 175.115720,-36.819625 175.115431,-36.819611 175.115152,-36.819640 175.114863,-36.819638 175.114708,-36.819677 175.114592,-36.819707 175.114402,-36.819884 175.114199,-36.820040 175.113942,-36.820134 175.113658,-36.820128 175.113391,-36.820051 175.113137,-36.819954 175.112872,-36.819869 175.112608,-36.819776 175.112536,-36.819767 175.112385,-36.819768 175.112224,-36.819793 175.112088,-36.819839 175.111966,-36.819940 175.111736,-36.820068 175.111644,-36.820058 175.111413,-36.820037 175.111320,-36.819970 175.111103,-36.819845 175.110694,-36.819562 175.110593,-36.819396 175.110563,-36.819262 175.110578,-36.819083 175.110359,-36.818948 175.110217,-36.818874 175.109993,-36.818720 175.109752,-36.818600 175.109494,-36.818480 175.109262,-36.818344 175.109013,-36.818221 175.108771,-36.818096 175.108519,-36.817975 175.108418,-36.817942</coordinates></LineString></MultiGeometry></Placemark></Document></kml>