<?xml version='1.0' encoding='utf-8'?>
<kml xmlns="http://www.opengis.net/kml/2.2"><Document><name>Drury LINZ foot track 1</name><Style id="c"><LineStyle><color>ffff00ff</color><width>5</width></LineStyle></Style><Placemark><name>Drury LINZ foot track 1</name><description>Sheet row 1219; LINZ t50_fid(s) 3554262</description><styleUrl>#c</styleUrl><MultiGeometry><LineString><tessellate>1</tessellate><coordinates>174.987826,-37.086830 174.988265,-37.086797 174.989438,-37.086710 174.990448,-37.086584 174.991004,-37.086468 174.991794,-37.086412 174.992605,-37.086281 174.993110,-37.086112 174.993539,-37.085880 174.993912,-37.085601 174.994075,-37.085442 174.994251,-37.085224 174.994310,-37.085119 174.994504,-37.084686 174.994406,-37.084382 174.994478,-37.084089 174.994794,-37.083928 174.995078,-37.083748 174.995270,-37.083587 174.995607,-37.083444 174.995861,-37.083319 174.996094,-37.083138 174.996346,-37.082827 174.996574,-37.082730</coordinates></LineString></MultiGeometry></Placemark></Document></kml>