<?xml version='1.0' encoding='utf-8'?>
<kml xmlns="http://www.opengis.net/kml/2.2"><Document><name>Snells Beach LINZ foot track 3</name><Style id="c"><LineStyle><color>ffff00ff</color><width>5</width></LineStyle></Style><Placemark><name>Snells Beach LINZ foot track 3</name><description>Sheet row 1202; LINZ t50_fid(s) 3574129</description><styleUrl>#c</styleUrl><MultiGeometry><LineString><tessellate>1</tessellate><coordinates>174.724472,-36.415332 174.725376,-36.415524 174.725388,-36.415526 174.726315,-36.415701 174.727225,-36.415887 174.727553,-36.416474 174.728035,-36.417778 174.728125,-36.417988</coordinates></LineString></MultiGeometry></Placemark></Document></kml>