<?xml version='1.0' encoding='utf-8'?>
<kml xmlns="http://www.opengis.net/kml/2.2"><Document><name>Te Atatū South LINZ foot track 1</name><Style id="c"><LineStyle><color>ffff00ff</color><width>5</width></LineStyle></Style><Placemark><name>Te Atatū South LINZ foot track 1</name><description>Sheet row 1188; LINZ t50_fid(s) 8520882</description><styleUrl>#c</styleUrl><MultiGeometry><LineString><tessellate>1</tessellate><coordinates>174.652904,-36.868353 174.653003,-36.868320 174.653141,-36.868342 174.653276,-36.868322 174.653479,-36.868264 174.653630,-36.868255 174.653725,-36.868223 174.653790,-36.868196 174.653875,-36.868214 174.653996,-36.868272 174.654239,-36.868318 174.654537,-36.868425 174.654708,-36.868591 174.654893,-36.868799 174.655003,-36.868917 174.655054,-36.868950 174.655171,-36.868956 174.655193,-36.869012 174.655283,-36.869113 174.655305,-36.869186 174.655315,-36.869294 174.655283,-36.869371 174.655222,-36.869486 174.655222,-36.869580 174.655333,-36.869780 174.655396,-36.869870 174.655433,-36.870004 174.655453,-36.870126 174.655494,-36.870194 174.655646,-36.870372</coordinates></LineString></MultiGeometry></Placemark></Document></kml>