<?xml version='1.0' encoding='utf-8'?>
<kml xmlns="http://www.opengis.net/kml/2.2"><Document><name>Hillsborough LINZ foot track 1</name><Style id="c"><LineStyle><color>ffff00ff</color><width>5</width></LineStyle></Style><Placemark><name>Hillsborough LINZ foot track 1</name><description>Sheet row 834; LINZ t50_fid(s) 3592882,3584635,3592877,3584636</description><styleUrl>#c</styleUrl><MultiGeometry><LineString><tessellate>1</tessellate><coordinates>174.733079,-36.934499 174.732842,-36.934817 174.732440,-36.935033 174.731620,-36.935193</coordinates></LineString><LineString><tessellate>1</tessellate><coordinates>174.734440,-36.933773 174.734701,-36.934115 174.734879,-36.934441 174.734723,-36.934482 174.734318,-36.934422 174.733828,-36.934448 174.733079,-36.934499</coordinates></LineString><LineString><tessellate>1</tessellate><coordinates>174.734440,-36.933773 174.734226,-36.933536 174.733766,-36.933300 174.733620,-36.933488 174.733375,-36.933530 174.733101,-36.933803 174.732933,-36.934124 174.733079,-36.934499</coordinates></LineString><LineString><tessellate>1</tessellate><coordinates>174.733702,-36.931122 174.733979,-36.931968 174.734129,-36.932389 174.734197,-36.932948 174.734439,-36.933308 174.734705,-36.933449 174.734987,-36.933535 174.734440,-36.933773</coordinates></LineString></MultiGeometry></Placemark></Document></kml>