<?xml version='1.0' encoding='utf-8'?>
<kml xmlns="http://www.opengis.net/kml/2.2"><Document><name>Māngere LINZ foot track 13</name><Style id="c"><LineStyle><color>ffff00ff</color><width>5</width></LineStyle></Style><Placemark><name>Māngere LINZ foot track 13</name><description>Sheet row 1297; LINZ t50_fid(s) 3584600</description><styleUrl>#c</styleUrl><MultiGeometry><LineString><tessellate>1</tessellate><coordinates>174.811688,-36.973214 174.811507,-36.972539 174.811388,-36.972233</coordinates></LineString></MultiGeometry></Placemark></Document></kml>