<?xml version='1.0' encoding='utf-8'?>
<kml xmlns="http://www.opengis.net/kml/2.2"><Document><name>Tiritiri Matangi Island LINZ foot track 3</name><Style id="c"><LineStyle><color>ffff00ff</color><width>5</width></LineStyle></Style><Placemark><name>Tiritiri Matangi Island LINZ foot track 3</name><description>Sheet row 1443; LINZ t50_fid(s) 3584907,3593417</description><styleUrl>#c</styleUrl><MultiGeometry><LineString><tessellate>1</tessellate><coordinates>174.887260,-36.597284 174.887235,-36.597114 174.887335,-36.597013 174.887458,-36.597006 174.887481,-36.597093 174.887360,-36.597189 174.887260,-36.597284</coordinates></LineString><LineString><tessellate>1</tessellate><coordinates>174.887611,-36.598567 174.887427,-36.598257 174.887264,-36.598028 174.887238,-36.597914 174.887211,-36.597881 174.887220,-36.597835 174.887203,-36.597765 174.887291,-36.597461 174.887260,-36.597284</coordinates></LineString></MultiGeometry></Placemark></Document></kml>