<?xml version='1.0' encoding='utf-8'?>
<kml xmlns="http://www.opengis.net/kml/2.2"><Document><name>Mairangi Bay LINZ foot track 19</name><Style id="c"><LineStyle><color>ffff00ff</color><width>5</width></LineStyle></Style><Placemark><name>Mairangi Bay LINZ foot track 19</name><description>Sheet row 1161; LINZ t50_fid(s) 3593220</description><styleUrl>#c</styleUrl><MultiGeometry><LineString><tessellate>1</tessellate><coordinates>174.738659,-36.750015 174.738739,-36.749491 174.738308,-36.749116</coordinates></LineString></MultiGeometry></Placemark></Document></kml>