<?xml version='1.0' encoding='utf-8'?>
<kml xmlns="http://www.opengis.net/kml/2.2"><Document><name>Blockhouse Bay LINZ foot track 4</name><Style id="c"><LineStyle><color>ffff00ff</color><width>5</width></LineStyle></Style><Placemark><name>Blockhouse Bay LINZ foot track 4</name><description>Sheet row 1425; LINZ t50_fid(s) 3573823</description><styleUrl>#c</styleUrl><MultiGeometry><LineString><tessellate>1</tessellate><coordinates>174.725415,-36.931425 174.725526,-36.931547 174.725614,-36.931602 174.725647,-36.931736 174.725633,-36.931826 174.725649,-36.931901 174.725718,-36.931961 174.725700,-36.931999 174.725712,-36.932070 174.725664,-36.932099 174.725849,-36.932457 174.725971,-36.932891 174.726112,-36.933201 174.726219,-36.933519 174.726199,-36.933635 174.726128,-36.933822 174.726129,-36.933964</coordinates></LineString></MultiGeometry></Placemark></Document></kml>