<?xml version='1.0' encoding='utf-8'?>
<kml xmlns="http://www.opengis.net/kml/2.2"><Document><name>Waiuku LINZ foot track 2</name><Style id="c"><LineStyle><color>ffff00ff</color><width>5</width></LineStyle></Style><Placemark><name>Waiuku LINZ foot track 2</name><description>Sheet row 986; LINZ t50_fid(s) 7880131</description><styleUrl>#c</styleUrl><MultiGeometry><LineString><tessellate>1</tessellate><coordinates>174.733833,-37.245229 174.734227,-37.246367 174.734511,-37.246401 174.734804,-37.247237</coordinates></LineString></MultiGeometry></Placemark></Document></kml>