<?xml version='1.0' encoding='utf-8'?>
<kml xmlns="http://www.opengis.net/kml/2.2"><Document><name>Māngere LINZ foot track 6</name><Style id="c"><LineStyle><color>ffff00ff</color><width>5</width></LineStyle></Style><Placemark><name>Māngere LINZ foot track 6</name><description>Sheet row 1231; LINZ t50_fid(s) 8063647</description><styleUrl>#c</styleUrl><MultiGeometry><LineString><tessellate>1</tessellate><coordinates>174.794787,-36.968274 174.794764,-36.968184 174.794695,-36.968123 174.794609,-36.968081 174.794581,-36.968077 174.794538,-36.968069 174.794452,-36.968078 174.794401,-36.968096 174.794284,-36.968149 174.794019,-36.968270 174.793911,-36.968165 174.793901,-36.968156 174.793781,-36.968040 174.793777,-36.967965 174.793776,-36.967939 174.793797,-36.967858 174.793841,-36.967819 174.794005,-36.967700 174.793407,-36.967204 174.793312,-36.967232 174.793104,-36.966875 174.793049,-36.966780 174.792844,-36.966446 174.792736,-36.966364 174.792603,-36.966077</coordinates></LineString></MultiGeometry></Placemark></Document></kml>