<?xml version='1.0' encoding='utf-8'?>
<kml xmlns="http://www.opengis.net/kml/2.2"><Document><name>Stanmore Bay LINZ foot track 4</name><Style id="c"><LineStyle><color>ffff00ff</color><width>5</width></LineStyle></Style><Placemark><name>Stanmore Bay LINZ foot track 4</name><description>Sheet row 1069; LINZ t50_fid(s) 8467010</description><styleUrl>#c</styleUrl><MultiGeometry><LineString><tessellate>1</tessellate><coordinates>174.741656,-36.643651 174.741801,-36.643716 174.741900,-36.643740 174.741976,-36.643749 174.742064,-36.643732 174.742348,-36.643654 174.742562,-36.643620 174.742913,-36.643595 174.743160,-36.643563 174.743374,-36.643516 174.743491,-36.643489 174.743667,-36.643453 174.743833,-36.643374 174.744016,-36.643323 174.744050,-36.643310 174.744088,-36.643274 174.744204,-36.643086 174.744325,-36.642979 174.744315,-36.642921</coordinates></LineString></MultiGeometry></Placemark></Document></kml>