<?xml version='1.0' encoding='utf-8'?>
<kml xmlns="http://www.opengis.net/kml/2.2"><Document><name>South Head / Kaipara LINZ foot track 4</name><Style id="c"><LineStyle><color>ffff00ff</color><width>5</width></LineStyle></Style><Placemark><name>South Head / Kaipara LINZ foot track 4</name><description>Sheet row 1173; LINZ t50_fid(s) 3573064</description><styleUrl>#c</styleUrl><MultiGeometry><LineString><tessellate>1</tessellate><coordinates>174.350442,-36.707333 174.350315,-36.707481 174.349949,-36.707692 174.349513,-36.707754 174.349050,-36.707744 174.348860,-36.707811 174.348361,-36.708213 174.348012,-36.708369 174.347931,-36.708374 174.347422,-36.708268 174.347158,-36.708355 174.346859,-36.708370 174.346790,-36.708373 174.346769,-36.708375</coordinates></LineString></MultiGeometry></Placemark></Document></kml>