<?xml version='1.0' encoding='utf-8'?>
<kml xmlns="http://www.opengis.net/kml/2.2"><Document><name>Medlands–Rosalie Bay, Aotea LINZ foot track 1</name><Style id="c"><LineStyle><color>ffff00ff</color><width>5</width></LineStyle></Style><Placemark><name>Medlands–Rosalie Bay, Aotea LINZ foot track 1</name><description>Sheet row 988; LINZ t50_fid(s) 3554991</description><styleUrl>#c</styleUrl><MultiGeometry><LineString><tessellate>1</tessellate><coordinates>175.442649,-36.265309 175.442244,-36.265557 175.441951,-36.265736 175.441613,-36.265973 175.441147,-36.266171 175.440883,-36.266352 175.440357,-36.266551 175.440091,-36.266678 175.439832,-36.266762 175.439772,-36.267012 175.439750,-36.267274 175.439733,-36.267681 175.439997,-36.267730 175.440407,-36.267685 175.440606,-36.267809 175.440962,-36.267963 175.441200,-36.268222 175.441567,-36.268496 175.441721,-36.268687 175.441809,-36.268877 175.441954,-36.268991 175.441881,-36.269408 175.442050,-36.269455 175.442285,-36.269452 175.442508,-36.269442 175.442658,-36.269578 175.442683,-36.269712 175.442630,-36.269860 175.442504,-36.269989 175.442305,-36.270089 175.442167,-36.270142 175.442087,-36.270253 175.442077,-36.270434 175.442069,-36.270674 175.442007,-36.270843 175.441934,-36.270987 175.441795,-36.271188 175.441662,-36.271253 175.441363,-36.271314 175.441028,-36.271388 175.440755,-36.271457 175.440363,-36.271688 175.440355,-36.271927 175.440284,-36.272168 175.440290,-36.272336</coordinates></LineString></MultiGeometry></Placemark></Document></kml>