<?xml version='1.0' encoding='utf-8'?>
<kml xmlns="http://www.opengis.net/kml/2.2"><Document><name>Browns Bay LINZ foot track 11</name><Style id="c"><LineStyle><color>ffff00ff</color><width>5</width></LineStyle></Style><Placemark><name>Browns Bay LINZ foot track 11</name><description>Sheet row 1105; LINZ t50_fid(s) 3584794</description><styleUrl>#c</styleUrl><MultiGeometry><LineString><tessellate>1</tessellate><coordinates>174.743813,-36.709864 174.743909,-36.710024 174.744113,-36.710050 174.744261,-36.710042 174.744427,-36.710059 174.745076,-36.710138 174.745367,-36.710180 174.745514,-36.710234</coordinates></LineString></MultiGeometry></Placemark></Document></kml>