<?xml version='1.0' encoding='utf-8'?>
<kml xmlns="http://www.opengis.net/kml/2.2"><Document><name>Clevedon LINZ foot track 1</name><Style id="c"><LineStyle><color>ffff00ff</color><width>5</width></LineStyle></Style><Placemark><name>Clevedon LINZ foot track 1</name><description>Sheet row 1224; LINZ t50_fid(s) 6097683,6097721</description><styleUrl>#c</styleUrl><MultiGeometry><LineString><tessellate>1</tessellate><coordinates>175.022132,-36.971025 175.021894,-36.971062 175.021685,-36.971107 175.020726,-36.971158 175.020429,-36.971142 175.020209,-36.971187 175.019896,-36.971206 175.019690,-36.971193 175.019224,-36.971210</coordinates></LineString><LineString><tessellate>1</tessellate><coordinates>175.022132,-36.971025 175.022379,-36.971001 175.022553,-36.970874 175.022640,-36.970648 175.023242,-36.970290 175.023498,-36.970027 175.024221,-36.969408 175.024355,-36.969345 175.024629,-36.969456 175.024936,-36.969505 175.025788,-36.969906 175.025955,-36.970040 175.026095,-36.970246</coordinates></LineString></MultiGeometry></Placemark></Document></kml>