<?xml version='1.0' encoding='utf-8'?>
<kml xmlns="http://www.opengis.net/kml/2.2"><Document><name>Te Henga / Waitākere LINZ foot track 1</name><Style id="c"><LineStyle><color>ffff00ff</color><width>5</width></LineStyle></Style><Placemark><name>Te Henga / Waitākere LINZ foot track 1</name><description>Sheet row 1432; LINZ t50_fid(s) 3553525</description><styleUrl>#c</styleUrl><MultiGeometry><LineString><tessellate>1</tessellate><coordinates>174.467034,-36.911378 174.466906,-36.911373 174.466202,-36.911537 174.465545,-36.911481 174.465018,-36.911308 174.464655,-36.911025 174.464589,-36.910713 174.464368,-36.910368 174.464309,-36.910232 174.464307,-36.910065 174.464466,-36.909689 174.464460,-36.909411 174.464404,-36.909353 174.464427,-36.909294 174.464384,-36.909216 174.464100,-36.908941 174.464013,-36.908808 174.463845,-36.908266 174.463393,-36.907409 174.463137,-36.907138 174.463115,-36.906814 174.462918,-36.906267 174.462583,-36.906227 174.462209,-36.906108 174.461896,-36.905690 174.461881,-36.905312 174.461789,-36.905192 174.461568,-36.904904 174.461506,-36.904658 174.461352,-36.904618</coordinates></LineString></MultiGeometry></Placemark></Document></kml>