<?xml version='1.0' encoding='utf-8'?>
<kml xmlns="http://www.opengis.net/kml/2.2"><Document><name>Te Atatū Peninsula LINZ foot track 4</name><Style id="c"><LineStyle><color>ffff00ff</color><width>5</width></LineStyle></Style><Placemark><name>Te Atatū Peninsula LINZ foot track 4</name><description>Sheet row 1382; LINZ t50_fid(s) 8466995</description><styleUrl>#c</styleUrl><MultiGeometry><LineString><tessellate>1</tessellate><coordinates>174.661205,-36.839071 174.661150,-36.838981 174.661193,-36.838935 174.661218,-36.838872 174.661227,-36.838818 174.661282,-36.838754 174.661329,-36.838708 174.661341,-36.838668 174.661327,-36.838595 174.661345,-36.838535 174.661424,-36.838396 174.661438,-36.838347 174.661431,-36.838305 174.661384,-36.838240 174.661335,-36.838186 174.661223,-36.838111 174.661108,-36.838032 174.661020,-36.837964 174.661009,-36.837940 174.660970,-36.837773 174.660987,-36.837739 174.661085,-36.837682 174.661147,-36.837636 174.661213,-36.837568 174.661241,-36.837480 174.661300,-36.837362 174.661326,-36.837272 174.661328,-36.837154 174.661323,-36.837031 174.661288,-36.836929 174.661240,-36.836794 174.661205,-36.836675 174.661164,-36.836582 174.661134,-36.836528 174.661094,-36.836489 174.661035,-36.836456 174.660943,-36.836426 174.660810,-36.836395 174.660690,-36.836381 174.660621,-36.836363 174.660562,-36.836309</coordinates></LineString></MultiGeometry></Placemark></Document></kml>