<?xml version='1.0' encoding='utf-8'?>
<kml xmlns="http://www.opengis.net/kml/2.2"><Document><name>Māngere / Onehunga LINZ foot track 2</name><Style id="c"><LineStyle><color>ffff00ff</color><width>5</width></LineStyle></Style><Placemark><name>Māngere / Onehunga LINZ foot track 2</name><description>Sheet row 860; LINZ t50_fid(s) 3592873,3592875,3592876</description><styleUrl>#c</styleUrl><MultiGeometry><LineString><tessellate>1</tessellate><coordinates>174.765852,-36.944844 174.766048,-36.944776 174.766453,-36.944453 174.766495,-36.944378</coordinates></LineString><LineString><tessellate>1</tessellate><coordinates>174.766987,-36.944696 174.766521,-36.944396 174.766495,-36.944378</coordinates></LineString><LineString><tessellate>1</tessellate><coordinates>174.766495,-36.944378 174.766617,-36.944161 174.766553,-36.943883 174.766704,-36.943804 174.766958,-36.943652</coordinates></LineString></MultiGeometry></Placemark></Document></kml>