<?xml version='1.0' encoding='utf-8'?>
<kml xmlns="http://www.opengis.net/kml/2.2"><Document><name>Northern Aotea / Great Barrier LINZ foot track 3</name><Style id="c"><LineStyle><color>ffff00ff</color><width>5</width></LineStyle></Style><Placemark><name>Northern Aotea / Great Barrier LINZ foot track 3</name><description>Sheet row 1370; LINZ t50_fid(s) 3593484</description><styleUrl>#c</styleUrl><MultiGeometry><LineString><tessellate>1</tessellate><coordinates>175.395802,-36.173565 175.396031,-36.173388 175.396211,-36.173169 175.396237,-36.172665 175.396406,-36.172513 175.396558,-36.172325 175.396739,-36.172268</coordinates></LineString></MultiGeometry></Placemark></Document></kml>