<?xml version='1.0' encoding='utf-8'?>
<kml xmlns="http://www.opengis.net/kml/2.2"><Document><name>Mission Bay LINZ foot track 4</name><Style id="c"><LineStyle><color>ffff00ff</color><width>5</width></LineStyle></Style><Placemark><name>Mission Bay LINZ foot track 4</name><description>Sheet row 901; LINZ t50_fid(s) 3593040</description><styleUrl>#c</styleUrl><MultiGeometry><LineString><tessellate>1</tessellate><coordinates>174.842134,-36.858982 174.842200,-36.859044 174.843161,-36.859592</coordinates></LineString></MultiGeometry></Placemark></Document></kml>