<?xml version='1.0' encoding='utf-8'?>
<kml xmlns="http://www.opengis.net/kml/2.2"><Document><name>Glendowie LINZ foot track 7</name><Style id="c"><LineStyle><color>ffff00ff</color><width>5</width></LineStyle></Style><Placemark><name>Glendowie LINZ foot track 7</name><description>Sheet row 953; LINZ t50_fid(s) 3584681</description><styleUrl>#c</styleUrl><MultiGeometry><LineString><tessellate>1</tessellate><coordinates>174.864372,-36.865678 174.863906,-36.864772 174.863443,-36.863870</coordinates></LineString></MultiGeometry></Placemark></Document></kml>