<?xml version='1.0' encoding='utf-8'?>
<kml xmlns="http://www.opengis.net/kml/2.2"><Document><name>Mission Bay LINZ foot track 1</name><Style id="c"><LineStyle><color>ffff00ff</color><width>5</width></LineStyle></Style><Placemark><name>Mission Bay LINZ foot track 1</name><description>Sheet row 853; LINZ t50_fid(s) 3593011</description><styleUrl>#c</styleUrl><MultiGeometry><LineString><tessellate>1</tessellate><coordinates>174.827030,-36.856091 174.825779,-36.856062 174.824993,-36.856026 174.824886,-36.856058 174.824817,-36.856143 174.824700,-36.856380 174.824630,-36.856434 174.824536,-36.856459 174.823890,-36.856492</coordinates></LineString></MultiGeometry></Placemark></Document></kml>