<?xml version='1.0' encoding='utf-8'?>
<kml xmlns="http://www.opengis.net/kml/2.2"><Document><name>Ōtāhuhu LINZ foot track 3</name><Style id="c"><LineStyle><color>ffff00ff</color><width>5</width></LineStyle></Style><Placemark><name>Ōtāhuhu LINZ foot track 3</name><description>Sheet row 1299; LINZ t50_fid(s) 3592968</description><styleUrl>#c</styleUrl><MultiGeometry><LineString><tessellate>1</tessellate><coordinates>174.857447,-36.953696 174.856251,-36.953382</coordinates></LineString></MultiGeometry></Placemark></Document></kml>