<?xml version='1.0' encoding='utf-8'?>
<kml xmlns="http://www.opengis.net/kml/2.2"><Document><name>Bayview LINZ foot track 4</name><Style id="c"><LineStyle><color>ffff00ff</color><width>5</width></LineStyle></Style><Placemark><name>Bayview LINZ foot track 4</name><description>Sheet row 1155; LINZ t50_fid(s) 8521008</description><styleUrl>#c</styleUrl><MultiGeometry><LineString><tessellate>1</tessellate><coordinates>174.705722,-36.774606 174.706052,-36.774526 174.706286,-36.774654 174.706540,-36.774754 174.706887,-36.774837 174.706934,-36.774814</coordinates></LineString></MultiGeometry></Placemark></Document></kml>