<?xml version='1.0' encoding='utf-8'?>
<kml xmlns="http://www.opengis.net/kml/2.2"><Document><name>Parau / Huia LINZ foot track 5</name><Style id="c"><LineStyle><color>ffff00ff</color><width>5</width></LineStyle></Style><Placemark><name>Parau / Huia LINZ foot track 5</name><description>Sheet row 1345; LINZ t50_fid(s) 3584623</description><styleUrl>#c</styleUrl><MultiGeometry><LineString><tessellate>1</tessellate><coordinates>174.641497,-36.966135 174.641872,-36.966063 174.642142,-36.965930 174.642258,-36.965513 174.642146,-36.965079 174.641974,-36.965021 174.641540,-36.965059 174.641196,-36.964906 174.640942,-36.964416</coordinates></LineString></MultiGeometry></Placemark></Document></kml>