<?xml version='1.0' encoding='utf-8'?>
<kml xmlns="http://www.opengis.net/kml/2.2"><Document><name>Māngere Bridge LINZ foot track 4</name><Style id="c"><LineStyle><color>ffff00ff</color><width>5</width></LineStyle></Style><Placemark><name>Māngere Bridge LINZ foot track 4</name><description>Sheet row 864; LINZ t50_fid(s) 3584655</description><styleUrl>#c</styleUrl><MultiGeometry><LineString><tessellate>1</tessellate><coordinates>174.789175,-36.936501 174.789121,-36.936520 174.789057,-36.936567 174.789024,-36.936663 174.789340,-36.937787 174.789345,-36.937867 174.789321,-36.937932 174.788884,-36.938328 174.788882,-36.938329 174.788882,-36.938329</coordinates></LineString></MultiGeometry></Placemark></Document></kml>