<?xml version='1.0' encoding='utf-8'?>
<kml xmlns="http://www.opengis.net/kml/2.2"><Document><name>Crocodile Island LINZ foot track 6</name><Style id="c"><LineStyle><color>ffff00ff</color><width>5</width></LineStyle></Style><Placemark><name>Crocodile Island LINZ foot track 6</name><description>Sheet row 1074; LINZ t50_fid(s) 7646320</description><styleUrl>#c</styleUrl><MultiGeometry><LineString><tessellate>1</tessellate><coordinates>174.671412,-36.596558 174.671652,-36.596575 174.671926,-36.596603 174.672038,-36.596675 174.672230,-36.596845 174.672741,-36.596964 174.672932,-36.597051 174.673000,-36.597202 174.673165,-36.597594 174.673427,-36.597904</coordinates></LineString></MultiGeometry></Placemark></Document></kml>