<?xml version='1.0' encoding='utf-8'?>
<kml xmlns="http://www.opengis.net/kml/2.2"><Document><name>Waiheke Island LINZ foot track 3</name><Style id="c"><LineStyle><color>ffff00ff</color><width>5</width></LineStyle></Style><Placemark><name>Waiheke Island LINZ foot track 3</name><description>Sheet row 1328; LINZ t50_fid(s) 7879921</description><styleUrl>#c</styleUrl><MultiGeometry><LineString><tessellate>1</tessellate><coordinates>175.023562,-36.784210 175.023433,-36.784392 175.023322,-36.784587 175.023247,-36.784784 175.023148,-36.784978 175.023120,-36.785096 175.023148,-36.785207 175.023212,-36.785327 175.023252,-36.785460 175.023247,-36.785593 175.023169,-36.785712 175.023100,-36.785775 175.022957,-36.785808 175.022774,-36.785858 175.022617,-36.785931 175.022511,-36.786026 175.022365,-36.786264 175.022221,-36.786521 175.022117,-36.786766 175.021988,-36.786948 175.021816,-36.787163 175.021807,-36.787174 175.021765,-36.787200 175.021755,-36.787234 175.021768,-36.787270 175.021773,-36.787281 175.021760,-36.787299 175.021735,-36.787377 175.021647,-36.787548 175.021492,-36.787539</coordinates></LineString></MultiGeometry></Placemark></Document></kml>