<?xml version='1.0' encoding='utf-8'?>
<kml xmlns="http://www.opengis.net/kml/2.2"><Document><name>Sandringham LINZ foot track 1</name><Style id="c"><LineStyle><color>ffff00ff</color><width>5</width></LineStyle></Style><Placemark><name>Sandringham LINZ foot track 1</name><description>Sheet row 837; LINZ t50_fid(s) 8466770</description><styleUrl>#c</styleUrl><MultiGeometry><LineString><tessellate>1</tessellate><coordinates>174.726433,-36.882446 174.726589,-36.882450 174.726683,-36.882510 174.726830,-36.882554 174.726853,-36.882604 174.726864,-36.882765 174.726877,-36.882798 174.726946,-36.882864 174.726994,-36.882957 174.727105,-36.883027 174.727140,-36.883066 174.727151,-36.883099 174.727185,-36.883166 174.727265,-36.883236 174.727271,-36.883287 174.727294,-36.883335 174.727337,-36.883366 174.727388,-36.883394 174.727488,-36.883429 174.727639,-36.883473 174.727735,-36.883475 174.727794,-36.883454 174.727889,-36.883398 174.727973,-36.883346 174.728044,-36.883313 174.728201,-36.883296 174.728391,-36.883322 174.728483,-36.883370 174.728631,-36.883427 174.728702,-36.883459 174.728851,-36.883513 174.728979,-36.883525 174.729125,-36.883588 174.729240,-36.883635 174.729357,-36.883674 174.729426,-36.883726 174.729455,-36.883755 174.729476,-36.883790 174.729479,-36.883925 174.729484,-36.884147 174.729478,-36.884290 174.729468,-36.884405 174.729443,-36.884491 174.729437,-36.884746 174.729433,-36.884802 174.729405,-36.884854 174.729264,-36.885084 174.729138,-36.885255 174.728987,-36.885432 174.728870,-36.885617 174.728791,-36.885758 174.728639,-36.886044 174.728443,-36.886386 174.728394,-36.886522 174.728355,-36.886610 174.728307,-36.886693 174.728234,-36.886769 174.728152,-36.886846 174.728075,-36.886906 174.727960,-36.886978 174.728102,-36.887010 174.728197,-36.887035 174.728317,-36.887068 174.728378,-36.887077 174.728470,-36.887077 174.728644,-36.887079 174.728762,-36.887088 174.728883,-36.887105 174.729004,-36.887124 174.729039,-36.887056</coordinates></LineString></MultiGeometry></Placemark></Document></kml>