<?xml version='1.0' encoding='utf-8'?>
<kml xmlns="http://www.opengis.net/kml/2.2"><Document><name>Māngere LINZ foot track 3</name><Style id="c"><LineStyle><color>ffff00ff</color><width>5</width></LineStyle></Style><Placemark><name>Māngere LINZ foot track 3</name><description>Sheet row 1225; LINZ t50_fid(s) 3573810</description><styleUrl>#c</styleUrl><MultiGeometry><LineString><tessellate>1</tessellate><coordinates>174.779771,-36.966637 174.779771,-36.966685 174.779761,-36.967602 174.779745,-36.968107 174.780024,-36.968470 174.779845,-36.968759 174.779018,-36.968817 174.777231,-36.968729 174.776472,-36.968626 174.775889,-36.968738 174.775142,-36.968712 174.774688,-36.968697 174.774683,-36.968696</coordinates></LineString></MultiGeometry></Placemark></Document></kml>