<?xml version='1.0' encoding='utf-8'?>
<kml xmlns="http://www.opengis.net/kml/2.2"><Document><name>Browns Bay LINZ foot track 14</name><Style id="c"><LineStyle><color>ffff00ff</color><width>5</width></LineStyle></Style><Placemark><name>Browns Bay LINZ foot track 14</name><description>Sheet row 1126; LINZ t50_fid(s) 3593249</description><styleUrl>#c</styleUrl><MultiGeometry><LineString><tessellate>1</tessellate><coordinates>174.726934,-36.726590 174.727217,-36.726050 174.726915,-36.725421</coordinates></LineString></MultiGeometry></Placemark></Document></kml>