<?xml version='1.0' encoding='utf-8'?>
<kml xmlns="http://www.opengis.net/kml/2.2"><Document><name>Manukau LINZ foot track 2</name><Style id="c"><LineStyle><color>ffff00ff</color><width>5</width></LineStyle></Style><Placemark><name>Manukau LINZ foot track 2</name><description>Sheet row 1228; LINZ t50_fid(s) 3592831,3584609,3584608</description><styleUrl>#c</styleUrl><MultiGeometry><LineString><tessellate>1</tessellate><coordinates>174.877524,-36.991444 174.876781,-36.991584</coordinates></LineString><LineString><tessellate>1</tessellate><coordinates>174.876781,-36.991584 174.877272,-36.992762 174.877684,-36.993283</coordinates></LineString><LineString><tessellate>1</tessellate><coordinates>174.876781,-36.991584 174.876115,-36.991512 174.874847,-36.991814 174.873307,-36.991826</coordinates></LineString></MultiGeometry></Placemark></Document></kml>