<?xml version='1.0' encoding='utf-8'?>
<kml xmlns="http://www.opengis.net/kml/2.2"><Document><name>Wiri LINZ foot track 4</name><Style id="c"><LineStyle><color>ffff00ff</color><width>5</width></LineStyle></Style><Placemark><name>Wiri LINZ foot track 4</name><description>Sheet row 1273; LINZ t50_fid(s) 3592806</description><styleUrl>#c</styleUrl><MultiGeometry><LineString><tessellate>1</tessellate><coordinates>174.872534,-37.016593 174.872462,-37.016490 174.872294,-37.016340 174.871895,-37.015606 174.871894,-37.015606</coordinates></LineString></MultiGeometry></Placemark></Document></kml>