<?xml version='1.0' encoding='utf-8'?>
<kml xmlns="http://www.opengis.net/kml/2.2"><Document><name>Kumeū / Huapai LINZ foot track 1</name><Style id="c"><LineStyle><color>ffff00ff</color><width>5</width></LineStyle></Style><Placemark><name>Kumeū / Huapai LINZ foot track 1</name><description>Sheet row 1043; LINZ t50_fid(s) 8520885</description><styleUrl>#c</styleUrl><MultiGeometry><LineString><tessellate>1</tessellate><coordinates>174.556930,-36.773805 174.556923,-36.773781 174.556601,-36.773870 174.556533,-36.773717 174.556530,-36.773643 174.556561,-36.773573 174.556615,-36.773519 174.556675,-36.773485 174.556740,-36.773467 174.556831,-36.773468 174.556951,-36.773500 174.557141,-36.773494 174.557254,-36.773474 174.557432,-36.773433 174.557576,-36.773399 174.557684,-36.773344 174.557786,-36.773295 174.557879,-36.773271 174.557987,-36.773260 174.558031,-36.773267 174.558068,-36.773298 174.558095,-36.773358 174.558124,-36.773410 174.558141,-36.773441 174.558216,-36.773585 174.558276,-36.773686 174.558359,-36.773789 174.558458,-36.773905 174.558533,-36.773970 174.558602,-36.774000 174.558668,-36.774018 174.558805,-36.774042 174.558879,-36.774048 174.558946,-36.774041 174.558964,-36.774030 174.559092,-36.773950 174.559375,-36.773827 174.559433,-36.773786 174.559517,-36.773680 174.559626,-36.773613 174.559697,-36.773580 174.559749,-36.773571 174.559790,-36.773571 174.559859,-36.773584 174.559934,-36.773628 174.560004,-36.773707 174.560041,-36.773804 174.560073,-36.773913 174.560085,-36.774035 174.560078,-36.774219 174.560052,-36.774343 174.560044,-36.774423 174.560041,-36.774456 174.560042,-36.774617 174.560029,-36.774792 174.560001,-36.774915 174.559943,-36.775032 174.559819,-36.775218 174.559764,-36.775297 174.559729,-36.775388 174.559742,-36.775475 174.559836,-36.775634 174.559920,-36.775932 174.559773,-36.776372 174.560533,-36.776698</coordinates></LineString></MultiGeometry></Placemark></Document></kml>