<?xml version='1.0' encoding='utf-8'?>
<kml xmlns="http://www.opengis.net/kml/2.2"><Document><name>Ōtara LINZ foot track 1</name><Style id="c"><LineStyle><color>ffff00ff</color><width>5</width></LineStyle></Style><Placemark><name>Ōtara LINZ foot track 1</name><description>Sheet row 935; LINZ t50_fid(s) 3554626,8063327</description><styleUrl>#c</styleUrl><MultiGeometry><LineString><tessellate>1</tessellate><coordinates>174.876293,-36.947497 174.876368,-36.947504 174.876815,-36.947564 174.877094,-36.947553 174.877278,-36.947568 174.877441,-36.947612 174.877548,-36.947593 174.877655,-36.947611 174.877723,-36.947652 174.877785,-36.947692 174.877832,-36.947715 174.877867,-36.947745 174.877886,-36.947786 174.877894,-36.947830 174.877911,-36.947851 174.877946,-36.947891 174.877968,-36.947936 174.877974,-36.947997 174.877960,-36.948055 174.877936,-36.948093 174.877915,-36.948148 174.877896,-36.948212 174.877882,-36.948245 174.877865,-36.948272 174.877852,-36.948308 174.877839,-36.948354 174.877837,-36.948392 174.877843,-36.948418 174.877861,-36.948441 174.877884,-36.948462 174.877923,-36.948481 174.877964,-36.948494 174.877973,-36.948497 174.878002,-36.948506 174.878020,-36.948518 174.878048,-36.948557 174.878035,-36.948655 174.878039,-36.948695 174.878040,-36.948720 174.878022,-36.948768 174.878017,-36.948810 174.878008,-36.948849 174.877981,-36.948888 174.877986,-36.948927 174.877988,-36.948936 174.877981,-36.948964 174.877973,-36.948976 174.877945,-36.949019 174.877919,-36.949088 174.877910,-36.949109 174.877907,-36.949115 174.877850,-36.949162 174.877844,-36.949166 174.877785,-36.949201 174.877758,-36.949224 174.877748,-36.949225 174.877706,-36.949230 174.877597,-36.949212 174.877394,-36.949209 174.877292,-36.949210 174.875869,-36.948972</coordinates></LineString><LineString><tessellate>1</tessellate><coordinates>174.873410,-36.949717 174.873642,-36.948857 174.873750,-36.948589 174.873785,-36.948549 174.873874,-36.948518 174.873957,-36.948499 174.874062,-36.948490 174.874179,-36.948453 174.874267,-36.948409 174.874311,-36.948400 174.874361,-36.948399 174.874532,-36.948438 174.874648,-36.948470 174.874731,-36.948470 174.874835,-36.948432 174.874941,-36.948371 174.874990,-36.948330 174.875017,-36.948280 174.874983,-36.948244 174.874886,-36.948172 174.874829,-36.948087 174.874808,-36.948044 174.874682,-36.947831 174.874642,-36.947573 174.874646,-36.947378 174.874675,-36.947319 174.874921,-36.947127 174.875117,-36.946997 174.875328,-36.946894 174.875503,-36.946843 174.875703,-36.946912 174.875852,-36.946945 174.876039,-36.947041 174.876058,-36.947075 174.876022,-36.947174 174.876002,-36.947222 174.876031,-36.947323 174.876013,-36.947362 174.875953,-36.947424 174.875896,-36.947495 174.875883,-36.947553 174.875897,-36.947685 174.875921,-36.947718 174.876002,-36.947750 174.876098,-36.947776 174.876127,-36.947809 174.876156,-36.947939 174.876154,-36.948100 174.876086,-36.948362 174.875869,-36.948972 174.875676,-36.949515</coordinates></LineString></MultiGeometry></Placemark></Document></kml>