<?xml version='1.0' encoding='utf-8'?>
<kml xmlns="http://www.opengis.net/kml/2.2"><Document><name>Kakamatua LINZ foot track 2</name><Style id="c"><LineStyle><color>ffff00ff</color><width>5</width></LineStyle></Style><Placemark><name>Kakamatua LINZ foot track 2</name><description>Sheet row 1005; LINZ t50_fid(s) 3584261</description><styleUrl>#c</styleUrl><MultiGeometry><LineString><tessellate>1</tessellate><coordinates>174.603077,-37.005721 174.603083,-37.005990 174.603206,-37.006213 174.602972,-37.006399 174.602619,-37.006655 174.602545,-37.007049 174.602534,-37.007584 174.602302,-37.007874 174.601843,-37.008008 174.601700,-37.008043</coordinates></LineString></MultiGeometry></Placemark></Document></kml>