<?xml version='1.0' encoding='utf-8'?>
<kml xmlns="http://www.opengis.net/kml/2.2"><Document><name>Gulf Harbour LINZ foot track 3</name><Style id="c"><LineStyle><color>ffff00ff</color><width>5</width></LineStyle></Style><Placemark><name>Gulf Harbour LINZ foot track 3</name><description>Sheet row 1149; LINZ t50_fid(s) 3593400</description><styleUrl>#c</styleUrl><MultiGeometry><LineString><tessellate>1</tessellate><coordinates>174.787622,-36.609929 174.787579,-36.609834 174.787060,-36.609377 174.786563,-36.609378</coordinates></LineString></MultiGeometry></Placemark></Document></kml>