<?xml version='1.0' encoding='utf-8'?>
<kml xmlns="http://www.opengis.net/kml/2.2"><Document><name>Mairangi Bay LINZ foot track 20</name><Style id="c"><LineStyle><color>ffff00ff</color><width>5</width></LineStyle></Style><Placemark><name>Mairangi Bay LINZ foot track 20</name><description>Sheet row 1164; LINZ t50_fid(s) 3584784</description><styleUrl>#c</styleUrl><MultiGeometry><LineString><tessellate>1</tessellate><coordinates>174.745920,-36.736778 174.745607,-36.736697 174.745494,-36.736597 174.745278,-36.736526 174.744733,-36.736590</coordinates></LineString></MultiGeometry></Placemark></Document></kml>