<?xml version='1.0' encoding='utf-8'?>
<kml xmlns="http://www.opengis.net/kml/2.2"><Document><name>Papatoetoe LINZ foot track 8</name><Style id="c"><LineStyle><color>ffff00ff</color><width>5</width></LineStyle></Style><Placemark><name>Papatoetoe LINZ foot track 8</name><description>Sheet row 1267; LINZ t50_fid(s) 3592838</description><styleUrl>#c</styleUrl><MultiGeometry><LineString><tessellate>1</tessellate><coordinates>174.862722,-36.984027 174.861356,-36.984512</coordinates></LineString></MultiGeometry></Placemark></Document></kml>