<?xml version='1.0' encoding='utf-8'?>
<kml xmlns="http://www.opengis.net/kml/2.2"><Document><name>Crocodile Island LINZ foot track 5</name><Style id="c"><LineStyle><color>ffff00ff</color><width>5</width></LineStyle></Style><Placemark><name>Crocodile Island LINZ foot track 5</name><description>Sheet row 919; LINZ t50_fid(s) 3593375</description><styleUrl>#c</styleUrl><MultiGeometry><LineString><tessellate>1</tessellate><coordinates>174.686398,-36.589689 174.686518,-36.589747 174.686614,-36.589771 174.687010,-36.589808 174.687359,-36.590591 174.687336,-36.590699</coordinates></LineString></MultiGeometry></Placemark></Document></kml>