<?xml version='1.0' encoding='utf-8'?>
<kml xmlns="http://www.opengis.net/kml/2.2"><Document><name>Birkenhead LINZ foot track 10</name><Style id="c"><LineStyle><color>ffff00ff</color><width>5</width></LineStyle></Style><Placemark><name>Birkenhead LINZ foot track 10</name><description>Sheet row 1122; LINZ t50_fid(s) 3593177</description><styleUrl>#c</styleUrl><MultiGeometry><LineString><tessellate>1</tessellate><coordinates>174.723400,-36.797540 174.723411,-36.797542 174.723577,-36.797568 174.724149,-36.797656 174.724199,-36.797597 174.724573,-36.797619 174.724971,-36.797625</coordinates></LineString></MultiGeometry></Placemark></Document></kml>