<?xml version='1.0' encoding='utf-8'?>
<kml xmlns="http://www.opengis.net/kml/2.2"><Document><name>Onepoto Bay, Aotea LINZ foot track 1</name><Style id="c"><LineStyle><color>ffff00ff</color><width>5</width></LineStyle></Style><Placemark><name>Onepoto Bay, Aotea LINZ foot track 1</name><description>Sheet row 1181; LINZ t50_fid(s) 3531678</description><styleUrl>#c</styleUrl><MultiGeometry><LineString><tessellate>1</tessellate><coordinates>175.360080,-36.143801 175.359665,-36.143723 175.359178,-36.143733 175.358333,-36.144118 175.357900,-36.143956 175.357652,-36.143904 175.357286,-36.143860 175.356804,-36.143932 175.355999,-36.143860 175.355500,-36.143913 175.355079,-36.143993 175.354827,-36.143994 175.354683,-36.143883 175.354324,-36.143589 175.353892,-36.143388 175.352781,-36.143181 175.352177,-36.142768 175.351973,-36.142751 175.351804,-36.142834 175.351349,-36.142704 175.350926,-36.142712 175.350593,-36.142450 175.349189,-36.142304 175.349353,-36.142234 175.349492,-36.142179 175.349571,-36.142125 175.349695,-36.142091 175.349791,-36.142117 175.349826,-36.142146 175.349846,-36.142163 175.349968,-36.142154 175.350150,-36.142129 175.350373,-36.142091 175.350599,-36.142003 175.350662,-36.141961 175.350705,-36.141871 175.350722,-36.141784 175.350658,-36.141680 175.350635,-36.141548 175.350662,-36.141427 175.350741,-36.141280 175.350803,-36.141174 175.350878,-36.141027 175.351001,-36.140806 175.351044,-36.140709 175.351152,-36.140627 175.351198,-36.140527 175.351179,-36.140385 175.351154,-36.140299 175.351133,-36.140232 175.351012,-36.140033 175.350932,-36.139880 175.350876,-36.139684 175.350864,-36.139545 175.350827,-36.139431 175.350666,-36.139174 175.350635,-36.139123 175.350566,-36.138986 175.350567,-36.138887 175.350652,-36.138675 175.350701,-36.138415 175.350798,-36.138332 175.350913,-36.138234 175.351110,-36.138070 175.351289,-36.137955 175.351404,-36.137833 175.351507,-36.137735 175.351550,-36.137632 175.351558,-36.137518 175.351475,-36.137420 175.351405,-36.137369 175.351391,-36.137280 175.351409,-36.137107 175.351407,-36.136912 175.351427,-36.136705 175.351427,-36.136458 175.351427,-36.136439 175.351491,-36.136296 175.351651,-36.136163 175.351786,-36.136095 175.351844,-36.136071 175.352027,-36.135995 175.352142,-36.135925 175.352250,-36.135830 175.352342,-36.135726 175.352373,-36.135620 175.352347,-36.135516 175.352240,-36.135370 175.352197,-36.135210 175.352084,-36.135098 175.351927,-36.134956 175.351824,-36.134816 175.351750,-36.134644 175.351690,-36.134544 175.351651,-36.134390 175.351691,-36.134255 175.351814,-36.134013 175.351962,-36.133819 175.352008,-36.133722 175.352017,-36.133626 175.351970,-36.133457 175.351861,-36.133262 175.351769,-36.133100 175.351799,-36.132982 175.351879,-36.132850 175.351938,-36.132781 175.351979,-36.132629 175.352007,-36.132415 175.352001,-36.132193 175.351996,-36.132023 175.351988,-36.131891 175.351961,-36.131774 175.352025,-36.131624 175.352361,-36.131383 175.352664,-36.131210 175.352943,-36.130989</coordinates></LineString></MultiGeometry></Placemark></Document></kml>