<?xml version='1.0' encoding='utf-8'?>
<kml xmlns="http://www.opengis.net/kml/2.2"><Document><name>Henderson LINZ foot track 4</name><Style id="c"><LineStyle><color>ffff00ff</color><width>5</width></LineStyle></Style><Placemark><name>Henderson LINZ foot track 4</name><description>Sheet row 1352; LINZ t50_fid(s) 3592521</description><styleUrl>#c</styleUrl><MultiGeometry><LineString><tessellate>1</tessellate><coordinates>174.618854,-36.900086 174.619351,-36.899922 174.619583,-36.899863 174.619750,-36.899849 174.619961,-36.899876 174.620112,-36.899874 174.620176,-36.899897</coordinates></LineString></MultiGeometry></Placemark></Document></kml>