<?xml version='1.0' encoding='utf-8'?>
<kml xmlns="http://www.opengis.net/kml/2.2"><Document><name>Mission Bay LINZ foot track 2</name><Style id="c"><LineStyle><color>ffff00ff</color><width>5</width></LineStyle></Style><Placemark><name>Mission Bay LINZ foot track 2</name><description>Sheet row 877; LINZ t50_fid(s) 3593236</description><styleUrl>#c</styleUrl><MultiGeometry><LineString><tessellate>1</tessellate><coordinates>174.843552,-36.852987 174.844048,-36.851482</coordinates></LineString></MultiGeometry></Placemark></Document></kml>