<?xml version='1.0' encoding='utf-8'?>
<kml xmlns="http://www.opengis.net/kml/2.2"><Document><name>Silverdale LINZ foot track 3</name><Style id="c"><LineStyle><color>ffff00ff</color><width>5</width></LineStyle></Style><Placemark><name>Silverdale LINZ foot track 3</name><description>Sheet row 1058; LINZ t50_fid(s) 8493685</description><styleUrl>#c</styleUrl><MultiGeometry><LineString><tessellate>1</tessellate><coordinates>174.663780,-36.601445 174.663636,-36.601390 174.663572,-36.601346 174.663543,-36.601304 174.663505,-36.601182 174.663467,-36.601057 174.663457,-36.600973 174.663468,-36.600903 174.663494,-36.600828 174.663538,-36.600766 174.663629,-36.600694 174.663726,-36.600608 174.663791,-36.600519 174.663946,-36.600269 174.664035,-36.600112 174.664026,-36.599995 174.663999,-36.599871 174.663953,-36.599762 174.663832,-36.599629 174.663617,-36.599384 174.663534,-36.599271 174.663397,-36.599190 174.663210,-36.599128 174.663131,-36.599057 174.663077,-36.598948 174.663029,-36.598897 174.662927,-36.598881 174.662800,-36.598888 174.662612,-36.598910 174.662495,-36.598908 174.662359,-36.598906 174.662140,-36.598892 174.662038,-36.598908 174.661968,-36.598949 174.661948,-36.599019 174.661948,-36.599089 174.661621,-36.599291</coordinates></LineString></MultiGeometry></Placemark></Document></kml>