<?xml version='1.0' encoding='utf-8'?>
<kml xmlns="http://www.opengis.net/kml/2.2"><Document><name>Long Bay LINZ foot track 5</name><Style id="c"><LineStyle><color>ffff00ff</color><width>5</width></LineStyle></Style><Placemark><name>Long Bay LINZ foot track 5</name><description>Sheet row 1142; LINZ t50_fid(s) 3584799</description><styleUrl>#c</styleUrl><MultiGeometry><LineString><tessellate>1</tessellate><coordinates>174.730417,-36.696384 174.730472,-36.696228 174.730401,-36.695698 174.730777,-36.695328</coordinates></LineString></MultiGeometry></Placemark></Document></kml>