<?xml version='1.0' encoding='utf-8'?>
<kml xmlns="http://www.opengis.net/kml/2.2"><Document><name>Maraetai LINZ foot track 3</name><Style id="c"><LineStyle><color>ffff00ff</color><width>5</width></LineStyle></Style><Placemark><name>Maraetai LINZ foot track 3</name><description>Sheet row 942; LINZ t50_fid(s) 3584724,3593134,3593135</description><styleUrl>#c</styleUrl><MultiGeometry><LineString><tessellate>1</tessellate><coordinates>175.041051,-36.877692 175.040922,-36.877493 175.040715,-36.877107 175.040710,-36.876945 175.040470,-36.876775 175.040330,-36.876443 175.040047,-36.876070 175.039805,-36.875854 175.039546,-36.875702 175.039304,-36.875579 175.039031,-36.875460 175.038687,-36.875308</coordinates></LineString><LineString><tessellate>1</tessellate><coordinates>175.040049,-36.878188 175.041051,-36.877692</coordinates></LineString><LineString><tessellate>1</tessellate><coordinates>175.041198,-36.878000 175.041122,-36.877801 175.041051,-36.877692</coordinates></LineString></MultiGeometry></Placemark></Document></kml>