<?xml version='1.0' encoding='utf-8'?>
<kml xmlns="http://www.opengis.net/kml/2.2"><Document><name>Hillsborough LINZ foot track 6</name><Style id="c"><LineStyle><color>ffff00ff</color><width>5</width></LineStyle></Style><Placemark><name>Hillsborough LINZ foot track 6</name><description>Sheet row 907; LINZ t50_fid(s) 3592895</description><styleUrl>#c</styleUrl><MultiGeometry><LineString><tessellate>1</tessellate><coordinates>174.743529,-36.933381 174.743599,-36.933454 174.743770,-36.933518 174.744016,-36.933561 174.744648,-36.933328</coordinates></LineString></MultiGeometry></Placemark></Document></kml>