<?xml version='1.0' encoding='utf-8'?>
<kml xmlns="http://www.opengis.net/kml/2.2"><Document><name>Hunua LINZ foot track 1</name><Style id="c"><LineStyle><color>ffff00ff</color><width>5</width></LineStyle></Style><Placemark><name>Hunua LINZ foot track 1</name><description>Sheet row 999; LINZ t50_fid(s) 3573600</description><styleUrl>#c</styleUrl><MultiGeometry><LineString><tessellate>1</tessellate><coordinates>175.146885,-37.100316 175.146789,-37.100173 175.146634,-37.100126 175.146335,-37.100043 175.146276,-37.099987 175.146283,-37.099902 175.146360,-37.099732 175.146319,-37.099644 175.146232,-37.099615 175.146027,-37.099634 175.145743,-37.099605 175.145737,-37.099559 175.145757,-37.099413 175.145727,-37.099352 175.145585,-37.099240 175.145469,-37.099219 175.145297,-37.099222 175.145214,-37.099173 175.145212,-37.099116 175.145302,-37.099068 175.145530,-37.098999 175.145900,-37.098881 175.146027,-37.098802 175.146035,-37.098744 175.146019,-37.098698 175.145893,-37.098635 175.145803,-37.098511 175.145678,-37.098467 175.145169,-37.098438 175.145087,-37.098401 175.145066,-37.098340 175.145083,-37.098278 175.145434,-37.098141 175.145543,-37.098124 175.145874,-37.098133 175.146267,-37.098122 175.146454,-37.098134 175.146747,-37.098167 175.146842,-37.098162 175.146879,-37.098115 175.146877,-37.098042 175.146775,-37.097979 175.146610,-37.097901 175.146569,-37.097818 175.146587,-37.097748 175.146657,-37.097716 175.147051,-37.097728 175.147315,-37.097781 175.147512,-37.097785 175.147669,-37.097759 175.147901,-37.097813 175.148125,-37.097789 175.148195,-37.097731 175.148283,-37.097602 175.148386,-37.097531 175.148384,-37.097474 175.148321,-37.097421 175.147982,-37.097297 175.147888,-37.097188 175.147804,-37.097109 175.147802,-37.097036 175.147844,-37.096977 175.148065,-37.097008 175.148321,-37.097091 175.148612,-37.097067 175.148727,-37.097065 175.148889,-37.097031 175.149009,-37.097048 175.149270,-37.097136 175.149419,-37.097144 175.149639,-37.097129 175.149773,-37.097107 175.149861,-37.097025 175.149897,-37.096952 175.149915,-37.096878 175.150012,-37.096781 175.150223,-37.096608 175.150342,-37.096406 175.150377,-37.096287 175.150406,-37.096144 175.150571,-37.096065 175.150876,-37.095812 175.150998,-37.095780</coordinates></LineString></MultiGeometry></Placemark></Document></kml>