<?xml version='1.0' encoding='utf-8'?>
<kml xmlns="http://www.opengis.net/kml/2.2"><Document><name>Ōtara LINZ foot track 7</name><Style id="c"><LineStyle><color>ffff00ff</color><width>5</width></LineStyle></Style><Placemark><name>Ōtara LINZ foot track 7</name><description>Sheet row 1261; LINZ t50_fid(s) 3592978</description><styleUrl>#c</styleUrl><MultiGeometry><LineString><tessellate>1</tessellate><coordinates>174.878621,-36.963698 174.878626,-36.963684 174.878879,-36.962950 174.879081,-36.962474 174.879084,-36.962469</coordinates></LineString></MultiGeometry></Placemark></Document></kml>