<?xml version='1.0' encoding='utf-8'?>
<kml xmlns="http://www.opengis.net/kml/2.2"><Document><name>Dome Valley LINZ foot track 2</name><Style id="c"><LineStyle><color>ffff00ff</color><width>5</width></LineStyle></Style><Placemark><name>Dome Valley LINZ foot track 2</name><description>Sheet row 924; LINZ t50_fid(s) 3517612</description><styleUrl>#c</styleUrl><MultiGeometry><LineString><tessellate>1</tessellate><coordinates>174.641563,-36.349516 174.641794,-36.349891 174.641890,-36.350000 174.641990,-36.350190 174.642070,-36.350470 174.642350,-36.350600 174.642820,-36.350360 174.642980,-36.350180 174.643240,-36.350130 174.643780,-36.350250 174.643860,-36.350380 174.644050,-36.350530 174.644350,-36.351200 174.644480,-36.351350 174.644690,-36.351490 174.644970,-36.351600 174.645290,-36.351680 174.645340,-36.351660 174.645430,-36.351730 174.645690,-36.351740 174.646230,-36.351660 174.646450,-36.351700 174.646740,-36.351790 174.646990,-36.351830 174.647410,-36.352030 174.648120,-36.352300 174.648410,-36.352370 174.649790,-36.352380 174.650360,-36.352270 174.650680,-36.352250 174.651160,-36.352060 174.651386,-36.351945 174.651560,-36.352210 174.651670,-36.352450 174.651920,-36.352730 174.651940,-36.353020 174.651900,-36.353540 174.652100,-36.353830 174.652300,-36.353990 174.652140,-36.354070 174.652210,-36.354850 174.652070,-36.355140 174.651800,-36.355540 174.651650,-36.356090 174.651280,-36.356750 174.651380,-36.357150 174.651220,-36.357400 174.650630,-36.357850 174.650177,-36.357962 174.649983,-36.358160 174.649761,-36.358338 174.649130,-36.358761 174.649093,-36.358773 174.648924,-36.359019 174.648800,-36.359200 174.648530,-36.359460 174.648210,-36.359550 174.647750,-36.359540 174.647440,-36.359640 174.647110,-36.359700 174.646820,-36.359680 174.646210,-36.359890 174.645970,-36.360060 174.645650,-36.360220 174.645307,-36.360337 174.645010,-36.360270 174.644610,-36.360280 174.644350,-36.360400 174.644000,-36.360860 174.644030,-36.361100 174.643870,-36.361510 174.643610,-36.361670 174.643270,-36.361950 174.642590,-36.362330 174.642390,-36.362490 174.642190,-36.362570 174.641570,-36.362540 174.641322,-36.362615 174.640940,-36.362730 174.640640,-36.362850 174.640530,-36.363230 174.640410,-36.363430 174.639830,-36.363770 174.639610,-36.364180 174.639310,-36.364340 174.638980,-36.364360 174.638360,-36.364520 174.638140,-36.364730 174.637988,-36.364824 174.637808,-36.364838 174.637530,-36.364860 174.637340,-36.364690 174.637270,-36.364500 174.636790,-36.364320 174.636590,-36.364140 174.636320,-36.363820 174.636140,-36.363710 174.635990,-36.363570 174.635890,-36.363360 174.635160,-36.362900 174.634920,-36.362680 174.634630,-36.362600 174.634310,-36.362610 174.633980,-36.362520 174.633710,-36.362350 174.633370,-36.362200 174.632670,-36.362070 174.632120,-36.361680 174.631720,-36.361700 174.631330,-36.361670 174.631012,-36.361567 174.630560,-36.361420 174.630190,-36.361370 174.629670,-36.361440 174.629040,-36.361220 174.627690,-36.361030 174.627350,-36.361150 174.627050,-36.361120 174.626290,-36.361120 174.625980,-36.361060 174.625650,-36.360920 174.625470,-36.360740 174.625200,-36.360560 174.624950,-36.360260 174.624690,-36.360030 174.624150,-36.359440 174.624130,-36.359170 174.623910,-36.358930 174.623520,-36.358920 174.623190,-36.359030 174.622840,-36.359050 174.622700,-36.358940 174.622420,-36.358970 174.622130,-36.358920 174.621770,-36.359000 174.621410,-36.359020 174.620980,-36.359170 174.620540,-36.359650 174.620190,-36.359790 174.619440,-36.359870 174.618570,-36.359810 174.618090,-36.359860 174.617650,-36.360020 174.617150,-36.359670 174.616100,-36.359190 174.615860,-36.358990 174.615560,-36.358860 174.614590,-36.358750 174.613780,-36.358760 174.613680,-36.359030 174.613690,-36.359330 174.613580,-36.359610 174.613320,-36.360000 174.613190,-36.360340 174.612990,-36.361200 174.613110,-36.361450 174.613150,-36.361800 174.613140,-36.362090 174.613090,-36.362370 174.613110,-36.362660 174.613050,-36.363200 174.612920,-36.363500 174.612870,-36.363760 174.612958,-36.364010 174.612977,-36.364058 174.612968,-36.364217 174.613190,-36.364541</coordinates></LineString></MultiGeometry></Placemark></Document></kml>