<?xml version='1.0' encoding='utf-8'?>
<kml xmlns="http://www.opengis.net/kml/2.2"><Document><name>Gulf Harbour LINZ foot track 1</name><Style id="c"><LineStyle><color>ffff00ff</color><width>5</width></LineStyle></Style><Placemark><name>Gulf Harbour LINZ foot track 1</name><description>Sheet row 1057; LINZ t50_fid(s) 3584890,3585340,3593399</description><styleUrl>#c</styleUrl><MultiGeometry><LineString><tessellate>1</tessellate><coordinates>174.782957,-36.621537 174.782921,-36.621440 174.782928,-36.621294 174.782943,-36.621220 174.783002,-36.621140 174.783207,-36.620973 174.783321,-36.620850 174.783357,-36.620722 174.783368,-36.620560 174.783403,-36.620393 174.783426,-36.620308 174.783491,-36.620245 174.783739,-36.620227 174.784029,-36.620132</coordinates></LineString><LineString><tessellate>1</tessellate><coordinates>174.784029,-36.620132 174.784328,-36.620178 174.784582,-36.620154 174.784788,-36.620196 174.784973,-36.620138 174.785181,-36.620124 174.785568,-36.619948 174.785691,-36.619934 174.785701,-36.619933</coordinates></LineString><LineString><tessellate>1</tessellate><coordinates>174.784349,-36.619013 174.784338,-36.619175 174.784376,-36.619286 174.784337,-36.619477 174.784335,-36.619667 174.784213,-36.619784 174.784067,-36.619911 174.784029,-36.620132</coordinates></LineString></MultiGeometry></Placemark></Document></kml>