<?xml version='1.0' encoding='utf-8'?>
<kml xmlns="http://www.opengis.net/kml/2.2"><Document><name>Northcote LINZ foot track 2</name><Style id="c"><LineStyle><color>ffff00ff</color><width>5</width></LineStyle></Style><Placemark><name>Northcote LINZ foot track 2</name><description>Sheet row 826; LINZ t50_fid(s) 3584733,3584735,3593701,3573871,3585333,3593159,3585334</description><styleUrl>#c</styleUrl><MultiGeometry><LineString><tessellate>1</tessellate><coordinates>174.734472,-36.805963 174.734948,-36.805722 174.735311,-36.805430 174.735750,-36.805077 174.736407,-36.804962 174.736554,-36.805076</coordinates></LineString><LineString><tessellate>1</tessellate><coordinates>174.733315,-36.807409 174.733537,-36.807109 174.734138,-36.806297 174.734387,-36.806045 174.734472,-36.805963</coordinates></LineString><LineString><tessellate>1</tessellate><coordinates>174.733192,-36.804886 174.733711,-36.805032 174.733906,-36.805145 174.734093,-36.805533 174.734177,-36.805709 174.734472,-36.805963</coordinates></LineString><LineString><tessellate>1</tessellate><coordinates>174.736554,-36.805076 174.737118,-36.805183 174.737438,-36.805101 174.737752,-36.804850 174.738001,-36.804549 174.738306,-36.804519 174.738754,-36.804703 174.739421,-36.804890 174.739479,-36.804766 174.739492,-36.804641 174.739585,-36.804495 174.739709,-36.804395 174.739843,-36.804207 174.739517,-36.804258 174.739149,-36.804143 174.739050,-36.804038 174.738950,-36.804012</coordinates></LineString><LineString><tessellate>1</tessellate><coordinates>174.733192,-36.804886 174.733089,-36.804603 174.733091,-36.804009 174.733022,-36.803933 174.732897,-36.803908 174.732892,-36.803767 174.732888,-36.803599 174.733042,-36.803451</coordinates></LineString><LineString><tessellate>1</tessellate><coordinates>174.733192,-36.804886 174.732606,-36.804925 174.732529,-36.804931 174.732390,-36.804977 174.732357,-36.805072 174.732293,-36.805124 174.732199,-36.805092 174.732181,-36.804996</coordinates></LineString><LineString><tessellate>1</tessellate><coordinates>174.737012,-36.806603 174.737037,-36.806547 174.736958,-36.806478 174.736866,-36.806366 174.736739,-36.806214 174.736532,-36.806076 174.736406,-36.805963 174.736317,-36.805858 174.736262,-36.805585 174.736454,-36.805251 174.736554,-36.805076</coordinates></LineString></MultiGeometry></Placemark></Document></kml>