<?xml version='1.0' encoding='utf-8'?>
<kml xmlns="http://www.opengis.net/kml/2.2"><Document><name>Howick LINZ foot track 3</name><Style id="c"><LineStyle><color>ffff00ff</color><width>5</width></LineStyle></Style><Placemark><name>Howick LINZ foot track 3</name><description>Sheet row 976; LINZ t50_fid(s) 3593116</description><styleUrl>#c</styleUrl><MultiGeometry><LineString><tessellate>1</tessellate><coordinates>174.921373,-36.897204 174.920265,-36.896691</coordinates></LineString></MultiGeometry></Placemark></Document></kml>