<?xml version='1.0' encoding='utf-8'?>
<kml xmlns="http://www.opengis.net/kml/2.2"><Document><name>Ngarango Otainui Island LINZ foot track 2</name><Style id="c"><LineStyle><color>ffff00ff</color><width>5</width></LineStyle></Style><Placemark><name>Ngarango Otainui Island LINZ foot track 2</name><description>Sheet row 1244; LINZ t50_fid(s) 3584653</description><styleUrl>#c</styleUrl><MultiGeometry><LineString><tessellate>1</tessellate><coordinates>174.821012,-36.961844 174.820577,-36.962519 174.820210,-36.962933 174.820208,-36.962936 174.820186,-36.962959 174.819690,-36.963479 174.819731,-36.963536</coordinates></LineString></MultiGeometry></Placemark></Document></kml>