<?xml version='1.0' encoding='utf-8'?>
<kml xmlns="http://www.opengis.net/kml/2.2"><Document><name>Whakanewha / central Waiheke LINZ foot track 3</name><Style id="c"><LineStyle><color>ffff00ff</color><width>5</width></LineStyle></Style><Placemark><name>Whakanewha / central Waiheke LINZ foot track 3</name><description>Sheet row 994; LINZ t50_fid(s) 7880304,7880166,7879936,3593290,7879462,7879463,7879937</description><styleUrl>#c</styleUrl><MultiGeometry><LineString><tessellate>1</tessellate><coordinates>175.088589,-36.791817 175.088314,-36.791749 175.087898,-36.791622 175.087683,-36.791459 175.087241,-36.790818 175.087237,-36.790812</coordinates></LineString><LineString><tessellate>1</tessellate><coordinates>175.088589,-36.791817 175.088656,-36.792179 175.088524,-36.792319 175.088481,-36.792329 175.088577,-36.792382 175.088737,-36.792581 175.088769,-36.792742 175.088766,-36.793059 175.088758,-36.793339 175.088762,-36.793446</coordinates></LineString><LineString><tessellate>1</tessellate><coordinates>175.094650,-36.792603 175.094369,-36.792522 175.094063,-36.792462 175.093946,-36.792466 175.093759,-36.792410 175.093497,-36.792251 175.093273,-36.792104 175.093104,-36.791936 175.092792,-36.791859 175.092582,-36.791866 175.092404,-36.791950 175.092220,-36.791885 175.092250,-36.791687 175.092413,-36.791458 175.092728,-36.791257 175.092949,-36.791168 175.093051,-36.791187 175.093273,-36.791327 175.093538,-36.791365 175.093704,-36.791430 175.093969,-36.791500 175.094159,-36.791572 175.094211,-36.791549 175.094386,-36.791334 175.094500,-36.791108 175.094526,-36.790928 175.094509,-36.790755 175.094392,-36.790639 175.094392,-36.790494 175.094509,-36.790393 175.094570,-36.790365 175.094818,-36.790132 175.094867,-36.789934 175.095042,-36.789735 175.095135,-36.789565 175.095359,-36.789403 175.095511,-36.789252 175.095613,-36.789170 175.095619,-36.789133 175.095532,-36.789133 175.095421,-36.789191 175.095164,-36.789236 175.095007,-36.789448 175.094797,-36.789565 175.094666,-36.789632 175.094511,-36.789759 175.094503,-36.789801 175.094418,-36.789873 175.094060,-36.789964 175.093736,-36.790008 175.093459,-36.790088 175.093156,-36.790151 175.092946,-36.790153 175.092774,-36.790160 175.092605,-36.790209 175.092355,-36.790239 175.092086,-36.790172 175.091678,-36.790239 175.091527,-36.790349 175.091206,-36.790428 175.091019,-36.790419 175.090748,-36.790454 175.090597,-36.790468 175.090369,-36.790529 175.090157,-36.790608 175.089926,-36.790828 175.089684,-36.790958 175.089609,-36.791119 175.089349,-36.791320 175.089081,-36.791498 175.088833,-36.791607 175.088746,-36.791654 175.088670,-36.791710 175.088589,-36.791817</coordinates></LineString><LineString><tessellate>1</tessellate><coordinates>175.094549,-36.793380 175.094374,-36.793366 175.094048,-36.793116 175.094004,-36.793112 175.093611,-36.793083 175.093412,-36.793168</coordinates></LineString><LineString><tessellate>1</tessellate><coordinates>175.094412,-36.795322 175.094355,-36.795302 175.093959,-36.795429 175.093653,-36.795572 175.093535,-36.795647 175.093341,-36.795747 175.093217,-36.795840 175.093048,-36.795847 175.092705,-36.796003 175.092462,-36.796040 175.091744,-36.796664 175.091638,-36.796907 175.091569,-36.797020 175.091420,-36.797095 175.091264,-36.797207 175.091151,-36.797257 175.090977,-36.797382 175.090845,-36.797475 175.090733,-36.797613 175.090502,-36.797725 175.090315,-36.797831 175.090134,-36.797850 175.089847,-36.798006 175.089654,-36.798168 175.089485,-36.798249 175.089229,-36.798374 175.088986,-36.798424 175.088830,-36.798449 175.088612,-36.798436 175.088316,-36.798341 175.088202,-36.798386 175.088115,-36.798478 175.087932,-36.798409 175.087816,-36.798387</coordinates></LineString><LineString><tessellate>1</tessellate><coordinates>175.087300,-36.793742 175.087302,-36.793742 175.087447,-36.793769 175.087523,-36.793850 175.087802,-36.793938 175.087898,-36.794019 175.087927,-36.794046 175.088527,-36.794434 175.088536,-36.794034 175.088599,-36.793773 175.088762,-36.793446 175.088781,-36.793623 175.088916,-36.793876 175.089017,-36.794069 175.089329,-36.794157 175.089799,-36.794342 175.090294,-36.794372 175.090380,-36.794369 175.090558,-36.794550 175.090803,-36.794623 175.090947,-36.794673 175.091053,-36.794704 175.091177,-36.794819 175.091321,-36.794838 175.091672,-36.794934 175.091960,-36.795038 175.092114,-36.795057 175.092094,-36.795211 175.092008,-36.795304 175.091960,-36.795442 175.091811,-36.795565 175.091715,-36.795603 175.091629,-36.795726 175.091653,-36.795757 175.091624,-36.796026 175.091648,-36.796080 175.091725,-36.796153 175.091758,-36.796257 175.091686,-36.796434 175.091533,-36.796580 175.091369,-36.796772 175.091321,-36.796926 175.091293,-36.797076 175.091264,-36.797207</coordinates></LineString><LineString><tessellate>1</tessellate><coordinates>175.092705,-36.796003 175.092745,-36.795869 175.092708,-36.795709 175.092980,-36.795366 175.092984,-36.795277 175.093081,-36.795113 175.093081,-36.795018 175.093186,-36.794961 175.093223,-36.794874 175.093276,-36.794831 175.093329,-36.794601 175.093502,-36.794536 175.093635,-36.794483 175.094014,-36.794006 175.093989,-36.793912 175.093993,-36.793792 175.093968,-36.793603 175.093957,-36.793532 175.094042,-36.793330 175.094046,-36.793202 175.094026,-36.793174 175.094004,-36.793112 175.093975,-36.793032 175.093886,-36.792956 175.093678,-36.792862 175.093499,-36.792650 175.093416,-36.792474 175.093497,-36.792251</coordinates></LineString></MultiGeometry></Placemark></Document></kml>