<?xml version='1.0' encoding='utf-8'?>
<kml xmlns="http://www.opengis.net/kml/2.2"><Document><name>Glendowie LINZ foot track 5</name><Style id="c"><LineStyle><color>ffff00ff</color><width>5</width></LineStyle></Style><Placemark><name>Glendowie LINZ foot track 5</name><description>Sheet row 946; LINZ t50_fid(s) 3573834</description><styleUrl>#c</styleUrl><MultiGeometry><LineString><tessellate>1</tessellate><coordinates>174.881661,-36.872544 174.882297,-36.872750 174.882721,-36.872771 174.882953,-36.872813 174.883471,-36.872838 174.883560,-36.872865 174.883696,-36.872835 174.883808,-36.872777 174.883949,-36.872752 174.884158,-36.872761 174.884342,-36.872774 174.884548,-36.872831 174.884738,-36.872826 174.884851,-36.872799 174.884983,-36.872794 174.885123,-36.872820 174.885312,-36.872807 174.885424,-36.872853</coordinates></LineString></MultiGeometry></Placemark></Document></kml>