<?xml version='1.0' encoding='utf-8'?>
<kml xmlns="http://www.opengis.net/kml/2.2"><Document><name>Weymouth LINZ foot track 7</name><Style id="c"><LineStyle><color>ffff00ff</color><width>5</width></LineStyle></Style><Placemark><name>Weymouth LINZ foot track 7</name><description>Sheet row 1266; LINZ t50_fid(s) 3592735</description><styleUrl>#c</styleUrl><MultiGeometry><LineString><tessellate>1</tessellate><coordinates>174.865314,-37.041886 174.865308,-37.041884 174.865170,-37.041859 174.864512,-37.041711 174.864320,-37.041526 174.864152,-37.041355 174.864057,-37.041348</coordinates></LineString></MultiGeometry></Placemark></Document></kml>