<?xml version='1.0' encoding='utf-8'?>
<kml xmlns="http://www.opengis.net/kml/2.2"><Document><name>Massey LINZ foot track 3</name><Style id="c"><LineStyle><color>ffff00ff</color><width>5</width></LineStyle></Style><Placemark><name>Massey LINZ foot track 3</name><description>Sheet row 1393; LINZ t50_fid(s) 3592535</description><styleUrl>#c</styleUrl><MultiGeometry><LineString><tessellate>1</tessellate><coordinates>174.605313,-36.834832 174.604984,-36.835372 174.604773,-36.835686 174.604836,-36.835774 174.604842,-36.835816 174.604805,-36.835869</coordinates></LineString></MultiGeometry></Placemark></Document></kml>