<?xml version='1.0' encoding='utf-8'?>
<kml xmlns="http://www.opengis.net/kml/2.2"><Document><name>Weymouth LINZ foot track 4</name><Style id="c"><LineStyle><color>ffff00ff</color><width>5</width></LineStyle></Style><Placemark><name>Weymouth LINZ foot track 4</name><description>Sheet row 1243; LINZ t50_fid(s) 3592759,3592741,3592756</description><styleUrl>#c</styleUrl><MultiGeometry><LineString><tessellate>1</tessellate><coordinates>174.873040,-37.029941 174.873514,-37.029873 174.873650,-37.029864 174.873810,-37.029816</coordinates></LineString><LineString><tessellate>1</tessellate><coordinates>174.872063,-37.030641 174.872072,-37.030634 174.873040,-37.029941</coordinates></LineString><LineString><tessellate>1</tessellate><coordinates>174.872880,-37.029638 174.872987,-37.029712 174.873040,-37.029941</coordinates></LineString></MultiGeometry></Placemark></Document></kml>