<?xml version='1.0' encoding='utf-8'?>
<kml xmlns="http://www.opengis.net/kml/2.2"><Document><name>Papakura LINZ foot track 8</name><Style id="c"><LineStyle><color>ffff00ff</color><width>5</width></LineStyle></Style><Placemark><name>Papakura LINZ foot track 8</name><description>Sheet row 1272; LINZ t50_fid(s) 3592650</description><styleUrl>#c</styleUrl><MultiGeometry><LineString><tessellate>1</tessellate><coordinates>174.935823,-37.074082 174.935826,-37.074098 174.935934,-37.074744 174.936071,-37.075185</coordinates></LineString></MultiGeometry></Placemark></Document></kml>