<?xml version='1.0' encoding='utf-8'?>
<kml xmlns="http://www.opengis.net/kml/2.2"><Document><name>Bucklands Beach LINZ foot track 2</name><Style id="c"><LineStyle><color>ffff00ff</color><width>5</width></LineStyle></Style><Placemark><name>Bucklands Beach LINZ foot track 2</name><description>Sheet row 949; LINZ t50_fid(s) 3573861</description><styleUrl>#c</styleUrl><MultiGeometry><LineString><tessellate>1</tessellate><coordinates>174.903298,-36.862948 174.903907,-36.862664 174.904637,-36.862344 174.905200,-36.862097 174.905750,-36.861857 174.905907,-36.861788</coordinates></LineString></MultiGeometry></Placemark></Document></kml>