<?xml version='1.0' encoding='utf-8'?>
<kml xmlns="http://www.opengis.net/kml/2.2"><Document><name>Glenfield LINZ foot track 11</name><Style id="c"><LineStyle><color>ffff00ff</color><width>5</width></LineStyle></Style><Placemark><name>Glenfield LINZ foot track 11</name><description>Sheet row 1136; LINZ t50_fid(s) 3593186</description><styleUrl>#c</styleUrl><MultiGeometry><LineString><tessellate>1</tessellate><coordinates>174.730585,-36.792767 174.730372,-36.792404 174.729997,-36.792323 174.729859,-36.791857</coordinates></LineString></MultiGeometry></Placemark></Document></kml>