<?xml version='1.0' encoding='utf-8'?>
<kml xmlns="http://www.opengis.net/kml/2.2"><Document><name>Ōrewa LINZ foot track 1</name><Style id="c"><LineStyle><color>ffff00ff</color><width>5</width></LineStyle></Style><Placemark><name>Ōrewa LINZ foot track 1</name><description>Sheet row 915; LINZ t50_fid(s) 7644983</description><styleUrl>#c</styleUrl><MultiGeometry><LineString><tessellate>1</tessellate><coordinates>174.691447,-36.574844 174.691586,-36.574713 174.691661,-36.574578 174.691743,-36.574518 174.692143,-36.574871 174.692410,-36.575364 174.692728,-36.576107 174.692972,-36.576837 174.693189,-36.577333 174.693457,-36.577985 174.693746,-36.578705 174.693809,-36.578994 174.693904,-36.579280 174.694006,-36.579497 174.694076,-36.579828 174.694175,-36.580072 174.694313,-36.580358 174.694407,-36.580646 174.694428,-36.580834 174.694519,-36.581049 174.694620,-36.581243 174.694756,-36.581607 174.694996,-36.582130 174.695114,-36.582308 174.695222,-36.582580 174.695363,-36.582902 174.695542,-36.583238 174.695753,-36.583653 174.695867,-36.584034 174.695958,-36.584285 174.696033,-36.584441 174.696178,-36.584558 174.696327,-36.584830 174.696512,-36.585223 174.696618,-36.585398 174.696827,-36.585685 174.696974,-36.586127 174.697095,-36.586433 174.697314,-36.586809 174.697523,-36.587227 174.697696,-36.587588 174.698146,-36.588541 174.698182,-36.588782 174.698068,-36.588820 174.698022,-36.588859 174.697893,-36.588979 174.697822,-36.589030 174.697787,-36.589122 174.697724,-36.589185 174.697696,-36.589242 174.697704,-36.589344 174.697737,-36.589416 174.697814,-36.589477 174.697852,-36.589597 174.697991,-36.589675 174.698045,-36.589726 174.698086,-36.589818 174.698187,-36.589975 174.698198,-36.590041 174.698226,-36.590103 174.698228,-36.590171 174.698210,-36.590231 174.698201,-36.590270 174.698203,-36.590290 174.698228,-36.590339 174.698242,-36.590450 174.698280,-36.590504 174.698314,-36.590535 174.698369,-36.590553 174.698468,-36.590577 174.698533,-36.590613 174.698588,-36.590704 174.698684,-36.590941 174.698757,-36.591056 174.698828,-36.591200</coordinates></LineString></MultiGeometry></Placemark></Document></kml>