<?xml version='1.0' encoding='utf-8'?>
<kml xmlns="http://www.opengis.net/kml/2.2"><Document><name>Kakamatua LINZ foot track 4</name><Style id="c"><LineStyle><color>ffff00ff</color><width>5</width></LineStyle></Style><Placemark><name>Kakamatua LINZ foot track 4</name><description>Sheet row 1007; LINZ t50_fid(s) 3584262</description><styleUrl>#c</styleUrl><MultiGeometry><LineString><tessellate>1</tessellate><coordinates>174.602810,-37.015527 174.602717,-37.015448 174.602661,-37.015410 174.602616,-37.015398 174.602560,-37.015398 174.602471,-37.015378 174.602422,-37.015399 174.602340,-37.015428 174.602228,-37.015412 174.602156,-37.015371 174.602140,-37.015339 174.602082,-37.015332 174.602030,-37.015368 174.601969,-37.015376 174.601922,-37.015356 174.601847,-37.015355 174.601751,-37.015368 174.601684,-37.015421 174.601606,-37.015504 174.601546,-37.015540 174.601493,-37.015542 174.601380,-37.015569 174.601339,-37.015555 174.601275,-37.015530 174.601224,-37.015548 174.601172,-37.015578 174.601091,-37.015614 174.601063,-37.015617</coordinates></LineString></MultiGeometry></Placemark></Document></kml>