<?xml version='1.0' encoding='utf-8'?>
<kml xmlns="http://www.opengis.net/kml/2.2"><Document><name>East Tāmaki LINZ foot track 1</name><Style id="c"><LineStyle><color>ffff00ff</color><width>5</width></LineStyle></Style><Placemark><name>East Tāmaki LINZ foot track 1</name><description>Sheet row 1283; LINZ t50_fid(s) 6065796</description><styleUrl>#c</styleUrl><MultiGeometry><LineString><tessellate>1</tessellate><coordinates>174.888423,-36.952779 174.888466,-36.953340 174.888351,-36.953841 174.888351,-36.953845</coordinates></LineString></MultiGeometry></Placemark></Document></kml>