<?xml version='1.0' encoding='utf-8'?>
<kml xmlns="http://www.opengis.net/kml/2.2"><Document><name>Unsworth Heights LINZ foot track 9</name><Style id="c"><LineStyle><color>ffff00ff</color><width>5</width></LineStyle></Style><Placemark><name>Unsworth Heights LINZ foot track 9</name><description>Sheet row 1096; LINZ t50_fid(s) 8467003</description><styleUrl>#c</styleUrl><MultiGeometry><LineString><tessellate>1</tessellate><coordinates>174.717584,-36.754395 174.717569,-36.754409 174.717567,-36.754420 174.717569,-36.754431 174.717589,-36.754440 174.717611,-36.754447 174.717645,-36.754456 174.717664,-36.754466 174.717685,-36.754479 174.717697,-36.754492 174.717703,-36.754504 174.717709,-36.754519 174.717718,-36.754531 174.717732,-36.754539 174.717755,-36.754550 174.717783,-36.754560 174.717824,-36.754573 174.717844,-36.754582 174.717857,-36.754594 174.717870,-36.754610 174.717880,-36.754631 174.717890,-36.754656 174.717897,-36.754694 174.717901,-36.754725 174.717908,-36.754750 174.717919,-36.754770 174.717931,-36.754788 174.717947,-36.754806 174.717996,-36.754851 174.718083,-36.754926 174.718173,-36.755010 174.718204,-36.755037 174.718212,-36.755047 174.718238,-36.755102 174.718254,-36.755133 174.718265,-36.755149 174.718279,-36.755163 174.718306,-36.755194 174.718333,-36.755225 174.718351,-36.755249 174.718382,-36.755298 174.718420,-36.755363 174.718446,-36.755421 174.718462,-36.755463 174.718484,-36.755500 174.718498,-36.755521 174.718518,-36.755546 174.718550,-36.755591 174.718560,-36.755606 174.718566,-36.755623 174.718575,-36.755663 174.718620,-36.755759</coordinates></LineString></MultiGeometry></Placemark></Document></kml>