<?xml version='1.0' encoding='utf-8'?>
<kml xmlns="http://www.opengis.net/kml/2.2"><Document><name>Waitākere LINZ foot track 2</name><Style id="c"><LineStyle><color>ffff00ff</color><width>5</width></LineStyle></Style><Placemark><name>Waitākere LINZ foot track 2</name><description>Sheet row 1436; LINZ t50_fid(s) 8520881</description><styleUrl>#c</styleUrl><MultiGeometry><LineString><tessellate>1</tessellate><coordinates>174.522891,-36.868132 174.521924,-36.868289 174.521049,-36.868702 174.520221,-36.869015 174.519905,-36.869221 174.519671,-36.869530 174.519439,-36.869791 174.518762,-36.870381 174.518551,-36.870702 174.518490,-36.871232 174.518426,-36.871554 174.518181,-36.871677 174.518014,-36.871912 174.517868,-36.872074</coordinates></LineString></MultiGeometry></Placemark></Document></kml>