<?xml version='1.0' encoding='utf-8'?>
<kml xmlns="http://www.opengis.net/kml/2.2"><Document><name>Ōtara LINZ foot track 9</name><Style id="c"><LineStyle><color>ffff00ff</color><width>5</width></LineStyle></Style><Placemark><name>Ōtara LINZ foot track 9</name><description>Sheet row 1280; LINZ t50_fid(s) 6065795</description><styleUrl>#c</styleUrl><MultiGeometry><LineString><tessellate>1</tessellate><coordinates>174.873391,-36.961777 174.873322,-36.960786 174.873315,-36.960678</coordinates></LineString></MultiGeometry></Placemark></Document></kml>