<?xml version='1.0' encoding='utf-8'?>
<kml xmlns="http://www.opengis.net/kml/2.2"><Document><name>Motukaraka Island LINZ foot track 1</name><Style id="c"><LineStyle><color>ffff00ff</color><width>5</width></LineStyle></Style><Placemark><name>Motukaraka Island LINZ foot track 1</name><description>Sheet row 1016; LINZ t50_fid(s) 3574982</description><styleUrl>#c</styleUrl><MultiGeometry><LineString><tessellate>1</tessellate><coordinates>174.989034,-36.894707 174.988973,-36.894630 174.988860,-36.894448 174.988807,-36.894331 174.988746,-36.894232 174.988736,-36.894162 174.988778,-36.894030 174.988892,-36.893918 174.988905,-36.893756 174.988985,-36.893621 174.989088,-36.893431 174.989243,-36.893247 174.989284,-36.893135 174.989282,-36.893065 174.989401,-36.892912 174.989441,-36.892789 174.989508,-36.892543 174.989604,-36.892361 174.989601,-36.892216 174.989498,-36.892171 174.989446,-36.892119 174.989443,-36.892014 174.989538,-36.891756 174.989498,-36.891623 174.989357,-36.891509 174.989129,-36.891361 174.988948,-36.891130 174.988553,-36.890865 174.988423,-36.890770</coordinates></LineString></MultiGeometry></Placemark></Document></kml>