<?xml version='1.0' encoding='utf-8'?>
<kml xmlns="http://www.opengis.net/kml/2.2"><Document><name>Wairere Scenic Reserve LINZ foot track 1</name><Style id="c"><LineStyle><color>ffff00ff</color><width>5</width></LineStyle></Style><Placemark><name>Wairere Scenic Reserve LINZ foot track 1</name><description>Sheet row 1335; LINZ t50_fid(s) 6097593</description><styleUrl>#c</styleUrl><MultiGeometry><LineString><tessellate>1</tessellate><coordinates>174.596507,-36.420355 174.596916,-36.419806 174.597340,-36.419468 174.598020,-36.419308 174.598268,-36.418859 174.598869,-36.417778 174.598938,-36.417645 174.598951,-36.417510 174.598888,-36.417360 174.598834,-36.417245 174.598752,-36.417111 174.598614,-36.416958 174.598452,-36.416806 174.598345,-36.416657 174.598332,-36.416570 174.598390,-36.416492 174.598495,-36.416382 174.598553,-36.416307 174.598614,-36.416210 174.598661,-36.416151 174.598739,-36.416096 174.598849,-36.416036 174.598947,-36.415929 174.598957,-36.415858 174.598948,-36.415791 174.598914,-36.415705 174.598805,-36.415613 174.598716,-36.415559 174.598707,-36.415520 174.598684,-36.415430</coordinates></LineString></MultiGeometry></Placemark></Document></kml>