<?xml version='1.0' encoding='utf-8'?>
<kml xmlns="http://www.opengis.net/kml/2.2"><Document><name>Stanmore Bay LINZ foot track 3</name><Style id="c"><LineStyle><color>ffff00ff</color><width>5</width></LineStyle></Style><Placemark><name>Stanmore Bay LINZ foot track 3</name><description>Sheet row 1037; LINZ t50_fid(s) 8467011,8466782,8467012,8467150,8467013</description><styleUrl>#c</styleUrl><MultiGeometry><LineString><tessellate>1</tessellate><coordinates>174.740994,-36.630666 174.741132,-36.630503 174.741179,-36.630464 174.741265,-36.630436 174.741403,-36.630381 174.741758,-36.630300 174.741694,-36.630238 174.741682,-36.630193 174.741689,-36.630130 174.741714,-36.630077 174.741754,-36.630029 174.741927,-36.629903 174.742109,-36.629753 174.742255,-36.629659 174.742583,-36.629450 174.742667,-36.629391 174.742728,-36.629325</coordinates></LineString><LineString><tessellate>1</tessellate><coordinates>174.742103,-36.626911 174.742143,-36.627378 174.742167,-36.627642 174.742177,-36.627725 174.742195,-36.627807 174.742236,-36.627897 174.742373,-36.628169 174.742386,-36.628221 174.742392,-36.628324 174.742410,-36.628415 174.742432,-36.628492 174.742500,-36.628685 174.742635,-36.628970 174.742689,-36.629100 174.742728,-36.629206 174.742735,-36.629257 174.742728,-36.629325</coordinates></LineString><LineString><tessellate>1</tessellate><coordinates>174.743530,-36.629952 174.743615,-36.630152 174.743701,-36.630419 174.743712,-36.630736 174.743629,-36.630951 174.743581,-36.631085 174.743561,-36.631140 174.743527,-36.631244 174.743513,-36.631348 174.743540,-36.631458 174.743613,-36.631585</coordinates></LineString><LineString><tessellate>1</tessellate><coordinates>174.742728,-36.629325 174.742756,-36.629342 174.742901,-36.629425 174.743331,-36.629673 174.743393,-36.629737 174.743530,-36.629952</coordinates></LineString><LineString><tessellate>1</tessellate><coordinates>174.743530,-36.629952 174.743829,-36.629863 174.743953,-36.629843 174.744100,-36.629849 174.744233,-36.629878 174.744324,-36.629919 174.744401,-36.629988 174.744467,-36.630072 174.744542,-36.630202 174.744671,-36.630400 174.744681,-36.630720 174.744763,-36.630971 174.744777,-36.631126 174.744783,-36.631220 174.744812,-36.631228</coordinates></LineString></MultiGeometry></Placemark></Document></kml>