<?xml version='1.0' encoding='utf-8'?>
<kml xmlns="http://www.opengis.net/kml/2.2"><Document><name>Algies Bay LINZ foot track 2</name><Style id="c"><LineStyle><color>ffff00ff</color><width>5</width></LineStyle></Style><Placemark><name>Algies Bay LINZ foot track 2</name><description>Sheet row 812; LINZ t50_fid(s) 3574115</description><styleUrl>#c</styleUrl><MultiGeometry><LineString><tessellate>1</tessellate><coordinates>174.744595,-36.437808 174.744475,-36.437811 174.744389,-36.437807 174.743774,-36.437747 174.742748,-36.437649 174.742108,-36.437606 174.741576,-36.437627 174.741159,-36.437659 174.740847,-36.437691 174.740686,-36.437697</coordinates></LineString></MultiGeometry></Placemark></Document></kml>