<?xml version='1.0' encoding='utf-8'?>
<kml xmlns="http://www.opengis.net/kml/2.2"><Document><name>Epsom LINZ foot track 3</name><Style id="c"><LineStyle><color>ffff00ff</color><width>5</width></LineStyle></Style><Placemark><name>Epsom LINZ foot track 3</name><description>Sheet row 902; LINZ t50_fid(s) 3592932</description><styleUrl>#c</styleUrl><MultiGeometry><LineString><tessellate>1</tessellate><coordinates>174.763063,-36.892493 174.764308,-36.892728</coordinates></LineString></MultiGeometry></Placemark></Document></kml>