<?xml version='1.0' encoding='utf-8'?>
<kml xmlns="http://www.opengis.net/kml/2.2"><Document><name>Māngere Bridge LINZ foot track 6</name><Style id="c"><LineStyle><color>ffff00ff</color><width>5</width></LineStyle></Style><Placemark><name>Māngere Bridge LINZ foot track 6</name><description>Sheet row 895; LINZ t50_fid(s) 3592944</description><styleUrl>#c</styleUrl><MultiGeometry><LineString><tessellate>1</tessellate><coordinates>174.775926,-36.943235 174.776535,-36.943491 174.777176,-36.943597</coordinates></LineString></MultiGeometry></Placemark></Document></kml>