<?xml version='1.0' encoding='utf-8'?>
<kml xmlns="http://www.opengis.net/kml/2.2"><Document><name>Northern Aotea / Great Barrier LINZ foot track 1</name><Style id="c"><LineStyle><color>ffff00ff</color><width>5</width></LineStyle></Style><Placemark><name>Northern Aotea / Great Barrier LINZ foot track 1</name><description>Sheet row 993; LINZ t50_fid(s) 3593476</description><styleUrl>#c</styleUrl><MultiGeometry><LineString><tessellate>1</tessellate><coordinates>175.381257,-36.201276 175.381208,-36.201210 175.381055,-36.201096 175.380875,-36.201035 175.380635,-36.200888 175.380507,-36.200753 175.380421,-36.200575 175.380385,-36.200164</coordinates></LineString></MultiGeometry></Placemark></Document></kml>