<?xml version='1.0' encoding='utf-8'?>
<kml xmlns="http://www.opengis.net/kml/2.2"><Document><name>Northcote LINZ foot track 1</name><Style id="c"><LineStyle><color>ffff00ff</color><width>5</width></LineStyle></Style><Placemark><name>Northcote LINZ foot track 1</name><description>Sheet row 825; LINZ t50_fid(s) 3554672</description><styleUrl>#c</styleUrl><MultiGeometry><LineString><tessellate>1</tessellate><coordinates>174.756642,-36.806924 174.757046,-36.806123 174.757009,-36.806005 174.757251,-36.805921 174.757416,-36.805827 174.757275,-36.805499 174.757052,-36.805030 174.756910,-36.804849 174.756724,-36.804677 174.756576,-36.804202 174.756684,-36.803925 174.756651,-36.803648 174.756486,-36.803446 174.756224,-36.803370 174.755937,-36.803419 174.755751,-36.803535 174.755589,-36.803707 174.755366,-36.803836 174.755168,-36.803952 174.755013,-36.803995 174.754795,-36.804087 174.754672,-36.804177 174.754461,-36.804281 174.754350,-36.804383 174.754200,-36.804400 174.754005,-36.804381 174.753765,-36.804409 174.753385,-36.804405 174.753083,-36.804475 174.752568,-36.804324 174.752043,-36.804120 174.751803,-36.804052 174.751519,-36.803850 174.751391,-36.803785 174.751311,-36.803749 174.751133,-36.803532 174.751051,-36.803325 174.750998,-36.803040 174.750878,-36.802274 174.750928,-36.802083 174.750839,-36.801744 174.750844,-36.801518 174.750802,-36.801351 174.750684,-36.801161 174.750674,-36.800991 174.750670,-36.800920 174.750706,-36.800799 174.750783,-36.800641 174.750867,-36.800546 174.750991,-36.800479 174.751104,-36.800305 174.751125,-36.800349 174.751251,-36.800362 174.751341,-36.800140 174.751366,-36.799946 174.752033,-36.799448 174.752525,-36.799277 174.752630,-36.799108 174.752609,-36.798960 174.752503,-36.798854 174.752529,-36.798728 174.752596,-36.798611 174.752484,-36.798511 174.752421,-36.798497 174.752147,-36.798437 174.751931,-36.798324 174.751737,-36.798149</coordinates></LineString></MultiGeometry></Placemark></Document></kml>