<?xml version='1.0' encoding='utf-8'?>
<kml xmlns="http://www.opengis.net/kml/2.2"><Document><name>Flat Bush LINZ foot track 1</name><Style id="c"><LineStyle><color>ffff00ff</color><width>5</width></LineStyle></Style><Placemark><name>Flat Bush LINZ foot track 1</name><description>Sheet row 1217; LINZ t50_fid(s) 8062698</description><styleUrl>#c</styleUrl><MultiGeometry><LineString><tessellate>1</tessellate><coordinates>174.908228,-36.959885 174.908302,-36.959881 174.908639,-36.959778 174.908813,-36.959697 174.908940,-36.959588 174.909127,-36.959425 174.909282,-36.959356 174.909499,-36.959290 174.909574,-36.959289 174.909672,-36.959291 174.909800,-36.959276 174.909894,-36.959271 174.909997,-36.959317 174.910321,-36.959450 174.910563,-36.959571 174.910693,-36.959648 174.910817,-36.959755 174.910847,-36.959824 174.910847,-36.959859 174.910821,-36.959915 174.910741,-36.959983 174.910743,-36.960055 174.910747,-36.960205 174.910764,-36.960284 174.910812,-36.960320 174.910871,-36.960326 174.910921,-36.960312 174.911010,-36.960251 174.911198,-36.960110 174.911306,-36.960039 174.911457,-36.960006 174.911613,-36.959994 174.911766,-36.960004 174.911936,-36.960048 174.912051,-36.960128 174.912205,-36.960201 174.912303,-36.960215 174.912460,-36.960203 174.912666,-36.960181 174.912784,-36.960182 174.912921,-36.960214 174.913036,-36.960263 174.913203,-36.960386 174.913339,-36.960493 174.913384,-36.960562 174.913426,-36.960680 174.913487,-36.960776 174.913635,-36.960922 174.913791,-36.961067 174.913926,-36.961127 174.914076,-36.961187 174.914248,-36.961188 174.914444,-36.961182 174.914549,-36.961161 174.914789,-36.961069 174.915007,-36.961050 174.915327,-36.961014 174.915459,-36.960980 174.915603,-36.960931 174.915734,-36.960869 174.915876,-36.960763 174.916045,-36.960619 174.916105,-36.960536 174.916217,-36.960472 174.916290,-36.960420 174.916358,-36.960313 174.916359,-36.960206 174.916325,-36.960090 174.916239,-36.959947 174.916175,-36.959889 174.916049,-36.959837 174.915865,-36.959840 174.915692,-36.959818 174.915562,-36.959773 174.915438,-36.959656 174.915376,-36.959525 174.915373,-36.959418 174.915355,-36.959299 174.915290,-36.959203 174.915240,-36.959158 174.915158,-36.959105</coordinates></LineString></MultiGeometry></Placemark></Document></kml>