<?xml version='1.0' encoding='utf-8'?>
<kml xmlns="http://www.opengis.net/kml/2.2"><Document><name>Oneroa / western Waiheke LINZ foot track 4</name><Style id="c"><LineStyle><color>ffff00ff</color><width>5</width></LineStyle></Style><Placemark><name>Oneroa / western Waiheke LINZ foot track 4</name><description>Sheet row 1479; LINZ t50_fid(s) 6082519</description><styleUrl>#c</styleUrl><MultiGeometry><LineString><tessellate>1</tessellate><coordinates>174.990566,-36.795716 174.990692,-36.795746 174.990792,-36.795757 174.990920,-36.795749 174.991085,-36.795643 174.991203,-36.795598 174.991343,-36.795515 174.991415,-36.795505 174.991604,-36.795470 174.991758,-36.795506 174.991853,-36.795513 174.991902,-36.795477 174.991937,-36.795409 174.992022,-36.795378 174.992123,-36.795401 174.992172,-36.795351 174.992264,-36.795343 174.992445,-36.795340 174.992576,-36.795356 174.992704,-36.795351 174.992881,-36.795306 174.992947,-36.795267 174.992987,-36.795201 174.993094,-36.795123 174.993123,-36.795055 174.993234,-36.795026 174.993275,-36.794918 174.994740,-36.794655 174.994804,-36.794604 174.995070,-36.794537 174.995287,-36.794496 174.995347,-36.794426 174.995219,-36.794180 174.995146,-36.794198 174.995109,-36.794194 174.995138,-36.793788 174.995179,-36.793219 174.995194,-36.793089 174.995371,-36.793088 174.995515,-36.793090 174.995648,-36.793069 174.995829,-36.793073</coordinates></LineString></MultiGeometry></Placemark></Document></kml>