<?xml version='1.0' encoding='utf-8'?>
<kml xmlns="http://www.opengis.net/kml/2.2"><Document><name>Panmure LINZ foot track 2</name><Style id="c"><LineStyle><color>ffff00ff</color><width>5</width></LineStyle></Style><Placemark><name>Panmure LINZ foot track 2</name><description>Sheet row 847; LINZ t50_fid(s) 6082516</description><styleUrl>#c</styleUrl><MultiGeometry><LineString><tessellate>1</tessellate><coordinates>174.835106,-36.889514 174.835153,-36.889554 174.835269,-36.889541 174.835564,-36.889339 174.835868,-36.889198 174.836183,-36.889105 174.836448,-36.889071 174.836690,-36.889059 174.836960,-36.889085 174.837200,-36.889131 174.837437,-36.889209 174.837654,-36.889304 174.837848,-36.889425 174.838025,-36.889564 174.838197,-36.889748 174.838310,-36.889930 174.838378,-36.890066 174.838412,-36.890194 174.838755,-36.890128 174.838889,-36.890143 174.838926,-36.890157</coordinates></LineString></MultiGeometry></Placemark></Document></kml>