<?xml version='1.0' encoding='utf-8'?>
<kml xmlns="http://www.opengis.net/kml/2.2"><Document><name>Māngere Bridge LINZ foot track 9</name><Style id="c"><LineStyle><color>ffff00ff</color><width>5</width></LineStyle></Style><Placemark><name>Māngere Bridge LINZ foot track 9</name><description>Sheet row 1260; LINZ t50_fid(s) 3592947</description><styleUrl>#c</styleUrl><MultiGeometry><LineString><tessellate>1</tessellate><coordinates>174.779685,-36.951677 174.779570,-36.951536 174.779297,-36.951140 174.780071,-36.950893</coordinates></LineString></MultiGeometry></Placemark></Document></kml>