<?xml version='1.0' encoding='utf-8'?>
<kml xmlns="http://www.opengis.net/kml/2.2"><Document><name>Mairangi Bay LINZ foot track 16</name><Style id="c"><LineStyle><color>ffff00ff</color><width>5</width></LineStyle></Style><Placemark><name>Mairangi Bay LINZ foot track 16</name><description>Sheet row 1137; LINZ t50_fid(s) 8521028</description><styleUrl>#c</styleUrl><MultiGeometry><LineString><tessellate>1</tessellate><coordinates>174.745346,-36.743891 174.745277,-36.744071 174.745185,-36.744350 174.745174,-36.744467 174.745155,-36.744604 174.745370,-36.745028</coordinates></LineString></MultiGeometry></Placemark></Document></kml>