<?xml version='1.0' encoding='utf-8'?>
<kml xmlns="http://www.opengis.net/kml/2.2"><Document><name>St Heliers LINZ foot track 5</name><Style id="c"><LineStyle><color>ffff00ff</color><width>5</width></LineStyle></Style><Placemark><name>St Heliers LINZ foot track 5</name><description>Sheet row 943; LINZ t50_fid(s) 3584765</description><styleUrl>#c</styleUrl><MultiGeometry><LineString><tessellate>1</tessellate><coordinates>174.869166,-36.846277 174.869161,-36.846219 174.868830,-36.845807 174.868337,-36.845623 174.867665,-36.845352 174.867403,-36.845376 174.867211,-36.845626 174.866888,-36.845790 174.866634,-36.846148 174.866574,-36.846401 174.866458,-36.846604 174.866340,-36.846815 174.866323,-36.846893 174.866283,-36.847146 174.866159,-36.847213</coordinates></LineString></MultiGeometry></Placemark></Document></kml>