<?xml version='1.0' encoding='utf-8'?>
<kml xmlns="http://www.opengis.net/kml/2.2"><Document><name>Puhoi LINZ foot track 2</name><Style id="c"><LineStyle><color>ffff00ff</color><width>5</width></LineStyle></Style><Placemark><name>Puhoi LINZ foot track 2</name><description>Sheet row 1192; LINZ t50_fid(s) 6097462</description><styleUrl>#c</styleUrl><MultiGeometry><LineString><tessellate>1</tessellate><coordinates>174.627488,-36.500465 174.627691,-36.500398 174.628250,-36.500214 174.628647,-36.500161 174.629283,-36.500477 174.630412,-36.501578 174.631722,-36.501776 174.632138,-36.501982 174.632691,-36.501977 174.634438,-36.501420 174.635940,-36.501178 174.637248,-36.501238 174.638059,-36.501727 174.638878,-36.501843 174.639133,-36.501705 174.639825,-36.501765 174.640667,-36.501513 174.641305,-36.501131 174.641800,-36.501207 174.642176,-36.501265 174.642366,-36.501227 174.642466,-36.501310 174.643143,-36.501414 174.643487,-36.501350 174.643957,-36.501414 174.644164,-36.501381 174.644477,-36.501136 174.644600,-36.501243 174.644508,-36.501471 174.644662,-36.501777 174.644949,-36.501770 174.645226,-36.501880 174.645698,-36.501839 174.646174,-36.501683 174.646521,-36.501478 174.646814,-36.501090 174.647044,-36.501009 174.647262,-36.501030 174.647200,-36.501164 174.647102,-36.501381 174.647184,-36.501461 174.647737,-36.501186 174.648494,-36.501159 174.649039,-36.500801 174.649099,-36.500752 174.649341,-36.500480</coordinates></LineString></MultiGeometry></Placemark></Document></kml>