<?xml version='1.0' encoding='utf-8'?>
<kml xmlns="http://www.opengis.net/kml/2.2"><Document><name>Snells Beach LINZ foot track 5</name><Style id="c"><LineStyle><color>ffff00ff</color><width>5</width></LineStyle></Style><Placemark><name>Snells Beach LINZ foot track 5</name><description>Sheet row 1204; LINZ t50_fid(s) 8493888</description><styleUrl>#c</styleUrl><MultiGeometry><LineString><tessellate>1</tessellate><coordinates>174.723916,-36.427819 174.725415,-36.427100 174.725480,-36.427091 174.725542,-36.427090 174.725573,-36.427067 174.725609,-36.426994 174.725623,-36.426914</coordinates></LineString></MultiGeometry></Placemark></Document></kml>