<?xml version='1.0' encoding='utf-8'?>
<kml xmlns="http://www.opengis.net/kml/2.2"><Document><name>South Head / Kaipara LINZ foot track 2</name><Style id="c"><LineStyle><color>ffff00ff</color><width>5</width></LineStyle></Style><Placemark><name>South Head / Kaipara LINZ foot track 2</name><description>Sheet row 1170; LINZ t50_fid(s) 3553563</description><styleUrl>#c</styleUrl><MultiGeometry><LineString><tessellate>1</tessellate><coordinates>174.366912,-36.725663 174.366388,-36.725879 174.365108,-36.725940 174.364128,-36.726151 174.363962,-36.726233 174.363558,-36.726567 174.363231,-36.726679 174.362936,-36.726718 174.362580,-36.726703 174.362122,-36.726797</coordinates></LineString></MultiGeometry></Placemark></Document></kml>