<?xml version='1.0' encoding='utf-8'?>
<kml xmlns="http://www.opengis.net/kml/2.2"><Document><name>Weymouth LINZ foot track 2</name><Style id="c"><LineStyle><color>ffff00ff</color><width>5</width></LineStyle></Style><Placemark><name>Weymouth LINZ foot track 2</name><description>Sheet row 1232; LINZ t50_fid(s) 3584589,3592744</description><styleUrl>#c</styleUrl><MultiGeometry><LineString><tessellate>1</tessellate><coordinates>174.868389,-37.027521 174.868497,-37.027561 174.868870,-37.027700 174.869607,-37.027494 174.869780,-37.027442</coordinates></LineString><LineString><tessellate>1</tessellate><coordinates>174.870880,-37.027320 174.870856,-37.027322 174.869780,-37.027442 174.869759,-37.027579 174.869763,-37.028097 174.870017,-37.028703</coordinates></LineString></MultiGeometry></Placemark></Document></kml>