<?xml version='1.0' encoding='utf-8'?>
<kml xmlns="http://www.opengis.net/kml/2.2"><Document><name>Henderson LINZ foot track 5</name><Style id="c"><LineStyle><color>ffff00ff</color><width>5</width></LineStyle></Style><Placemark><name>Henderson LINZ foot track 5</name><description>Sheet row 1359; LINZ t50_fid(s) 8466982,8466359,8466983</description><styleUrl>#c</styleUrl><MultiGeometry><LineString><tessellate>1</tessellate><coordinates>174.624587,-36.878492 174.624980,-36.878718 174.625061,-36.878714 174.625324,-36.878666 174.625654,-36.878663 174.626396,-36.878623 174.626466,-36.878631 174.626557,-36.878662 174.626637,-36.878697 174.626712,-36.878759 174.626967,-36.878948 174.627127,-36.879067 174.627248,-36.879169 174.627326,-36.879235</coordinates></LineString><LineString><tessellate>1</tessellate><coordinates>174.621318,-36.884409 174.621239,-36.884436 174.621139,-36.884377 174.621035,-36.884281 174.620975,-36.884206 174.620944,-36.884115 174.620920,-36.884014 174.620947,-36.883885 174.621071,-36.883555 174.621285,-36.882834 174.621350,-36.882699 174.621541,-36.882430 174.621620,-36.882296 174.621722,-36.882186 174.621972,-36.881963 174.622033,-36.881892 174.622086,-36.881776 174.622155,-36.881571 174.622168,-36.881402 174.622190,-36.881088 174.622210,-36.880969 174.622244,-36.880872 174.622293,-36.880811 174.622372,-36.880753 174.622629,-36.880660 174.622754,-36.880608 174.623017,-36.880397 174.623154,-36.880205 174.623346,-36.879930 174.623707,-36.879349 174.623975,-36.878983 174.624188,-36.878735 174.624436,-36.878545 174.624587,-36.878492 174.624700,-36.878452 174.624857,-36.878365 174.625015,-36.878239 174.625177,-36.878066 174.625255,-36.877946 174.625378,-36.877728 174.625546,-36.877528 174.625601,-36.877444 174.625610,-36.877365 174.625598,-36.877279 174.625617,-36.877227 174.625731,-36.877226 174.625846,-36.877167 174.626076,-36.877029 174.626131,-36.877023 174.626192,-36.877041 174.626332,-36.876982 174.626736,-36.876849 174.626792,-36.876773</coordinates></LineString><LineString><tessellate>1</tessellate><coordinates>174.622130,-36.877351 174.623020,-36.877741 174.623266,-36.877830 174.623557,-36.877922 174.623691,-36.877972 174.623753,-36.878067 174.623980,-36.878156 174.624119,-36.878239 174.624236,-36.878355 174.624367,-36.878442 174.624504,-36.878440 174.624587,-36.878492</coordinates></LineString></MultiGeometry></Placemark></Document></kml>