<?xml version='1.0' encoding='utf-8'?>
<kml xmlns="http://www.opengis.net/kml/2.2"><Document><name>Sandringham LINZ foot track 3</name><Style id="c"><LineStyle><color>ffff00ff</color><width>5</width></LineStyle></Style><Placemark><name>Sandringham LINZ foot track 3</name><description>Sheet row 904; LINZ t50_fid(s) 3592927</description><styleUrl>#c</styleUrl><MultiGeometry><LineString><tessellate>1</tessellate><coordinates>174.734682,-36.899598 174.734672,-36.899604 174.734083,-36.899944 174.733571,-36.899821</coordinates></LineString></MultiGeometry></Placemark></Document></kml>