<?xml version='1.0' encoding='utf-8'?>
<kml xmlns="http://www.opengis.net/kml/2.2"><Document><name>Blockhouse Bay LINZ foot track 2</name><Style id="c"><LineStyle><color>ffff00ff</color><width>5</width></LineStyle></Style><Placemark><name>Blockhouse Bay LINZ foot track 2</name><description>Sheet row 898; LINZ t50_fid(s) 3584634</description><styleUrl>#c</styleUrl><MultiGeometry><LineString><tessellate>1</tessellate><coordinates>174.717522,-36.929267 174.716211,-36.929225</coordinates></LineString></MultiGeometry></Placemark></Document></kml>