<?xml version='1.0' encoding='utf-8'?>
<kml xmlns="http://www.opengis.net/kml/2.2"><Document><name>Titirangi LINZ foot track 2</name><Style id="c"><LineStyle><color>ffff00ff</color><width>5</width></LineStyle></Style><Placemark><name>Titirangi LINZ foot track 2</name><description>Sheet row 1304; LINZ t50_fid(s) 3573814</description><styleUrl>#c</styleUrl><MultiGeometry><LineString><tessellate>1</tessellate><coordinates>174.654312,-36.953826 174.654134,-36.954602 174.654238,-36.955165 174.654454,-36.955676 174.654954,-36.956340</coordinates></LineString></MultiGeometry></Placemark></Document></kml>