<?xml version='1.0' encoding='utf-8'?>
<kml xmlns="http://www.opengis.net/kml/2.2"><Document><name>West Harbour LINZ foot track 2</name><Style id="c"><LineStyle><color>ffff00ff</color><width>5</width></LineStyle></Style><Placemark><name>West Harbour LINZ foot track 2</name><description>Sheet row 1360; LINZ t50_fid(s) 3593149,3573866,3554669</description><styleUrl>#c</styleUrl><MultiGeometry><LineString><tessellate>1</tessellate><coordinates>174.641572,-36.810271 174.641562,-36.810252 174.641498,-36.810103</coordinates></LineString><LineString><tessellate>1</tessellate><coordinates>174.644364,-36.811561 174.644397,-36.811589 174.644592,-36.811676 174.644557,-36.811758 174.644519,-36.811821 174.644447,-36.811780 174.644373,-36.811753 174.644270,-36.811710 174.644120,-36.811688 174.643987,-36.811630 174.643648,-36.811544 174.643346,-36.811391 174.643092,-36.811356 174.642674,-36.811076 174.642373,-36.810975 174.642069,-36.810791 174.641804,-36.810622 174.641687,-36.810435 174.641572,-36.810271</coordinates></LineString><LineString><tessellate>1</tessellate><coordinates>174.641572,-36.810271 174.641500,-36.810418 174.641413,-36.810484 174.641153,-36.810579 174.640841,-36.810682 174.640713,-36.810713 174.640499,-36.810716 174.640328,-36.810755 174.640101,-36.810801 174.640012,-36.810845 174.639972,-36.810923 174.639968,-36.810986 174.640142,-36.811011 174.640307,-36.811039 174.640519,-36.811131 174.640941,-36.811084 174.641018,-36.811089 174.641076,-36.811118 174.641152,-36.811180 174.641212,-36.811236 174.641167,-36.811343 174.641072,-36.811437 174.641021,-36.811664 174.640999,-36.811811 174.640848,-36.811919 174.640616,-36.812034 174.640406,-36.812251 174.639994,-36.812499 174.639916,-36.812729 174.639952,-36.812850 174.640036,-36.812910 174.640083,-36.812917 174.640201,-36.812907 174.640281,-36.812873 174.640957,-36.812341 174.641208,-36.812193 174.641851,-36.811961 174.642182,-36.811898 174.642552,-36.811949 174.642674,-36.811951 174.642749,-36.812052 174.642807,-36.812110 174.642983,-36.812156 174.643043,-36.812205 174.643088,-36.812264 174.643100,-36.812354 174.643200,-36.812448 174.643287,-36.812472 174.643430,-36.812464 174.643554,-36.812455 174.643615,-36.812475 174.643676,-36.812532 174.643709,-36.812606 174.643835,-36.812742 174.643901,-36.812835 174.644026,-36.813114 174.644219,-36.813298 174.644204,-36.813448 174.644341,-36.813773 174.644346,-36.814007 174.644277,-36.814338 174.643823,-36.814578 174.643722,-36.814597</coordinates></LineString></MultiGeometry></Placemark></Document></kml>