<?xml version='1.0' encoding='utf-8'?>
<kml xmlns="http://www.opengis.net/kml/2.2"><Document><name>Mairangi Bay LINZ foot track 4</name><Style id="c"><LineStyle><color>ffff00ff</color><width>5</width></LineStyle></Style><Placemark><name>Mairangi Bay LINZ foot track 4</name><description>Sheet row 1089; LINZ t50_fid(s) 3593250</description><styleUrl>#c</styleUrl><MultiGeometry><LineString><tessellate>1</tessellate><coordinates>174.755912,-36.738625 174.755993,-36.738732 174.756020,-36.738824 174.756082,-36.738905 174.756087,-36.739105 174.756164,-36.739164 174.756186,-36.739229 174.756230,-36.739297 174.756368,-36.739410 174.756463,-36.739436 174.756622,-36.739448 174.756744,-36.739464 174.756799,-36.739502 174.756791,-36.739540 174.756754,-36.739585 174.756681,-36.739648 174.756544,-36.739740 174.756417,-36.739935</coordinates></LineString></MultiGeometry></Placemark></Document></kml>