<?xml version='1.0' encoding='utf-8'?>
<kml xmlns="http://www.opengis.net/kml/2.2"><Document><name>Browns Bay LINZ foot track 3</name><Style id="c"><LineStyle><color>ffff00ff</color><width>5</width></LineStyle></Style><Placemark><name>Browns Bay LINZ foot track 3</name><description>Sheet row 1059; LINZ t50_fid(s) 3554678</description><styleUrl>#c</styleUrl><MultiGeometry><LineString><tessellate>1</tessellate><coordinates>174.739126,-36.719634 174.739251,-36.719681 174.739471,-36.719678 174.739647,-36.719648 174.740096,-36.719608 174.740531,-36.719560 174.740604,-36.719581 174.741859,-36.719444 174.742451,-36.719379 174.742926,-36.719327 174.742941,-36.719326 174.743224,-36.719318 174.743580,-36.719295 174.743854,-36.719265 174.743909,-36.719265 174.744218,-36.719246 174.744345,-36.719314</coordinates></LineString></MultiGeometry></Placemark></Document></kml>