<?xml version='1.0' encoding='utf-8'?>
<kml xmlns="http://www.opengis.net/kml/2.2"><Document><name>Milford LINZ foot track 5</name><Style id="c"><LineStyle><color>ffff00ff</color><width>5</width></LineStyle></Style><Placemark><name>Milford LINZ foot track 5</name><description>Sheet row 1082; LINZ t50_fid(s) 3584755</description><styleUrl>#c</styleUrl><MultiGeometry><LineString><tessellate>1</tessellate><coordinates>174.750225,-36.766845 174.750495,-36.766767 174.750589,-36.766722 174.750690,-36.766673 174.750850,-36.766542 174.750942,-36.766439 174.751041,-36.766295 174.751113,-36.766142 174.751175,-36.765883 174.751206,-36.765727 174.751276,-36.765547 174.751255,-36.765286 174.751212,-36.765129</coordinates></LineString></MultiGeometry></Placemark></Document></kml>