<?xml version='1.0' encoding='utf-8'?>
<kml xmlns="http://www.opengis.net/kml/2.2"><Document><name>Wiri LINZ foot track 2</name><Style id="c"><LineStyle><color>ffff00ff</color><width>5</width></LineStyle></Style><Placemark><name>Wiri LINZ foot track 2</name><description>Sheet row 1227; LINZ t50_fid(s) 3554616</description><styleUrl>#c</styleUrl><MultiGeometry><LineString><tessellate>1</tessellate><coordinates>174.860991,-36.993099 174.860781,-36.992813 174.860452,-36.992112 174.860451,-36.992110 174.859937,-36.991135 174.859937,-36.991135 174.859423,-36.990161 174.859421,-36.990159 174.858908,-36.989187 174.858906,-36.989183 174.858331,-36.988203</coordinates></LineString></MultiGeometry></Placemark></Document></kml>