<?xml version='1.0' encoding='utf-8'?>
<kml xmlns="http://www.opengis.net/kml/2.2"><Document><name>Henderson / Swanson LINZ foot track 4</name><Style id="c"><LineStyle><color>ffff00ff</color><width>5</width></LineStyle></Style><Placemark><name>Henderson / Swanson LINZ foot track 4</name><description>Sheet row 1406; LINZ t50_fid(s) 8520988</description><styleUrl>#c</styleUrl><MultiGeometry><LineString><tessellate>1</tessellate><coordinates>174.634445,-36.836880 174.634356,-36.836725 174.634268,-36.836617 174.633871,-36.835982</coordinates></LineString></MultiGeometry></Placemark></Document></kml>