<?xml version='1.0' encoding='utf-8'?>
<kml xmlns="http://www.opengis.net/kml/2.2"><Document><name>West Harbour LINZ foot track 9</name><Style id="c"><LineStyle><color>ffff00ff</color><width>5</width></LineStyle></Style><Placemark><name>West Harbour LINZ foot track 9</name><description>Sheet row 1395; LINZ t50_fid(s) 3593147</description><styleUrl>#c</styleUrl><MultiGeometry><LineString><tessellate>1</tessellate><coordinates>174.632909,-36.814218 174.632862,-36.814143 174.632758,-36.814041 174.632463,-36.813939 174.631999,-36.813858 174.631852,-36.813849 174.631694,-36.813745</coordinates></LineString></MultiGeometry></Placemark></Document></kml>