<?xml version='1.0' encoding='utf-8'?>
<kml xmlns="http://www.opengis.net/kml/2.2"><Document><name>Papakura LINZ foot track 2</name><Style id="c"><LineStyle><color>ffff00ff</color><width>5</width></LineStyle></Style><Placemark><name>Papakura LINZ foot track 2</name><description>Sheet row 1237; LINZ t50_fid(s) 3573835</description><styleUrl>#c</styleUrl><MultiGeometry><LineString><tessellate>1</tessellate><coordinates>174.972428,-37.066498 174.972061,-37.066697 174.971685,-37.066845 174.971330,-37.067013 174.970741,-37.067292 174.970512,-37.067219 174.970281,-37.067202 174.970178,-37.067242 174.970005,-37.067308 174.969896,-37.067406</coordinates></LineString></MultiGeometry></Placemark></Document></kml>