<?xml version='1.0' encoding='utf-8'?>
<kml xmlns="http://www.opengis.net/kml/2.2"><Document><name>Epsom LINZ foot track 1</name><Style id="c"><LineStyle><color>ffff00ff</color><width>5</width></LineStyle></Style><Placemark><name>Epsom LINZ foot track 1</name><description>Sheet row 830; LINZ t50_fid(s) 3584660,3573829,3593004,3584661,3593000</description><styleUrl>#c</styleUrl><MultiGeometry><LineString><tessellate>1</tessellate><coordinates>174.783454,-36.893004 174.783349,-36.893157 174.783221,-36.893341 174.783181,-36.893591 174.783140,-36.893827 174.783157,-36.894076 174.783225,-36.894246 174.783315,-36.894433 174.783422,-36.894566 174.783769,-36.894798 174.784876,-36.895198</coordinates></LineString><LineString><tessellate>1</tessellate><coordinates>174.783405,-36.897101 174.783518,-36.897135 174.783911,-36.897256 174.784115,-36.897386 174.784381,-36.897573 174.784509,-36.897723 174.784701,-36.897830 174.784903,-36.897813 174.785070,-36.897863 174.785189,-36.897866 174.785270,-36.897774 174.785285,-36.897664 174.785319,-36.897602 174.785505,-36.897437 174.785621,-36.897287 174.785758,-36.897066 174.785783,-36.896856 174.785886,-36.896711 174.785907,-36.896573 174.785748,-36.896460 174.785572,-36.896001 174.785300,-36.895599 174.784876,-36.895198</coordinates></LineString><LineString><tessellate>1</tessellate><coordinates>174.786122,-36.895872 174.786093,-36.895412</coordinates></LineString><LineString><tessellate>1</tessellate><coordinates>174.786860,-36.893909 174.786325,-36.894206 174.786034,-36.894718 174.786093,-36.895412</coordinates></LineString><LineString><tessellate>1</tessellate><coordinates>174.786093,-36.895412 174.785368,-36.895203 174.784876,-36.895198</coordinates></LineString></MultiGeometry></Placemark></Document></kml>