<?xml version='1.0' encoding='utf-8'?>
<kml xmlns="http://www.opengis.net/kml/2.2"><Document><name>Northcote LINZ foot track 3</name><Style id="c"><LineStyle><color>ffff00ff</color><width>5</width></LineStyle></Style><Placemark><name>Northcote LINZ foot track 3</name><description>Sheet row 852; LINZ t50_fid(s) 3573879</description><styleUrl>#c</styleUrl><MultiGeometry><LineString><tessellate>1</tessellate><coordinates>174.734648,-36.801409 174.733759,-36.800628 174.733502,-36.800191 174.733465,-36.800148 174.732645,-36.799167</coordinates></LineString></MultiGeometry></Placemark></Document></kml>