<?xml version='1.0' encoding='utf-8'?>
<kml xmlns="http://www.opengis.net/kml/2.2"><Document><name>Remuera LINZ foot track 1</name><Style id="c"><LineStyle><color>ffff00ff</color><width>5</width></LineStyle></Style><Placemark><name>Remuera LINZ foot track 1</name><description>Sheet row 832; LINZ t50_fid(s) 3573830</description><styleUrl>#c</styleUrl><MultiGeometry><LineString><tessellate>1</tessellate><coordinates>174.786736,-36.875909 174.786628,-36.876062 174.786572,-36.876159 174.786519,-36.876232 174.786518,-36.876310 174.787304,-36.876614 174.787648,-36.876778 174.787839,-36.876879 174.787940,-36.876947 174.787966,-36.877041 174.787868,-36.877087 174.787672,-36.877100 174.787336,-36.877112 174.787129,-36.877106 174.786913,-36.877095 174.786796,-36.877080 174.786636,-36.877214 174.786897,-36.877306 174.787177,-36.877387 174.787307,-36.877510 174.787621,-36.877812 174.787844,-36.878066 174.787950,-36.878429 174.787985,-36.878619 174.787942,-36.878787 174.787774,-36.878975 174.787668,-36.879008 174.787569,-36.878994 174.787386,-36.878712 174.787165,-36.878439 174.786984,-36.878188 174.786919,-36.878167 174.786818,-36.878161 174.786459,-36.878306 174.785923,-36.878558 174.785475,-36.879020 174.785489,-36.879154 174.785559,-36.879244 174.785847,-36.879349 174.786369,-36.879765 174.786656,-36.879974 174.786542,-36.880098</coordinates></LineString></MultiGeometry></Placemark></Document></kml>