<?xml version='1.0' encoding='utf-8'?>
<kml xmlns="http://www.opengis.net/kml/2.2"><Document><name>Half Moon Bay LINZ foot track 10</name><Style id="c"><LineStyle><color>ffff00ff</color><width>5</width></LineStyle></Style><Placemark><name>Half Moon Bay LINZ foot track 10</name><description>Sheet row 971; LINZ t50_fid(s) 3593115</description><styleUrl>#c</styleUrl><MultiGeometry><LineString><tessellate>1</tessellate><coordinates>174.911920,-36.896424 174.912007,-36.896625 174.912151,-36.896987 174.912323,-36.897429</coordinates></LineString></MultiGeometry></Placemark></Document></kml>