<?xml version='1.0' encoding='utf-8'?>
<kml xmlns="http://www.opengis.net/kml/2.2"><Document><name>Albany LINZ foot track 2</name><Style id="c"><LineStyle><color>ffff00ff</color><width>5</width></LineStyle></Style><Placemark><name>Albany LINZ foot track 2</name><description>Sheet row 1041; LINZ t50_fid(s) 3593246,3573887,3556082</description><styleUrl>#c</styleUrl><MultiGeometry><LineString><tessellate>1</tessellate><coordinates>174.693206,-36.728563 174.693172,-36.728560 174.693056,-36.728564 174.692976,-36.728570 174.692914,-36.728586 174.692871,-36.728610 174.692829,-36.728652 174.692787,-36.728710 174.692723,-36.728876 174.692626,-36.728987</coordinates></LineString><LineString><tessellate>1</tessellate><coordinates>174.693206,-36.728563 174.693225,-36.728650 174.693319,-36.728952 174.693317,-36.729257 174.693280,-36.729915 174.693296,-36.730109 174.693361,-36.730317 174.693442,-36.730493 174.693516,-36.730585 174.693605,-36.730659 174.693697,-36.730715 174.693864,-36.730781 174.694001,-36.730874 174.694099,-36.730965 174.694163,-36.731056 174.694232,-36.731216 174.694280,-36.731418 174.694268,-36.731718 174.694333,-36.731772 174.694295,-36.731906 174.694324,-36.731996</coordinates></LineString><LineString><tessellate>1</tessellate><coordinates>174.694224,-36.724948 174.694167,-36.725217 174.694053,-36.725361 174.693961,-36.725491 174.693839,-36.725578 174.693723,-36.725703 174.693554,-36.725971 174.693588,-36.726207 174.693619,-36.726519 174.693655,-36.726808 174.693720,-36.727101 174.693660,-36.727275 174.693587,-36.727514 174.693499,-36.727958 174.693401,-36.728325 174.693206,-36.728563</coordinates></LineString></MultiGeometry></Placemark></Document></kml>