<?xml version='1.0' encoding='utf-8'?>
<kml xmlns="http://www.opengis.net/kml/2.2"><Document><name>Glenfield LINZ foot track 1</name><Style id="c"><LineStyle><color>ffff00ff</color><width>5</width></LineStyle></Style><Placemark><name>Glenfield LINZ foot track 1</name><description>Sheet row 1026; LINZ t50_fid(s) 3573877,3573878,3531501</description><styleUrl>#c</styleUrl><MultiGeometry><LineString><tessellate>1</tessellate><coordinates>174.721302,-36.793288 174.721274,-36.793336 174.721065,-36.793692 174.720750,-36.793793 174.720417,-36.793973 174.719729,-36.794206 174.719222,-36.794548 174.718598,-36.794971 174.718384,-36.795165 174.717915,-36.795443 174.717641,-36.795590</coordinates></LineString><LineString><tessellate>1</tessellate><coordinates>174.717641,-36.795590 174.717447,-36.796081 174.717348,-36.796334 174.717065,-36.796646 174.716749,-36.797043 174.716522,-36.797289 174.716455,-36.797402 174.716314,-36.797833 174.716077,-36.798202</coordinates></LineString><LineString><tessellate>1</tessellate><coordinates>174.717641,-36.795590 174.716925,-36.795473 174.716526,-36.795335 174.716065,-36.795135 174.715548,-36.795031 174.715024,-36.794840 174.714631,-36.794773 174.714111,-36.794558 174.713497,-36.794551 174.712626,-36.794579 174.711910,-36.794446 174.711509,-36.794245 174.710926,-36.794056 174.710058,-36.793602 174.709276,-36.792895 174.708743,-36.792408 174.708292,-36.791929 174.708027,-36.791504 174.707508,-36.791147 174.706968,-36.790987 174.706461,-36.791022</coordinates></LineString></MultiGeometry></Placemark></Document></kml>