<?xml version='1.0' encoding='utf-8'?>
<kml xmlns="http://www.opengis.net/kml/2.2"><Document><name>Waharau / Whakatīwai LINZ foot track 1</name><Style id="c"><LineStyle><color>ffff00ff</color><width>5</width></LineStyle></Style><Placemark><name>Waharau / Whakatīwai LINZ foot track 1</name><description>Sheet row 1458; LINZ t50_fid(s) 3517342</description><styleUrl>#c</styleUrl><MultiGeometry><LineString><tessellate>1</tessellate><coordinates>175.265058,-37.075247 175.264847,-37.075285 175.264595,-37.075439 175.264324,-37.075559 175.264044,-37.075784 175.263670,-37.076059 175.263228,-37.076445 175.263171,-37.076547 175.263198,-37.076642 175.263274,-37.076794 175.263243,-37.077158 175.263291,-37.077626 175.263438,-37.078326 175.263473,-37.078806 175.263434,-37.079378 175.263398,-37.079569 175.263396,-37.079819 175.263295,-37.080332 175.263445,-37.080833 175.263343,-37.081334 175.263429,-37.081906 175.263457,-37.082190 175.263620,-37.082340 175.263650,-37.082564 175.263578,-37.082640 175.263359,-37.082789 175.263301,-37.082876 175.263314,-37.083072 175.263396,-37.083371 175.263515,-37.083530 175.263536,-37.083771 175.263648,-37.084007 175.263693,-37.084138 175.263822,-37.084190 175.263865,-37.084231 175.263963,-37.084326 175.263987,-37.084520 175.264422,-37.084995 175.264480,-37.085239 175.264355,-37.085472 175.264116,-37.085747 175.263893,-37.086091 175.263783,-37.086339 175.263826,-37.086595 175.263845,-37.087547 175.263768,-37.088104 175.263190,-37.088321 175.262911,-37.088440 175.262791,-37.088570 175.262699,-37.088757 175.262452,-37.089100 175.262233,-37.089326 175.262024,-37.089561 175.261831,-37.089812 175.261853,-37.090050 175.261836,-37.090499 175.261768,-37.090649 175.261258,-37.090951 175.260730,-37.091353 175.260462,-37.091510 175.260098,-37.091694 175.259938,-37.091866 175.259694,-37.092814 175.259668,-37.092965 175.260433,-37.094324 175.260105,-37.094363 175.259690,-37.094408 175.259278,-37.094577 175.258939,-37.094768 175.258827,-37.094952 175.258679,-37.095169 175.258395,-37.095302 175.257816,-37.095539 175.257466,-37.095711 175.257118,-37.095923 175.256622,-37.096040 175.256423,-37.096106 175.256380,-37.096134 175.256126,-37.096424 175.256104,-37.096534 175.255994,-37.096801 175.255874,-37.096921 175.255712,-37.097008 175.255365,-37.097070 175.255200,-37.097198 175.255144,-37.097470 175.254917,-37.097698 175.254750,-37.097797 175.254474,-37.097736 175.254200,-37.097771 175.254046,-37.097685 175.253923,-37.097688 175.253815,-37.097778 175.253670,-37.097821 175.253532,-37.097952 175.253334,-37.098213 175.253177,-37.098491 175.253060,-37.098563 175.252738,-37.098517 175.252564,-37.098530 175.252370,-37.098620 175.252244,-37.098755 175.252136,-37.098944 175.252013,-37.098996 175.251965,-37.099126 175.251835,-37.099282 175.251725,-37.099421 175.251570,-37.099588 175.251579,-37.099728 175.251642,-37.099936 175.251531,-37.100249</coordinates></LineString></MultiGeometry></Placemark></Document></kml>