<?xml version='1.0' encoding='utf-8'?>
<kml xmlns="http://www.opengis.net/kml/2.2"><Document><name>Kakamatua LINZ foot track 3</name><Style id="c"><LineStyle><color>ffff00ff</color><width>5</width></LineStyle></Style><Placemark><name>Kakamatua LINZ foot track 3</name><description>Sheet row 1006; LINZ t50_fid(s) 3584260</description><styleUrl>#c</styleUrl><MultiGeometry><LineString><tessellate>1</tessellate><coordinates>174.587986,-37.006076 174.588046,-37.006234 174.588087,-37.006364 174.588107,-37.006445 174.588225,-37.006689 174.588549,-37.006861 174.588985,-37.007025 174.589619,-37.006990 174.590200,-37.007109 174.590364,-37.007243 174.590419,-37.007353</coordinates></LineString></MultiGeometry></Placemark></Document></kml>