<?xml version='1.0' encoding='utf-8'?>
<kml xmlns="http://www.opengis.net/kml/2.2"><Document><name>Onehunga LINZ foot track 2</name><Style id="c"><LineStyle><color>ffff00ff</color><width>5</width></LineStyle></Style><Placemark><name>Onehunga LINZ foot track 2</name><description>Sheet row 1424; LINZ t50_fid(s) 3517588,3556071</description><styleUrl>#c</styleUrl><MultiGeometry><LineString><tessellate>1</tessellate><coordinates>174.786276,-36.935360 174.786272,-36.935224 174.786289,-36.935036 174.786297,-36.933972 174.786297,-36.933925 174.786316,-36.932176 174.786307,-36.931811 174.786305,-36.931724 174.786282,-36.931569 174.786276,-36.931529 174.786275,-36.931526 174.786240,-36.931498</coordinates></LineString><LineString><tessellate>1</tessellate><coordinates>174.826336,-36.927467 174.826334,-36.927669 174.826594,-36.928189 174.826732,-36.928274 174.826632,-36.928508 174.826475,-36.928673 174.826339,-36.928905 174.826338,-36.928907 174.826333,-36.928916 174.826158,-36.929214 174.825832,-36.929433 174.825669,-36.929521 174.825523,-36.929678 174.825368,-36.929833 174.825013,-36.929887 174.824784,-36.929889 174.824682,-36.929823 174.824574,-36.929671 174.824400,-36.929480 174.824047,-36.929330 174.823838,-36.929198 174.823594,-36.929056 174.823481,-36.928893 174.823403,-36.928633 174.823230,-36.928490 174.823013,-36.928484 174.822880,-36.928467 174.822818,-36.928419 174.822780,-36.928342 174.822574,-36.928351 174.822487,-36.928334 174.822240,-36.928259 174.821990,-36.928170 174.821818,-36.928219 174.821497,-36.928152 174.821309,-36.928271 174.821280,-36.928382 174.821219,-36.928455 174.820902,-36.928516 174.820820,-36.928595 174.820713,-36.928694 174.820485,-36.928717 174.820256,-36.928749 174.820138,-36.928848 174.819769,-36.928980 174.819642,-36.929110 174.819651,-36.929355 174.819683,-36.929502 174.819714,-36.929724 174.819716,-36.929910 174.819758,-36.930114 174.819742,-36.930270 174.819688,-36.930370 174.819536,-36.930431 174.819378,-36.930447 174.818687,-36.930494 174.818017,-36.930479 174.817353,-36.930434 174.816859,-36.930496 174.816499,-36.930564 174.816027,-36.930568 174.815679,-36.930562 174.815409,-36.930574 174.814665,-36.930627 174.814146,-36.930625 174.813566,-36.930634 174.813158,-36.930689 174.812867,-36.930652 174.812567,-36.930698 174.812097,-36.930718 174.811806,-36.930709 174.811336,-36.930739 174.810955,-36.930700 174.810419,-36.930775 174.809499,-36.930798 174.809023,-36.930869 174.808504,-36.930930 174.807635,-36.931064 174.807217,-36.931099 174.806957,-36.931164 174.806707,-36.931190 174.806279,-36.931116 174.805845,-36.931055 174.805030,-36.930978 174.803259,-36.931033 174.802282,-36.931038 174.801435,-36.931037 174.801185,-36.931056 174.800642,-36.931030 174.800619,-36.931029 174.799302,-36.930994 174.798702,-36.931003 174.798348,-36.930981 174.798090,-36.930922 174.797836,-36.930917 174.796658,-36.930896 174.795785,-36.930832 174.795674,-36.930775 174.795571,-36.930794 174.795502,-36.930874 174.795416,-36.931011 174.795239,-36.931082 174.795193,-36.931022 174.795159,-36.931114 174.795072,-36.931195 174.794983,-36.931208 174.794064,-36.931225 174.793842,-36.931157 174.793746,-36.931141 174.793589,-36.931143 174.793071,-36.931174 174.792668,-36.931240 174.792352,-36.931248 174.792231,-36.931232 174.791973,-36.931136 174.791880,-36.931124 174.791792,-36.931139 174.791351,-36.931268 174.791096,-36.931306 174.790877,-36.931330 174.790589,-36.931317 174.790304,-36.931287 174.789993,-36.931226 174.789226,-36.931237 174.788668,-36.931229 174.788547,-36.931202 174.787806,-36.930963 174.787707,-36.930950 174.787558,-36.930975 174.787431,-36.931034 174.787334,-36.931124 174.787286,-36.931204 174.787235,-36.931299 174.787139,-36.931449 174.786999,-36.931552 174.786954,-36.931586 174.786715,-36.931689 174.786384,-36.931802 174.786307,-36.931811</coordinates></LineString></MultiGeometry></Placemark></Document></kml>