<?xml version='1.0' encoding='utf-8'?>
<kml xmlns="http://www.opengis.net/kml/2.2"><Document><name>Matakana / Omaha LINZ foot track 3</name><Style id="c"><LineStyle><color>ffff00ff</color><width>5</width></LineStyle></Style><Placemark><name>Matakana / Omaha LINZ foot track 3</name><description>Sheet row 1422; LINZ t50_fid(s) 6227503</description><styleUrl>#c</styleUrl><MultiGeometry><LineString><tessellate>1</tessellate><coordinates>174.816497,-36.362667 174.816641,-36.362383 174.816599,-36.362306 174.816568,-36.362263 174.816484,-36.362189 174.816397,-36.362111 174.816317,-36.362032 174.816258,-36.361962 174.816185,-36.361908 174.816081,-36.361827 174.816014,-36.361740 174.815937,-36.361644 174.815832,-36.361500 174.815778,-36.361407 174.815705,-36.361326 174.815663,-36.361258 174.815678,-36.361186 174.815704,-36.361133 174.815713,-36.361070 174.815704,-36.361006 174.815693,-36.360960 174.815685,-36.360921 174.815677,-36.360836 174.815676,-36.360795 174.815668,-36.360737 174.815639,-36.360669 174.815613,-36.360584 174.815611,-36.360521 174.815638,-36.360476 174.815671,-36.360443 174.815714,-36.360392 174.815740,-36.360348 174.815739,-36.360304 174.815702,-36.360186 174.815694,-36.360131 174.815724,-36.360087 174.815750,-36.360059 174.815787,-36.360031 174.815817,-36.359994 174.815826,-36.359939 174.815814,-36.359882 174.815803,-36.359821 174.815770,-36.359739 174.815730,-36.359638 174.815687,-36.359537 174.815661,-36.359421 174.815672,-36.359328 174.815694,-36.359258 174.815758,-36.359194 174.815855,-36.359143 174.816101,-36.359157 174.816214,-36.359156</coordinates></LineString></MultiGeometry></Placemark></Document></kml>