<?xml version='1.0' encoding='utf-8'?>
<kml xmlns="http://www.opengis.net/kml/2.2"><Document><name>Beachlands LINZ foot track 1</name><Style id="c"><LineStyle><color>ffff00ff</color><width>5</width></LineStyle></Style><Placemark><name>Beachlands LINZ foot track 1</name><description>Sheet row 1017; LINZ t50_fid(s) 3584721</description><styleUrl>#c</styleUrl><MultiGeometry><LineString><tessellate>1</tessellate><coordinates>175.004450,-36.882358 175.004217,-36.882525 175.004181,-36.882549 175.004024,-36.882675 175.003966,-36.882986 175.003651,-36.883184 175.003515,-36.883352 175.003272,-36.883983 175.003114,-36.884095</coordinates></LineString></MultiGeometry></Placemark></Document></kml>