<?xml version='1.0' encoding='utf-8'?>
<kml xmlns="http://www.opengis.net/kml/2.2"><Document><name>Red Beach LINZ foot track 8</name><Style id="c"><LineStyle><color>ffff00ff</color><width>5</width></LineStyle></Style><Placemark><name>Red Beach LINZ foot track 8</name><description>Sheet row 1118; LINZ t50_fid(s) 3584885</description><styleUrl>#c</styleUrl><MultiGeometry><LineString><tessellate>1</tessellate><coordinates>174.711827,-36.609732 174.711824,-36.609702 174.712044,-36.609633 174.712313,-36.609522 174.712342,-36.609206 174.712345,-36.609180 174.712395,-36.608630</coordinates></LineString></MultiGeometry></Placemark></Document></kml>