<?xml version='1.0' encoding='utf-8'?>
<kml xmlns="http://www.opengis.net/kml/2.2"><Document><name>Te Henga / Waitākere LINZ foot track 2</name><Style id="c"><LineStyle><color>ffff00ff</color><width>5</width></LineStyle></Style><Placemark><name>Te Henga / Waitākere LINZ foot track 2</name><description>Sheet row 1433; LINZ t50_fid(s) 3553531</description><styleUrl>#c</styleUrl><MultiGeometry><LineString><tessellate>1</tessellate><coordinates>174.472820,-36.868875 174.472583,-36.868383 174.472265,-36.868218 174.472042,-36.868147 174.471708,-36.868148 174.471255,-36.868558 174.470801,-36.868777 174.470614,-36.868693 174.470484,-36.868564 174.470558,-36.868117 174.470742,-36.867574 174.470713,-36.867472 174.470723,-36.867387 174.470752,-36.867379 174.470804,-36.867166 174.471103,-36.866620 174.471356,-36.866330 174.471624,-36.866138 174.472066,-36.865221 174.472215,-36.864984 174.472793,-36.864502 174.473026,-36.864215 174.473225,-36.863774 174.473226,-36.863771</coordinates></LineString></MultiGeometry></Placemark></Document></kml>