<?xml version='1.0' encoding='utf-8'?>
<kml xmlns="http://www.opengis.net/kml/2.2"><Document><name>Waitakere LINZ foot track 2</name><Style id="c"><LineStyle><color>ffff00ff</color><width>5</width></LineStyle></Style><Placemark><name>Waitakere LINZ foot track 2</name><description>Sheet row 1338; LINZ t50_fid(s) 3584292,3592527,7594922</description><styleUrl>#c</styleUrl><MultiGeometry><LineString><tessellate>1</tessellate><coordinates>174.425299,-36.832551 174.425262,-36.832465 174.425247,-36.832368 174.425262,-36.832273 174.425301,-36.832134 174.425323,-36.831984 174.425421,-36.831883 174.425354,-36.831828 174.425291,-36.831754 174.425109,-36.831626 174.425159,-36.831536 174.425230,-36.831474 174.425402,-36.831447 174.425481,-36.831419 174.425555,-36.831323 174.425534,-36.831285 174.425574,-36.831223 174.425711,-36.831127 174.425786,-36.831073 174.425792,-36.831019</coordinates></LineString><LineString><tessellate>1</tessellate><coordinates>174.425299,-36.832551 174.425157,-36.832549 174.425028,-36.832476 174.424749,-36.832502 174.424529,-36.832604</coordinates></LineString><LineString><tessellate>1</tessellate><coordinates>174.425299,-36.832551 174.425526,-36.832509 174.425702,-36.832526 174.425796,-36.832567 174.425835,-36.832639 174.425844,-36.832716 174.425922,-36.832832 174.425982,-36.832903 174.426078,-36.832894 174.426234,-36.832884 174.426444,-36.832845 174.426637,-36.832862 174.426939,-36.832903 174.427070,-36.832926 174.427210,-36.833000 174.427272,-36.833010 174.427417,-36.832983 174.427489,-36.832963 174.427600,-36.832942</coordinates></LineString></MultiGeometry></Placemark></Document></kml>