<?xml version='1.0' encoding='utf-8'?>
<kml xmlns="http://www.opengis.net/kml/2.2"><Document><name>Ōtara LINZ foot track 8</name><Style id="c"><LineStyle><color>ffff00ff</color><width>5</width></LineStyle></Style><Placemark><name>Ōtara LINZ foot track 8</name><description>Sheet row 1275; LINZ t50_fid(s) 3592981</description><styleUrl>#c</styleUrl><MultiGeometry><LineString><tessellate>1</tessellate><coordinates>174.876940,-36.952552 174.875580,-36.952744</coordinates></LineString></MultiGeometry></Placemark></Document></kml>