<?xml version='1.0' encoding='utf-8'?>
<kml xmlns="http://www.opengis.net/kml/2.2"><Document><name>Red Beach LINZ foot track 3</name><Style id="c"><LineStyle><color>ffff00ff</color><width>5</width></LineStyle></Style><Placemark><name>Red Beach LINZ foot track 3</name><description>Sheet row 1065; LINZ t50_fid(s) 3593391,3593392,3593393</description><styleUrl>#c</styleUrl><MultiGeometry><LineString><tessellate>1</tessellate><coordinates>174.707261,-36.606332 174.707292,-36.606325 174.708436,-36.606076</coordinates></LineString><LineString><tessellate>1</tessellate><coordinates>174.708436,-36.606076 174.708391,-36.606307 174.708698,-36.606525 174.708882,-36.606619 174.709107,-36.606508 174.709219,-36.606503</coordinates></LineString><LineString><tessellate>1</tessellate><coordinates>174.708436,-36.606076 174.708696,-36.605678 174.709306,-36.605454 174.709347,-36.605439</coordinates></LineString></MultiGeometry></Placemark></Document></kml>