<?xml version='1.0' encoding='utf-8'?>
<kml xmlns="http://www.opengis.net/kml/2.2"><Document><name>Te Atatū South LINZ foot track 9</name><Style id="c"><LineStyle><color>ffff00ff</color><width>5</width></LineStyle></Style><Placemark><name>Te Atatū South LINZ foot track 9</name><description>Sheet row 1399; LINZ t50_fid(s) 8467133</description><styleUrl>#c</styleUrl><MultiGeometry><LineString><tessellate>1</tessellate><coordinates>174.644812,-36.880379 174.644914,-36.880349 174.645010,-36.880300 174.646157,-36.880404</coordinates></LineString></MultiGeometry></Placemark></Document></kml>