<?xml version='1.0' encoding='utf-8'?>
<kml xmlns="http://www.opengis.net/kml/2.2"><Document><name>Titirangi / Waitākere foothills LINZ foot track 3</name><Style id="c"><LineStyle><color>ffff00ff</color><width>5</width></LineStyle></Style><Placemark><name>Titirangi / Waitākere foothills LINZ foot track 3</name><description>Sheet row 1454; LINZ t50_fid(s) 8466985</description><styleUrl>#c</styleUrl><MultiGeometry><LineString><tessellate>1</tessellate><coordinates>174.677096,-36.921817 174.676999,-36.921904 174.676858,-36.922286 174.676859,-36.922845</coordinates></LineString></MultiGeometry></Placemark></Document></kml>