<?xml version='1.0' encoding='utf-8'?>
<kml xmlns="http://www.opengis.net/kml/2.2"><Document><name>Birkenhead LINZ foot track 3</name><Style id="c"><LineStyle><color>ffff00ff</color><width>5</width></LineStyle></Style><Placemark><name>Birkenhead LINZ foot track 3</name><description>Sheet row 842; LINZ t50_fid(s) 3574983</description><styleUrl>#c</styleUrl><MultiGeometry><LineString><tessellate>1</tessellate><coordinates>174.724617,-36.820269 174.724645,-36.820260 174.724703,-36.820185 174.725329,-36.820142 174.725378,-36.819984 174.725502,-36.818962 174.725520,-36.818919 174.725564,-36.818888 174.725745,-36.818789 174.725811,-36.818742 174.726101,-36.818421 174.726482,-36.818248 174.726791,-36.818165 174.727043,-36.817927 174.727202,-36.817870 174.727521,-36.817851 174.727675,-36.817827 174.727805,-36.817800 174.728124,-36.817659 174.728343,-36.817541 174.728514,-36.817426 174.728706,-36.817351</coordinates></LineString></MultiGeometry></Placemark></Document></kml>