<?xml version='1.0' encoding='utf-8'?>
<kml xmlns="http://www.opengis.net/kml/2.2"><Document><name>Half Moon Bay LINZ foot track 7</name><Style id="c"><LineStyle><color>ffff00ff</color><width>5</width></LineStyle></Style><Placemark><name>Half Moon Bay LINZ foot track 7</name><description>Sheet row 964; LINZ t50_fid(s) 3593114</description><styleUrl>#c</styleUrl><MultiGeometry><LineString><tessellate>1</tessellate><coordinates>174.910499,-36.887797 174.910271,-36.888069 174.910160,-36.888485 174.910274,-36.888882</coordinates></LineString></MultiGeometry></Placemark></Document></kml>