<?xml version='1.0' encoding='utf-8'?>
<kml xmlns="http://www.opengis.net/kml/2.2"><Document><name>South Head / Kaipara LINZ foot track 6</name><Style id="c"><LineStyle><color>ffff00ff</color><width>5</width></LineStyle></Style><Placemark><name>South Head / Kaipara LINZ foot track 6</name><description>Sheet row 1176; LINZ t50_fid(s) 3584290</description><styleUrl>#c</styleUrl><MultiGeometry><LineString><tessellate>1</tessellate><coordinates>174.315760,-36.660309 174.315731,-36.660514 174.315586,-36.660564 174.314264,-36.661329 174.314038,-36.661460 174.313578,-36.661680 174.313354,-36.661787</coordinates></LineString></MultiGeometry></Placemark></Document></kml>