<?xml version='1.0' encoding='utf-8'?>
<kml xmlns="http://www.opengis.net/kml/2.2"><Document><name>Bayview LINZ foot track 1</name><Style id="c"><LineStyle><color>ffff00ff</color><width>5</width></LineStyle></Style><Placemark><name>Bayview LINZ foot track 1</name><description>Sheet row 1097; LINZ t50_fid(s) 3584747</description><styleUrl>#c</styleUrl><MultiGeometry><LineString><tessellate>1</tessellate><coordinates>174.714571,-36.774063 174.714456,-36.773972 174.714188,-36.773729 174.714055,-36.773643 174.713691,-36.773488 174.713696,-36.773427 174.713285,-36.773246 174.713045,-36.773131</coordinates></LineString></MultiGeometry></Placemark></Document></kml>