<?xml version='1.0' encoding='utf-8'?>
<kml xmlns="http://www.opengis.net/kml/2.2"><Document><name>Warkworth LINZ foot track 1</name><Style id="c"><LineStyle><color>ffff00ff</color><width>5</width></LineStyle></Style><Placemark><name>Warkworth LINZ foot track 1</name><description>Sheet row 1334; LINZ t50_fid(s) 7646145</description><styleUrl>#c</styleUrl><MultiGeometry><LineString><tessellate>1</tessellate><coordinates>174.653697,-36.390119 174.654004,-36.390251 174.654030,-36.390302 174.653906,-36.390406 174.653902,-36.390518 174.654127,-36.390669 174.654450,-36.390951 174.654621,-36.390975 174.654691,-36.390940 174.654696,-36.390938 174.654726,-36.390840 174.654668,-36.390518 174.654717,-36.390420 174.654663,-36.390272 174.654685,-36.390118 174.654625,-36.389960 174.654429,-36.389692 174.654408,-36.389590 174.654564,-36.389173 174.654719,-36.389037 174.654851,-36.388969 174.655273,-36.388850 174.655360,-36.388803 174.655666,-36.388563 174.655745,-36.388419 174.655778,-36.388060 174.655810,-36.387771 174.655739,-36.387669 174.655334,-36.387184 174.655293,-36.387045 174.655369,-36.386909 174.655363,-36.386792 174.655307,-36.386728 174.655107,-36.386659 174.654850,-36.386552 174.654710,-36.386498 174.654173,-36.386318 174.653975,-36.386246 174.653859,-36.386235 174.653814,-36.386232 174.653435,-36.386384 174.653250,-36.386481 174.652361,-36.386880 174.652075,-36.387024 174.651979,-36.387053 174.651884,-36.387121 174.651697,-36.387172 174.651532,-36.387261 174.650932,-36.387513 174.650815,-36.387606 174.650575,-36.387683 174.649951,-36.387949 174.649855,-36.387982 174.649793,-36.388002 174.649754,-36.388048 174.649556,-36.388606 174.649547,-36.388691 174.649549,-36.388701 174.649555,-36.388734 174.649600,-36.388851 174.649629,-36.388881 174.649739,-36.388946 174.649759,-36.388969 174.649787,-36.389046</coordinates></LineString></MultiGeometry></Placemark></Document></kml>