<?xml version='1.0' encoding='utf-8'?>
<kml xmlns="http://www.opengis.net/kml/2.2"><Document><name>Papakura LINZ foot track 9</name><Style id="c"><LineStyle><color>ffff00ff</color><width>5</width></LineStyle></Style><Placemark><name>Papakura LINZ foot track 9</name><description>Sheet row 1282; LINZ t50_fid(s) 3593069</description><styleUrl>#c</styleUrl><MultiGeometry><LineString><tessellate>1</tessellate><coordinates>174.937141,-37.055469 174.937134,-37.055529 174.936817,-37.055639 174.936624,-37.055559 174.936309,-37.056063 174.936306,-37.056068</coordinates></LineString></MultiGeometry></Placemark></Document></kml>