<?xml version='1.0' encoding='utf-8'?>
<kml xmlns="http://www.opengis.net/kml/2.2"><Document><name>Papakura LINZ foot track 12</name><Style id="c"><LineStyle><color>ffff00ff</color><width>5</width></LineStyle></Style><Placemark><name>Papakura LINZ foot track 12</name><description>Sheet row 1291; LINZ t50_fid(s) 8063886</description><styleUrl>#c</styleUrl><MultiGeometry><LineString><tessellate>1</tessellate><coordinates>174.944179,-37.076437 174.943792,-37.076064 174.943801,-37.076056 174.944247,-37.075660</coordinates></LineString></MultiGeometry></Placemark></Document></kml>