<?xml version='1.0' encoding='utf-8'?>
<kml xmlns="http://www.opengis.net/kml/2.2"><Document><name>Crocodile Island LINZ foot track 3</name><Style id="c"><LineStyle><color>ffff00ff</color><width>5</width></LineStyle></Style><Placemark><name>Crocodile Island LINZ foot track 3</name><description>Sheet row 917; LINZ t50_fid(s) 8493885,8493886,8493884</description><styleUrl>#c</styleUrl><MultiGeometry><LineString><tessellate>1</tessellate><coordinates>174.686883,-36.582465 174.686948,-36.582562 174.686900,-36.582586 174.686891,-36.582646 174.686871,-36.582733 174.686872,-36.582776 174.686898,-36.582820 174.687165,-36.583112 174.687204,-36.583125 174.687258,-36.583122 174.687636,-36.583032 174.687861,-36.583021 174.687898,-36.583035 174.688010,-36.582980 174.688147,-36.582928 174.688243,-36.582899 174.688422,-36.582883 174.688582,-36.582873 174.688719,-36.582880 174.689016,-36.582944 174.689266,-36.583077 174.689348,-36.583124 174.689373,-36.583149</coordinates></LineString><LineString><tessellate>1</tessellate><coordinates>174.688864,-36.581870 174.688862,-36.581982 174.689186,-36.582695 174.689304,-36.582975 174.689373,-36.583149</coordinates></LineString><LineString><tessellate>1</tessellate><coordinates>174.689373,-36.583149 174.689446,-36.583358 174.689476,-36.583506 174.689491,-36.583626 174.689485,-36.583712 174.689453,-36.583803 174.689298,-36.584038 174.689212,-36.584114 174.689076,-36.584216 174.688901,-36.584338 174.688817,-36.584404 174.688775,-36.584467 174.688752,-36.584526 174.688744,-36.584605 174.688852,-36.584891 174.688802,-36.584988</coordinates></LineString></MultiGeometry></Placemark></Document></kml>