<?xml version='1.0' encoding='utf-8'?>
<kml xmlns="http://www.opengis.net/kml/2.2"><Document><name>Mairangi Bay LINZ foot track 9</name><Style id="c"><LineStyle><color>ffff00ff</color><width>5</width></LineStyle></Style><Placemark><name>Mairangi Bay LINZ foot track 9</name><description>Sheet row 1109; LINZ t50_fid(s) 3593256</description><styleUrl>#c</styleUrl><MultiGeometry><LineString><tessellate>1</tessellate><coordinates>174.749460,-36.743695 174.749649,-36.743755 174.750172,-36.744005 174.750297,-36.743806 174.750924,-36.744035</coordinates></LineString></MultiGeometry></Placemark></Document></kml>