<?xml version='1.0' encoding='utf-8'?>
<kml xmlns="http://www.opengis.net/kml/2.2"><Document><name>Rotoroa Island LINZ foot track 1</name><Style id="c"><LineStyle><color>ffff00ff</color><width>5</width></LineStyle></Style><Placemark><name>Rotoroa Island LINZ foot track 1</name><description>Sheet row 927; LINZ t50_fid(s) 7878813</description><styleUrl>#c</styleUrl><MultiGeometry><LineString><tessellate>1</tessellate><coordinates>175.143525,-36.840676 175.143560,-36.840617 175.143678,-36.840412 175.143836,-36.840216 175.143927,-36.839991 175.143935,-36.839752 175.143904,-36.839526 175.143921,-36.839294 175.143953,-36.839065 175.144102,-36.838859 175.144103,-36.838628 175.143951,-36.838420 175.143776,-36.838230 175.143758,-36.838002 175.143594,-36.837808 175.143312,-36.837722 175.143020,-36.837694 175.142796,-36.837550 175.142523,-36.837458 175.142262,-36.837352 175.141980,-36.837293 175.141694,-36.837291 175.141407,-36.837279 175.141126,-36.837315 175.141094,-36.837084 175.141293,-36.836913 175.141573,-36.836819 175.141833,-36.836720 175.142068,-36.836591 175.142293,-36.836427 175.142340,-36.836192 175.142235,-36.835974 175.142390,-36.835773 175.142491,-36.835557 175.142271,-36.835415 175.141999,-36.835354 175.141730,-36.835439 175.141443,-36.835400 175.141224,-36.835240 175.140988,-36.835111 175.140697,-36.835064 175.140556,-36.834866 175.140440,-36.834660 175.140466,-36.834435 175.140261,-36.834281 175.140026,-36.834148 175.139765,-36.834046 175.139486,-36.834008 175.139203,-36.833931 175.138921,-36.833859 175.138619,-36.833826 175.138358,-36.833735 175.138319,-36.833506 175.138493,-36.833316 175.138744,-36.833199 175.138983,-36.833064 175.139260,-36.833001 175.139544,-36.833037 175.139586,-36.832810 175.139417,-36.832614 175.139129,-36.832571 175.138846,-36.832533 175.138562,-36.832485 175.138277,-36.832529 175.137988,-36.832559 175.137703,-36.832620 175.137431,-36.832680 175.137171,-36.832773 175.137039,-36.832978 175.136848,-36.833156 175.136700,-36.833348 175.136512,-36.833516 175.136244,-36.833611 175.135966,-36.833660 175.135699,-36.833756 175.135408,-36.833736 175.135138,-36.833825 175.134872,-36.833921 175.134647,-36.834069 175.134397,-36.834184 175.134181,-36.834336 175.133888,-36.834324 175.133621,-36.834424 175.133362,-36.834518 175.133156,-36.834358 175.133033,-36.834139 175.132848,-36.834315 175.132659,-36.834507 175.132445,-36.834658 175.132371,-36.834437 175.132320,-36.834206 175.132037,-36.834205 175.131979,-36.833981 175.131982,-36.833738 175.131979,-36.833511 175.131946,-36.833272 175.131994,-36.833038 175.132123,-36.832833 175.132387,-36.832737 175.132669,-36.832730 175.132959,-36.832734 175.133251,-36.832742 175.133530,-36.832692 175.133737,-36.832529 175.134004,-36.832429 175.134227,-36.832288 175.134480,-36.832169 175.134745,-36.832069 175.135018,-36.831995 175.135209,-36.831826 175.135432,-36.831683 175.135563,-36.831482 175.135721,-36.831283 175.135910,-36.831109 175.136191,-36.831035 175.136473,-36.831010 175.136746,-36.830950 175.136940,-36.830785 175.137031,-36.830566 175.137176,-36.830359 175.137417,-36.830215 175.137710,-36.830237 175.137997,-36.830210 175.138284,-36.830197 175.138259,-36.829965 175.138007,-36.829837 175.137862,-36.829640 175.137760,-36.829430 175.137695,-36.829206 175.137666,-36.828977 175.137669,-36.828747 175.137629,-36.828519 175.137575,-36.828297 175.137748,-36.828119 175.137972,-36.827975 175.138238,-36.827900 175.138520,-36.827912 175.138776,-36.827809 175.138923,-36.827610 175.139124,-36.827452 175.139307,-36.827267</coordinates></LineString></MultiGeometry></Placemark></Document></kml>