<?xml version='1.0' encoding='utf-8'?>
<kml xmlns="http://www.opengis.net/kml/2.2"><Document><name>Te Piringa / Cascade Kauri LINZ foot track 2</name><Style id="c"><LineStyle><color>ffff00ff</color><width>5</width></LineStyle></Style><Placemark><name>Te Piringa / Cascade Kauri LINZ foot track 2</name><description>Sheet row 1316; LINZ t50_fid(s) 3573059</description><styleUrl>#c</styleUrl><MultiGeometry><LineString><tessellate>1</tessellate><coordinates>174.549033,-36.881011 174.548609,-36.880981 174.548407,-36.881130 174.548047,-36.881258 174.547891,-36.881207 174.547832,-36.881205 174.547706,-36.881129 174.547434,-36.880842 174.547332,-36.880685 174.547343,-36.880670 174.547314,-36.880596 174.547213,-36.880492 174.547082,-36.880236 174.546993,-36.879988 174.547041,-36.879663 174.547446,-36.878968 174.547718,-36.878650 174.547896,-36.878409 174.548324,-36.878001 174.548604,-36.877618</coordinates></LineString></MultiGeometry></Placemark></Document></kml>