<?xml version='1.0' encoding='utf-8'?>
<kml xmlns="http://www.opengis.net/kml/2.2"><Document><name>Henderson LINZ foot track 1</name><Style id="c"><LineStyle><color>ffff00ff</color><width>5</width></LineStyle></Style><Placemark><name>Henderson LINZ foot track 1</name><description>Sheet row 1339; LINZ t50_fid(s) 8466358,8467120,8466981</description><styleUrl>#c</styleUrl><MultiGeometry><LineString><tessellate>1</tessellate><coordinates>174.619761,-36.886950 174.619703,-36.886975 174.619651,-36.887032 174.619461,-36.887421 174.619380,-36.887595 174.619337,-36.887665 174.619045,-36.887862 174.618968,-36.887926 174.618909,-36.888025 174.618674,-36.888419 174.618570,-36.888632 174.618459,-36.888791 174.618373,-36.888895 174.618246,-36.888984 174.618059,-36.889046 174.617836,-36.889076 174.617356,-36.889067 174.617201,-36.889080 174.616793,-36.888966 174.616698,-36.888951 174.616577,-36.888969 174.616463,-36.889019 174.616383,-36.889091 174.616254,-36.889369 174.616071,-36.889687 174.615948,-36.889777 174.615780,-36.889830 174.615698,-36.889882 174.615624,-36.889954 174.615507,-36.890102 174.615402,-36.890235 174.615297,-36.890367 174.615228,-36.890463 174.615217,-36.890516 174.615267,-36.890618 174.615311,-36.890702 174.615323,-36.890793 174.615279,-36.890945 174.615232,-36.891099 174.615178,-36.891196 174.615102,-36.891266 174.614720,-36.891618 174.614613,-36.891767 174.614482,-36.891871 174.614294,-36.892013 174.614195,-36.892099 174.614061,-36.892139 174.613979,-36.892191 174.613855,-36.892269 174.613798,-36.892328 174.613768,-36.892418 174.613743,-36.892557 174.613725,-36.892870 174.613711,-36.893080 174.613681,-36.893175 174.613635,-36.893273 174.613281,-36.893751 174.613224,-36.893805 174.613177,-36.893811 174.612998,-36.893788 174.612837,-36.893782 174.612754,-36.893793 174.612672,-36.893828 174.612059,-36.894280 174.611715,-36.894527 174.611539,-36.894640 174.611410,-36.894705 174.611300,-36.894745 174.611088,-36.894804 174.611030,-36.894813 174.610937,-36.894804 174.610851,-36.894779 174.610785,-36.894741 174.610714,-36.894684 174.610670,-36.894632 174.610636,-36.894578 174.610570,-36.894416 174.610528,-36.894348 174.610483,-36.894318 174.610427,-36.894319 174.610317,-36.894340 174.610223,-36.894345 174.609977,-36.894352 174.609885,-36.894365 174.609798,-36.894400 174.609729,-36.894468 174.609570,-36.894683 174.609519,-36.894720 174.609463,-36.894743 174.609409,-36.894749 174.609215,-36.894764 174.609095,-36.894784 174.608984,-36.894820 174.608696,-36.894947 174.608537,-36.895029 174.608468,-36.895096 174.608408,-36.895188 174.608384,-36.895286 174.608330,-36.895645 174.608313,-36.895739 174.608262,-36.895828</coordinates></LineString><LineString><tessellate>1</tessellate><coordinates>174.619761,-36.886950 174.619827,-36.887025 174.619922,-36.887067 174.620280,-36.887190 174.620462,-36.887219 174.620632,-36.887324 174.620705,-36.887363 174.620737,-36.887417 174.620743,-36.887486</coordinates></LineString><LineString><tessellate>1</tessellate><coordinates>174.619761,-36.886950 174.619961,-36.886854 174.620056,-36.886777 174.620186,-36.886635 174.620325,-36.886479 174.620449,-36.886381 174.620645,-36.886276 174.620827,-36.886217 174.621064,-36.886142 174.621146,-36.886101 174.621195,-36.886050 174.621229,-36.886000 174.621303,-36.885857 174.621345,-36.885754 174.621358,-36.885667 174.621353,-36.885572 174.621333,-36.885461 174.621334,-36.885356 174.621718,-36.884532</coordinates></LineString></MultiGeometry></Placemark></Document></kml>