<?xml version='1.0' encoding='utf-8'?>
<kml xmlns="http://www.opengis.net/kml/2.2"><Document><name>Waiuku LINZ foot track 1</name><Style id="c"><LineStyle><color>ffff00ff</color><width>5</width></LineStyle></Style><Placemark><name>Waiuku LINZ foot track 1</name><description>Sheet row 985; LINZ t50_fid(s) 7879885</description><styleUrl>#c</styleUrl><MultiGeometry><LineString><tessellate>1</tessellate><coordinates>174.730835,-37.254316 174.730915,-37.254332 174.731032,-37.254426 174.731090,-37.254446 174.731184,-37.254383 174.731827,-37.253675 174.732175,-37.253302 174.732325,-37.253138 174.732539,-37.252948 174.732807,-37.252763 174.733056,-37.252575 174.733366,-37.252368 174.733754,-37.252118</coordinates></LineString></MultiGeometry></Placemark></Document></kml>