<?xml version='1.0' encoding='utf-8'?>
<kml xmlns="http://www.opengis.net/kml/2.2"><Document><name>Glenfield LINZ foot track 6</name><Style id="c"><LineStyle><color>ffff00ff</color><width>5</width></LineStyle></Style><Placemark><name>Glenfield LINZ foot track 6</name><description>Sheet row 1095; LINZ t50_fid(s) 8520936</description><styleUrl>#c</styleUrl><MultiGeometry><LineString><tessellate>1</tessellate><coordinates>174.717087,-36.790711 174.717271,-36.791232 174.717319,-36.791311 174.717421,-36.791301 174.717764,-36.792272</coordinates></LineString></MultiGeometry></Placemark></Document></kml>