<?xml version='1.0' encoding='utf-8'?>
<kml xmlns="http://www.opengis.net/kml/2.2"><Document><name>Albany / Dairy Flat LINZ foot track 1</name><Style id="c"><LineStyle><color>ffff00ff</color><width>5</width></LineStyle></Style><Placemark><name>Albany / Dairy Flat LINZ foot track 1</name><description>Sheet row 1366; LINZ t50_fid(s) 8520886</description><styleUrl>#c</styleUrl><MultiGeometry><LineString><tessellate>1</tessellate><coordinates>174.669384,-36.804912 174.669449,-36.805044 174.669500,-36.805060 174.669550,-36.805111 174.669616,-36.805118 174.669662,-36.805157 174.669697,-36.805213 174.669670,-36.805253 174.669622,-36.805301 174.669587,-36.805347 174.669592,-36.805407 174.669631,-36.805459 174.669637,-36.805503 174.669621,-36.805556 174.669546,-36.805612 174.669369,-36.805667 174.669229,-36.805738 174.669123,-36.805816 174.669073,-36.805876 174.669024,-36.805953 174.668987,-36.805990 174.668941,-36.806011 174.668611,-36.806137 174.668369,-36.806254 174.668272,-36.806315 174.668230,-36.806356 174.668195,-36.806401 174.668120,-36.806444 174.668031,-36.806485 174.667929,-36.806506 174.667836,-36.806523 174.667723,-36.806561 174.667595,-36.806623 174.667516,-36.806670 174.667406,-36.806709 174.667315,-36.806756 174.667231,-36.806810 174.667170,-36.806884 174.667147,-36.806920 174.667125,-36.806977 174.667013,-36.807065 174.666930,-36.807098 174.666689,-36.807147 174.666522,-36.807178 174.666353,-36.807231 174.666260,-36.807244 174.666203,-36.807240 174.666104,-36.807208 174.666024,-36.807223 174.665674,-36.807219 174.665414,-36.807225 174.665217,-36.807247 174.665044,-36.807276 174.664934,-36.807311 174.664845,-36.807350 174.664765,-36.807376 174.664699,-36.807377 174.664578,-36.807299 174.664252,-36.807275 174.664041,-36.807272 174.663912,-36.807293 174.663814,-36.807291 174.663656,-36.807274 174.663556,-36.807279 174.663389,-36.807226 174.663563,-36.806873</coordinates></LineString></MultiGeometry></Placemark></Document></kml>