<?xml version='1.0' encoding='utf-8'?>
<kml xmlns="http://www.opengis.net/kml/2.2"><Document><name>New Lynn LINZ foot track 1</name><Style id="c"><LineStyle><color>ffff00ff</color><width>5</width></LineStyle></Style><Placemark><name>New Lynn LINZ foot track 1</name><description>Sheet row 1446; LINZ t50_fid(s) 3584643</description><styleUrl>#c</styleUrl><MultiGeometry><LineString><tessellate>1</tessellate><coordinates>174.679517,-36.896555 174.679717,-36.896637 174.680057,-36.896711 174.680256,-36.896772 174.680410,-36.896836 174.680501,-36.896924 174.680535,-36.896970 174.680538,-36.897018 174.680520,-36.897052 174.680434,-36.897096 174.680199,-36.897302 174.680064,-36.897455 174.680074,-36.897487 174.680265,-36.897407 174.680356,-36.897381 174.680410,-36.897376 174.680510,-36.897462 174.680622,-36.897532 174.680703,-36.897557 174.680814,-36.897569 174.680852,-36.897587 174.680869,-36.897617 174.680884,-36.897688 174.681020,-36.897890 174.681042,-36.897930 174.681048,-36.898068 174.681010,-36.898168 174.681000,-36.898223 174.681009,-36.898323 174.681020,-36.898387 174.681044,-36.898439 174.681080,-36.898479 174.681169,-36.898547 174.681251,-36.898635 174.681297,-36.898704 174.681382,-36.898854 174.681401,-36.898942 174.681405,-36.899018 174.681434,-36.899074 174.681473,-36.899122 174.681547,-36.899182 174.681630,-36.899207 174.681723,-36.899183 174.681897,-36.899067 174.682030,-36.899003 174.682132,-36.898989</coordinates></LineString></MultiGeometry></Placemark></Document></kml>