<?xml version='1.0' encoding='utf-8'?>
<kml xmlns="http://www.opengis.net/kml/2.2"><Document><name>Te Piringa / Cascade Kauri LINZ foot track 1</name><Style id="c"><LineStyle><color>ffff00ff</color><width>5</width></LineStyle></Style><Placemark><name>Te Piringa / Cascade Kauri LINZ foot track 1</name><description>Sheet row 1315; LINZ t50_fid(s) 3573060</description><styleUrl>#c</styleUrl><MultiGeometry><LineString><tessellate>1</tessellate><coordinates>174.577228,-36.894548 174.577207,-36.894567 174.576913,-36.894849 174.576790,-36.895076 174.576532,-36.895371 174.576150,-36.895597 174.576014,-36.895839 174.575790,-36.896536 174.575509,-36.896582 174.575502,-36.896560 174.575421,-36.896517 174.575002,-36.895962 174.574769,-36.895705 174.574356,-36.895546 174.574290,-36.895521 174.573937,-36.895501 174.573782,-36.895459 174.573736,-36.895403 174.573666,-36.895357 174.573488,-36.895025 174.573477,-36.895004 174.573388,-36.894890 174.572778,-36.894517 174.572452,-36.894609 174.572457,-36.894761 174.572577,-36.895003 174.572677,-36.895148 174.572438,-36.895345 174.572349,-36.895520 174.572414,-36.895702</coordinates></LineString></MultiGeometry></Placemark></Document></kml>