<?xml version='1.0' encoding='utf-8'?>
<kml xmlns="http://www.opengis.net/kml/2.2"><Document><name>Takanini LINZ foot track 1</name><Style id="c"><LineStyle><color>ffff00ff</color><width>5</width></LineStyle></Style><Placemark><name>Takanini LINZ foot track 1</name><description>Sheet row 1218; LINZ t50_fid(s) 3593077,3593075,3584691,3584692,3593076,3584690</description><styleUrl>#c</styleUrl><MultiGeometry><LineString><tessellate>1</tessellate><coordinates>174.913167,-37.050251 174.913045,-37.050261 174.912685,-37.050393</coordinates></LineString><LineString><tessellate>1</tessellate><coordinates>174.912125,-37.050656 174.912685,-37.050393</coordinates></LineString><LineString><tessellate>1</tessellate><coordinates>174.911345,-37.049025 174.911488,-37.049309 174.911547,-37.049461 174.911679,-37.049655 174.912159,-37.050019 174.912685,-37.050393 174.912837,-37.050509 174.912980,-37.050800 174.912989,-37.051190 174.913179,-37.051666 174.913180,-37.051668</coordinates></LineString><LineString><tessellate>1</tessellate><coordinates>174.909499,-37.047573 174.909715,-37.047684 174.911345,-37.049025</coordinates></LineString><LineString><tessellate>1</tessellate><coordinates>174.911192,-37.050089 174.911206,-37.050079 174.911364,-37.049956 174.911679,-37.049655</coordinates></LineString><LineString><tessellate>1</tessellate><coordinates>174.908094,-37.051052 174.908833,-37.050754 174.909051,-37.050637 174.909491,-37.050560 174.910016,-37.050034 174.910590,-37.049605 174.911086,-37.049256 174.911345,-37.049025</coordinates></LineString></MultiGeometry></Placemark></Document></kml>