<?xml version='1.0' encoding='utf-8'?>
<kml xmlns="http://www.opengis.net/kml/2.2"><Document><name>Sandringham LINZ foot track 2</name><Style id="c"><LineStyle><color>ffff00ff</color><width>5</width></LineStyle></Style><Placemark><name>Sandringham LINZ foot track 2</name><description>Sheet row 871; LINZ t50_fid(s) 3584648</description><styleUrl>#c</styleUrl><MultiGeometry><LineString><tessellate>1</tessellate><coordinates>174.746547,-36.900234 174.746833,-36.899400 174.746856,-36.899333 174.747055,-36.898551</coordinates></LineString></MultiGeometry></Placemark></Document></kml>