<?xml version='1.0' encoding='utf-8'?>
<kml xmlns="http://www.opengis.net/kml/2.2"><Document><name>Manukau LINZ foot track 3</name><Style id="c"><LineStyle><color>ffff00ff</color><width>5</width></LineStyle></Style><Placemark><name>Manukau LINZ foot track 3</name><description>Sheet row 1235; LINZ t50_fid(s) 3584607</description><styleUrl>#c</styleUrl><MultiGeometry><LineString><tessellate>1</tessellate><coordinates>174.877043,-36.993081 174.876793,-36.992723 174.876487,-36.992549 174.876163,-36.992501 174.875784,-36.992503 174.875338,-36.992506 174.875114,-36.992435 174.874938,-36.992336 174.874778,-36.992434 174.874703,-36.992682 174.874608,-36.992837 174.874141,-36.993020</coordinates></LineString></MultiGeometry></Placemark></Document></kml>