<?xml version='1.0' encoding='utf-8'?>
<kml xmlns="http://www.opengis.net/kml/2.2"><Document><name>Motuihe Island LINZ foot track 2</name><Style id="c"><LineStyle><color>ffff00ff</color><width>5</width></LineStyle></Style><Placemark><name>Motuihe Island LINZ foot track 2</name><description>Sheet row 1015; LINZ t50_fid(s) 3584803</description><styleUrl>#c</styleUrl><MultiGeometry><LineString><tessellate>1</tessellate><coordinates>174.934434,-36.802127 174.933988,-36.802428 174.933822,-36.802641 174.933439,-36.802858 174.933453,-36.803418 174.933594,-36.803641</coordinates></LineString></MultiGeometry></Placemark></Document></kml>