<?xml version='1.0' encoding='utf-8'?>
<kml xmlns="http://www.opengis.net/kml/2.2"><Document><name>Waiheke Island LINZ foot track 2</name><Style id="c"><LineStyle><color>ffff00ff</color><width>5</width></LineStyle></Style><Placemark><name>Waiheke Island LINZ foot track 2</name><description>Sheet row 1326; LINZ t50_fid(s) 7879924,7880151</description><styleUrl>#c</styleUrl><MultiGeometry><LineString><tessellate>1</tessellate><coordinates>175.034572,-36.781272 175.034593,-36.781200 175.034663,-36.780959 175.034642,-36.780766 175.034561,-36.780565 175.034485,-36.780495 175.034424,-36.780474 175.034339,-36.780455 175.034360,-36.780423 175.034450,-36.780430 175.034483,-36.780437 175.034529,-36.780448 175.034680,-36.780511 175.034800,-36.780635 175.034887,-36.780710 175.034992,-36.780703 175.035056,-36.780623 175.035114,-36.780509 175.035103,-36.780416 175.035065,-36.780423 175.035024,-36.780455 175.034986,-36.780420 175.034940,-36.780423 175.034861,-36.780423 175.034759,-36.780317 175.034710,-36.780239 175.034727,-36.780180 175.034703,-36.780138 175.034883,-36.780015 175.035011,-36.779867 175.035112,-36.779706 175.035176,-36.779610 175.035238,-36.779482 175.035246,-36.779269 175.035191,-36.779080 175.034928,-36.778989</coordinates></LineString><LineString><tessellate>1</tessellate><coordinates>175.034483,-36.780437 175.034429,-36.780373 175.034302,-36.780353 175.034327,-36.780318 175.034451,-36.780294 175.034622,-36.780344 175.034575,-36.780245 175.034327,-36.780137 175.034178,-36.780108 175.034091,-36.780093 175.034003,-36.780032 175.033949,-36.779965 175.033876,-36.779846 175.033847,-36.779732 175.033825,-36.779703 175.033756,-36.779700 175.033570,-36.779738 175.033432,-36.779787 175.033345,-36.779857 175.033330,-36.779930 175.033301,-36.779962 175.033232,-36.779983 175.033119,-36.780073 175.033090,-36.780131 175.032861,-36.780210 175.032722,-36.780315 175.032588,-36.780379 175.032344,-36.780379 175.032304,-36.780335 175.032308,-36.780303 175.032239,-36.780187 175.032184,-36.780137 175.032172,-36.780130</coordinates></LineString></MultiGeometry></Placemark></Document></kml>