<?xml version='1.0' encoding='utf-8'?>
<kml xmlns="http://www.opengis.net/kml/2.2"><Document><name>Kumeū / Huapai LINZ foot track 3</name><Style id="c"><LineStyle><color>ffff00ff</color><width>5</width></LineStyle></Style><Placemark><name>Kumeū / Huapai LINZ foot track 3</name><description>Sheet row 1178; LINZ t50_fid(s) 8520985</description><styleUrl>#c</styleUrl><MultiGeometry><LineString><tessellate>1</tessellate><coordinates>174.541214,-36.767110 174.541254,-36.767163 174.541265,-36.767218 174.541257,-36.767302 174.541228,-36.767338 174.541190,-36.767389 174.541183,-36.767422 174.541187,-36.767444 174.541192,-36.767453 174.541206,-36.767477 174.541401,-36.767653 174.541460,-36.767712 174.541551,-36.767848 174.541646,-36.767931 174.541712,-36.767965 174.541780,-36.768020</coordinates></LineString></MultiGeometry></Placemark></Document></kml>