<?xml version='1.0' encoding='utf-8'?>
<kml xmlns="http://www.opengis.net/kml/2.2"><Document><name>Botany Downs LINZ foot track 1</name><Style id="c"><LineStyle><color>ffff00ff</color><width>5</width></LineStyle></Style><Placemark><name>Botany Downs LINZ foot track 1</name><description>Sheet row 940; LINZ t50_fid(s) 6082512</description><styleUrl>#c</styleUrl><MultiGeometry><LineString><tessellate>1</tessellate><coordinates>174.903747,-36.924566 174.904003,-36.924497 174.904256,-36.924497 174.904501,-36.924523 174.904856,-36.924446 174.905055,-36.924337 174.905087,-36.924306 174.905107,-36.924151 174.905204,-36.923912 174.905450,-36.923633 174.905676,-36.923456 174.905827,-36.923060 174.905831,-36.923050 174.905866,-36.922959 174.905868,-36.922861 174.905787,-36.922629 174.905685,-36.922491 174.905583,-36.922372 174.905476,-36.922031 174.905484,-36.921586 174.905435,-36.921386 174.905431,-36.921372 174.905427,-36.921353 174.905443,-36.921262 174.905427,-36.921191 174.905391,-36.921075 174.905390,-36.920815 174.905414,-36.920645 174.905483,-36.920399 174.905525,-36.920361 174.905565,-36.920325 174.905666,-36.920234 174.905874,-36.920076 174.905928,-36.919992 174.905926,-36.919924 174.905886,-36.919834 174.905899,-36.919759 174.905921,-36.919706 174.906050,-36.919624 174.906278,-36.919530 174.906372,-36.919525 174.906421,-36.919607</coordinates></LineString></MultiGeometry></Placemark></Document></kml>