<?xml version='1.0' encoding='utf-8'?>
<kml xmlns="http://www.opengis.net/kml/2.2"><Document><name>Blockhouse Bay LINZ foot track 5</name><Style id="c"><LineStyle><color>ffff00ff</color><width>5</width></LineStyle></Style><Placemark><name>Blockhouse Bay LINZ foot track 5</name><description>Sheet row 1444; LINZ t50_fid(s) 3554617</description><styleUrl>#c</styleUrl><MultiGeometry><LineString><tessellate>1</tessellate><coordinates>174.700132,-36.931204 174.699928,-36.931273 174.699736,-36.931371 174.699580,-36.931489 174.699431,-36.931599 174.699285,-36.931685 174.699088,-36.931757 174.698843,-36.931775 174.698690,-36.931871 174.698584,-36.932019 174.698020,-36.932271 174.697617,-36.932224 174.697108,-36.932247 174.696746,-36.932345 174.696587,-36.932354 174.696544,-36.932252 174.696328,-36.932250 174.696294,-36.932175 174.696218,-36.932104 174.696172,-36.932007 174.696008,-36.931961 174.695838,-36.931960 174.695758,-36.931990 174.695669,-36.932077 174.695587,-36.932126 174.695278,-36.932146 174.694674,-36.932106 174.694169,-36.932125 174.693797,-36.932172 174.693449,-36.932075 174.693212,-36.931949 174.692839,-36.931867 174.692613,-36.931809 174.692434,-36.931796 174.692330,-36.931736 174.692029,-36.931648 174.691491,-36.931472 174.691158,-36.931467 174.690977,-36.931379 174.690839,-36.931384 174.690529,-36.931437 174.690186,-36.931431 174.689705,-36.931458 174.689237,-36.931567 174.688867,-36.931583 174.688375,-36.931552 174.688077,-36.931569 174.687989,-36.931565</coordinates></LineString></MultiGeometry></Placemark></Document></kml>