<?xml version='1.0' encoding='utf-8'?>
<kml xmlns="http://www.opengis.net/kml/2.2"><Document><name>Manurewa LINZ foot track 6</name><Style id="c"><LineStyle><color>ffff00ff</color><width>5</width></LineStyle></Style><Placemark><name>Manurewa LINZ foot track 6</name><description>Sheet row 1274; LINZ t50_fid(s) 3592764</description><styleUrl>#c</styleUrl><MultiGeometry><LineString><tessellate>1</tessellate><coordinates>174.903933,-37.029952 174.903928,-37.029955 174.903335,-37.030212 174.902717,-37.030479</coordinates></LineString></MultiGeometry></Placemark></Document></kml>