<?xml version='1.0' encoding='utf-8'?>
<kml xmlns="http://www.opengis.net/kml/2.2"><Document><name>Weymouth LINZ foot track 3</name><Style id="c"><LineStyle><color>ffff00ff</color><width>5</width></LineStyle></Style><Placemark><name>Weymouth LINZ foot track 3</name><description>Sheet row 1242; LINZ t50_fid(s) 3584588</description><styleUrl>#c</styleUrl><MultiGeometry><LineString><tessellate>1</tessellate><coordinates>174.867392,-37.021522 174.867391,-37.021526 174.867181,-37.022310 174.867180,-37.022314 174.867177,-37.022321 174.866710,-37.023490</coordinates></LineString></MultiGeometry></Placemark></Document></kml>