<?xml version='1.0' encoding='utf-8'?>
<kml xmlns="http://www.opengis.net/kml/2.2"><Document><name>Stanmore Bay LINZ foot track 5</name><Style id="c"><LineStyle><color>ffff00ff</color><width>5</width></LineStyle></Style><Placemark><name>Stanmore Bay LINZ foot track 5</name><description>Sheet row 1094; LINZ t50_fid(s) 3593397</description><styleUrl>#c</styleUrl><MultiGeometry><LineString><tessellate>1</tessellate><coordinates>174.765348,-36.628777 174.765909,-36.629299 174.765727,-36.629424 174.766441,-36.630043</coordinates></LineString></MultiGeometry></Placemark></Document></kml>