<?xml version='1.0' encoding='utf-8'?>
<kml xmlns="http://www.opengis.net/kml/2.2"><Document><name>Whakanewha / central Waiheke LINZ foot track 10</name><Style id="c"><LineStyle><color>ffff00ff</color><width>5</width></LineStyle></Style><Placemark><name>Whakanewha / central Waiheke LINZ foot track 10</name><description>Sheet row 1470; LINZ t50_fid(s) 7879461</description><styleUrl>#c</styleUrl><MultiGeometry><LineString><tessellate>1</tessellate><coordinates>175.075553,-36.793920 175.075549,-36.793936 175.075537,-36.793955 175.075522,-36.793970 175.075500,-36.793978 175.075451,-36.793971 175.075408,-36.793952 175.075313,-36.793898 175.075220,-36.793843 175.075155,-36.793826 175.075063,-36.793822 175.074914,-36.793818 175.074744,-36.793836 175.074645,-36.793835 175.074450,-36.793812 175.074316,-36.793819 175.074182,-36.793848 175.074068,-36.793873 175.073919,-36.793923 175.073759,-36.793901 175.073555,-36.793896 175.073380,-36.793876 175.073111,-36.793796 175.072845,-36.793740 175.072604,-36.793722 175.072439,-36.793714 175.072126,-36.793669 175.071904,-36.793658 175.071711,-36.793637 175.071532,-36.793626 175.071390,-36.793601 175.071185,-36.793579 175.071013,-36.793612 175.070898,-36.793657 175.070791,-36.793778 175.070652,-36.793892 175.070561,-36.793962 175.070489,-36.794021 175.070418,-36.794002 175.070304,-36.793932 175.070168,-36.793852 175.070128,-36.793776 175.069871,-36.793710 175.069606,-36.793635 175.069504,-36.793586 175.069391,-36.793545 175.069168,-36.793598 175.068898,-36.793651 175.068861,-36.793666 175.068841,-36.793694 175.068802,-36.793786 175.068776,-36.793880 175.068774,-36.793939 175.068812,-36.794029 175.068880,-36.794149 175.068984,-36.794325 175.069027,-36.794430 175.069013,-36.794456 175.068796,-36.794396 175.068649,-36.794347 175.068603,-36.794325 175.068568,-36.794265 175.068487,-36.794202 175.068410,-36.794156 175.068346,-36.794077 175.068284,-36.793984 175.068192,-36.793853 175.068099,-36.793744 175.068012,-36.793654 175.067930,-36.793552 175.067829,-36.793449 175.067693,-36.793362 175.067540,-36.793240 175.067466,-36.793128 175.067302,-36.793063 175.067204,-36.792952 175.067140,-36.792805 175.067097,-36.792594 175.067034,-36.792457 175.066927,-36.792384 175.066729,-36.792192 175.066656,-36.792075 175.066519,-36.791827 175.066427,-36.791629 175.066263,-36.791416 175.066095,-36.791162 175.065991,-36.791016 175.066016,-36.790853 175.066039,-36.790409 175.066047,-36.790113 175.066042,-36.789826 175.066039,-36.789234 175.066038,-36.788980 175.066034,-36.788863 175.066005,-36.788774 175.065930,-36.788691 175.065508,-36.788311</coordinates></LineString></MultiGeometry></Placemark></Document></kml>