<?xml version='1.0' encoding='utf-8'?>
<kml xmlns="http://www.opengis.net/kml/2.2"><Document><name>Oneroa / western Waiheke LINZ foot track 3</name><Style id="c"><LineStyle><color>ffff00ff</color><width>5</width></LineStyle></Style><Placemark><name>Oneroa / western Waiheke LINZ foot track 3</name><description>Sheet row 1477; LINZ t50_fid(s) 6082503,6082514,6082535</description><styleUrl>#c</styleUrl><MultiGeometry><LineString><tessellate>1</tessellate><coordinates>174.992679,-36.782694 174.992834,-36.782685 174.992902,-36.782687 174.993032,-36.782651 174.993208,-36.782676 174.993347,-36.782707 174.993450,-36.782708 174.993502,-36.782766 174.993622,-36.782820 174.993810,-36.782844 174.993981,-36.782801 174.994118,-36.782771 174.994207,-36.782683 174.994412,-36.782612 174.994668,-36.782605 174.994794,-36.782591 174.995032,-36.782602 174.995138,-36.782643 174.995240,-36.782693 174.995253,-36.782760 174.995248,-36.782822 174.995314,-36.782873 174.995424,-36.782879 174.995611,-36.782827 174.995769,-36.782823 174.995799,-36.782809 174.995904,-36.782784 174.995992,-36.782779 174.996118,-36.782765 174.996221,-36.782771 174.996419,-36.782858</coordinates></LineString><LineString><tessellate>1</tessellate><coordinates>174.995234,-36.781004 174.995102,-36.781088 174.995039,-36.781179 174.995037,-36.781300 174.995131,-36.781656 174.995168,-36.781772 174.995148,-36.781873 174.995155,-36.781916 174.995221,-36.781940 174.995284,-36.781973 174.995371,-36.782050 174.995536,-36.782076 174.995633,-36.782066 174.995788,-36.782031 174.995883,-36.781982 174.995948,-36.782193 174.996113,-36.782475 174.996419,-36.782858</coordinates></LineString><LineString><tessellate>1</tessellate><coordinates>174.996419,-36.782858 174.996574,-36.783130 174.996736,-36.783112 174.996895,-36.783135 174.997006,-36.783242 174.997154,-36.783353 174.997359,-36.783400 174.997526,-36.783405 174.997763,-36.783295 174.997901,-36.783227 174.998016,-36.783138 174.998192,-36.783103 174.998339,-36.783027 174.998483,-36.783003 174.998719,-36.783032 174.998912,-36.783000 174.998925,-36.782967 174.998887,-36.782887 174.998926,-36.782825 174.999038,-36.782819 174.999156,-36.782821 174.999440,-36.782776 174.999611,-36.782773 174.999792,-36.782777 174.999840,-36.782689 174.999983,-36.782647 175.000177,-36.782611 175.000326,-36.782623 175.000497,-36.782629 175.000589,-36.782661 175.000669,-36.782753 175.000756,-36.782752 175.000896,-36.782783 175.000962,-36.782743 175.001016,-36.782685 175.001119,-36.782670 175.001214,-36.782739 175.001387,-36.782791 175.001524,-36.782817 175.001606,-36.782756 175.001702,-36.782726 175.001857,-36.782743 175.002037,-36.782729 175.002215,-36.782773 175.002363,-36.782745 175.002541,-36.782804 175.002651,-36.782864 175.002733,-36.782870 175.002835,-36.782803 175.002970,-36.782775 175.003087,-36.782780 175.003233,-36.782821 175.003333,-36.782856 175.003487,-36.782843 175.003575,-36.782747 175.003714,-36.782722 175.003827,-36.782717 175.003918,-36.782752 175.003975,-36.782860 175.004204,-36.782787 175.004379,-36.782755 175.004481,-36.782662 175.004540,-36.782661 175.004662,-36.782677 175.004759,-36.782737 175.004918,-36.782768 175.005034,-36.782733 175.005091,-36.782674 175.005203,-36.782606 175.005179,-36.782505 175.005178,-36.782498</coordinates></LineString></MultiGeometry></Placemark></Document></kml>