<?xml version='1.0' encoding='utf-8'?>
<kml xmlns="http://www.opengis.net/kml/2.2"><Document><name>Pakuranga LINZ foot track 5</name><Style id="c"><LineStyle><color>ffff00ff</color><width>5</width></LineStyle></Style><Placemark><name>Pakuranga LINZ foot track 5</name><description>Sheet row 963; LINZ t50_fid(s) 3592993</description><styleUrl>#c</styleUrl><MultiGeometry><LineString><tessellate>1</tessellate><coordinates>174.886312,-36.910843 174.885836,-36.911957</coordinates></LineString></MultiGeometry></Placemark></Document></kml>