<?xml version='1.0' encoding='utf-8'?>
<kml xmlns="http://www.opengis.net/kml/2.2"><Document><name>Hūnua Ranges LINZ foot track 2</name><Style id="c"><LineStyle><color>ffff00ff</color><width>5</width></LineStyle></Style><Placemark><name>Hūnua Ranges LINZ foot track 2</name><description>Sheet row 1416; LINZ t50_fid(s) 3554267</description><styleUrl>#c</styleUrl><MultiGeometry><LineString><tessellate>1</tessellate><coordinates>175.166423,-37.139728 175.166407,-37.139735 175.166179,-37.139823 175.166025,-37.139714 175.166103,-37.139379 175.165961,-37.139255 175.165843,-37.139253 175.165570,-37.138788 175.165468,-37.138580 175.165266,-37.138364 175.165372,-37.138137 175.165338,-37.137996 175.165286,-37.137756 175.165351,-37.137509 175.165417,-37.137312 175.165347,-37.137100 175.165268,-37.136963 175.165254,-37.136747 175.165080,-37.136448 175.164894,-37.136172 175.164681,-37.135941 175.164611,-37.135888</coordinates></LineString></MultiGeometry></Placemark></Document></kml>