<?xml version='1.0' encoding='utf-8'?>
<kml xmlns="http://www.opengis.net/kml/2.2"><Document><name>Maraetai LINZ foot track 2</name><Style id="c"><LineStyle><color>ffff00ff</color><width>5</width></LineStyle></Style><Placemark><name>Maraetai LINZ foot track 2</name><description>Sheet row 937; LINZ t50_fid(s) 7879920</description><styleUrl>#c</styleUrl><MultiGeometry><LineString><tessellate>1</tessellate><coordinates>175.077960,-36.906528 175.077923,-36.906770 175.077855,-36.906995 175.077750,-36.907097 175.077628,-36.907161 175.077556,-36.907200 175.077539,-36.907277 175.077509,-36.907391 175.077463,-36.907557 175.077464,-36.907667 175.077512,-36.907860 175.077510,-36.908030 175.077470,-36.908227 175.077449,-36.908547 175.077457,-36.908885 175.077594,-36.909232 175.077649,-36.909425 175.077649,-36.909436 175.077581,-36.909684 175.077463,-36.909954 175.077353,-36.910305 175.077286,-36.910507 175.077286,-36.910518 175.077221,-36.910727 175.077152,-36.910824 175.076926,-36.910943 175.076642,-36.911054 175.076543,-36.911078 175.076418,-36.911052 175.076277,-36.911020 175.076154,-36.910996 175.076066,-36.910994 175.076004,-36.911007 175.076009,-36.911057 175.076010,-36.911156 175.075964,-36.911318 175.075893,-36.911526 175.075790,-36.911800 175.075722,-36.911953 175.075757,-36.912290 175.075725,-36.912388 175.075513,-36.912507 175.075264,-36.912667 175.075092,-36.912803 175.075064,-36.912869 175.075068,-36.912955</coordinates></LineString></MultiGeometry></Placemark></Document></kml>