<?xml version='1.0' encoding='utf-8'?>
<kml xmlns="http://www.opengis.net/kml/2.2"><Document><name>Hūnua Ranges LINZ foot track 1</name><Style id="c"><LineStyle><color>ffff00ff</color><width>5</width></LineStyle></Style><Placemark><name>Hūnua Ranges LINZ foot track 1</name><description>Sheet row 1414; LINZ t50_fid(s) 6097388</description><styleUrl>#c</styleUrl><MultiGeometry><LineString><tessellate>1</tessellate><coordinates>175.147636,-37.189250 175.148140,-37.189254 175.148196,-37.189251 175.148369,-37.189308 175.148545,-37.189246 175.148707,-37.189122 175.148979,-37.189104 175.148981,-37.189036 175.148849,-37.188926 175.148910,-37.188830 175.148920,-37.188680 175.148880,-37.188464 175.148769,-37.188230 175.148775,-37.188184 175.148941,-37.187989 175.148947,-37.187771 175.149027,-37.187729 175.149287,-37.187765 175.149410,-37.187690 175.149406,-37.187581 175.149277,-37.187467 175.149273,-37.187338 175.149330,-37.187339 175.149449,-37.187424 175.149535,-37.187430 175.149616,-37.187398 175.149720,-37.187140 175.149950,-37.186960 175.150460,-37.186450 175.150621,-37.186344 175.150716,-37.186184 175.150777,-37.186145 175.150750,-37.185670 175.150710,-37.185580 175.150730,-37.185360 175.150690,-37.185290 175.150780,-37.185160 175.150790,-37.185020 175.150760,-37.184900 175.150650,-37.184790 175.150610,-37.184670 175.150650,-37.184490 175.150750,-37.184410 175.150810,-37.184290 175.150810,-37.184210 175.150680,-37.184160 175.150540,-37.184050 175.150600,-37.183940 175.150580,-37.183660 175.150770,-37.183460 175.150680,-37.183440 175.150500,-37.183240 175.150590,-37.183130 175.150590,-37.183060 175.150670,-37.182980 175.150710,-37.182880 175.150650,-37.182810 175.150390,-37.182840 175.150350,-37.182810 175.150360,-37.182780 175.150450,-37.182780 175.150610,-37.182570 175.150580,-37.182500 175.150490,-37.182430 175.150380,-37.182160 175.150300,-37.182120 175.150270,-37.182050 175.150210,-37.181840 175.150200,-37.181490 175.150110,-37.181380 175.150130,-37.181220 175.150270,-37.181000 175.150110,-37.180730 175.150090,-37.180570 175.149850,-37.180290 175.149880,-37.180130 175.149570,-37.179870 175.149580,-37.179690 175.149510,-37.179400 175.149550,-37.179350 175.149450,-37.179190 175.149410,-37.178990 175.149380,-37.178670 175.149420,-37.178580 175.149314,-37.178318 175.149337,-37.178148 175.149221,-37.178050 175.149072,-37.177805 175.148850,-37.177540 175.148710,-37.177440 175.148961,-37.177148 175.149010,-37.177000 175.149050,-37.177018 175.149065,-37.177137 175.149124,-37.177123 175.149194,-37.176896 175.149180,-37.176800 175.149074,-37.176663 175.149057,-37.176397 175.148982,-37.176279 175.148980,-37.176200 175.149076,-37.176058 175.149066,-37.175944 175.148802,-37.175798 175.148780,-37.175760 175.148810,-37.175710 175.149172,-37.175788 175.149279,-37.176163 175.149474,-37.176185 175.149634,-37.176308 175.149595,-37.176493 175.149800,-37.176786 175.150120,-37.176860 175.150198,-37.176985 175.150308,-37.177057 175.150359,-37.177056 175.150432,-37.176992 175.150396,-37.176880 175.150073,-37.176361 175.150091,-37.176175 175.150052,-37.175931 175.150160,-37.175560 175.150351,-37.175262 175.150320,-37.175090 175.150532,-37.175007 175.150650,-37.174890 175.150825,-37.174827 175.150938,-37.174616 175.151038,-37.174582 175.151000,-37.174470 175.151183,-37.174000 175.151091,-37.173530 175.151098,-37.173480 175.151186,-37.173419 175.151202,-37.173368 175.150914,-37.172947 175.150790,-37.172667 175.150990,-37.172380 175.151080,-37.172150 175.151070,-37.171860 175.151020,-37.171730 175.151030,-37.171600 175.151085,-37.171488 175.151090,-37.171135 175.151080,-37.171080 175.150831,-37.170992 175.150289,-37.170661 175.150225,-37.170575 175.150182,-37.170354 175.149956,-37.170046 175.149623,-37.169858 175.149351,-37.169785 175.149215,-37.169332 175.149090,-37.169170 175.149060,-37.169030 175.148950,-37.168910 175.148905,-37.168775 175.148923,-37.168520 175.149040,-37.168313 175.149126,-37.168063 175.149194,-37.167986 175.149239,-37.167788 175.149180,-37.167690 175.148991,-37.167525 175.148657,-37.167303 175.148196,-37.166717 175.148070,-37.166460 175.148150,-37.166310 175.148150,-37.166230 175.147902,-37.165936 175.147820,-37.165770 175.147670,-37.165680 175.147618,-37.165584 175.147420,-37.165180 175.147091,-37.164278 175.146812,-37.164020 175.146635,-37.164041 175.146597,-37.164010 175.146733,-37.163850 175.146698,-37.163443 175.146793,-37.163280 175.147046,-37.163079 175.147330,-37.162997 175.147375,-37.162959 175.147391,-37.162629 175.147445,-37.162391 175.147420,-37.162339 175.147186,-37.162153 175.146945,-37.161695 175.146739,-37.161564 175.146666,-37.161445 175.146619,-37.161286 175.146621,-37.161132 175.146700,-37.160930 175.146660,-37.160730 175.146293,-37.159728 175.146150,-37.159450 175.146090,-37.159210 175.145934,-37.159021 175.145990,-37.158850 175.146128,-37.158679 175.146262,-37.158590 175.146438,-37.158542 175.146447,-37.158239 175.146350,-37.157893 175.146170,-37.157690 175.146050,-37.157614 175.145951,-37.157437 175.146010,-37.157016 175.145807,-37.156576 175.145894,-37.156270 175.146230,-37.155917 175.146230,-37.155620 175.146327,-37.155450 175.146318,-37.155311 175.146400,-37.155220 175.146442,-37.155089 175.146867,-37.154887 175.147000,-37.154740 175.146997,-37.154673 175.146869,-37.154611 175.146815,-37.154444 175.146910,-37.154240 175.146946,-37.153963 175.147112,-37.153683 175.147510,-37.153630 175.147851,-37.153480 175.148282,-37.153101 175.148391,-37.153061 175.149040,-37.153140 175.149120,-37.153201 175.149520,-37.153210 175.149650,-37.153280 175.149851,-37.153278 175.149980,-37.153320 175.150264,-37.153254 175.150730,-37.153010 175.150806,-37.153003 175.151010,-37.153070 175.151194,-37.153265 175.151380,-37.153310 175.151550,-37.153410 175.151690,-37.153420 175.151796,-37.153377 175.151845,-37.153316 175.151960,-37.152870 175.152120,-37.152626 175.152290,-37.152420 175.152634,-37.152263 175.152721,-37.152016 175.152823,-37.151868 175.152836,-37.151760 175.152800,-37.151642 175.152830,-37.151563 175.152920,-37.151430 175.153130,-37.151250 175.153270,-37.151040 175.153420,-37.150960 175.153488,-37.150793 175.153511,-37.150597 175.153605,-37.150441 175.153996,-37.150151 175.154091,-37.149978 175.154200,-37.149922 175.154624,-37.149486 175.154658,-37.149366 175.154579,-37.149160 175.154500,-37.148622 175.154434,-37.148489 175.154308,-37.148450 175.154211,-37.148358 175.154017,-37.148316 175.153795,-37.148206 175.153720,-37.147890 175.153390,-37.147790 175.153390,-37.147725 175.153160,-37.147400 175.153170,-37.147310 175.153351,-37.147119 175.153280,-37.146994 175.153320,-37.146650 175.153230,-37.146490 175.153100,-37.146370 175.153240,-37.145690 175.153190,-37.145580 175.153066,-37.145440 175.153093,-37.145332 175.152980,-37.145220 175.152977,-37.145121 175.153070,-37.144936 175.153020,-37.144880 175.153030,-37.144810 175.152894,-37.144527 175.152930,-37.144350 175.152860,-37.144300 175.152900,-37.144195 175.152888,-37.144124 175.152770,-37.143960 175.152739,-37.143803 175.152490,-37.143650 175.152358,-37.143289 175.152230,-37.143104 175.152367,-37.142539 175.152510,-37.142291 175.152537,-37.142087 175.152788,-37.141715 175.152793,-37.141487 175.152880,-37.141238 175.152918,-37.140772 175.152992,-37.140614 175.153018,-37.140221 175.153056,-37.140087 175.153094,-37.139957 175.153187,-37.139655</coordinates></LineString></MultiGeometry></Placemark></Document></kml>