<?xml version='1.0' encoding='utf-8'?>
<kml xmlns="http://www.opengis.net/kml/2.2"><Document><name>Titirangi / Waitākere foothills LINZ foot track 4</name><Style id="c"><LineStyle><color>ffff00ff</color><width>5</width></LineStyle></Style><Placemark><name>Titirangi / Waitākere foothills LINZ foot track 4</name><description>Sheet row 1455; LINZ t50_fid(s) 3584632</description><styleUrl>#c</styleUrl><MultiGeometry><LineString><tessellate>1</tessellate><coordinates>174.680933,-36.919149 174.680916,-36.919188 174.680670,-36.919758 174.680598,-36.920164</coordinates></LineString></MultiGeometry></Placemark></Document></kml>