<?xml version='1.0' encoding='utf-8'?>
<kml xmlns="http://www.opengis.net/kml/2.2"><Document><name>Whakanewha / central Waiheke LINZ foot track 13</name><Style id="c"><LineStyle><color>ffff00ff</color><width>5</width></LineStyle></Style><Placemark><name>Whakanewha / central Waiheke LINZ foot track 13</name><description>Sheet row 1473; LINZ t50_fid(s) 7879925</description><styleUrl>#c</styleUrl><MultiGeometry><LineString><tessellate>1</tessellate><coordinates>175.083604,-36.834063 175.083471,-36.834146 175.083224,-36.834172 175.082851,-36.834073 175.082151,-36.833859 175.081825,-36.833787 175.081557,-36.833765 175.081313,-36.833724 175.081341,-36.833616 175.081309,-36.833530 175.081185,-36.833543 175.081183,-36.833367 175.080807,-36.833507 175.080743,-36.833431 175.080327,-36.833511 175.080198,-36.833631 175.079914,-36.833607 175.079724,-36.833657 175.079450,-36.833663 175.079174,-36.833766 175.079185,-36.833837 175.078983,-36.833861 175.078543,-36.834170 175.078450,-36.834191 175.078396,-36.834284 175.078195,-36.834346 175.078007,-36.834363 175.077986,-36.834477 175.077664,-36.834760 175.077669,-36.835029 175.077497,-36.835217 175.077441,-36.835424 175.077251,-36.835681 175.077420,-36.835677 175.077363,-36.835836 175.077235,-36.836033 175.077127,-36.836211 175.077090,-36.836428 175.077084,-36.836525</coordinates></LineString></MultiGeometry></Placemark></Document></kml>