<?xml version='1.0' encoding='utf-8'?>
<kml xmlns="http://www.opengis.net/kml/2.2"><Document><name>Red Beach LINZ foot track 10</name><Style id="c"><LineStyle><color>ffff00ff</color><width>5</width></LineStyle></Style><Placemark><name>Red Beach LINZ foot track 10</name><description>Sheet row 1154; LINZ t50_fid(s) 3593389</description><styleUrl>#c</styleUrl><MultiGeometry><LineString><tessellate>1</tessellate><coordinates>174.701930,-36.603392 174.701879,-36.603334 174.701611,-36.603106 174.701313,-36.602760 174.701155,-36.602619 174.701079,-36.602578</coordinates></LineString></MultiGeometry></Placemark></Document></kml>