<?xml version='1.0' encoding='utf-8'?>
<kml xmlns="http://www.opengis.net/kml/2.2"><Document><name>Birkenhead LINZ foot track 4</name><Style id="c"><LineStyle><color>ffff00ff</color><width>5</width></LineStyle></Style><Placemark><name>Birkenhead LINZ foot track 4</name><description>Sheet row 846; LINZ t50_fid(s) 3593181,8520935</description><styleUrl>#c</styleUrl><MultiGeometry><LineString><tessellate>1</tessellate><coordinates>174.716206,-36.800114 174.716000,-36.800051 174.715812,-36.799527 174.715749,-36.799343 174.715734,-36.799216</coordinates></LineString><LineString><tessellate>1</tessellate><coordinates>174.713745,-36.802616 174.713930,-36.802404 174.714016,-36.802272 174.714116,-36.802157 174.714156,-36.802088 174.714264,-36.801927 174.714952,-36.801198 174.715146,-36.800983 174.715755,-36.800336 174.715904,-36.800178 174.715976,-36.800156 174.716039,-36.800145 174.716132,-36.800147 174.716206,-36.800114</coordinates></LineString></MultiGeometry></Placemark></Document></kml>