<?xml version='1.0' encoding='utf-8'?>
<kml xmlns="http://www.opengis.net/kml/2.2"><Document><name>Onehunga LINZ foot track 1</name><Style id="c"><LineStyle><color>ffff00ff</color><width>5</width></LineStyle></Style><Placemark><name>Onehunga LINZ foot track 1</name><description>Sheet row 863; LINZ t50_fid(s) 3584656</description><styleUrl>#c</styleUrl><MultiGeometry><LineString><tessellate>1</tessellate><coordinates>174.776986,-36.921337 174.776636,-36.922412 174.776330,-36.923351</coordinates></LineString></MultiGeometry></Placemark></Document></kml>