<?xml version='1.0' encoding='utf-8'?>
<kml xmlns="http://www.opengis.net/kml/2.2"><Document><name>Meadowbank LINZ foot track 2</name><Style id="c"><LineStyle><color>ffff00ff</color><width>5</width></LineStyle></Style><Placemark><name>Meadowbank LINZ foot track 2</name><description>Sheet row 829; LINZ t50_fid(s) 3554632,3584679</description><styleUrl>#c</styleUrl><MultiGeometry><LineString><tessellate>1</tessellate><coordinates>174.837517,-36.865733 174.837580,-36.865856 174.837599,-36.866059 174.837679,-36.866192 174.838258,-36.866482 174.838771,-36.866566 174.839083,-36.866469 174.839273,-36.866432 174.839426,-36.866433 174.839493,-36.866467 174.839501,-36.866601 174.839546,-36.866688 174.839782,-36.866754 174.840392,-36.866948 174.840793,-36.867139 174.841851,-36.867654 174.842574,-36.867967 174.842894,-36.868016 174.844221,-36.868136 174.844642,-36.868186 174.844831,-36.868072 174.845047,-36.867958 174.845157,-36.867924 174.845321,-36.867901</coordinates></LineString><LineString><tessellate>1</tessellate><coordinates>174.837517,-36.865733 174.837598,-36.865521 174.837317,-36.865385 174.835538,-36.865033 174.835268,-36.865141 174.835141,-36.865251 174.835534,-36.865401 174.835923,-36.865439 174.836391,-36.865522 174.836900,-36.865729 174.837191,-36.865751 174.837517,-36.865733</coordinates></LineString></MultiGeometry></Placemark></Document></kml>