<?xml version='1.0' encoding='utf-8'?>
<kml xmlns="http://www.opengis.net/kml/2.2"><Document><name>Ōtara LINZ foot track 11</name><Style id="c"><LineStyle><color>ffff00ff</color><width>5</width></LineStyle></Style><Placemark><name>Ōtara LINZ foot track 11</name><description>Sheet row 1285; LINZ t50_fid(s) 3592851</description><styleUrl>#c</styleUrl><MultiGeometry><LineString><tessellate>1</tessellate><coordinates>174.889994,-36.971644 174.890709,-36.971764 174.891224,-36.971939 174.891247,-36.971947</coordinates></LineString></MultiGeometry></Placemark></Document></kml>