<?xml version='1.0' encoding='utf-8'?>
<kml xmlns="http://www.opengis.net/kml/2.2"><Document><name>Gulf Harbour LINZ foot track 2</name><Style id="c"><LineStyle><color>ffff00ff</color><width>5</width></LineStyle></Style><Placemark><name>Gulf Harbour LINZ foot track 2</name><description>Sheet row 1140; LINZ t50_fid(s) 3593398</description><styleUrl>#c</styleUrl><MultiGeometry><LineString><tessellate>1</tessellate><coordinates>174.769688,-36.625041 174.768253,-36.624807</coordinates></LineString></MultiGeometry></Placemark></Document></kml>