<?xml version='1.0' encoding='utf-8'?>
<kml xmlns="http://www.opengis.net/kml/2.2"><Document><name>Port Fitzroy LINZ foot track 2</name><Style id="c"><LineStyle><color>ffff00ff</color><width>5</width></LineStyle></Style><Placemark><name>Port Fitzroy LINZ foot track 2</name><description>Sheet row 1191; LINZ t50_fid(s) 3555003</description><styleUrl>#c</styleUrl><MultiGeometry><LineString><tessellate>1</tessellate><coordinates>175.353756,-36.161375 175.352992,-36.160602 175.352615,-36.159735 175.352274,-36.159235 175.352022,-36.158953 175.351819,-36.158639 175.351818,-36.158424 175.351940,-36.158228 175.351874,-36.158017 175.351658,-36.157834 175.351438,-36.157514 175.351130,-36.157400 175.351203,-36.157024 175.351271,-36.156826 175.351626,-36.156760 175.352179,-36.156621 175.352504,-36.156563 175.352808,-36.156532 175.353102,-36.156398 175.353501,-36.156206 175.353661,-36.156048 175.353735,-36.155657 175.353811,-36.155143 175.353797,-36.154454 175.353834,-36.153925 175.353854,-36.153486 175.353976,-36.153153 175.354224,-36.152876</coordinates></LineString></MultiGeometry></Placemark></Document></kml>