<?xml version='1.0' encoding='utf-8'?>
<kml xmlns="http://www.opengis.net/kml/2.2"><Document><name>Islington Bay, Rangitoto Island LINZ foot track 2</name><Style id="c"><LineStyle><color>ffff00ff</color><width>5</width></LineStyle></Style><Placemark><name>Islington Bay, Rangitoto Island LINZ foot track 2</name><description>Sheet row 1430; LINZ t50_fid(s) 8223206</description><styleUrl>#c</styleUrl><MultiGeometry><LineString><tessellate>1</tessellate><coordinates>174.892800,-36.799490 174.893610,-36.798630 174.894350,-36.797290 174.895300,-36.796480 174.895350,-36.795890 174.895740,-36.795490 174.895690,-36.795180 174.896090,-36.794820 174.895810,-36.794350 174.895820,-36.793940 174.896610,-36.793260 174.896240,-36.791600 174.896930,-36.790840 174.897180,-36.790290 174.896660,-36.788870 174.895780,-36.788490 174.895550,-36.788470 174.895230,-36.788690</coordinates></LineString></MultiGeometry></Placemark></Document></kml>