<?xml version='1.0' encoding='utf-8'?>
<kml xmlns="http://www.opengis.net/kml/2.2"><Document><name>Papatoetoe LINZ foot track 4</name><Style id="c"><LineStyle><color>ffff00ff</color><width>5</width></LineStyle></Style><Placemark><name>Papatoetoe LINZ foot track 4</name><description>Sheet row 1256; LINZ t50_fid(s) 3584614</description><styleUrl>#c</styleUrl><MultiGeometry><LineString><tessellate>1</tessellate><coordinates>174.856640,-36.985233 174.858259,-36.984731</coordinates></LineString></MultiGeometry></Placemark></Document></kml>