<?xml version='1.0' encoding='utf-8'?>
<kml xmlns="http://www.opengis.net/kml/2.2"><Document><name>Hillsborough LINZ foot track 3</name><Style id="c"><LineStyle><color>ffff00ff</color><width>5</width></LineStyle></Style><Placemark><name>Hillsborough LINZ foot track 3</name><description>Sheet row 841; LINZ t50_fid(s) 3592899,3584639,3592894</description><styleUrl>#c</styleUrl><MultiGeometry><LineString><tessellate>1</tessellate><coordinates>174.755784,-36.921191 174.754834,-36.920805 174.753757,-36.920381 174.753655,-36.920344 174.753523,-36.920256 174.753482,-36.920096 174.753495,-36.919979 174.753187,-36.919808</coordinates></LineString><LineString><tessellate>1</tessellate><coordinates>174.755275,-36.918370 174.755140,-36.918512 174.755128,-36.918562 174.754918,-36.918826 174.754874,-36.918961 174.754848,-36.919001 174.754735,-36.919089 174.754613,-36.919232 174.754579,-36.919272 174.754448,-36.919341 174.753380,-36.919777 174.753187,-36.919808</coordinates></LineString><LineString><tessellate>1</tessellate><coordinates>174.751948,-36.919401 174.753187,-36.919808</coordinates></LineString></MultiGeometry></Placemark></Document></kml>