<?xml version='1.0' encoding='utf-8'?>
<kml xmlns="http://www.opengis.net/kml/2.2"><Document><name>Albany LINZ foot track 7</name><Style id="c"><LineStyle><color>ffff00ff</color><width>5</width></LineStyle></Style><Placemark><name>Albany LINZ foot track 7</name><description>Sheet row 1102; LINZ t50_fid(s) 3593247</description><styleUrl>#c</styleUrl><MultiGeometry><LineString><tessellate>1</tessellate><coordinates>174.722792,-36.727095 174.723010,-36.727121 174.723309,-36.727095 174.723483,-36.727049 174.723800,-36.726897 174.724172,-36.726682 174.724456,-36.726467</coordinates></LineString></MultiGeometry></Placemark></Document></kml>