<?xml version='1.0' encoding='utf-8'?>
<kml xmlns="http://www.opengis.net/kml/2.2"><Document><name>Browns Bay LINZ foot track 9</name><Style id="c"><LineStyle><color>ffff00ff</color><width>5</width></LineStyle></Style><Placemark><name>Browns Bay LINZ foot track 9</name><description>Sheet row 1087; LINZ t50_fid(s) 3584789</description><styleUrl>#c</styleUrl><MultiGeometry><LineString><tessellate>1</tessellate><coordinates>174.728955,-36.720588 174.728641,-36.720612 174.728594,-36.720611 174.728558,-36.720578 174.728494,-36.720522 174.728388,-36.720444 174.728268,-36.720329 174.728154,-36.720246 174.728089,-36.720177 174.727968,-36.720093 174.727881,-36.720013 174.727792,-36.719936 174.727685,-36.719844 174.727662,-36.719835 174.727613,-36.719832 174.727504,-36.719853 174.727392,-36.719870 174.727236,-36.719890 174.727149,-36.719896 174.727066,-36.719890 174.727020,-36.719885 174.727001,-36.719880 174.726969,-36.719824</coordinates></LineString></MultiGeometry></Placemark></Document></kml>