<?xml version='1.0' encoding='utf-8'?>
<kml xmlns="http://www.opengis.net/kml/2.2"><Document><name>Te Atatū South LINZ foot track 10</name><Style id="c"><LineStyle><color>ffff00ff</color><width>5</width></LineStyle></Style><Placemark><name>Te Atatū South LINZ foot track 10</name><description>Sheet row 1407; LINZ t50_fid(s) 3592919</description><styleUrl>#c</styleUrl><MultiGeometry><LineString><tessellate>1</tessellate><coordinates>174.650210,-36.881835 174.649807,-36.881605 174.649313,-36.881548 174.649073,-36.881471</coordinates></LineString></MultiGeometry></Placemark></Document></kml>