<?xml version='1.0' encoding='utf-8'?>
<kml xmlns="http://www.opengis.net/kml/2.2"><Document><name>Ōrewa LINZ foot track 3</name><Style id="c"><LineStyle><color>ffff00ff</color><width>5</width></LineStyle></Style><Placemark><name>Ōrewa LINZ foot track 3</name><description>Sheet row 921; LINZ t50_fid(s) 3584888</description><styleUrl>#c</styleUrl><MultiGeometry><LineString><tessellate>1</tessellate><coordinates>174.691964,-36.578452 174.690673,-36.578789</coordinates></LineString></MultiGeometry></Placemark></Document></kml>