<?xml version='1.0' encoding='utf-8'?>
<kml xmlns="http://www.opengis.net/kml/2.2"><Document><name>Te Henga / Waitākere LINZ foot track 4</name><Style id="c"><LineStyle><color>ffff00ff</color><width>5</width></LineStyle></Style><Placemark><name>Te Henga / Waitākere LINZ foot track 4</name><description>Sheet row 1440; LINZ t50_fid(s) 3592508</description><styleUrl>#c</styleUrl><MultiGeometry><LineString><tessellate>1</tessellate><coordinates>174.470639,-36.907178 174.470171,-36.907256 174.469737,-36.907398 174.469228,-36.907448</coordinates></LineString></MultiGeometry></Placemark></Document></kml>