<?xml version='1.0' encoding='utf-8'?>
<kml xmlns="http://www.opengis.net/kml/2.2"><Document><name>Waiwhiu LINZ foot track 3</name><Style id="c"><LineStyle><color>ffff00ff</color><width>5</width></LineStyle></Style><Placemark><name>Waiwhiu LINZ foot track 3</name><description>Sheet row 1355; LINZ t50_fid(s) 3556033</description><styleUrl>#c</styleUrl><MultiGeometry><LineString><tessellate>1</tessellate><coordinates>174.600465,-36.378622 174.600675,-36.378827 174.600943,-36.379124 174.601253,-36.379258 174.601811,-36.379286 174.601824,-36.379286 174.601995,-36.379299 174.602123,-36.379340 174.602321,-36.379498 174.602510,-36.379627 174.602694,-36.379666 174.602969,-36.379733 174.603150,-36.379811 174.603247,-36.379906 174.603281,-36.380044 174.603366,-36.380303 174.603551,-36.380789 174.603619,-36.380928 174.603692,-36.381076 174.603716,-36.381169 174.603731,-36.381230 174.603726,-36.381394 174.603672,-36.381505 174.603662,-36.381526 174.603649,-36.381539 174.603514,-36.381682 174.603393,-36.381809 174.603281,-36.381975 174.603232,-36.382078 174.603259,-36.382248 174.603368,-36.382337 174.603529,-36.382424 174.603666,-36.382509 174.603784,-36.382655 174.603858,-36.382786 174.603939,-36.382853 174.604080,-36.382947 174.604178,-36.383068 174.604209,-36.383202 174.604152,-36.383361 174.604055,-36.383474 174.603739,-36.383533 174.603489,-36.383624 174.603237,-36.383574 174.602922,-36.383427 174.602537,-36.383443 174.602197,-36.383541 174.601912,-36.383689 174.601662,-36.384021 174.601440,-36.383998 174.601284,-36.383982 174.600956,-36.384062 174.600797,-36.384257 174.600792,-36.384270 174.600718,-36.384456 174.600691,-36.385050</coordinates></LineString></MultiGeometry></Placemark></Document></kml>