<?xml version='1.0' encoding='utf-8'?>
<kml xmlns="http://www.opengis.net/kml/2.2"><Document><name>Gulf Harbour LINZ foot track 4</name><Style id="c"><LineStyle><color>ffff00ff</color><width>5</width></LineStyle></Style><Placemark><name>Gulf Harbour LINZ foot track 4</name><description>Sheet row 1318; LINZ t50_fid(s) 100120931</description><styleUrl>#c</styleUrl><MultiGeometry><LineString><tessellate>1</tessellate><coordinates>174.796564,-36.620552 174.796417,-36.620569 174.796097,-36.620577 174.795809,-36.620610 174.795586,-36.620804 174.794993,-36.620761 174.794512,-36.620743 174.794174,-36.620715 174.793692,-36.620624 174.793026,-36.620441 174.792625,-36.620397 174.792259,-36.620417 174.792051,-36.620276 174.791379,-36.619394 174.791174,-36.619188 174.791060,-36.619064 174.791029,-36.618969 174.791026,-36.618523 174.791040,-36.618336 174.791143,-36.618083 174.791360,-36.617796 174.791385,-36.617399 174.791267,-36.617347 174.791109,-36.617270</coordinates></LineString></MultiGeometry></Placemark></Document></kml>