<?xml version='1.0' encoding='utf-8'?>
<kml xmlns="http://www.opengis.net/kml/2.2"><Document><name>Whakanewha / central Waiheke LINZ foot track 6</name><Style id="c"><LineStyle><color>ffff00ff</color><width>5</width></LineStyle></Style><Placemark><name>Whakanewha / central Waiheke LINZ foot track 6</name><description>Sheet row 1466; LINZ t50_fid(s) 7879454,7879455,7879927,7879930,7879931,7880154</description><styleUrl>#c</styleUrl><MultiGeometry><LineString><tessellate>1</tessellate><coordinates>175.062222,-36.807396 175.062134,-36.807212 175.061984,-36.807002 175.061849,-36.806834 175.061697,-36.806628 175.061562,-36.806362 175.061482,-36.806173 175.061498,-36.806005 175.061549,-36.805701 175.061588,-36.805563 175.061554,-36.805408 175.061667,-36.805276 175.061753,-36.805211 175.061879,-36.805142 175.062083,-36.805108 175.062190,-36.805104 175.062289,-36.805046 175.062442,-36.804988 175.062689,-36.804925 175.063019,-36.804807 175.063169,-36.804704 175.063311,-36.804637 175.063596,-36.804586 175.063762,-36.804496 175.063818,-36.804444 175.063939,-36.804270 175.064094,-36.804209 175.064275,-36.804234 175.064408,-36.804174 175.064636,-36.804109 175.064923,-36.804105 175.065215,-36.804181 175.065649,-36.804217 175.065816,-36.804171 175.066079,-36.804083 175.066251,-36.804073 175.066498,-36.804092 175.066744,-36.804171 175.066930,-36.804337 175.067096,-36.804607 175.067174,-36.804749 175.067201,-36.804865 175.067281,-36.805123 175.067359,-36.805293 175.067461,-36.805405</coordinates></LineString><LineString><tessellate>1</tessellate><coordinates>175.061191,-36.804994 175.061278,-36.805073 175.061337,-36.805155 175.061297,-36.805254 175.061254,-36.805346 175.061157,-36.805419 175.061066,-36.805516 175.060986,-36.805589 175.060892,-36.805718 175.060806,-36.805799 175.060777,-36.805920 175.060793,-36.806070 175.060895,-36.806250 175.061007,-36.806403 175.061184,-36.806557 175.061318,-36.806663 175.061541,-36.806847 175.061739,-36.807011 175.061849,-36.807159 175.061981,-36.807358 175.062123,-36.807397 175.062222,-36.807396 175.062303,-36.807395 175.062434,-36.807373 175.062595,-36.807408 175.062676,-36.807528 175.062694,-36.807627 175.062684,-36.807706 175.062595,-36.807827 175.062592,-36.807958 175.062595,-36.808112 175.062651,-36.808241 175.062743,-36.808383 175.062914,-36.808514 175.063115,-36.808636 175.063314,-36.808797 175.063526,-36.809008 175.063671,-36.809162 175.063850,-36.809512 175.064033,-36.809787 175.064199,-36.809972 175.064328,-36.810075 175.064601,-36.810122 175.065063,-36.810109 175.065497,-36.810011 175.065926,-36.809766 175.066178,-36.809607 175.066388,-36.809465 175.066645,-36.809328 175.067031,-36.809203 175.067235,-36.809091 175.067600,-36.809023 175.067686,-36.809014 175.067859,-36.808996</coordinates></LineString><LineString><tessellate>1</tessellate><coordinates>175.065120,-36.805537 175.064755,-36.805481 175.064709,-36.806182 175.064602,-36.806560 175.064838,-36.806951 175.064918,-36.807359 175.064918,-36.807574 175.065015,-36.807866</coordinates></LineString><LineString><tessellate>1</tessellate><coordinates>175.069511,-36.811725 175.069441,-36.811619 175.069336,-36.811568 175.069304,-36.811553 175.069144,-36.811516 175.069209,-36.811423 175.069244,-36.811312 175.069354,-36.811166 175.069463,-36.811047 175.069531,-36.811064 175.069587,-36.811007 175.069611,-36.810818 175.069610,-36.810787 175.069622,-36.810686 175.069634,-36.810609 175.069508,-36.810370 175.069276,-36.810193 175.069093,-36.810074 175.068938,-36.809972 175.068660,-36.809743 175.068268,-36.809340 175.067859,-36.808996</coordinates></LineString><LineString><tessellate>1</tessellate><coordinates>175.067859,-36.808996 175.067788,-36.808917 175.067603,-36.808668 175.067440,-36.808445 175.066892,-36.807695 175.066710,-36.807390 175.066640,-36.807130 175.066544,-36.806912 175.066455,-36.806709 175.066273,-36.806428 175.066080,-36.806185 175.065643,-36.805831 175.065154,-36.805552 175.065120,-36.805537</coordinates></LineString><LineString><tessellate>1</tessellate><coordinates>175.065154,-36.805552 175.065379,-36.805400 175.065639,-36.805273 175.065759,-36.805237 175.065875,-36.805202 175.066125,-36.805200 175.066358,-36.805151 175.066661,-36.805149 175.066908,-36.805237 175.067058,-36.805318 175.067123,-36.805344 175.067305,-36.805412</coordinates></LineString></MultiGeometry></Placemark></Document></kml>