<?xml version='1.0' encoding='utf-8'?>
<kml xmlns="http://www.opengis.net/kml/2.2"><Document><name>Whakanewha / central Waiheke LINZ foot track 7</name><Style id="c"><LineStyle><color>ffff00ff</color><width>5</width></LineStyle></Style><Placemark><name>Whakanewha / central Waiheke LINZ foot track 7</name><description>Sheet row 1467; LINZ t50_fid(s) 7879459,7879932,7880164</description><styleUrl>#c</styleUrl><MultiGeometry><LineString><tessellate>1</tessellate><coordinates>175.072819,-36.806425 175.072936,-36.806461 175.073125,-36.806516 175.073178,-36.806535 175.073278,-36.806583 175.073368,-36.806618 175.073469,-36.806688 175.073564,-36.806703 175.073646,-36.806654 175.073756,-36.806622 175.073851,-36.806626 175.073992,-36.806716 175.074095,-36.806800 175.074260,-36.806868 175.074326,-36.806919 175.074363,-36.806948 175.074412,-36.807043 175.074432,-36.807082 175.074447,-36.807101 175.074477,-36.807137 175.074503,-36.807169 175.074603,-36.807314 175.074737,-36.807452 175.074796,-36.807555 175.074800,-36.807687 175.074806,-36.807817 175.074810,-36.808114 175.074905,-36.808243 175.075024,-36.808331 175.075366,-36.808587 175.075631,-36.808772 175.075860,-36.808931 175.075958,-36.808995 175.076060,-36.809026 175.076229,-36.809038 175.076437,-36.809054 175.076571,-36.809082 175.076695,-36.809132 175.076860,-36.809202 175.076982,-36.809193 175.077068,-36.809214 175.077300,-36.809332 175.077489,-36.809397 175.077573,-36.809432 175.077634,-36.809424 175.077797,-36.809313 175.077987,-36.809193 175.078487,-36.808879 175.078578,-36.808818 175.078645,-36.808770 175.078699,-36.808664 175.078734,-36.808589 175.078820,-36.808530 175.078977,-36.808408 175.079140,-36.808313 175.079273,-36.808273 175.079447,-36.808236 175.079584,-36.808196 175.079748,-36.808115 175.079950,-36.807913 175.080113,-36.807717 175.080283,-36.807520 175.080420,-36.807366 175.080648,-36.807196 175.080837,-36.807100 175.080950,-36.807051 175.081009,-36.806984</coordinates></LineString><LineString><tessellate>1</tessellate><coordinates>175.071646,-36.808440 175.071701,-36.808406 175.072016,-36.808240 175.072321,-36.808077 175.072490,-36.807986 175.072588,-36.807901 175.072612,-36.807835 175.072668,-36.807704 175.072743,-36.807475 175.072860,-36.807201 175.072916,-36.806997 175.072955,-36.806863 175.073018,-36.806746 175.073109,-36.806618 175.073178,-36.806535</coordinates></LineString><LineString><tessellate>1</tessellate><coordinates>175.069144,-36.801259 175.069181,-36.801392 175.069190,-36.801474 175.069094,-36.801740 175.069145,-36.801874 175.069111,-36.801943 175.068920,-36.802316 175.068760,-36.802346 175.068516,-36.802392 175.068492,-36.802408 175.068456,-36.802433 175.068468,-36.802493 175.068450,-36.802546 175.068449,-36.802657 175.068452,-36.802744 175.068447,-36.802792 175.068417,-36.802908 175.068370,-36.802967 175.068355,-36.802986 175.068291,-36.803040 175.068214,-36.803103 175.068180,-36.803153 175.068147,-36.803176 175.068061,-36.803217 175.067900,-36.803264 175.067695,-36.803327 175.067630,-36.803390 175.067708,-36.803493 175.067714,-36.803501 175.067786,-36.803579 175.067848,-36.803685 175.067872,-36.803766 175.067870,-36.803862 175.067880,-36.803976 175.067997,-36.804073 175.068091,-36.804133 175.068220,-36.804179 175.068413,-36.804226 175.068480,-36.804237 175.068609,-36.804256 175.068782,-36.804267 175.068908,-36.804290 175.069058,-36.804283 175.069183,-36.804271 175.069280,-36.804260 175.069326,-36.804337 175.069335,-36.804352 175.069394,-36.804454 175.069431,-36.804561 175.069494,-36.804601 175.069630,-36.804564 175.069816,-36.804522 175.069920,-36.804453 175.069987,-36.804391 175.070046,-36.804351 175.070233,-36.804338 175.070533,-36.804324 175.070710,-36.804315 175.070805,-36.804325 175.070846,-36.804378 175.070852,-36.804505 175.070870,-36.804687 175.070905,-36.804764 175.071005,-36.804836 175.071085,-36.804956 175.071193,-36.804992 175.071391,-36.804999 175.071455,-36.805020 175.071579,-36.805108 175.071663,-36.805166 175.071721,-36.805164 175.071786,-36.805136 175.071930,-36.805125 175.072079,-36.805142 175.072246,-36.805183 175.072350,-36.805260 175.072370,-36.805305 175.072336,-36.805399 175.072392,-36.805489 175.072499,-36.805551 175.072543,-36.805621 175.072572,-36.805728 175.072728,-36.805810 175.072813,-36.805885 175.072810,-36.805992 175.072891,-36.806101 175.072912,-36.806211 175.072891,-36.806317 175.072833,-36.806412 175.072819,-36.806425 175.072777,-36.806438 175.072718,-36.806424 175.072686,-36.806391 175.072639,-36.806293 175.072592,-36.806202 175.072525,-36.806037 175.072473,-36.805891 175.072443,-36.805849 175.072400,-36.805752 175.072380,-36.805732 175.072367,-36.805705 175.072367,-36.805671 175.072367,-36.805632 175.072351,-36.805601 175.072333,-36.805581 175.072311,-36.805532 175.072284,-36.805484 175.072267,-36.805476 175.072238,-36.805457 175.072216,-36.805433 175.072192,-36.805397 175.072165,-36.805377 175.072139,-36.805371 175.072118,-36.805373 175.072079,-36.805388 175.071882,-36.805387 175.071802,-36.805392 175.071687,-36.805392 175.071611,-36.805381 175.071533,-36.805323 175.071397,-36.805227 175.071328,-36.805188 175.071231,-36.805165 175.071174,-36.805179 175.071137,-36.805193 175.071086,-36.805189 175.070990,-36.805135 175.070833,-36.805084 175.070713,-36.805060 175.070614,-36.805046 175.070457,-36.805022 175.070397,-36.805009 175.070283,-36.805028 175.070119,-36.805001 175.070028,-36.804999 175.069919,-36.805004 175.069782,-36.805030 175.069701,-36.805078 175.069644,-36.805112 175.069511,-36.805207 175.069489,-36.805235 175.068849,-36.805552</coordinates></LineString></MultiGeometry></Placemark></Document></kml>