<?xml version='1.0' encoding='utf-8'?>
<kml xmlns="http://www.opengis.net/kml/2.2"><Document><name>Mt Roskill LINZ foot track 2</name><Style id="c"><LineStyle><color>ffff00ff</color><width>5</width></LineStyle></Style><Placemark><name>Mt Roskill LINZ foot track 2</name><description>Sheet row 848; LINZ t50_fid(s) 3584649</description><styleUrl>#c</styleUrl><MultiGeometry><LineString><tessellate>1</tessellate><coordinates>174.755484,-36.903311 174.755430,-36.903470 174.755348,-36.903567 174.755099,-36.903686 174.754584,-36.903738 174.754127,-36.903849 174.753729,-36.903913 174.753534,-36.903860 174.753427,-36.903834 174.753321,-36.903735 174.753270,-36.903648 174.753240,-36.903535 174.753177,-36.903419 174.753087,-36.903359 174.753032,-36.903280 174.753045,-36.903185 174.753210,-36.902911 174.753161,-36.902734 174.752880,-36.902547 174.752996,-36.902242</coordinates></LineString></MultiGeometry></Placemark></Document></kml>