<?xml version='1.0' encoding='utf-8'?>
<kml xmlns="http://www.opengis.net/kml/2.2"><Document><name>Dome Valley LINZ foot track 1</name><Style id="c"><LineStyle><color>ffff00ff</color><width>5</width></LineStyle></Style><Placemark><name>Dome Valley LINZ foot track 1</name><description>Sheet row 923; LINZ t50_fid(s) 7646313,7645674,7644973,3517378,3517613</description><styleUrl>#c</styleUrl><MultiGeometry><LineString><tessellate>1</tessellate><coordinates>174.646564,-36.328729 174.646620,-36.328751 174.646822,-36.328840 174.647235,-36.328668 174.647700,-36.328568 174.648377,-36.328515 174.648957,-36.328241 174.649064,-36.328151</coordinates></LineString><LineString><tessellate>1</tessellate><coordinates>174.640080,-36.323917 174.640106,-36.323930 174.640276,-36.324011 174.640422,-36.324100 174.640462,-36.324211 174.640527,-36.324317 174.640666,-36.324356 174.640830,-36.324404 174.641033,-36.324503 174.641141,-36.324578 174.641273,-36.324601 174.641362,-36.324651 174.641500,-36.324669 174.641562,-36.324623 174.641705,-36.324585 174.641831,-36.324619 174.641965,-36.324698 174.642154,-36.324736 174.642279,-36.324724 174.642398,-36.324743 174.642493,-36.324792 174.642658,-36.324856 174.642905,-36.324990 174.643090,-36.325139 174.643281,-36.325274 174.643458,-36.325363 174.643610,-36.325411 174.643748,-36.325430 174.643987,-36.325431 174.644112,-36.325420 174.644245,-36.325489 174.644323,-36.325635 174.644426,-36.325775 174.644578,-36.325809 174.644753,-36.325781 174.644959,-36.325763 174.645087,-36.325908 174.645130,-36.326126 174.645157,-36.326237 174.645525,-36.326435 174.645768,-36.326645 174.645793,-36.326969 174.645755,-36.327259 174.645779,-36.327477 174.646053,-36.327711 174.646245,-36.327856 174.646362,-36.328057 174.646453,-36.328223 174.646518,-36.328461 174.646564,-36.328729</coordinates></LineString><LineString><tessellate>1</tessellate><coordinates>174.635209,-36.336188 174.634887,-36.335410 174.634987,-36.335272 174.635298,-36.335096 174.635582,-36.334681 174.636271,-36.333623 174.636450,-36.333400 174.636933,-36.333160 174.637677,-36.332806 174.637898,-36.332661 174.638173,-36.332576 174.638598,-36.331922 174.638549,-36.331380 174.638585,-36.331294 174.638695,-36.331206 174.638956,-36.331136 174.639142,-36.331012 174.639053,-36.330649 174.639170,-36.330566 174.639410,-36.330601 174.639958,-36.330628 174.640331,-36.330901 174.640466,-36.331151 174.640684,-36.331277 174.640923,-36.331130 174.641026,-36.330981 174.641078,-36.330778 174.641143,-36.330569 174.641359,-36.330314 174.641977,-36.330249 174.642082,-36.330169 174.643056,-36.329801 174.643961,-36.329803 174.644320,-36.329648 174.644832,-36.329285 174.645082,-36.329063 174.645258,-36.329035 174.645695,-36.329119 174.645956,-36.329029 174.646209,-36.328833 174.646399,-36.328663 174.646564,-36.328729</coordinates></LineString><LineString><tessellate>1</tessellate><coordinates>174.638934,-36.346573 174.639123,-36.346598 174.639353,-36.346656 174.639596,-36.346887 174.639865,-36.347177 174.640246,-36.347405 174.640810,-36.347367 174.641095,-36.347211 174.641300,-36.346802 174.641869,-36.346399 174.642428,-36.346148 174.642851,-36.345979 174.642973,-36.345815 174.643223,-36.345213 174.643451,-36.344703 174.643831,-36.344302 174.644078,-36.344085 174.644295,-36.343687 174.644618,-36.343540 174.645031,-36.343514 174.645408,-36.343549 174.645586,-36.343537 174.645982,-36.343344 174.646136,-36.342988 174.646372,-36.342771 174.646483,-36.342614 174.646479,-36.342434 174.646682,-36.342121 174.646804,-36.341901 174.647018,-36.341825 174.647106,-36.341707 174.647125,-36.341508 174.647272,-36.341331 174.647424,-36.341144 174.647524,-36.341056 174.647743,-36.340936 174.647950,-36.340763 174.648041,-36.340548 174.647941,-36.340365 174.647895,-36.340157 174.647896,-36.339895 174.647983,-36.339763 174.648067,-36.339499 174.647889,-36.339303 174.647638,-36.339059 174.647439,-36.338755 174.647484,-36.338585 174.647865,-36.338439 174.648108,-36.338280 174.648364,-36.338199 174.648451,-36.338052 174.648416,-36.337824 174.648424,-36.337654 174.648625,-36.337482 174.648709,-36.337189 174.648697,-36.336942 174.648685,-36.336660 174.648578,-36.336419 174.648446,-36.336134 174.648433,-36.335778 174.648428,-36.335525 174.648256,-36.335353 174.648201,-36.335024 174.648291,-36.334721 174.648490,-36.334495 174.648495,-36.334185 174.648620,-36.333824 174.648977,-36.333712 174.649094,-36.333535 174.649087,-36.333205 174.649272,-36.332902 174.649424,-36.332696 174.649309,-36.332387 174.649350,-36.332017 174.649619,-36.331683 174.649864,-36.331379 174.650010,-36.330882 174.650063,-36.330570 174.650056,-36.330231 174.650053,-36.330075 174.649853,-36.329690 174.649677,-36.329342 174.649670,-36.328993 174.649458,-36.328627 174.649213,-36.328368 174.649064,-36.328151 174.649291,-36.327384 174.649653,-36.327072 174.650102,-36.326933 174.650953,-36.326589 174.651293,-36.326205 174.651497,-36.325790 174.651855,-36.325542 174.652187,-36.325493 174.652658,-36.325556 174.653381,-36.325281 174.653522,-36.325249 174.653697,-36.325332 174.653877,-36.325514 174.654169,-36.325735 174.654500,-36.325616 174.654890,-36.325360 174.655240,-36.325317 174.655388,-36.325385 174.655946,-36.325518 174.656901,-36.325552 174.656967,-36.325531</coordinates></LineString><LineString><tessellate>1</tessellate><coordinates>174.644808,-36.346755 174.644726,-36.346713 174.644630,-36.346630 174.644740,-36.346110 174.645520,-36.345740 174.646280,-36.345270 174.646472,-36.345138 174.646462,-36.345149 174.646476,-36.345140 174.647770,-36.344280 174.648170,-36.344220 174.648440,-36.344250 174.648820,-36.344110 174.649030,-36.343810 174.649250,-36.343610 174.649680,-36.343360 174.649930,-36.343030 174.650270,-36.342900 174.650680,-36.342640 174.650970,-36.342530 174.651420,-36.342440 174.651560,-36.342100 174.652060,-36.341690 174.652290,-36.341350 174.652530,-36.341120 174.653430,-36.340540 174.653740,-36.340210 174.653950,-36.339770 174.653970,-36.339010 174.654220,-36.338840 174.654230,-36.338470 174.654470,-36.338440 174.654430,-36.337810 174.654470,-36.337520 174.654450,-36.337220 174.654110,-36.336710 174.654540,-36.336540 174.655160,-36.336060 174.655160,-36.335650 174.655430,-36.335330 174.655830,-36.334760 174.656010,-36.334550 174.656600,-36.334140 174.656860,-36.333910 174.656960,-36.333570 174.656920,-36.333320 174.657200,-36.333270 174.658040,-36.333380 174.658430,-36.333340 174.658980,-36.332780 174.658970,-36.332460 174.659100,-36.332260 174.659190,-36.331940 174.659060,-36.331700 174.659000,-36.331450 174.659040,-36.331140 174.659260,-36.330990 174.659340,-36.330710 174.659470,-36.330490 174.659740,-36.330260 174.659840,-36.330060 174.659820,-36.329740 174.660140,-36.329520 174.660250,-36.329300 174.660160,-36.328990 174.660180,-36.328780 174.660030,-36.328590 174.659700,-36.328280 174.659340,-36.328170 174.659168,-36.328033 174.658650,-36.327620 174.658320,-36.327550 174.658060,-36.327440 174.657970,-36.327130 174.658040,-36.326850 174.657900,-36.326500 174.657630,-36.326230 174.657350,-36.326090 174.657060,-36.326010 174.656730,-36.325860 174.656853,-36.325654 174.656967,-36.325531 174.657205,-36.325384 174.657321,-36.325150 174.657310,-36.325110 174.657257,-36.324996 174.657230,-36.324930 174.657330,-36.324730 174.657800,-36.324620 174.658030,-36.324510 174.658200,-36.324330 174.658450,-36.324270 174.659020,-36.324170 174.659660,-36.324180 174.659970,-36.324060 174.660830,-36.323550 174.660980,-36.323110 174.661250,-36.322980 174.661490,-36.322910 174.661450,-36.322690 174.661190,-36.322480 174.660980,-36.322410 174.660910,-36.322240 174.661070,-36.322080 174.661620,-36.321970 174.661834,-36.321853 174.661840,-36.321850 174.661960,-36.321670 174.661940,-36.321220 174.662150,-36.321110 174.662330,-36.321250 174.662430,-36.321470 174.662590,-36.321620 174.662800,-36.321740 174.663030,-36.321830 174.663270,-36.321720 174.663770,-36.321870 174.664040,-36.321910 174.664340,-36.321850 174.664890,-36.321590 174.665390,-36.321280 174.665650,-36.321190 174.665770,-36.321030 174.665794,-36.320953 174.665830,-36.320840 174.665820,-36.320610 174.665910,-36.320430 174.666160,-36.320340 174.666430,-36.320410 174.666700,-36.320370 174.666860,-36.320240 174.666960,-36.319860 174.666890,-36.319210 174.666780,-36.318830 174.666570,-36.318480 174.666500,-36.318300 174.666490,-36.317910 174.666370,-36.317410 174.666420,-36.317280 174.666380,-36.317100 174.666160,-36.316730 174.666160,-36.316550 174.666320,-36.316400 174.666730,-36.316190 174.666920,-36.316060 174.667420,-36.315640 174.667630,-36.315580 174.667719,-36.315415</coordinates></LineString></MultiGeometry></Placemark></Document></kml>