<?xml version='1.0' encoding='utf-8'?>
<kml xmlns="http://www.opengis.net/kml/2.2"><Document><name>Āwhitu Peninsula LINZ foot track 2</name><Style id="c"><LineStyle><color>ffff00ff</color><width>5</width></LineStyle></Style><Placemark><name>Āwhitu Peninsula LINZ foot track 2</name><description>Sheet row 1306; LINZ t50_fid(s) 3592639</description><styleUrl>#c</styleUrl><MultiGeometry><LineString><tessellate>1</tessellate><coordinates>174.646831,-37.086114 174.647001,-37.086033 174.647072,-37.085908 174.647115,-37.085681 174.647238,-37.085553 174.647384,-37.085344 174.647448,-37.085214</coordinates></LineString></MultiGeometry></Placemark></Document></kml>