<?xml version='1.0' encoding='utf-8'?>
<kml xmlns="http://www.opengis.net/kml/2.2"><Document><name>Wiri LINZ foot track 1</name><Style id="c"><LineStyle><color>ffff00ff</color><width>5</width></LineStyle></Style><Placemark><name>Wiri LINZ foot track 1</name><description>Sheet row 1215; LINZ t50_fid(s) 3556068</description><styleUrl>#c</styleUrl><MultiGeometry><LineString><tessellate>1</tessellate><coordinates>174.846788,-37.021020 174.846543,-37.020868 174.846336,-37.020627 174.846026,-37.020361 174.845590,-37.020505 174.845388,-37.020625 174.845257,-37.020567 174.844097,-37.020516 174.843475,-37.020483 174.843439,-37.020481 174.842414,-37.020431 174.841298,-37.020367 174.840820,-37.020144 174.840081,-37.019614 174.839322,-37.018922 174.838479,-37.018272 174.837842,-37.017768 174.837358,-37.017288 174.837162,-37.016871 174.837020,-37.016575 174.836762,-37.016390 174.836020,-37.016388 174.835143,-37.016321 174.835090,-37.016317</coordinates></LineString></MultiGeometry></Placemark></Document></kml>