<?xml version='1.0' encoding='utf-8'?>
<kml xmlns="http://www.opengis.net/kml/2.2"><Document><name>Northern Aotea / Great Barrier LINZ foot track 2</name><Style id="c"><LineStyle><color>ffff00ff</color><width>5</width></LineStyle></Style><Placemark><name>Northern Aotea / Great Barrier LINZ foot track 2</name><description>Sheet row 1368; LINZ t50_fid(s) 3584967</description><styleUrl>#c</styleUrl><MultiGeometry><LineString><tessellate>1</tessellate><coordinates>175.356620,-36.204904 175.356688,-36.204978 175.356790,-36.205085 175.356973,-36.205162 175.357227,-36.205275 175.357334,-36.205339 175.357461,-36.205492 175.357728,-36.205652 175.357914,-36.205842 175.357979,-36.206049 175.358042,-36.206213 175.358333,-36.206405 175.358665,-36.206578 175.358862,-36.206929 175.359051,-36.207088 175.359220,-36.207297</coordinates></LineString></MultiGeometry></Placemark></Document></kml>