<?xml version='1.0' encoding='utf-8'?>
<kml xmlns="http://www.opengis.net/kml/2.2"><Document><name>Papatoetoe LINZ foot track 2</name><Style id="c"><LineStyle><color>ffff00ff</color><width>5</width></LineStyle></Style><Placemark><name>Papatoetoe LINZ foot track 2</name><description>Sheet row 1245; LINZ t50_fid(s) 3584598</description><styleUrl>#c</styleUrl><MultiGeometry><LineString><tessellate>1</tessellate><coordinates>174.833339,-36.972577 174.833111,-36.973020 174.832993,-36.973588 174.832989,-36.973610 174.832618,-36.974437</coordinates></LineString></MultiGeometry></Placemark></Document></kml>