<?xml version='1.0' encoding='utf-8'?>
<kml xmlns="http://www.opengis.net/kml/2.2"><Document><name>Crocodile Island LINZ foot track 1</name><Style id="c"><LineStyle><color>ffff00ff</color><width>5</width></LineStyle></Style><Placemark><name>Crocodile Island LINZ foot track 1</name><description>Sheet row 913; LINZ t50_fid(s) 7646318,7645702,7646459,7646140,7646137,3575006,7646139,3584880,3593379,7646322,3593377,7645699</description><styleUrl>#c</styleUrl><MultiGeometry><LineString><tessellate>1</tessellate><coordinates>174.693237,-36.590299 174.693287,-36.590433 174.693298,-36.590559 174.693282,-36.590703 174.693286,-36.590880 174.693279,-36.591163 174.693273,-36.591305 174.693262,-36.591390 174.693235,-36.591443 174.693152,-36.591546 174.693112,-36.591721 174.693056,-36.591917 174.692930,-36.591928 174.692838,-36.591980 174.692718,-36.592028 174.692512,-36.592083</coordinates></LineString><LineString><tessellate>1</tessellate><coordinates>174.692512,-36.592083 174.692487,-36.592114 174.692523,-36.592217 174.692493,-36.592306 174.692383,-36.592745 174.692370,-36.592809 174.692398,-36.592873 174.692502,-36.592937 174.692600,-36.593141 174.692746,-36.593388 174.693009,-36.593690 174.693146,-36.593856 174.693222,-36.593946 174.693282,-36.594003 174.693453,-36.594110 174.693574,-36.594269 174.693631,-36.594354 174.693616,-36.594443 174.693628,-36.594620 174.693672,-36.594747 174.693692,-36.595132 174.693711,-36.595311 174.693764,-36.595602 174.693818,-36.595884 174.693874,-36.596088</coordinates></LineString><LineString><tessellate>1</tessellate><coordinates>174.692089,-36.590653 174.692171,-36.590771 174.692247,-36.590882 174.692287,-36.590919 174.692344,-36.590957 174.692456,-36.590994 174.692478,-36.591030 174.692492,-36.591116 174.692527,-36.591199 174.692571,-36.591263 174.692624,-36.591324 174.692653,-36.591390 174.692662,-36.591432 174.692648,-36.591479 174.692598,-36.591614 174.692500,-36.591765 174.692499,-36.591804 174.692524,-36.591879 174.692536,-36.591955 174.692512,-36.592083</coordinates></LineString><LineString><tessellate>1</tessellate><coordinates>174.692512,-36.592083 174.692365,-36.592120 174.691354,-36.592350 174.691289,-36.592365 174.691206,-36.592417 174.691140,-36.592597 174.691040,-36.592789 174.690916,-36.592830 174.690441,-36.592924 174.690347,-36.592925 174.689957,-36.592892 174.689921,-36.592856 174.689886,-36.592663 174.689842,-36.592531</coordinates></LineString><LineString><tessellate>1</tessellate><coordinates>174.693874,-36.596088 174.694013,-36.596281 174.694106,-36.596433 174.694230,-36.596556 174.694574,-36.596738 174.694735,-36.596796 174.694851,-36.596831 174.694971,-36.596888 174.695271,-36.597056 174.695725,-36.597346 174.695783,-36.597393 174.695896,-36.597505 174.695970,-36.597591 174.696072,-36.597716 174.696160,-36.597785 174.696258,-36.597849 174.696362,-36.597902 174.696867,-36.598073 174.697002,-36.598112 174.697086,-36.598165 174.697166,-36.598242 174.697229,-36.598320 174.697260,-36.598380 174.697338,-36.598435 174.697362,-36.598475 174.697363,-36.598529 174.697361,-36.598616 174.697376,-36.598680 174.697453,-36.598857 174.697539,-36.599064 174.697575,-36.599136 174.697572,-36.599355 174.697595,-36.599477 174.697579,-36.599568 174.697600,-36.599611 174.697667,-36.599671</coordinates></LineString><LineString><tessellate>1</tessellate><coordinates>174.686598,-36.589366 174.686410,-36.589303 174.686289,-36.589276 174.686203,-36.589251 174.686150,-36.589227 174.686112,-36.589199 174.685976,-36.589031 174.685901,-36.588953 174.685881,-36.588945 174.685839,-36.588937 174.685786,-36.588939 174.685685,-36.588956 174.685589,-36.588982 174.685531,-36.589016 174.685449,-36.589080 174.685390,-36.589145 174.685301,-36.589237 174.685186,-36.589317 174.685159,-36.589353 174.685157,-36.589398 174.685058,-36.589401 174.684965,-36.589413 174.684825,-36.589464 174.684668,-36.589547 174.684506,-36.589677 174.684309,-36.589554 174.684269,-36.589550 174.684241,-36.589558 174.684174,-36.589591 174.684131,-36.589597 174.684094,-36.589592 174.684040,-36.589573 174.683902,-36.589495 174.683856,-36.589482 174.683856,-36.589479 174.683858,-36.589455 174.683850,-36.589425 174.683827,-36.589400 174.683679,-36.589437 174.683402,-36.589484 174.683327,-36.589470 174.683233,-36.589447</coordinates></LineString><LineString><tessellate>1</tessellate><coordinates>174.683468,-36.592399 174.683561,-36.592013 174.683587,-36.591807 174.683531,-36.591542 174.683498,-36.591431 174.683475,-36.591352 174.683412,-36.591263 174.683450,-36.590791 174.683422,-36.590646 174.683444,-36.590528 174.683413,-36.590219 174.683450,-36.590109 174.683628,-36.589955 174.683750,-36.589763 174.683826,-36.589579 174.683856,-36.589482</coordinates></LineString><LineString><tessellate>1</tessellate><coordinates>174.689846,-36.596254 174.689856,-36.596185 174.689418,-36.594964 174.688932,-36.594688 174.688780,-36.594459</coordinates></LineString><LineString><tessellate>1</tessellate><coordinates>174.688508,-36.594906 174.688586,-36.594741 174.688780,-36.594459</coordinates></LineString><LineString><tessellate>1</tessellate><coordinates>174.681223,-36.590102 174.681569,-36.590099 174.681791,-36.590112 174.681904,-36.590090 174.682158,-36.590006 174.682358,-36.590037 174.682591,-36.590062 174.682789,-36.590013 174.682894,-36.589989 174.683036,-36.590000 174.683262,-36.590064 174.683416,-36.590105 174.683450,-36.590109</coordinates></LineString><LineString><tessellate>1</tessellate><coordinates>174.688780,-36.594459 174.688023,-36.594621 174.687495,-36.594230 174.687373,-36.593850 174.687079,-36.593601</coordinates></LineString><LineString><tessellate>1</tessellate><coordinates>174.693874,-36.596088 174.693714,-36.595998 174.693633,-36.595960 174.693582,-36.595943 174.693439,-36.595913 174.693381,-36.595888 174.693289,-36.595833 174.693253,-36.595816 174.693166,-36.595787 174.693081,-36.595773 174.693011,-36.595771 174.692877,-36.595777 174.692740,-36.595781 174.692634,-36.595757 174.692574,-36.595735 174.692481,-36.595678 174.692378,-36.595636 174.692316,-36.595624 174.692283,-36.595618 174.692228,-36.595641 174.692188,-36.595702 174.692131,-36.595801 174.692070,-36.595857 174.691941,-36.595879 174.691881,-36.595914 174.691742,-36.595996 174.691668,-36.596021 174.691321,-36.596063 174.691014,-36.596101 174.690838,-36.596143 174.690625,-36.596176 174.690442,-36.596191 174.690118,-36.596184 174.690091,-36.596198 174.690065,-36.596222 174.690029,-36.596249 174.689969,-36.596266 174.689918,-36.596269 174.689846,-36.596254 174.689788,-36.596268 174.689651,-36.596319 174.689521,-36.596355 174.689331,-36.596396 174.689134,-36.596413 174.688902,-36.596438 174.688679,-36.596451 174.688436,-36.596448 174.688362,-36.596439 174.688294,-36.596413 174.688201,-36.596353 174.688090,-36.596261 174.687967,-36.596135 174.687917,-36.596063 174.687874,-36.596017 174.687807,-36.595983 174.687671,-36.595945 174.687600,-36.595905 174.687563,-36.595869 174.687541,-36.595820 174.687513,-36.595781 174.687472,-36.595752 174.687368,-36.595711 174.687317,-36.595672 174.687281,-36.595615 174.687239,-36.595558 174.687169,-36.595501 174.687091,-36.595468 174.687003,-36.595458 174.686874,-36.595469 174.686737,-36.595457 174.686667,-36.595465 174.686584,-36.595509 174.686537,-36.595528 174.686485,-36.595524 174.686390,-36.595481 174.686276,-36.595460 174.686175,-36.595429 174.686046,-36.595372 174.685949,-36.595296 174.685860,-36.595238 174.685784,-36.595185 174.685717,-36.595112 174.685669,-36.595066 174.685563,-36.595004 174.685481,-36.594932 174.685395,-36.594848 174.685353,-36.594764 174.685241,-36.594602 174.685221,-36.594542 174.685208,-36.594480 174.685180,-36.594417 174.685052,-36.594250 174.684868,-36.594007 174.684782,-36.593849 174.684708,-36.593806 174.684504,-36.593704 174.684381,-36.593632 174.684183,-36.593498 174.684108,-36.593433 174.684068,-36.593390 174.684043,-36.593340 174.684024,-36.593275 174.684025,-36.593069 174.684003,-36.593019 174.683943,-36.592966 174.683849,-36.592906 174.683807,-36.592869 174.683779,-36.592816 174.683756,-36.592702 174.683708,-36.592603 174.683656,-36.592541 174.683468,-36.592399 174.683465,-36.592397 174.683419,-36.592384 174.683253,-36.592342 174.683013,-36.592213 174.682826,-36.592164 174.682570,-36.592139 174.682023,-36.591972 174.681853,-36.591914 174.681719,-36.591860 174.681639,-36.591816 174.681508,-36.591719 174.681285,-36.591545 174.681060,-36.591352 174.680919,-36.591203 174.680841,-36.591106 174.680790,-36.591016 174.680753,-36.590978 174.680692,-36.590949 174.680540,-36.590883 174.680377,-36.590837 174.680337,-36.590821 174.680325,-36.590751</coordinates></LineString></MultiGeometry></Placemark></Document></kml>