<?xml version='1.0' encoding='utf-8'?>
<kml xmlns="http://www.opengis.net/kml/2.2"><Document><name>Cockle Bay LINZ foot track 1</name><Style id="c"><LineStyle><color>ffff00ff</color><width>5</width></LineStyle></Style><Placemark><name>Cockle Bay LINZ foot track 1</name><description>Sheet row 952; LINZ t50_fid(s) 3584714</description><styleUrl>#c</styleUrl><MultiGeometry><LineString><tessellate>1</tessellate><coordinates>174.953243,-36.902524 174.953133,-36.902443 174.953087,-36.902375 174.952987,-36.902246 174.952871,-36.902116 174.952701,-36.902017 174.952485,-36.901992 174.952221,-36.901885 174.952085,-36.901852 174.951997,-36.901847 174.951763,-36.901855 174.951633,-36.901833 174.951378,-36.901760 174.951229,-36.901745 174.951136,-36.901775 174.951038,-36.901808</coordinates></LineString></MultiGeometry></Placemark></Document></kml>