<?xml version='1.0' encoding='utf-8'?>
<kml xmlns="http://www.opengis.net/kml/2.2"><Document><name>Ngarango Otainui Island LINZ foot track 1</name><Style id="c"><LineStyle><color>ffff00ff</color><width>5</width></LineStyle></Style><Placemark><name>Ngarango Otainui Island LINZ foot track 1</name><description>Sheet row 1020; LINZ t50_fid(s) 3592954</description><styleUrl>#c</styleUrl><MultiGeometry><LineString><tessellate>1</tessellate><coordinates>174.821867,-36.957341 174.821868,-36.957355 174.821933,-36.958219 174.822364,-36.958324 174.822944,-36.958655</coordinates></LineString></MultiGeometry></Placemark></Document></kml>