<?xml version='1.0' encoding='utf-8'?>
<kml xmlns="http://www.opengis.net/kml/2.2"><Document><name>Massey LINZ foot track 4</name><Style id="c"><LineStyle><color>ffff00ff</color><width>5</width></LineStyle></Style><Placemark><name>Massey LINZ foot track 4</name><description>Sheet row 1394; LINZ t50_fid(s) 8520976</description><styleUrl>#c</styleUrl><MultiGeometry><LineString><tessellate>1</tessellate><coordinates>174.617693,-36.837045 174.617087,-36.836808 174.616977,-36.836743 174.616775,-36.836529 174.616826,-36.836415 174.616827,-36.836356 174.616778,-36.836327</coordinates></LineString></MultiGeometry></Placemark></Document></kml>