<?xml version='1.0' encoding='utf-8'?>
<kml xmlns="http://www.opengis.net/kml/2.2"><Document><name>Unsworth Heights LINZ foot track 1</name><Style id="c"><LineStyle><color>ffff00ff</color><width>5</width></LineStyle></Style><Placemark><name>Unsworth Heights LINZ foot track 1</name><description>Sheet row 1032; LINZ t50_fid(s) 8520893,8521017,8521018,3584752,3584754,3593214,3593225</description><styleUrl>#c</styleUrl><MultiGeometry><LineString><tessellate>1</tessellate><coordinates>174.738989,-36.757487 174.739198,-36.757605 174.739331,-36.757721 174.739453,-36.757832 174.739628,-36.757927 174.740025,-36.758144 174.740226,-36.758254 174.740749,-36.758408 174.740921,-36.758471 174.740973,-36.758463 174.741039,-36.758426 174.741118,-36.758439 174.741229,-36.758491 174.741383,-36.758554</coordinates></LineString><LineString><tessellate>1</tessellate><coordinates>174.738922,-36.756068 174.738943,-36.756257 174.738964,-36.756406 174.738982,-36.756811 174.738976,-36.756932 174.738937,-36.757135 174.738931,-36.757225 174.738940,-36.757345 174.738989,-36.757487</coordinates></LineString><LineString><tessellate>1</tessellate><coordinates>174.738989,-36.757487 174.738896,-36.757551 174.738440,-36.757821</coordinates></LineString><LineString><tessellate>1</tessellate><coordinates>174.739342,-36.755566 174.739424,-36.755678 174.739673,-36.755866 174.740265,-36.756321 174.740505,-36.756441 174.740740,-36.756618 174.740852,-36.756722 174.740896,-36.756857 174.740898,-36.756957 174.740940,-36.757021 174.741356,-36.757283 174.741756,-36.757523 174.741884,-36.757611</coordinates></LineString><LineString><tessellate>1</tessellate><coordinates>174.737404,-36.754246 174.737576,-36.754329 174.737842,-36.754535 174.737935,-36.754604 174.738055,-36.754671 174.738175,-36.754752 174.738263,-36.754821 174.738356,-36.754936 174.738485,-36.755054 174.738546,-36.755371 174.738854,-36.755985 174.738922,-36.756068</coordinates></LineString><LineString><tessellate>1</tessellate><coordinates>174.739342,-36.755566 174.739351,-36.755489 174.739637,-36.755248 174.739946,-36.754976 174.739942,-36.754922 174.739716,-36.754631 174.739709,-36.754582 174.739657,-36.754532 174.740061,-36.754159</coordinates></LineString><LineString><tessellate>1</tessellate><coordinates>174.738922,-36.756068 174.739342,-36.755566</coordinates></LineString></MultiGeometry></Placemark></Document></kml>