<?xml version='1.0' encoding='utf-8'?>
<kml xmlns="http://www.opengis.net/kml/2.2"><Document><name>Titirangi LINZ foot track 1</name><Style id="c"><LineStyle><color>ffff00ff</color><width>5</width></LineStyle></Style><Placemark><name>Titirangi LINZ foot track 1</name><description>Sheet row 1303; LINZ t50_fid(s) 3573815</description><styleUrl>#c</styleUrl><MultiGeometry><LineString><tessellate>1</tessellate><coordinates>174.656965,-36.954506 174.656452,-36.952969 174.655818,-36.951992</coordinates></LineString></MultiGeometry></Placemark></Document></kml>