<?xml version='1.0' encoding='utf-8'?>
<kml xmlns="http://www.opengis.net/kml/2.2"><Document><name>Stanmore Bay LINZ foot track 8</name><Style id="c"><LineStyle><color>ffff00ff</color><width>5</width></LineStyle></Style><Placemark><name>Stanmore Bay LINZ foot track 8</name><description>Sheet row 1138; LINZ t50_fid(s) 3590001,3590000</description><styleUrl>#c</styleUrl><MultiGeometry><LineString><tessellate>1</tessellate><coordinates>174.745038,-36.641276 174.744964,-36.641213</coordinates></LineString><LineString><tessellate>1</tessellate><coordinates>174.746163,-36.641839 174.746030,-36.641742 174.745576,-36.641487 174.745244,-36.641447 174.745038,-36.641276</coordinates></LineString></MultiGeometry></Placemark></Document></kml>