<?xml version='1.0' encoding='utf-8'?>
<kml xmlns="http://www.opengis.net/kml/2.2"><Document><name>Manurewa LINZ foot track 10</name><Style id="c"><LineStyle><color>ffff00ff</color><width>5</width></LineStyle></Style><Placemark><name>Manurewa LINZ foot track 10</name><description>Sheet row 1295; LINZ t50_fid(s) 3592762</description><styleUrl>#c</styleUrl><MultiGeometry><LineString><tessellate>1</tessellate><coordinates>174.897590,-37.035387 174.897280,-37.034734 174.897098,-37.034446</coordinates></LineString></MultiGeometry></Placemark></Document></kml>