<?xml version='1.0' encoding='utf-8'?>
<kml xmlns="http://www.opengis.net/kml/2.2"><Document><name>West Harbour LINZ foot track 8</name><Style id="c"><LineStyle><color>ffff00ff</color><width>5</width></LineStyle></Style><Placemark><name>West Harbour LINZ foot track 8</name><description>Sheet row 1391; LINZ t50_fid(s) 3592545</description><styleUrl>#c</styleUrl><MultiGeometry><LineString><tessellate>1</tessellate><coordinates>174.622879,-36.817702 174.622873,-36.817775 174.622525,-36.817748 174.622444,-36.818060 174.622342,-36.818394 174.622565,-36.818444</coordinates></LineString></MultiGeometry></Placemark></Document></kml>