<?xml version='1.0' encoding='utf-8'?>
<kml xmlns="http://www.opengis.net/kml/2.2"><Document><name>Ōtara LINZ foot track 12</name><Style id="c"><LineStyle><color>ffff00ff</color><width>5</width></LineStyle></Style><Placemark><name>Ōtara LINZ foot track 12</name><description>Sheet row 1294; LINZ t50_fid(s) 3592845</description><styleUrl>#c</styleUrl><MultiGeometry><LineString><tessellate>1</tessellate><coordinates>174.889047,-36.973665 174.889020,-36.974686 174.889020,-36.974688</coordinates></LineString></MultiGeometry></Placemark></Document></kml>