<?xml version='1.0' encoding='utf-8'?>
<kml xmlns="http://www.opengis.net/kml/2.2"><Document><name>Pakuranga LINZ foot track 3</name><Style id="c"><LineStyle><color>ffff00ff</color><width>5</width></LineStyle></Style><Placemark><name>Pakuranga LINZ foot track 3</name><description>Sheet row 947; LINZ t50_fid(s) 3584674</description><styleUrl>#c</styleUrl><MultiGeometry><LineString><tessellate>1</tessellate><coordinates>174.885849,-36.899171 174.884602,-36.898786 174.884330,-36.897787 174.883885,-36.897742 174.883242,-36.897566</coordinates></LineString></MultiGeometry></Placemark></Document></kml>