<?xml version='1.0' encoding='utf-8'?>
<kml xmlns="http://www.opengis.net/kml/2.2"><Document><name>Half Moon Bay LINZ foot track 4</name><Style id="c"><LineStyle><color>ffff00ff</color><width>5</width></LineStyle></Style><Placemark><name>Half Moon Bay LINZ foot track 4</name><description>Sheet row 945; LINZ t50_fid(s) 3573857</description><styleUrl>#c</styleUrl><MultiGeometry><LineString><tessellate>1</tessellate><coordinates>174.904241,-36.881986 174.904359,-36.882176 174.904312,-36.882359 174.903576,-36.882241 174.903408,-36.882303 174.903104,-36.882247 174.903104,-36.882247 174.902907,-36.882211 174.902476,-36.882277 174.901707,-36.882307 174.901598,-36.882344 174.901608,-36.882462 174.901169,-36.882603</coordinates></LineString></MultiGeometry></Placemark></Document></kml>