<?xml version='1.0' encoding='utf-8'?>
<kml xmlns="http://www.opengis.net/kml/2.2"><Document><name>Pakuranga LINZ foot track 4</name><Style id="c"><LineStyle><color>ffff00ff</color><width>5</width></LineStyle></Style><Placemark><name>Pakuranga LINZ foot track 4</name><description>Sheet row 962; LINZ t50_fid(s) 3584659</description><styleUrl>#c</styleUrl><MultiGeometry><LineString><tessellate>1</tessellate><coordinates>174.894050,-36.910162 174.893331,-36.910188 174.893025,-36.910090 174.892867,-36.910055 174.892719,-36.910050 174.892594,-36.910065 174.892543,-36.910072</coordinates></LineString></MultiGeometry></Placemark></Document></kml>