<?xml version='1.0' encoding='utf-8'?>
<kml xmlns="http://www.opengis.net/kml/2.2"><Document><name>Whangaparapara, Aotea / Great Barrier LINZ foot track 1</name><Style id="c"><LineStyle><color>ffff00ff</color><width>5</width></LineStyle></Style><Placemark><name>Whangaparapara, Aotea / Great Barrier LINZ foot track 1</name><description>Sheet row 814; LINZ t50_fid(s) 3593477</description><styleUrl>#c</styleUrl><MultiGeometry><LineString><tessellate>1</tessellate><coordinates>175.392832,-36.217057 175.392733,-36.217003 175.392606,-36.216861 175.392494,-36.216781 175.392300,-36.216692 175.392165,-36.216675 175.392040,-36.216694 175.391969,-36.216785 175.391970,-36.216930 175.392006,-36.217057 175.392070,-36.217255</coordinates></LineString></MultiGeometry></Placemark></Document></kml>