<?xml version='1.0' encoding='utf-8'?>
<kml xmlns="http://www.opengis.net/kml/2.2"><Document><name>Glendowie LINZ foot track 6</name><Style id="c"><LineStyle><color>ffff00ff</color><width>5</width></LineStyle></Style><Placemark><name>Glendowie LINZ foot track 6</name><description>Sheet row 950; LINZ t50_fid(s) 3584685</description><styleUrl>#c</styleUrl><MultiGeometry><LineString><tessellate>1</tessellate><coordinates>174.883218,-36.859946 174.882506,-36.859963 174.882162,-36.860202 174.882047,-36.860166 174.880649,-36.859652</coordinates></LineString></MultiGeometry></Placemark></Document></kml>