<?xml version='1.0' encoding='utf-8'?>
<kml xmlns="http://www.opengis.net/kml/2.2"><Document><name>Huia / Cornwallis LINZ foot track 1</name><Style id="c"><LineStyle><color>ffff00ff</color><width>5</width></LineStyle></Style><Placemark><name>Huia / Cornwallis LINZ foot track 1</name><description>Sheet row 1411; LINZ t50_fid(s) 3553513</description><styleUrl>#c</styleUrl><MultiGeometry><LineString><tessellate>1</tessellate><coordinates>174.496372,-37.036981 174.496762,-37.037243 174.496923,-37.037560 174.497126,-37.037874 174.497139,-37.037882 174.497363,-37.038055 174.497596,-37.038286 174.497704,-37.038347 174.497875,-37.038388 174.497940,-37.038390 174.498053,-37.038368 174.498082,-37.038375 174.498098,-37.038410 174.498126,-37.038549 174.498125,-37.038647 174.498135,-37.038699 174.498247,-37.038929 174.498309,-37.039005 174.498349,-37.039106 174.498357,-37.039316 174.498373,-37.039379 174.498548,-37.039490 174.498675,-37.039717 174.498710,-37.039760 174.498848,-37.039832 174.499128,-37.039956 174.499160,-37.039981 174.499150,-37.040024 174.499058,-37.040157 174.499038,-37.040212 174.499065,-37.040347 174.499129,-37.040565 174.499152,-37.040613 174.499269,-37.040714 174.499486,-37.040835 174.499543,-37.040859 174.499586,-37.040863 174.499708,-37.040919 174.500007,-37.041079 174.500303,-37.041158 174.500688,-37.041153 174.501165,-37.041260 174.501701,-37.041219 174.501818,-37.041211 174.502215,-37.041175 174.502635,-37.041025 174.502962,-37.040682 174.503262,-37.040277 174.503614,-37.039913 174.503795,-37.039486</coordinates></LineString></MultiGeometry></Placemark></Document></kml>