<?xml version='1.0' encoding='utf-8'?>
<kml xmlns="http://www.opengis.net/kml/2.2"><Document><name>Hobsonville LINZ foot track 3</name><Style id="c"><LineStyle><color>ffff00ff</color><width>5</width></LineStyle></Style><Placemark><name>Hobsonville LINZ foot track 3</name><description>Sheet row 1050; LINZ t50_fid(s) 8520890</description><styleUrl>#c</styleUrl><MultiGeometry><LineString><tessellate>1</tessellate><coordinates>174.663756,-36.795432 174.663863,-36.795419 174.663986,-36.795408 174.664140,-36.795346 174.664462,-36.795341 174.664892,-36.795440 174.665112,-36.795596 174.665349,-36.795638 174.665432,-36.795706 174.665725,-36.795871 174.665798,-36.795924 174.665870,-36.796008 174.665960,-36.796150 174.666036,-36.796343 174.666047,-36.796420 174.666077,-36.796447 174.666146,-36.796428 174.666222,-36.796394 174.666287,-36.796332 174.666346,-36.796279 174.666427,-36.796295 174.666522,-36.796315 174.666589,-36.796328 174.666733,-36.796440 174.666983,-36.796569 174.667185,-36.796646 174.667582,-36.796737 174.667665,-36.796749 174.667788,-36.796747 174.667932,-36.796846 174.668036,-36.796889 174.668291,-36.796989 174.668447,-36.797007 174.668585,-36.797103 174.668708,-36.797242 174.668814,-36.797393 174.668932,-36.797498 174.669120,-36.797622 174.669169,-36.797666 174.669224,-36.797769 174.669321,-36.797822 174.669347,-36.797860 174.669348,-36.797892 174.669309,-36.797922 174.669267,-36.797937 174.669059,-36.798051 174.668965,-36.798046</coordinates></LineString></MultiGeometry></Placemark></Document></kml>