<?xml version='1.0' encoding='utf-8'?>
<kml xmlns="http://www.opengis.net/kml/2.2"><Document><name>Graves Island LINZ foot track 1</name><Style id="c"><LineStyle><color>ffff00ff</color><width>5</width></LineStyle></Style><Placemark><name>Graves Island LINZ foot track 1</name><description>Sheet row 987; LINZ t50_fid(s) 3593483</description><styleUrl>#c</styleUrl><MultiGeometry><LineString><tessellate>1</tessellate><coordinates>175.357650,-36.177796 175.358384,-36.177390 175.358639,-36.177101 175.358868,-36.176898</coordinates></LineString></MultiGeometry></Placemark></Document></kml>