{"type": "FeatureCollection", "features": [{"type": "Feature", "id": 12257, "geometry": {"type": "LineString", "coordinates": [[174.747508992936, -36.6773223868277], [174.747383237619, -36.6773230654221], [174.747348066814, -36.6773223945392], [174.747093415809, -36.6773213618366], [174.74589108805, -36.6773103817508], [174.745446550995, -36.6772918591506], [174.745177988602, -36.6772647928], [174.744971312321, -36.6772248945248], [174.744856470957, -36.6771872274893], [174.744699493003, -36.6771847580729], [174.744603192504, -36.6771813992762], [174.744403028925, -36.677167638077], [174.744238652178, -36.6771652773649], [174.744039268111, -36.6771860852422], [174.743890310221, -36.6772109232922], [174.743784267583, -36.6772351325646], [174.743583861756, -36.6772762264902], [174.743496762889, -36.6772870413037], [174.743299397734, -36.6772660830804], [174.743191149591, -36.6772581289383], [174.743059007452, -36.6772409844254], [174.742791628876, -36.6772007785839], [174.742696404164, -36.6772451003698], [174.742569698058, -36.6772064122786], [174.742266397702, -36.6772144280202], [174.742176069849, -36.6772133657801], [174.742091285558, -36.6771955271467], [174.741993236509, -36.677114682878], [174.741890962759, -36.6770434404565], [174.741852674895, -36.6769867635607], [174.741830613641, -36.6768618804091], [174.741773276467, -36.6768138288952], [174.741735580149, -36.6767833768246], [174.741715051246, -36.6767264400614], [174.741731924574, -36.676621258213], [174.741716669444, -36.6765356257396], [174.741794379841, -36.676436708007], [174.741838401126, -36.6763537858267], [174.74185826106, -36.6762497527751], [174.741881430349, -36.6761611730906], [174.741946143018, -36.6760767556112], [174.742041691871, -36.675981154253], [174.741955271001, -36.675759432025], [174.741975182975, -36.675723367931], [174.74205283849, -36.6756220658041], [174.742160520999, -36.6755394044676], [174.742475763014, -36.6754048149277], [174.742529792139, -36.675371828036], [174.742657464842, -36.6752566766661], [174.743060609951, -36.6749502800604], [174.74312074659, -36.6749255501867], [174.743194443734, -36.6749113543621], [174.743252104623, -36.6749081250383], [174.743406735732, -36.6749380568256], [174.743629979462, -36.6749908320332], [174.743968895249, -36.6750526450615], [174.744224319554, -36.6750882534331], [174.744391759484, -36.6750953402954], [174.744452486908, -36.6750968355154], [174.744628483493, -36.6750894864906], [174.744785294509, -36.6750848034117], [174.745319740132, -36.6750865088257], [174.745527889226, -36.6750608011968], [174.745672619153, -36.6750455623514], [174.745807849687, -36.6750030366047], [174.745911842836, -36.6749538137204], [174.746079629662, -36.6749108093236], [174.746164626844, -36.6748725974507], [174.7462411754, -36.6748535878664], [174.74636532139, -36.6748446126737], [174.746400649205, -36.6748357468519], [174.746449753566, -36.6748469507661], [174.746583720097, -36.6748139828013], [174.746625452812, -36.6748264873036], [174.746665731431, -36.6748402056387], [174.746735180273, -36.6749000013298], [174.746793487867, -36.67492537934], [174.746852492583, -36.6749161659847], [174.746897452172, -36.6748749635112], [174.746948680831, -36.6748491708133], [174.74703324502, -36.674791885354], [174.747059043075, -36.6747342228352], [174.747088805313, -36.674698560494]]}, "properties": {"OBJECTID": 12257, "TRACKNAME": "100 Acre Track", "CONDITIONSOFUSE": "Long Bay Regional Park", "STATUS": "Open", "WEBLINK": "https://www.aucklandcouncil.govt.nz/en/parks-recreation/find-park-beach/park-detail/215.html", "VALIDATIONSTATE": 3, "created_user": "AC_owner", "last_edited_user": "AC_owner", "last_edited_date": 1789875254325, "created_date": 1789875254325, "PARK_SAPSITEID": null, "TRACK_ID": null, "KAURIDIEBACK_TRACK": null, "KAURIDIEBACK_MITIGATED": null, "SegmentID": null, "GlobalID": "d3bc9e80-d423-4bfb-b21a-06efd1ef869c", "Shape__Length": 1192.151705120654}}]}