{"type": "FeatureCollection", "features": [{"type": "Feature", "id": 9074, "geometry": {"type": "LineString", "coordinates": [[175.072188420986, -36.7884975059579], [175.072206704351, -36.788487307185], [175.072235465146, -36.7884721966462], [175.072255144979, -36.7884504845677], [175.072255167433, -36.7884504445189], [175.072270841112, -36.7883936675112], [175.072272249314, -36.7883895771722], [175.072272425248, -36.7883894524294], [175.072297641618, -36.788387944887], [175.072298104258, -36.788387606044], [175.072302202812, -36.7883701574118], [175.072302502508, -36.7883689696736], [175.072339065379, -36.7882325964826], [175.07233907315, -36.7882325521831], [175.072379947219, -36.7877483994173], [175.072379939018, -36.7877483445805], [175.07236878958, -36.7877213636013]]}, "properties": {"OBJECTID": 9074, "TRACKNAME": "7th Ave Steps", "CONDITIONSOFUSE": "Seventh Avenue Reserve Accessway", "STATUS": "Open", "WEBLINK": null, "VALIDATIONSTATE": 3, "created_user": "AC_owner", "last_edited_user": "AC_owner", "last_edited_date": 1789875254325, "created_date": 1789875254325, "PARK_SAPSITEID": null, "TRACK_ID": null, "KAURIDIEBACK_TRACK": null, "KAURIDIEBACK_MITIGATED": null, "SegmentID": null, "GlobalID": "966968e0-cb37-427b-97ca-9cb235d49cc6", "Shape__Length": 91.90489712815396}}]}