{"type": "FeatureCollection", "features": [{"type": "Feature", "id": 12005, "geometry": {"type": "LineString", "coordinates": [[175.07236878958, -36.7877213636013], [175.072591163766, -36.7870070998327]]}, "properties": {"OBJECTID": 12005, "TRACKNAME": "7th Ave", "CONDITIONSOFUSE": "Onetangi Beach Strand", "STATUS": "Open", "WEBLINK": "https://www.aucklandcouncil.govt.nz/en/parks-recreation/find-park-beach/park-detail/1032.html", "VALIDATIONSTATE": 3, "created_user": "AC_owner", "last_edited_user": "AC_owner", "last_edited_date": 1789875254325, "created_date": 1789875254325, "PARK_SAPSITEID": null, "TRACK_ID": null, "KAURIDIEBACK_TRACK": null, "KAURIDIEBACK_MITIGATED": null, "SegmentID": null, "GlobalID": "24e65c8e-a940-401c-a792-715e8d4f5238", "Shape__Length": 81.71363503342424}}]}