{"type": "FeatureCollection", "features": [{"type": "Feature", "id": 621, "geometry": {"type": "LineString", "coordinates": [[174.474498250663, -36.9698577012823], [174.474457951675, -36.9699625167155], [174.47440671631, -36.9700197362289], [174.473977626223, -36.9704207286726], [174.473738779082, -36.9705634714154], [174.473640409206, -36.9706983153583], [174.473447078837, -36.9708389349072], [174.473414550691, -36.9708780919083], [174.473424601616, -36.971219490427], [174.473403154916, -36.9716251874981], [174.473418977045, -36.971665242424], [174.473464653745, -36.9717334801859], [174.473607569566, -36.9718735168291], [174.473641949352, -36.9719266986605], [174.47373178276, -36.9721714818175], [174.473725232699, -36.9723631579585], [174.473699859201, -36.972484875872], [174.473678290647, -36.9725441487237], [174.473484260161, -36.9729050469298], [174.473369855394, -36.9730880422304], [174.473145511635, -36.9733420069572], [174.472901726808, -36.9735095256276], [174.472839340092, -36.9736557906602], [174.472827122402, -36.9736976077966], [174.472826500568, -36.973739544254], [174.472841584234, -36.9738322615728], [174.472862358651, -36.9738911476964], [174.472903621822, -36.9739628538696], [174.473009660195, -36.9740640069088], [174.473078076587, -36.9741983065783], [174.473086282245, -36.9742331100588]]}, "properties": {"OBJECTID": 621, "TRACKNAME": "Ahu Ahu Track", "CONDITIONSOFUSE": "Waitakere West Regional Park", "STATUS": "Temp Closed", "WEBLINK": "https://www.aucklandcouncil.govt.nz/en/parks-recreation/find-park-beach/park-detail/3451.html", "VALIDATIONSTATE": 3, "created_user": "AC_owner", "last_edited_user": "AC_owner", "last_edited_date": 1789875254325, "created_date": 1789875254325, "PARK_SAPSITEID": null, "TRACK_ID": null, "KAURIDIEBACK_TRACK": null, "KAURIDIEBACK_MITIGATED": null, "SegmentID": null, "GlobalID": "4ea991fa-4c27-45e3-9d28-5ab9c3b10288", "Shape__Length": 560.6359551440643}}, {"type": "Feature", "id": 1384, "geometry": {"type": "LineString", "coordinates": [[174.473086282245, -36.9742331100588], [174.473093679272, -36.9742644866736], [174.473088975398, -36.9743281759193], [174.473021374075, -36.9744995879923], [174.472993254476, -36.9746316865623], [174.472992970767, -36.9749112804757], [174.473020825029, -36.9750007989783], [174.473168989525, -36.9752763242607], [174.473252563557, -36.9754684248974]]}, "properties": {"OBJECTID": 1384, "TRACKNAME": "Ahu Ahu Track", "CONDITIONSOFUSE": "Waitakere West Regional Park", "STATUS": "Open", "WEBLINK": "https://www.aucklandcouncil.govt.nz/en/parks-recreation/find-park-beach/park-detail/3451.html", "VALIDATIONSTATE": 3, "created_user": "AC_owner", "last_edited_user": "AC_owner", "last_edited_date": 1789875254325, "created_date": 1789875254325, "PARK_SAPSITEID": null, "TRACK_ID": null, "KAURIDIEBACK_TRACK": null, "KAURIDIEBACK_MITIGATED": null, "SegmentID": null, "GlobalID": "668eef4a-90c0-4f35-8b4b-2b239fb01a84", "Shape__Length": 142.57193560225053}}, {"type": "Feature", "id": 12190, "geometry": {"type": "LineString", "coordinates": [[174.473280813378, -36.9755530854755], [174.473280895672, -36.9755533332304], [174.473301398719, -36.9758991031882], [174.473277487131, -36.976054135237], [174.473278851626, -36.9760971106342], [174.473367860743, -36.9763668033636], [174.473509723502, -36.9766910376006], [174.473526626306, -36.9767113355918], [174.473551996997, -36.9767256551765], [174.473760468681, -36.9767904574419], [174.473807340495, -36.9768124284916], [174.474055328536, -36.9770517942398], [174.474350176793, -36.9772812753432], [174.474377034788, -36.9773069803199], [174.474385970222, -36.9773284344453], [174.47437592885, -36.9773690790496], [174.474241203895, -36.9776821301027], [174.474238052093, -36.9778434501491], [174.47422628769, -36.9778844703744], [174.473830883912, -36.9782156289629], [174.4738001847, -36.978249336236], [174.473804752248, -36.9782962540609], [174.473886325629, -36.9784632327273], [174.473886150636, -36.9785005197827], [174.473851494755, -36.9785303408477], [174.473648831619, -36.9786581366527], [174.473620572453, -36.9786836941077], [174.473608428453, -36.9787068620801], [174.473496434576, -36.9791681332299], [174.473343892703, -36.9796595335661], [174.473320390342, -36.979707949058], [174.473236350252, -36.9797949749869], [174.473218973866, -36.9798230382652], [174.473226174532, -36.9798805531949], [174.473302992575, -36.9800999018336], [174.473406509482, -36.9802438967611], [174.473446898911, -36.9802844146099], [174.4737074298, -36.9804486831486], [174.473896528993, -36.9805400336371], [174.473932608746, -36.9805712757253], [174.474034248352, -36.9806891502645], [174.474091753102, -36.9807267728803], [174.474146677107, -36.9807519301254], [174.474293164422, -36.9807746088625], [174.474609500893, -36.9807857032008], [174.474867848884, -36.9807830233425], [174.474921459669, -36.9807893769936], [174.475149992785, -36.9808886262244], [174.475563138512, -36.981130658032], [174.47562890103, -36.9811574014441], [174.475747505203, -36.9811549660326], [174.475821912327, -36.9811427522343], [174.475951673638, -36.9810928969268], [174.476105367887, -36.9810121065393], [174.476140010442, -36.9810040880468], [174.47616506407, -36.9810127134758], [174.476296710692, -36.9810930027974], [174.476439388693, -36.981159593754], [174.476479276883, -36.9811593021898], [174.476624724627, -36.981127366602], [174.476698336171, -36.9811318950436], [174.476744570959, -36.9811449069582], [174.476789026654, -36.9812001427743], [174.477062526563, -36.9816866336008], [174.477112752822, -36.9818970526086], [174.477330295177, -36.9821255806062], [174.477472318926, -36.9822288368228], [174.477535707284, -36.9823099202836], [174.477561216016, -36.9823556380057], [174.477553072626, -36.9824042578967], [174.477441331913, -36.9826368283873], [174.477442721529, -36.9827027538362], [174.477456985913, -36.9827421370581], [174.477480412731, -36.9827703059517], [174.477683458337, -36.982907063951], [174.477704251373, -36.9829380616129], [174.477676414096, -36.9829909557795], [174.477419482031, -36.983340669294], [174.477397736518, -36.9834067619254], [174.47738508148, -36.9834917862783], [174.47743050357, -36.983644004442], [174.477549732768, -36.983858986828], [174.477658041265, -36.9842133474124], [174.477670388492, -36.9842985751902], [174.477626545435, -36.9844121598958], [174.477606990324, -36.9844410549295], [174.477575378272, -36.9844643764092], [174.477482029916, -36.9845133286608], [174.477433102596, -36.9845307868608], [174.477177572085, -36.9845114901011], [174.477015919594, -36.9845075663814], [174.476952872391, -36.9845131741247], [174.476693736008, -36.9846148569127], [174.476519959302, -36.9847041895365], [174.476441184518, -36.9847497499298], [174.476317114202, -36.9848600227049], [174.476037938538, -36.9849923760948], [174.475898584691, -36.9850888827169], [174.475885870244, -36.9851079522923], [174.475892652101, -36.9851368512524], [174.475988266453, -36.9852759574364]]}, "properties": {"OBJECTID": 12190, "TRACKNAME": "Ahu Ahu Track", "CONDITIONSOFUSE": "Waitakere West Regional Park", "STATUS": "Open", "WEBLINK": "https://www.aucklandcouncil.govt.nz/en/parks-recreation/find-park-beach/park-detail/3451.html", "VALIDATIONSTATE": 3, "created_user": "AC_owner", "last_edited_user": "AC_owner", "last_edited_date": 1789875254325, "created_date": 1789875254325, "PARK_SAPSITEID": null, "TRACK_ID": null, "KAURIDIEBACK_TRACK": null, "KAURIDIEBACK_MITIGATED": null, "SegmentID": null, "GlobalID": "0c597963-ddba-484f-be27-8584b57dbfa4", "Shape__Length": 1551.1638059954103}}]}