{"type": "FeatureCollection", "features": [{"type": "Feature", "id": 11987, "geometry": {"type": "LineString", "coordinates": [[175.043484129936, -36.8033012687633], [175.043761251976, -36.8032903814732], [175.043940406134, -36.8031954435613], [175.044297643207, -36.8028017496986], [175.044951813429, -36.8021606187468], [175.045414408529, -36.8011885938185], [175.045396288024, -36.8008345971573], [175.045240600903, -36.7994804078286], [175.04564962393, -36.7993578776877], [175.045825949874, -36.799565693289], [175.046075737986, -36.8001632811308], [175.046497555562, -36.8002962113497], [175.046539388792, -36.8002069240457], [175.046606908207, -36.8000928997481], [175.047043403526, -36.7995718573559], [175.047336198132, -36.7992921171306], [175.047486165607, -36.799204676184], [175.047823774508, -36.7992189822221], [175.048362113136, -36.7992954416305], [175.048739911564, -36.7993100377374], [175.048842588886, -36.7990171120329], [175.048584968701, -36.7984706801264], [175.048939476361, -36.7981242059333], [175.050287932481, -36.798847301461], [175.050563730999, -36.7988001697916], [175.05120667737, -36.7985621686375], [175.051430201436, -36.7983396038717], [175.051536901563, -36.7974971018278], [175.05186108819, -36.7970978325851], [175.052344280475, -36.7965427213866], [175.052490826428, -36.7961109764313]]}, "properties": {"OBJECTID": 11987, "TRACKNAME": "Albert Cres to Ostend Rd", "CONDITIONSOFUSE": "Albert Crescent Wharf Road Walkw", "STATUS": "Open", "WEBLINK": null, "VALIDATIONSTATE": 3, "created_user": "AC_owner", "last_edited_user": "AC_owner", "last_edited_date": 1789875254325, "created_date": 1789875254325, "PARK_SAPSITEID": null, "TRACK_ID": null, "KAURIDIEBACK_TRACK": null, "KAURIDIEBACK_MITIGATED": null, "SegmentID": null, "GlobalID": "83c3a3a7-29c0-4faf-b0dd-45ea11145869", "Shape__Length": 1622.0995681035095}}]}