{"type": "FeatureCollection", "features": [{"type": "Feature", "id": 434, "geometry": {"type": "LineString", "coordinates": [[174.456946635521, -36.9239870991311], [174.456948396849, -36.9239775932801], [174.456954883217, -36.923965829213], [174.456965919557, -36.9239527546165], [174.456979149158, -36.9239387715698], [174.456985603003, -36.9239254169771], [174.456984409356, -36.923912839444], [174.456975565995, -36.9239010398988], [174.456959074027, -36.9238900174249], [174.456935793717, -36.9238799642745], [174.456911175192, -36.9238720944358], [174.456886176808, -36.9238666223963], [174.45686079744, -36.9238635481696], [174.456835038192, -36.9238628708406], [174.456809075934, -36.9238642096629], [174.456784993945, -36.9238630592599], [174.45676339391, -36.923858117881], [174.45674427585, -36.9238493864287], [174.456727640889, -36.9238368648904], [174.456713430372, -36.923820656743], [174.456699990361, -36.9238037586067], [174.456686564476, -36.923787543536], [174.456673151593, -36.9237720115449], [174.456659751731, -36.9237571635343], [174.456646355891, -36.9237429987134], [174.456631498219, -36.9237295359622], [174.456614098936, -36.923716787622], [174.456594159183, -36.9237047545791], [174.456571678943, -36.9236934359312], [174.456546657112, -36.9236828325915], [174.456520799991, -36.9236724639323], [174.456496206968, -36.9236617390459], [174.456472885881, -36.9236506569354], [174.456450834486, -36.9236392176292], [174.456430052783, -36.9236274211279], [174.456411240136, -36.9236151461844], [174.456395780715, -36.9236021522849], [174.456383713702, -36.9235884335422], [174.456375039077, -36.9235739890561], [174.456369756857, -36.9235588197285], [174.456366598747, -36.9235427067558], [174.4563615729, -36.9235249617659], [174.456354385323, -36.9235055333799], [174.456345037158, -36.9234844224848], [174.456333528408, -36.9234616290798], [174.456320675763, -36.9234375929351], [174.456310664679, -36.923414563932], [174.456304083871, -36.9233928602479], [174.456300935582, -36.923372481856], [174.45630121644, -36.9233534287979], [174.456304682451, -36.9233355634515], [174.456309099509, -36.9233176467826], [174.456313936582, -36.9232993833428], [174.456319191409, -36.9232807722585], [174.456324866268, -36.9232618153044], [174.456330870562, -36.9232425893067], [174.456335507506, -36.9232246059429], [174.456338126803, -36.9232084410521], [174.456338730716, -36.9231940955082], [174.456337316969, -36.9231815675364], [174.456333895637, -36.923170796621], [174.456329030695, -36.9231576133062], [174.45632306471, -36.9231394877443], [174.456315999928, -36.9231164199076], [174.456307834141, -36.9230884116256], [174.456298567318, -36.9230554610956], [174.456289479722, -36.923022784187], [174.456281847068, -36.9229955941215], [174.456275669371, -36.9229738918007], [174.456270948873, -36.9229576771974], [174.456267684449, -36.9229469503256], [174.456264414555, -36.9229395360662], [174.456258730192, -36.9229318467483], [174.456250597802, -36.9229238296019], [174.456240015123, -36.922915483753], [174.456226983312, -36.9229068109893], [174.456211918534, -36.9228978521774], [174.456195909707, -36.9228887219601], [174.456179013038, -36.9228794241545], [174.456161230807, -36.9228699605352], [174.456142560751, -36.9228603302281], [174.456123341022, -36.9228505453115], [174.456104982643, -36.9228406560885], [174.456087644024, -36.9228306687295], [174.456071324026, -36.9228205823478], [174.456056023771, -36.9228103969299], [174.456041966103, -36.9228000827031], [174.456030751057, -36.9227894163413], [174.456022688817, -36.9227783561849], [174.456017780521, -36.9227669031221], [174.456016025012, -36.9227550553646], [174.456017297616, -36.9227428099342], [174.456019884264, -36.9227301202419], [174.456023242428, -36.9227169713058], [174.45602736986, -36.9227033631535], [174.456032267683, -36.922689295771], [174.45603791578, -36.9226747739119], [174.456043600398, -36.9226599884037], [174.456048959579, -36.9226450329202], [174.456053995601, -36.9226299092361], [174.456058707324, -36.922614616464], [174.456063091417, -36.9225991564476], [174.456066402437, -36.9225840016318], [174.456068031372, -36.9225695371586], [174.456067978238, -36.9225557639291], [174.456066244143, -36.9225426810285], [174.456062826842, -36.9225302884841], [174.456058778499, -36.9225181263153], [174.45605552423, -36.9225055695247], [174.456053075172, -36.922492613469], [174.456051427959, -36.9224792581895], [174.456050585973, -36.9224655045462], [174.456050171869, -36.9224515816071], [174.456049366607, -36.9224379879579], [174.456048142453, -36.9224247410646], [174.456046498285, -36.9224118409409], [174.456044436366, -36.9223992884605], [174.456042211734, -36.9223865036179], [174.456040718168, -36.9223714870266], [174.456040029858, -36.9223540665161], [174.45604014796, -36.9223342438751], [174.45604107135, -36.9223120191172], [174.456042700034, -36.9222879784596], [174.456044457609, -36.9222654613448], [174.456046255295, -36.9222449943619], [174.456048090865, -36.9222265784395], [174.456049965424, -36.9222102126628], [174.456051817635, -36.9221958004354], [174.456052999832, -36.9221823437654], [174.456053343142, -36.9221695815221], [174.456052849793, -36.9221575127769], [174.456051517541, -36.9221461375574], [174.456049370136, -36.9221354059968], [174.456046970098, -36.9221241412164], [174.456044550575, -36.9221118518136], [174.456042110426, -36.922098536901], [174.456039651898, -36.9220841964511], [174.456037155738, -36.9220688216862], [174.456032825786, -36.922051413371], [174.456025465037, -36.9220313083475], [174.45601507237, -36.922008506629], [174.456001648879, -36.9219830063983], [174.455985193479, -36.9219548094704], [174.455968765644, -36.9219258180924], [174.455955766896, -36.9218981520576], [174.455946198336, -36.9218718104523], [174.455940062205, -36.9218467932498], [174.455937356287, -36.9218231022808], [174.455936938003, -36.921801637602], [174.455936733396, -36.9217840299834], [174.455936700486, -36.9217703150933], [174.455936839237, -36.9217604911294], [174.455937149685, -36.9217545598939], [174.455937016528, -36.9217513950024], [174.45593467193, -36.9217477668737], [174.455930006531, -36.9217434740393], [174.455923018104, -36.9217385174276], [174.455913709982, -36.9217328951946], [174.455902656374, -36.9217266354542], [174.45589253031, -36.9217198568695], [174.4558836655, -36.9217125742786], [174.455876061942, -36.9217047876819], [174.455869721899, -36.9216964979533], [174.455864740901, -36.9216878878021], [174.455861909184, -36.9216804275962], [174.455861394402, -36.921674432564], [174.455863198834, -36.9216699044805], [174.455867321339, -36.921666842458], [174.455873694078, -36.9216652211882], [174.455881238586, -36.921664648273], [174.455889578402, -36.9216649859101], [174.455898713509, -36.921666233198], [174.455908643924, -36.9216683910379], [174.455919349222, -36.921671447962], [174.455929781165, -36.9216748300263], [174.455939361237, -36.9216782234341], [174.455948090543, -36.9216816272706], [174.455955967961, -36.9216850415498], [174.455962994595, -36.9216884653569], [174.455969383552, -36.9216913570584], [174.455975327623, -36.9216932284509], [174.455980826826, -36.9216940804356], [174.455985880022, -36.9216939121252], [174.45599048947, -36.9216927243933], [174.455994326872, -36.9216911999987], [174.455996905415, -36.9216903643626], [174.455998220814, -36.921690228354], [174.455998271931, -36.9216907910855], [174.455997058782, -36.9216920534584], [174.455995905856, -36.9216931176923], [174.455997975298, -36.9216918403149], [174.456003405675, -36.9216881285887], [174.456012194775, -36.9216819843432], [174.456024342545, -36.9216734048741], [174.45603871351, -36.9216631324104], [174.456050978429, -36.9216539836373], [174.456060714799, -36.9216462332457], [174.456067923745, -36.9216398812226], [174.456072604145, -36.9216349275821], [174.456075203641, -36.9216310026816], [174.456078550553, -36.9216257652322], [174.456083141103, -36.9216188026308], [174.456088976446, -36.9216101166658], [174.456096056547, -36.9215997055346], [174.456103855025, -36.9215875765921], [174.456106176347, -36.9215738066985], [174.45610122916, -36.9215584160139], [174.456089013485, -36.9215414054383], [174.456069530434, -36.9215227740546], [174.456043024744, -36.9215026396425], [174.456016555674, -36.9214843120285], [174.455993359544, -36.9214693127161], [174.455973437439, -36.9214576398911], [174.455956789388, -36.9214492953576], [174.455943402853, -36.9214442693557], [174.455931136903, -36.9214409061694], [174.45591841921, -36.9214379919952], [174.45590524865, -36.9214355268466], [174.455891626328, -36.9214335098088], [174.45587755114, -36.9214319417964], [174.455863744442, -36.9214308554299], [174.455851091679, -36.9214302930365], [174.455839596218, -36.9214302545753], [174.455829259183, -36.9214307400329], [174.45582007831, -36.921431748536], [174.455811377241, -36.9214331342407], [174.455801808837, -36.9214346035874], [174.455791336994, -36.9214361471036], [174.45577996059, -36.9214377648026], [174.455767680779, -36.9214394584728], [174.455754587731, -36.921441246839], [174.455740962202, -36.9214431940625], [174.455726825621, -36.9214453052887], [174.45571217797, -36.9214475796164], [174.455697019249, -36.9214500170453], [174.455681436233, -36.9214525759499], [174.455665864851, -36.9214550382629], [174.455650368513, -36.9214573734618], [174.455634946115, -36.9214595824616], [174.455619597622, -36.9214616634601], [174.455604318236, -36.9214636002912], [174.455589045422, -36.921465233277], [174.455573767237, -36.9214665247063], [174.455558481435, -36.9214674746065], [174.455543189123, -36.9214680820627], [174.455527906211, -36.9214682982057], [174.455512908621, -36.9214671650999], [174.455498305072, -36.9214643190608], [174.455484094408, -36.9214597583002], [174.455470276647, -36.9214534837191], [174.455456785475, -36.921445432133], [174.455439075843, -36.9214313200293], [174.455414395077, -36.9214085509312], [174.45538274207, -36.9213771248478], [174.455344117965, -36.9213370417592], [174.455298521663, -36.9212883016716]]}, "properties": {"OBJECTID": 434, "TRACKNAME": "Anawhata Beach Track", "CONDITIONSOFUSE": "Waitakere West Regional Park", "STATUS": "Open", "WEBLINK": "https://www.aucklandcouncil.govt.nz/en/parks-recreation/find-park-beach/park-detail/3451.html", "VALIDATIONSTATE": 3, "created_user": "AC_owner", "last_edited_user": "AC_owner", "last_edited_date": 1789875254325, "created_date": 1789875254325, "PARK_SAPSITEID": null, "TRACK_ID": null, "KAURIDIEBACK_TRACK": null, "KAURIDIEBACK_MITIGATED": null, "SegmentID": null, "GlobalID": "dbbfb2ea-0afd-4e08-b543-268aca8f2ac4", "Shape__Length": 425.6827720050547}}, {"type": "Feature", "id": 3246, "geometry": {"type": "LineString", "coordinates": [[174.458568016772, -36.9240950707276], [174.458539734267, -36.9240749208601], [174.45851224408, -36.9240527511945], [174.45848554604, -36.9240285527198], [174.45845964032, -36.924002334448], [174.45843452658, -36.9239740783565], [174.458410407344, -36.92394557569], [174.458387607786, -36.9239197519169], [174.458366139811, -36.9238966429467], [174.458346003417, -36.9238762487803], [174.458327187548, -36.9238585785678], [174.458310261779, -36.9238428861905], [174.458296660251, -36.9238272521433], [174.458286471039, -36.9238115852088], [174.458279682573, -36.9237958675023], [174.458276295021, -36.9237801080361], [174.458275712475, -36.9237642600454], [174.458275404524, -36.9237480932024], [174.45827509005, -36.9237315839179], [174.458274769054, -36.9237147321919], [174.458274441534, -36.9236975380244], [174.458274063283, -36.923680038013], [174.458273325002, -36.9236624973537], [174.458272148809, -36.9236449530577], [174.458270557496, -36.9236274228724], [174.458268539668, -36.9236098979241], [174.458266115542, -36.9235922607862], [174.458263560361, -36.9235730478552], [174.458260966216, -36.9235517892867], [174.45825834416, -36.9235284759312], [174.458255671744, -36.9235031080643], [174.458252961568, -36.9234757576411], [174.458250256028, -36.9234486505313], [174.458247587634, -36.923422904038], [174.458244934281, -36.9233985364599], [174.458242306677, -36.9233755206245], [174.458239716561, -36.9233538834288], [174.458237137537, -36.9233334178811], [174.458234578083, -36.9233139796579], [174.458232038198, -36.9232955687591], [174.458229528934, -36.9232781760353], [174.458227028016, -36.9232618107738], [174.458224698788, -36.9232450287727], [174.45822275076, -36.9232258624671], [174.45822118359, -36.9232042938338], [174.458219997448, -36.9231803318845], [174.458219192163, -36.9231539676075], [174.458218778033, -36.9231257416999], [174.458218765119, -36.9230967717404], [174.458219177068, -36.9230671205346], [174.458219991433, -36.9230367883582], [174.458221230318, -36.9230057569123], [174.458222258006, -36.9229748362242], [174.458220982891, -36.922946792148], [174.458217207234, -36.9229218524549], [174.458210931037, -36.9229000171446], [174.458202165697, -36.9228812950906], [174.458190781571, -36.9228653633898], [174.45817611596, -36.9228504364463], [174.458158051304, -36.9228362362768], [174.458136598829, -36.9228227627418], [174.458111758536, -36.9228100158395], [174.458083928243, -36.9227982520818], [174.458057223893, -36.9227901971639], [174.458032725493, -36.922786558926], [174.45801044426, -36.9227873372317], [174.457990380192, -36.9227925320823], [174.457972486845, -36.9228020629256], [174.457955864274, -36.9228140659551], [174.457940116104, -36.9228277708564], [174.457925253557, -36.9228431774922], [174.457911276462, -36.9228602768511], [174.457898196215, -36.9228790778074], [174.45788650334, -36.9228999889714], [174.457876573208, -36.9229232671337], [174.457868383372, -36.9229489125703], [174.457861945227, -36.9229769341554], [174.457857258603, -36.9230073228775], [174.457852077738, -36.9230394663293], [174.457843953287, -36.9230726734786], [174.457832862797, -36.9231069446003], [174.457818817318, -36.9231422705443], [174.457801805791, -36.923178660459], [174.457783738057, -36.9232144143474], [174.457768091523, -36.9232464338722], [174.457754932681, -36.9232746731496], [174.457744238743, -36.9232991144326], [174.457736043557, -36.9233197663202], [174.45772907386, -36.9233375638413], [174.457719777861, -36.9233552366819], [174.45770793382, -36.9233729317828], [174.457693530683, -36.9233906582925], [174.457676579845, -36.923408425084], [174.45765735387, -36.923426985964], [174.457637200247, -36.923449893829], [174.457616295913, -36.9234775971933], [174.457594629638, -36.9235100961944], [174.457572201418, -36.9235473908317], [174.45754918799, -36.9235887398103], [174.457527083049, -36.9236282748896], [174.45750619896, -36.9236647122875], [174.4574865359, -36.9236980610162], [174.457468082476, -36.9237283122023], [174.457450493488, -36.9237556143024], [174.457428074922, -36.9237822185141], [174.45739885451, -36.9238089061901], [174.457362821192, -36.9238356864751], [174.457319974618, -36.9238625413398], [174.457270482629, -36.9238894416762], [174.457222572233, -36.9239145018132], [174.457180748248, -36.9239366929979], [174.457145032962, -36.9239560059496], [174.457115403935, -36.923972440949], [174.457091883794, -36.9239860067368], [174.457072088142, -36.9239970660778], [174.457053878998, -36.9240059516707], [174.457037267759, -36.9240126723901], [174.457022243203, -36.9240172283743], [174.457008816384, -36.9240196104745], [174.456996665576, -36.9240200209403], [174.456985325195, -36.9240187719505], [174.456974783675, -36.9240158456198], [174.456965052584, -36.9240112598339], [174.456956131751, -36.9240050055814], [174.456949078477, -36.9239971870703], [174.45694645702, -36.9239880432554], [174.456946633276, -36.9239870991586]]}, "properties": {"OBJECTID": 3246, "TRACKNAME": "Anawhata Beach Track", "CONDITIONSOFUSE": "Waitakere West Regional Park", "STATUS": "Open", "WEBLINK": "https://www.aucklandcouncil.govt.nz/en/parks-recreation/find-park-beach/park-detail/3451.html", "VALIDATIONSTATE": 3, "created_user": "AC_owner", "last_edited_user": "AC_owner", "last_edited_date": 1789875254325, "created_date": 1789875254325, "PARK_SAPSITEID": null, "TRACK_ID": null, "KAURIDIEBACK_TRACK": null, "KAURIDIEBACK_MITIGATED": null, "SegmentID": null, "GlobalID": "9f236e01-2ba1-4d38-baea-4cc9f75352a7", "Shape__Length": 342.8701311576587}}]}