{"type": "FeatureCollection", "features": [{"type": "Feature", "id": 134, "geometry": {"type": "LineString", "coordinates": [[174.462782784224, -36.9313767646117], [174.462914558991, -36.9314563008157], [174.463093401654, -36.9315904749689], [174.463260486138, -36.9317109757105], [174.463376793517, -36.9317830673606], [174.463500832904, -36.9318596335563], [174.463597741344, -36.9319189392433], [174.46372526374, -36.9319785795964], [174.463859992856, -36.9320181656111], [174.463988629426, -36.9320409439056], [174.464073117319, -36.932056658794], [174.464195392789, -36.9320503559435], [174.464328819714, -36.9320300794203], [174.464441203989, -36.9320085569538], [174.464518991847, -36.9319798354479], [174.464607924195, -36.9319356080746], [174.464690991642, -36.9318853146377], [174.464754814338, -36.9318291562377], [174.464803097972, -36.9317624631644], [174.464847495239, -36.9316927623638], [174.464872875534, -36.9316279201613], [174.464903413792, -36.9315369106301], [174.464917789659, -36.9314937198827], [174.464947155647, -36.931436499162], [174.464992248018, -36.9313990227498], [174.465058504573, -36.9313673965159], [174.465155658089, -36.9313491529828], [174.46528748461, -36.9313427131521], [174.465491958563, -36.9313352685242], [174.465631385032, -36.9313264180017], [174.465747473627, -36.9313002335736], [174.465946819988, -36.9312314320551], [174.46628134857, -36.9310928626116], [174.466494232224, -36.930985846179], [174.466679319948, -36.9308773158416], [174.466810640578, -36.9307800855131], [174.467472177807, -36.9298652149191], [174.467554644164, -36.9297872999174], [174.467624198789, -36.9297310601451], [174.467745422834, -36.9296771652817], [174.467828953865, -36.9296483526212], [174.46791759433, -36.9295903174048], [174.467946691764, -36.9295215887693], [174.467949493121, -36.9293848973319], [174.467977082628, -36.9292463310973], [174.468019110065, -36.9291551517129], [174.468105092916, -36.9290633748502], [174.468197249942, -36.9289914599147], [174.468333475193, -36.9289207396946], [174.46855551386, -36.9288436851595], [174.468853727679, -36.9287489315798], [174.469258471331, -36.9286222397619]]}, "properties": {"OBJECTID": 134, "TRACKNAME": "Anawhata Road", "CONDITIONSOFUSE": "Waitakere West Regional Park", "STATUS": "Open", "WEBLINK": "https://www.aucklandcouncil.govt.nz/en/parks-recreation/find-park-beach/park-detail/3451.html", "VALIDATIONSTATE": 3, "created_user": "AC_owner", "last_edited_user": "AC_owner", "last_edited_date": 1789875254325, "created_date": 1789875254325, "PARK_SAPSITEID": null, "TRACK_ID": null, "KAURIDIEBACK_TRACK": null, "KAURIDIEBACK_MITIGATED": null, "SegmentID": null, "GlobalID": "84ed39f9-1c8c-40c9-bd61-db745cfe236a", "Shape__Length": 786.2483090226649}}]}