{"type": "FeatureCollection", "features": [{"type": "Feature", "id": 1576, "geometry": {"type": "LineString", "coordinates": [[174.545564361416, -36.8899888500463], [174.545561521153, -36.8899899046409], [174.545558767492, -36.8899909689253], [174.545556100415, -36.8899920419982], [174.545553519959, -36.8899931256619], [174.545551024983, -36.8899942190299], [174.545548617713, -36.8899953211719], [174.545546294801, -36.8899964330328], [174.545544059614, -36.8899975545687], [174.545541909889, -36.8899986849079], [174.545539846784, -36.8899998258379], [174.545537870264, -36.8900009755564], [174.545535979223, -36.8900021349793], [174.545534175907, -36.8900033040773], [174.545532458072, -36.8900044828797], [174.545530825698, -36.8900056704852], [174.545529279927, -36.8900068677805], [174.545527821898, -36.890008075652], [174.54552644821, -36.8900092923414], [174.545525162227, -36.8900105178048], [174.545523961743, -36.8900117538736], [174.545522847843, -36.8900129987311], [174.545521816004, -36.8900142506333], [174.54552077077, -36.8900154504304], [174.545519677994, -36.8900165742298], [174.545518535434, -36.8900176220607], [174.545517344229, -36.8900185948095], [174.545516103238, -36.8900194915898], [174.545514814706, -36.8900203123724], [174.545513475286, -36.890021058102], [174.545512088324, -36.890021727834], [174.545510651577, -36.8900223215974], [174.545509166185, -36.8900228402787], [174.545507632148, -36.8900232838781], [174.545506048308, -36.8900236506077], [174.545504415822, -36.8900239422553], [174.545502734674, -36.8900241579197], [174.545501003759, -36.8900242985167], [174.54549922418, -36.8900243631305], [174.545497395939, -36.8900243517611], [174.545495517931, -36.8900242653243], [174.545493591259, -36.8900241029043], [174.545491615943, -36.8900238654022], [174.545489590823, -36.8900235510305], [174.545487475458, -36.890023157611], [174.545485037002, -36.8900226575264], [174.545482239483, -36.8900220476392], [174.545479084041, -36.8900213288359], [174.545475569517, -36.8900204993288], [174.545471697069, -36.8900195609056], [174.545467466662, -36.8900185117638], [174.54546287721, -36.8900173537205], [174.545457929798, -36.8900160849586], [174.545452624463, -36.8900147072804], [174.545446960046, -36.8900132188981], [174.545440937707, -36.8900116215994], [174.545434556304, -36.8900099144977], [174.545427816942, -36.8900080966771], [174.545420718535, -36.8900061699546], [174.545413262186, -36.8900041334143], [174.545405447897, -36.8900019870561], [174.545397274545, -36.8899997308945], [174.545388743252, -36.8899973649149], [174.545379854018, -36.8899948891173], [174.545370605722, -36.889992303516], [174.545360999485, -36.8899896080965], [174.545351207049, -36.8899868610162], [174.545341611364, -36.889984187992], [174.545332222636, -36.8899815942994], [174.54532304309, -36.8899790790081], [174.545314070501, -36.8899766430485], [174.545305307113, -36.8899742863915], [174.545296751802, -36.8899720090516], [174.545288405674, -36.8899698101133], [174.545280266485, -36.8899676896057], [174.545272336513, -36.889965649302], [174.545264614584, -36.8899636865133], [174.545257100751, -36.8899618039433], [174.545249794978, -36.8899599997895], [174.545242697283, -36.8899582749532], [174.54523580877, -36.8899566285187], [174.545229127214, -36.8899550614164], [174.545222654857, -36.8899535736171], [174.54521639056, -36.8899521642343], [174.545210335463, -36.8899508341546], [174.545204487323, -36.8899495834072], [174.545198847242, -36.8899484110763], [174.545193416361, -36.8899473180487], [174.545188067494, -36.8899463411318], [174.545182696908, -36.88994551142], [174.545177302358, -36.8899448289426], [174.545171886087, -36.8899442936703], [174.545166445871, -36.8899439065334], [174.545160983935, -36.8899436666016], [174.545155499157, -36.8899435738896], [174.545149990415, -36.8899436284118], [174.545144459953, -36.8899438301391], [174.545138906667, -36.8899441799873], [174.54513333052, -36.8899446761541], [174.545127731549, -36.8899453204416], [174.545122109737, -36.8899461119489], [174.5451164651, -36.889947051577], [174.545110797602, -36.8899481375237], [174.545105107281, -36.8899493715911], [174.545099394117, -36.8899507528783], [174.54509365811, -36.8899522813851], [174.545087899261, -36.8899539571116], [174.54508211757, -36.8899557800578], [174.545076314176, -36.8899577511102], [174.545070493295, -36.8899598566935], [174.545064756568, -36.8899619061986], [174.545059137465, -36.8899638342919], [174.545053635986, -36.8899656409732], [174.54504825215, -36.8899673271439], [174.545042985938, -36.8899688919027], [174.545037837351, -36.8899703352497], [174.545032806406, -36.889971658086], [174.545027893067, -36.8899728586093], [174.545023097371, -36.889973938622], [174.545018419318, -36.8899748981241], [174.545013858871, -36.8899757353133], [174.545009417189, -36.8899764519773], [174.545005092009, -36.8899770472442], [174.545000884454, -36.8899775210993], [174.544996794542, -36.8899778744438], [174.544992822255, -36.8899781063767], [174.544988967592, -36.8899782168979], [174.544985231693, -36.8899782068939], [174.54498161228, -36.8899780745918], [174.544978110509, -36.8899778217791], [174.544974726382, -36.8899774484559], [174.544971419746, -36.8899769668622], [174.544968002367, -36.8899764470484], [174.544964448569, -36.8899758956579], [174.544960759475, -36.8899753126763], [174.544956935101, -36.8899746990046], [174.54495297545, -36.8899740546427], [174.544948879379, -36.8899733787042], [174.544944649152, -36.889972672061], [174.544940283628, -36.8899719338266], [174.544935781703, -36.8899711649165], [174.544931144482, -36.8899703644151], [174.544926371982, -36.8899695332236], [174.544921464203, -36.8899686713418], [174.544916421128, -36.8899677778687], [174.544911242756, -36.8899668528042], [174.544905929124, -36.8899658979506], [174.544900479054, -36.889964910619], [174.544894894847, -36.8899638934836], [174.544889174202, -36.8899628438703], [174.544883318297, -36.8899617644678], [174.544877327096, -36.8899606534738], [174.544871200598, -36.8899595108882], [174.544865051803, -36.8899583199185], [174.544859092057, -36.8899570435643], [174.544853326967, -36.8899556817527], [174.544847756535, -36.8899542344838], [174.544842380778, -36.8899527026587], [174.544837199659, -36.8899510844751], [174.544832213217, -36.8899493817355], [174.544827421431, -36.8899475935386], [174.544822825424, -36.8899457198699], [174.544818422953, -36.8899437607586], [174.544814215139, -36.8899417161901], [174.544810201982, -36.8899395861645], [174.544806383482, -36.8899373706818], [174.544802759657, -36.889935070643], [174.544799331594, -36.8899326842315], [174.544796097084, -36.8899302132786], [174.54479305723, -36.8899276568686], [174.544790212016, -36.8899250141005], [174.544787561478, -36.8899222867764], [174.544785106718, -36.8899194739808], [174.544782845511, -36.8899165766438], [174.544780777822, -36.8899135929634], [174.544778721333, -36.8899106082358], [174.54477654593, -36.8899076809393], [174.544774250491, -36.8899048110883], [174.544771836138, -36.8899019986684], [174.544769301748, -36.8898992436939], [174.544766647341, -36.8898965470662], [174.544763874002, -36.8898939069683], [174.544760980644, -36.889891325217], [174.544757968373, -36.8898888008967], [174.544754836047, -36.8898863331207], [174.544751583703, -36.8898839236914], [174.544748212445, -36.889881571693], [174.544744721151, -36.8898792771401], [174.544741109839, -36.8898770409338], [174.544737379595, -36.8898748612573], [174.544733530455, -36.8898727399127], [174.544729560139, -36.8898706751271], [174.544725470927, -36.8898686686734], [174.544721262801, -36.8898667196505], [174.544716934638, -36.8898648280731], [174.54471248644, -36.889862993941], [174.544707927144, -36.8898612153354], [174.544703348236, -36.8898594658283], [174.544698779879, -36.8898577387181], [174.544694219811, -36.8898560331327], [174.54468966805, -36.8898543499733], [174.544685125719, -36.8898526892253], [174.544680592798, -36.8898510499876], [174.544676068167, -36.8898494322748], [174.544671552965, -36.8898478369733], [174.544667046052, -36.8898462631968], [174.544662548568, -36.8898447118316], [174.544658060495, -36.8898431819767], [174.54465358073, -36.8898416745479], [174.544649110375, -36.8898401886293], [174.544644648328, -36.8898387251367], [174.544640195691, -36.8898372831544], [174.544635751362, -36.8898358635981], [174.544631316444, -36.8898344655521], [174.544626890955, -36.8898330899175], [174.544622473755, -36.8898317358078], [174.544618065984, -36.8898304041095], [174.544613666502, -36.8898290939361], [174.544609258986, -36.8898277748533], [174.544604771337, -36.8898263216071], [174.544600196587, -36.8898247225704], [174.544595534702, -36.8898229759406], [174.544590785698, -36.8898210826192], [174.544585949575, -36.889819042606], [174.544581027475, -36.8898168567875], [174.544576017116, -36.8898145233906], [174.54457091964, -36.889812043302], [174.544565735045, -36.8898094165215], [174.54456046335, -36.8898066439504], [174.54455510452, -36.8898037237862], [174.544549658571, -36.8898006569302], [174.544544126644, -36.8897974442688], [174.54453850646, -36.889794084029], [174.544532799158, -36.8897905770974], [174.544527004756, -36.8897869243749], [174.544521123218, -36.8897831240593], [174.544515155685, -36.8897791770373], [174.54450909993, -36.8897750842389], [174.544502957039, -36.8897708438475], [174.544496727049, -36.8897664576652], [174.544490418692, -36.8897620806137], [174.544484043856, -36.8897579685268], [174.544477603718, -36.8897541240932], [174.544471097156, -36.8897505473276], [174.544464524169, -36.88974723823], [174.544457887019, -36.8897441976722], [174.544451182323, -36.8897414247969], [174.544444412324, -36.8897389195749], [174.544437577022, -36.8897366820063], [174.544430675313, -36.8897347130067], [174.544423708301, -36.8897330116604], [174.544416674865, -36.889731577982], [174.544409576125, -36.8897304119568], [174.544402410978, -36.8897295145006], [174.544395180528, -36.8897288846977], [174.544387884775, -36.889728522548], [174.544380521474, -36.8897284280807], [174.54437309401, -36.8897286021532], [174.544365600121, -36.8897290438935], [174.544358039806, -36.8897297533016], [174.544350414187, -36.8897307303629], [174.544342723209, -36.8897319723739], [174.544334975362, -36.8897332322498], [174.544327177726, -36.8897343602713], [174.544319330266, -36.8897353546363], [174.544311431879, -36.8897362162603], [174.544303483704, -36.88973694603], [174.544295485705, -36.8897375421431], [174.544287436778, -36.8897380055153], [174.544279338028, -36.8897383352309], [174.54427118949, -36.8897385330921], [174.544262990025, -36.8897385982123], [174.544254741858, -36.8897385296612], [174.544246441642, -36.8897383283838], [174.544238092742, -36.8897379943363], [174.544229692933, -36.8897375284489], [174.544221243282, -36.8897369280036], [174.544212742722, -36.8897361957184], [174.544204193479, -36.8897353306631], [174.544195592187, -36.8897343328813], [174.544186942193, -36.8897332014281], [174.544178241273, -36.8897319372339], [174.544169490565, -36.8897305411852], [174.544160704855, -36.8897290230048], [174.544152025523, -36.889727493526], [174.544143489068, -36.8897259820195], [174.54413509549, -36.8897244884855], [174.544126844754, -36.8897230111217], [174.544118736894, -36.8897215517302], [174.544110771876, -36.8897201085091], [174.544102949734, -36.8897186832604], [174.544095270452, -36.8897172750831], [174.544087734029, -36.8897158839773], [174.544080340464, -36.8897145099429], [174.544073088655, -36.8897131538958], [174.544065980827, -36.8897118149056], [174.54405901584, -36.8897104920858], [174.544052192607, -36.8897091872532], [174.544045513356, -36.8897078994777], [174.54403897586, -36.8897066296896], [174.544032582326, -36.8897053760573], [174.544026330548, -36.8897041404125], [174.544020222732, -36.8897029209236], [174.544014256672, -36.8897017194221], [174.544008434592, -36.8897005349778], [174.544002719562, -36.8896993725775], [174.543996990692, -36.8896982473129], [174.543991240147, -36.8896971601871], [174.543985465684, -36.8896961112293], [174.543979668442, -36.889695101326], [174.543973848403, -36.8896941295762], [174.543968005568, -36.8896931959798], [174.543962138832, -36.8896923014526], [174.543956250421, -36.8896914450642], [174.543950338091, -36.8896906268437], [174.543944402983, -36.8896898476778], [174.5439384462, -36.8896891066507], [174.543932464376, -36.8896884038062], [174.543926460896, -36.8896877400017], [174.543920434618, -36.8896871143505], [174.543914384422, -36.8896865268673], [174.543908311447, -36.8896859784386], [174.543902215658, -36.8896854672622], [174.543896097107, -36.8896849960414], [174.543889955742, -36.8896845620728], [174.543883791598, -36.8896841671588], [174.543877603535, -36.8896838104127], [174.543871432268, -36.8896835075301], [174.543865334342, -36.8896832803103], [174.54385930862, -36.8896831278667], [174.54385335624, -36.889683051086], [174.54384747608, -36.8896830499827], [174.543841669245, -36.8896831236411], [174.543835934612, -36.8896832720758], [174.543830272218, -36.889683497089], [174.543824684269, -36.8896837968495], [174.54381916742, -36.889684172302], [174.543813723895, -36.8896846225162], [174.543808353712, -36.8896851483934], [174.543803055749, -36.8896857499481], [174.543797829989, -36.8896864262791], [174.543792677571, -36.8896871782731], [174.543787597355, -36.8896880050435], [174.5437825905, -36.889688908378], [174.543777656969, -36.8896898864743], [174.54377279564, -36.889690939347], [174.543768006531, -36.8896920678974], [174.543763290765, -36.8896932721107], [174.543758643781, -36.8896945484408], [174.543753910282, -36.8896957637005], [174.54374900806, -36.8896968477502], [174.543743937116, -36.8896978005897], [174.543738697448, -36.889698622219], [174.543733287917, -36.8896993117516], [174.543727710803, -36.8896998709606], [174.543721963827, -36.8897002980727], [174.543716049267, -36.8897005948612], [174.543709964845, -36.8897007595528], [174.5437037117, -36.8897007930341], [174.543697289832, -36.8897006953051], [174.543690699241, -36.8897004663657], [174.543683939928, -36.8897001062159], [174.543677010752, -36.8896996139691], [174.543669913993, -36.8896989913985], [174.543662647372, -36.8896982367308], [174.54365521315, -36.8896973508379], [174.543647609101, -36.8896963346503], [174.543639836313, -36.8896951863509], [174.543631894801, -36.8896939068409], [174.543623783427, -36.8896924952337], [174.543615526836, -36.8896909494063], [174.54360729944, -36.8896892373474], [174.543599140396, -36.8896873531399], [174.543591048565, -36.8896852958974], [174.543583025067, -36.8896830656052], [174.543575069921, -36.8896806631646], [174.543567180884, -36.8896780886047], [174.5435593602, -36.8896753418963], [174.543551607849, -36.8896724221384], [174.543543922711, -36.8896693293455], [174.543536305925, -36.8896660644041], [174.54352875637, -36.889662627329], [174.543521275149, -36.8896590172043], [174.543513861141, -36.8896552340447], [174.543506514382, -36.8896512796524], [174.543499237079, -36.889647152196], [174.543492025867, -36.8896428517194], [174.543484883008, -36.8896383790943], [174.543477808483, -36.8896337334199], [174.543470801189, -36.8896289156117], [174.543463861126, -36.8896239256698], [174.543456989398, -36.8896187626784], [174.543450204702, -36.8896135192356], [174.543443563002, -36.8896084668273], [174.543437066867, -36.8896036216447], [174.543430718542, -36.8895989836587], [174.543424516942, -36.8895945546861], [174.543418460907, -36.8895903329394], [174.543412552718, -36.8895863201916], [174.543406790077, -36.8895825137685], [174.543401175281, -36.8895789163444], [174.543395706051, -36.8895755261463], [174.543390384666, -36.8895723449471], [174.543385208829, -36.8895693700728], [174.543380180837, -36.8895666041975], [174.543375298411, -36.8895640455482], [174.543370562708, -36.8895616959126], [174.543365974813, -36.8895595534739], [174.543361532484, -36.8895576182612], [174.543357236879, -36.8895558920622], [174.54335308796, -36.8895543730748], [174.543349085746, -36.8895530622], [174.543345230238, -36.8895519594378], [174.543341521416, -36.8895510638872], [174.543337832137, -36.8895501915182], [174.543334010993, -36.8895491234626], [174.543330057963, -36.8895478588193], [174.54332597305, -36.8895463975883], [174.543321755129, -36.8895447397842], [174.543317406447, -36.8895428853777], [174.543312925879, -36.8895408343835], [174.543308313446, -36.8895385877026], [174.54330356911, -36.8895361435329], [174.543298692908, -36.8895335036764], [174.543293683682, -36.8895306663456], [174.543288543712, -36.8895276333135], [174.543283271857, -36.8895244036935], [174.543277868119, -36.8895209774857], [174.543272331374, -36.8895173547045], [174.543266663886, -36.889513536222], [174.543260864496, -36.8895095202504], [174.543254933222, -36.8895053076908], [174.54324886896, -36.889500899459], [174.543242673937, -36.8894962946246], [174.543236347012, -36.889491492301], [174.543229891732, -36.8894865014559], [174.543223426683, -36.8894815269619], [174.543217006479, -36.8894766618518], [174.54321063112, -36.8894719061257], [174.543204299503, -36.8894672606993], [174.543198011609, -36.8894627246714], [174.543191769682, -36.889458298013], [174.543185571496, -36.8894539816542], [174.543179417033, -36.889449774694], [174.543173307433, -36.8894456780189], [174.543167242679, -36.8894416907278], [174.543161221647, -36.8894378128354], [174.543155245478, -36.8894340452281], [174.543149314154, -36.8894303870048], [174.543143426571, -36.8894268390813], [174.543137582711, -36.8894234005563], [174.543131784818, -36.8894200714009], [174.543126029544, -36.8894168525598], [174.543120320236, -36.8894137430883], [174.543114654651, -36.8894107430154], [174.543109032807, -36.8894078532422], [174.543103456929, -36.8894050728386], [174.543097888312, -36.8894023743649], [174.543092088676, -36.8893995716288], [174.543086016962, -36.8893966318131], [174.543079672031, -36.889393554031], [174.543073053901, -36.8893903391838], [174.543066162571, -36.8893869872713], [174.543058998025, -36.8893834973924], [174.543051560279, -36.8893798704482], [174.543043849316, -36.8893761055374], [174.543035865155, -36.8893722035612], [174.543027607794, -36.8893681645195], [174.543019077217, -36.889363987511], [174.543010274563, -36.8893596734224], [174.543001197571, -36.8893552213815], [174.54299184738, -36.8893506322748], [174.542982223973, -36.8893459052012], [174.542972327386, -36.8893410419629], [174.542962158686, -36.8893360398417], [174.542951715667, -36.889330900669], [174.542940999449, -36.8893256244303], [174.542930010034, -36.8893202111253], [174.542918748525, -36.8893146598384], [174.542907418055, -36.8893090274216], [174.542896537729, -36.8893034585628], [174.542886134618, -36.8892979601217], [174.542876206458, -36.8892925312263], [174.542866755494, -36.8892871718476], [174.542857781762, -36.889281883788], [174.542849282981, -36.8892766652745], [174.542841261414, -36.8892715171792], [174.542833714798, -36.8892664386302], [174.542826645396, -36.8892614304996], [174.542820053207, -36.8892564927875], [174.542813935968, -36.8892516246219], [174.542808295943, -36.889246826875], [174.542803130869, -36.8892420986747], [174.542798443025, -36.8892374417944], [174.542794232376, -36.8892328544317], [174.542790496677, -36.889228336616], [174.542787238191, -36.8892238892191], [174.542784454673, -36.8892195122704], [174.54278214835, -36.8892152048395], [174.542780319238, -36.8892109678277], [174.542778965095, -36.889206801264]]}, "properties": {"OBJECTID": 1576, "TRACKNAME": "Andersons Southern Access", "CONDITIONSOFUSE": "Waitakere North Regional Park", "STATUS": "Closed Dieback", "WEBLINK": "https://www.aucklandcouncil.govt.nz/en/parks-recreation/find-park-beach/park-detail/3407.html", "VALIDATIONSTATE": 3, "created_user": "AC_owner", "last_edited_user": "AC_owner", "last_edited_date": 1789875254325, "created_date": 1789875254325, "PARK_SAPSITEID": null, "TRACK_ID": null, "KAURIDIEBACK_TRACK": null, "KAURIDIEBACK_MITIGATED": null, "SegmentID": null, "GlobalID": "d38141ca-ecc5-4962-87c4-cfc90efae2ae", "Shape__Length": 279.45127925972685}}]}