{"type": "FeatureCollection", "features": [{"type": "Feature", "id": 2550, "geometry": {"type": "LineString", "coordinates": [[174.503272839987, -36.967523191676], [174.503289667463, -36.9676328635307], [174.503337525314, -36.967840417829], [174.503391037442, -36.967978486667], [174.503430891503, -36.9681514578985], [174.503427384948, -36.9683192636421], [174.503474073977, -36.9684747790552], [174.503548579786, -36.9685836211789], [174.503701950892, -36.9686739959016], [174.503791388304, -36.9688057776457], [174.503829459735, -36.9688977840054], [174.503846049481, -36.9689958852833], [174.503803120729, -36.9690897740573], [174.503832221436, -36.9691329140977], [174.503870849106, -36.9691401403936], [174.503963645199, -36.9690983314055], [174.50402736311, -36.9690453623617], [174.50412698252, -36.9689861065841], [174.504270474229, -36.9689551383328], [174.504349872974, -36.9689597836994], [174.504386819745, -36.9689997505306], [174.504387967792, -36.9690517985875], [174.504382167268, -36.969115508177], [174.504326034697, -36.9691857324814], [174.504277384175, -36.9692674083795], [174.504228210892, -36.969325952948], [174.504164753951, -36.9693904742381], [174.504122529149, -36.9694373572441], [174.504109904998, -36.9695185225035], [174.50414811369, -36.9696163227545], [174.50421476414, -36.9696963573135], [174.504278500452, -36.9697533178698], [174.504317702671, -36.9697874333419], [174.504398136846, -36.9698383594361], [174.504463753504, -36.9698721310871], [174.504494127338, -36.9699411058448], [174.504589731842, -36.9700265148833], [174.504698983517, -36.9700770304392], [174.504756890211, -36.9700877707369], [174.504807336886, -36.9700870501301]]}, "properties": {"OBJECTID": 2550, "TRACKNAME": "Arthur Mead Track", "CONDITIONSOFUSE": "Waitakere West Regional Park", "STATUS": "Temp Closed", "WEBLINK": "https://www.aucklandcouncil.govt.nz/en/parks-recreation/find-park-beach/park-detail/3451.html", "VALIDATIONSTATE": 3, "created_user": "AC_owner", "last_edited_user": "AC_owner", "last_edited_date": 1789875254325, "created_date": 1789875254325, "PARK_SAPSITEID": null, "TRACK_ID": null, "KAURIDIEBACK_TRACK": null, "KAURIDIEBACK_MITIGATED": null, "SegmentID": null, "GlobalID": "b33133e4-2c87-481b-9d91-1680f757f6b3", "Shape__Length": 409.55338596764193}}]}