{"type": "FeatureCollection", "features": [{"type": "Feature", "id": 157, "geometry": {"type": "MultiLineString", "coordinates": [[[174.526099313274, -36.8886005465097], [174.525898732507, -36.8884153234347], [174.525878249477, -36.8884005868206], [174.525851206668, -36.8883811292512], [174.525816542358, -36.8883677654724], [174.525801907888, -36.8883686961542], [174.525778965425, -36.8883701535716], [174.525732590992, -36.8883850079148], [174.525709633426, -36.8883996886083], [174.525693594211, -36.8884174298368], [174.525666538903, -36.8884473512276]], [[174.525619661262, -36.8884675408879], [174.52561000053, -36.8884766669271], [174.525578333075, -36.8885083330865], [174.525546666603, -36.8885366668606], [174.525503333207, -36.8885533334791], [174.525461666815, -36.8885716669428], [174.525416666982, -36.8885883332945], [174.525373333903, -36.8885999999633], [174.525337654194, -36.8886066072137], [174.525321607157, -36.8885926076555], [174.525303333294, -36.8885766662905], [174.525288333307, -36.8885400000573], [174.525273333317, -36.8885033329205], [174.525254999949, -36.8884649995798], [174.525245000296, -36.8884283331403], [174.525228332853, -36.8883916666727], [174.525203333596, -36.8883583331699], [174.525186666692, -36.8883200000558], [174.525155000417, -36.8882916664012], [174.5251083335, -36.8882849995428], [174.525063333837, -36.8882866669627], [174.525018333754, -36.8882933333687], [174.524969999735, -36.8882816663236], [174.524959999631, -36.8882433332302], [174.52495666671, -36.8882033335532], [174.524943332829, -36.8881683332503], [174.524914999992, -36.8881383333746], [174.524876666948, -36.8881183336517], [174.524840000194, -36.8880949999946], [174.524793333323, -36.8880849997439], [174.524746666865, -36.8880883334356], [174.524706666311, -36.888105000255], [174.524663332963, -36.8881216665667], [174.524614999571, -36.8881266665998], [174.524570000129, -36.8881133332295], [174.524546667031, -36.8880783332016], [174.524509999893, -36.8880566669808], [174.524468333532, -36.8880316667326], [174.524425000036, -36.8880200001953], [174.524382362151, -36.888034396845], [174.524351666763, -36.8880600002143], [174.524325000349, -36.8880916667757], [174.524293332969, -36.8881183335988], [174.524251666579, -36.888139999906], [174.524209999568, -36.8881599995736], [174.524176666255, -36.8881849994732], [174.524173796361, -36.8881866073802]], [[174.525666538903, -36.8884473512276], [174.52564000056, -36.8884483329034], [174.525619661262, -36.8884675408879]], [[174.525666538903, -36.8884473512276], [174.525657616738, -36.8884572195284], [174.525619661262, -36.8884675408879]]]}, "properties": {"OBJECTID": 157, "TRACKNAME": "Auckland City Walk", "CONDITIONSOFUSE": "Waitakere North Regional Park", "STATUS": "Open", "WEBLINK": "https://www.aucklandcouncil.govt.nz/en/parks-recreation/find-park-beach/park-detail/3407.html", "VALIDATIONSTATE": 3, "created_user": "AC_owner", "last_edited_user": "AC_owner", "last_edited_date": 1789875254325, "created_date": 1789875254325, "PARK_SAPSITEID": null, "TRACK_ID": null, "KAURIDIEBACK_TRACK": null, "KAURIDIEBACK_MITIGATED": null, "SegmentID": null, "GlobalID": "fdffbad7-30a0-419e-9be2-3f94e187907c", "Shape__Length": 247.09800073121377}}, {"type": "Feature", "id": 192, "geometry": {"type": "LineString", "coordinates": [[174.519728192674, -36.8870257193248], [174.519888520541, -36.8870491717193], [174.520031945933, -36.8870806063635], [174.520135336804, -36.8871240726078], [174.520398475886, -36.887257578521], [174.520700032256, -36.8874207880171], [174.520787020997, -36.8874474187128], [174.521086828165, -36.8874726317466], [174.521283558656, -36.8874272886751], [174.521636163859, -36.8873745677723], [174.521749495783, -36.8873653463611], [174.521941687726, -36.8873785592787], [174.521981400432, -36.8873876230873], [174.522028012547, -36.8874101641175], [174.522083050607, -36.8874507237376], [174.522096537492, -36.8874817473764], [174.522097585465, -36.8875622173111], [174.52207637647, -36.8876526080444], [174.522000869086, -36.8877820927804], [174.521897843798, -36.8878797871139], [174.521838241433, -36.8879541204636], [174.521765877451, -36.888082014428], [174.521748386248, -36.8881466053288], [174.52180079223, -36.8883535737168], [174.521827181238, -36.8885726832941], [174.521838499118, -36.8886114504694], [174.521864788497, -36.8886548391766], [174.521913120004, -36.8886949890165], [174.521929150924, -36.8887015376201]]}, "properties": {"OBJECTID": 192, "TRACKNAME": "Auckland City Walk", "CONDITIONSOFUSE": "Waitakere North Regional Park", "STATUS": "Open", "WEBLINK": "https://www.aucklandcouncil.govt.nz/en/parks-recreation/find-park-beach/park-detail/3407.html", "VALIDATIONSTATE": 3, "created_user": "AC_owner", "last_edited_user": "AC_owner", "last_edited_date": 1789875254325, "created_date": 1789875254325, "PARK_SAPSITEID": null, "TRACK_ID": null, "KAURIDIEBACK_TRACK": null, "KAURIDIEBACK_MITIGATED": null, "SegmentID": null, "GlobalID": "b9d4e599-53c0-437c-8d52-552163c810cd", "Shape__Length": 377.2432780444866}}, {"type": "Feature", "id": 462, "geometry": {"type": "LineString", "coordinates": [[174.524173796361, -36.8881866073802], [174.524135000409, -36.8882083332675], [174.524100000065, -36.8882316662663], [174.524063333853, -36.8882533332606], [174.524016666915, -36.8882683331053], [174.523971666363, -36.8882549995226], [174.523941804124, -36.8882248171234], [174.523939357652, -36.8882190499917]]}, "properties": {"OBJECTID": 462, "TRACKNAME": "Auckland City Walk", "CONDITIONSOFUSE": "Waitakere North Regional Park", "STATUS": "Open", "WEBLINK": "https://www.aucklandcouncil.govt.nz/en/parks-recreation/find-park-beach/park-detail/3407.html", "VALIDATIONSTATE": 3, "created_user": "AC_owner", "last_edited_user": "AC_owner", "last_edited_date": 1789875254325, "created_date": 1789875254325, "PARK_SAPSITEID": null, "TRACK_ID": null, "KAURIDIEBACK_TRACK": null, "KAURIDIEBACK_MITIGATED": null, "SegmentID": null, "GlobalID": "9f0ebf48-8d47-4100-b764-2107e6b6fd10", "Shape__Length": 26.03446085392215}}, {"type": "Feature", "id": 969, "geometry": {"type": "LineString", "coordinates": [[174.521929150924, -36.8887015376201], [174.521956529075, -36.8887127217229], [174.522020718891, -36.8887264204588], [174.522194056028, -36.8887048562516], [174.522308537557, -36.8887104831543], [174.522394906191, -36.8887379949212], [174.522722446313, -36.8888851733167], [174.522836704396, -36.8889540967789], [174.523050580011, -36.8891050837458], [174.523232951128, -36.8893568327923], [174.523334740789, -36.889436930364], [174.523398993221, -36.8894678527215], [174.523460323295, -36.8894815963527], [174.523597226752, -36.8894968134834], [174.523928029061, -36.889519936176], [174.523977022237, -36.8895108798987], [174.524082465457, -36.8894473417308], [174.524126070134, -36.889433667397], [174.524435294016, -36.8894280594268], [174.524508951443, -36.8894522534557], [174.524638231654, -36.8895203063556], [174.52491349895, -36.8897042132454], [174.524949394148, -36.8897198599735], [174.524991604534, -36.8897252221208], [174.525113871319, -36.8897221743389], [174.525407389801, -36.8896868760244], [174.525458140552, -36.8896731004336], [174.525519698714, -36.8896402031995], [174.525562428071, -36.8896045461598], [174.525614954957, -36.8895413165818], [174.525707565933, -36.889374942257], [174.525757883141, -36.889314030473], [174.525843817259, -36.8892711393033], [174.526014175875, -36.8892194569581], [174.526052305455, -36.8891923317034], [174.526233724798, -36.8889336426257], [174.526250056754, -36.8889017496663], [174.526257048057, -36.8888629334015]]}, "properties": {"OBJECTID": 969, "TRACKNAME": "Auckland City Walk", "CONDITIONSOFUSE": "Waitakere North Regional Park", "STATUS": "Open", "WEBLINK": "https://www.aucklandcouncil.govt.nz/en/parks-recreation/find-park-beach/park-detail/3407.html", "VALIDATIONSTATE": 3, "created_user": "AC_owner", "last_edited_user": "AC_owner", "last_edited_date": 1789875254325, "created_date": 1789875254325, "PARK_SAPSITEID": null, "TRACK_ID": null, "KAURIDIEBACK_TRACK": null, "KAURIDIEBACK_MITIGATED": null, "SegmentID": null, "GlobalID": "837aec49-5e32-44dc-806a-51f6b9b3dc37", "Shape__Length": 483.71452014748473}}, {"type": "Feature", "id": 2201, "geometry": {"type": "LineString", "coordinates": [[174.521514958977, -36.8859635993988], [174.521489590799, -36.8859752734368], [174.521359544613, -36.8860248015834], [174.521188690451, -36.8860648919536], [174.521021004316, -36.8861074383176], [174.520815468201, -36.8861329733577], [174.520678447781, -36.8861499964741], [174.52050702822, -36.8861650079577], [174.520370240232, -36.8861920600014], [174.520168447845, -36.8862451369765], [174.519957398601, -36.8863033526755], [174.51984868893, -36.8863300088405], [174.519844813818, -36.8863333826692]]}, "properties": {"OBJECTID": 2201, "TRACKNAME": "Auckland City Walk", "CONDITIONSOFUSE": "Waitakere North Regional Park", "STATUS": "Open", "WEBLINK": "https://www.aucklandcouncil.govt.nz/en/parks-recreation/find-park-beach/park-detail/3407.html", "VALIDATIONSTATE": 3, "created_user": "AC_owner", "last_edited_user": "AC_owner", "last_edited_date": 1789875254325, "created_date": 1789875254325, "PARK_SAPSITEID": null, "TRACK_ID": null, "KAURIDIEBACK_TRACK": null, "KAURIDIEBACK_MITIGATED": null, "SegmentID": null, "GlobalID": "25f4a6f0-a1fe-4b47-921f-b847f570c244", "Shape__Length": 155.24435540558827}}, {"type": "Feature", "id": 2348, "geometry": {"type": "LineString", "coordinates": [[174.521929150924, -36.8887015376201], [174.521921344879, -36.8888277816782], [174.521936499717, -36.8889241513266], [174.522068354501, -36.8892825144209], [174.522195952538, -36.8894908808006], [174.52221247785, -36.8895675198757], [174.522199465533, -36.8896412203729], [174.522162622471, -36.8897207786446], [174.522046832269, -36.889823945723], [174.521938775549, -36.88999390429]]}, "properties": {"OBJECTID": 2348, "TRACKNAME": "Auckland City Walk", "CONDITIONSOFUSE": "Waitakere North Regional Park", "STATUS": "Closed Dieback", "WEBLINK": "https://www.aucklandcouncil.govt.nz/en/parks-recreation/find-park-beach/park-detail/3407.html", "VALIDATIONSTATE": 3, "created_user": "AC_owner", "last_edited_user": "AC_owner", "last_edited_date": 1789875254325, "created_date": 1789875254325, "PARK_SAPSITEID": null, "TRACK_ID": null, "KAURIDIEBACK_TRACK": null, "KAURIDIEBACK_MITIGATED": null, "SegmentID": null, "GlobalID": "c1620137-a3a6-422d-9567-838e0f64ac08", "Shape__Length": 154.9253989737274}}, {"type": "Feature", "id": 2512, "geometry": {"type": "LineString", "coordinates": [[174.519844817219, -36.8863333844284], [174.51967394657, -36.8864610229904], [174.519645487282, -36.8864767553896], [174.519582305737, -36.8864815385746], [174.519513067349, -36.8864604126715], [174.519479339943, -36.8864396437949], [174.519440834381, -36.8863974653641], [174.519369533525, -36.8862620809407], [174.519266274497, -36.8861708306503], [174.51920691963, -36.8861308837425], [174.5191237399, -36.8860959105464], [174.519065010251, -36.8860829786723], [174.519010785443, -36.886087295494], [174.518978698048, -36.8861170003029], [174.518876502791, -36.8862629047893], [174.518642151741, -36.8864924692246], [174.518638255658, -36.8865297366322], [174.518648247419, -36.8865781297084], [174.518735495259, -36.8868037001847], [174.518787401453, -36.8868448782714], [174.518882126955, -36.8868780726031], [174.518991645129, -36.8868904633755], [174.519179100822, -36.8868720040722], [174.519233060861, -36.8868741173283], [174.519508925905, -36.8869936444936], [174.519728192674, -36.8870257193248]]}, "properties": {"OBJECTID": 2512, "TRACKNAME": "Auckland City Walk", "CONDITIONSOFUSE": "Waitakere North Regional Park", "STATUS": "Open", "WEBLINK": "https://www.aucklandcouncil.govt.nz/en/parks-recreation/find-park-beach/park-detail/3407.html", "VALIDATIONSTATE": 3, "created_user": "AC_owner", "last_edited_user": "AC_owner", "last_edited_date": 1789875254325, "created_date": 1789875254325, "PARK_SAPSITEID": null, "TRACK_ID": null, "KAURIDIEBACK_TRACK": null, "KAURIDIEBACK_MITIGATED": null, "SegmentID": null, "GlobalID": "34866cd1-f009-4bf5-a0de-c70bd9b88323", "Shape__Length": 287.9710193720821}}, {"type": "Feature", "id": 2679, "geometry": {"type": "LineString", "coordinates": [[174.526257044674, -36.8888629325436], [174.526241333197, -36.8887609145562], [174.526183363525, -36.8886781581815]]}, "properties": {"OBJECTID": 2679, "TRACKNAME": "Auckland City Walk", "CONDITIONSOFUSE": "Waitakere North Regional Park", "STATUS": "Open", "WEBLINK": "https://www.aucklandcouncil.govt.nz/en/parks-recreation/find-park-beach/park-detail/3407.html", "VALIDATIONSTATE": 3, "created_user": "AC_owner", "last_edited_user": "AC_owner", "last_edited_date": 1789875254325, "created_date": 1789875254325, "PARK_SAPSITEID": null, "TRACK_ID": null, "KAURIDIEBACK_TRACK": null, "KAURIDIEBACK_MITIGATED": null, "SegmentID": null, "GlobalID": "63f9177a-24d1-401d-b9d3-ffd61c7d5707", "Shape__Length": 21.941935924592116}}, {"type": "Feature", "id": 3255, "geometry": {"type": "LineString", "coordinates": [[174.523413194559, -36.8867402201122], [174.523206666348, -36.8866966666585], [174.523161666303, -36.8866816670159], [174.523116666853, -36.8866716663485], [174.523076666671, -36.8866883335152], [174.523031666256, -36.8867016666031], [174.522996666254, -36.8867250001755], [174.522953333315, -36.8867450000265], [174.522906666956, -36.8867366665499], [174.522856666844, -36.8867449997617], [174.522806666173, -36.8867583328613], [174.522759999889, -36.8867733331019], [174.522713333018, -36.8867833334302], [174.522666666666, -36.8867816663949], [174.522620000331, -36.8867766669746], [174.522576666687, -36.8867616664845], [174.52254666615, -36.8867333332977], [174.52250499947, -36.886713333149], [174.522459999521, -36.8867216670149], [174.522409999951, -36.8867183335942], [174.522361666713, -36.886725000237], [174.52231666677, -36.8867200000753], [174.522278332853, -36.8866999995062], [174.522248333585, -36.8866683329582], [174.522233333793, -36.886626666405], [174.522208333054, -36.8865966664319], [174.522166666534, -36.8865766661604], [174.522136666239, -36.8865449995957], [174.522101666353, -36.8865149997132], [174.52206666702, -36.8864899997153], [174.522031667136, -36.8864666663479], [174.522009999809, -36.8864350002579], [174.52198000021, -36.8864016670087], [174.521944999846, -36.8863766669867], [174.521894999971, -36.8863716667162], [174.521848332805, -36.8863666669999], [174.521811666149, -36.8863416666494], [174.521778332796, -36.8863150002228], [174.521741666767, -36.8862883332078], [174.521708332998, -36.8862533335948], [174.521674999742, -36.8862233329669], [174.521649999979, -36.8861883329556], [174.521630000383, -36.8861533328954], [174.521514958977, -36.8859635993988]]}, "properties": {"OBJECTID": 3255, "TRACKNAME": "Auckland City Walk", "CONDITIONSOFUSE": "Waitakere North Regional Park", "STATUS": "Open", "WEBLINK": "https://www.aucklandcouncil.govt.nz/en/parks-recreation/find-park-beach/park-detail/3407.html", "VALIDATIONSTATE": 3, "created_user": "AC_owner", "last_edited_user": "AC_owner", "last_edited_date": 1789875254325, "created_date": 1789875254325, "PARK_SAPSITEID": null, "TRACK_ID": null, "KAURIDIEBACK_TRACK": null, "KAURIDIEBACK_MITIGATED": null, "SegmentID": null, "GlobalID": "e914368e-9cb1-4b90-a66d-bafa5e88437a", "Shape__Length": 219.3327162116004}}]}