{"type": "FeatureCollection", "features": [{"type": "Feature", "id": 11513, "geometry": {"type": "MultiLineString", "coordinates": [[[175.105955137733, -36.8117852275758], [175.10598641021, -36.8117706168816]], [[175.105955137733, -36.8117852275758], [175.105927527183, -36.8117792580319], [175.105925973543, -36.8117761886954], [175.105741998225, -36.8111563974055], [175.105741994592, -36.8111563875556], [175.105569088984, -36.810770166921], [175.105038256054, -36.8095844480902], [175.105038251449, -36.8095844436653], [175.104104713725, -36.8088042285441], [175.104104713651, -36.8088042258415], [175.104153596892, -36.8082479818616], [175.10417844435, -36.8079793893139], [175.104191608134, -36.8079702694922], [175.104180267654, -36.8079596825797], [175.104185082629, -36.8079076329452], [175.104099971434, -36.8078857174008], [175.104099959036, -36.8078857149164], [175.103909676922, -36.8078539339326], [175.103909661138, -36.8078539306067], [175.103707532132, -36.8078153297364], [175.103707528771, -36.8078153297959], [175.103511281824, -36.8077789651683], [175.103511276197, -36.8077789643666], [175.103291280119, -36.8077266105606], [175.103291272227, -36.8077266088977], [175.103156399048, -36.8076961968999], [175.103156383265, -36.8076961935739], [175.103080210918, -36.807681139363], [175.103080203001, -36.8076811367991], [175.102933092568, -36.8076298380161], [175.102933084677, -36.8076298363531], [175.102739888735, -36.8075981131359], [175.102739883108, -36.8075981123341], [175.102484553142, -36.8075323298622], [175.102484540745, -36.8075323273776], [175.102361827142, -36.8075204311139], [175.102361811408, -36.8075204295895], [175.102279940601, -36.8075101587928], [175.102279936095, -36.8075101579711], [175.102191468759, -36.8074718859284], [175.102053476671, -36.8074344913731], [175.102053466515, -36.8074344888488], [175.101889658175, -36.807411619892], [175.101889645777, -36.8074116174074], [175.101786939073, -36.807385305615], [175.101786928891, -36.8073853021899], [175.101634252813, -36.8073434827091], [175.101634247187, -36.8073434819072], [175.101464351361, -36.807311332945], [175.101464340084, -36.8073113304405], [175.101341102872, -36.8072807142632], [175.101341091595, -36.8072807117586], [175.101241500282, -36.8072613763592], [175.101241494656, -36.8072613755573], [175.101147770739, -36.8072442824494], [175.101033346111, -36.8072158454518], [175.101033342726, -36.8072158446104], [175.100924993311, -36.8071966781567], [175.100924985444, -36.8071966773944], [175.100688104809, -36.8071651604458], [175.10068809134, -36.8071651597825], [175.100565826585, -36.8071675249004], [175.100565815406, -36.8071675259992], [175.100361849575, -36.8071714706613], [175.100361837227, -36.8071714699782], [175.099370217094, -36.8069258671619], [175.099192457097, -36.8069293082471], [175.099192445918, -36.8069293093458], [175.098974016805, -36.8069335313533], [175.098974007793, -36.8069335297098], [175.098879385013, -36.8068836505519], [175.098879374832, -36.8068836471265], [175.098713048523, -36.8068699619036], [175.098713044042, -36.8068699619827], [175.098581847719, -36.8068724971563], [175.09858183313, -36.8068724965126], [175.098447017879, -36.8068444151629], [175.098282291553, -36.8067887392521], [175.098282283613, -36.8067887357871], [175.098226001346, -36.8067545830085], [175.09822599455, -36.8067545804246], [175.098140516966, -36.8067185607779], [175.09814051017, -36.806718558194], [175.098029522875, -36.8066840873907], [175.098029511573, -36.8066840839849], [175.097955899187, -36.8066612354999], [175.097955887886, -36.8066612320942], [175.097840716033, -36.8066254667879], [175.097840706996, -36.8066254642435], [175.097768610258, -36.8066030728918], [175.097768597787, -36.806603067704], [175.097687524861, -36.8065648879934], [175.097687515775, -36.8065648836472], [175.097649151505, -36.8065468189754], [175.097649134529, -36.8065468129659], [175.097578661268, -36.8065269813844], [175.097578655642, -36.8065269805823], [175.097505706411, -36.8065235773869], [175.097505695159, -36.8065235757828], [175.097444160753, -36.8065106048259], [175.097444158513, -36.8065106048654], [175.097387927227, -36.8064787923593], [175.09738791936, -36.8064787915968], [175.097344494088, -36.8064889303849], [175.097344479548, -36.8064889315428], [175.097256846133, -36.8064810923929], [175.097215225144, -36.8064513726344], [175.097215221636, -36.8064513672885], [175.097211054015, -36.8064046876509], [175.097210983511, -36.8064044040838], [175.097193991473, -36.8063609403062], [175.097189395265, -36.8063567230892], [175.097123946623, -36.8063335479935], [175.097118717586, -36.8063332499768], [175.09708761506, -36.8063386269248], [175.097086515914, -36.8063391348196], [175.097041452535, -36.8063841331548], [175.097041448176, -36.8063841377381], [175.097017441825, -36.8064160598727], [175.097017437467, -36.8064160644561], [175.096966457519, -36.8064590671032], [175.096966453136, -36.8064590707858], [175.096930934914, -36.8064985686098], [175.096896762659, -36.8065365411148], [175.096896758497, -36.8065365529051], [175.096899425902, -36.8066256634071], [175.096899423956, -36.806625674257], [175.096871829123, -36.806682394954], [175.096886343347, -36.8067532821921], [175.096886344812, -36.8067532947845], [175.096892587931, -36.8068249498143], [175.096894606579, -36.8068925378841], [175.096912202603, -36.8069665658653], [175.096912202677, -36.8069665685679], [175.096934614545, -36.8070609152356], [175.096954012762, -36.8071425355182], [175.096955546822, -36.8071940835748], [175.096957715725, -36.8072667243829], [175.096957716895, -36.8072667261648], [175.096970901835, -36.8073227347307], [175.097022065843, -36.8073827600915], [175.097022069327, -36.8073827645366], [175.097049685995, -36.8074338218308], [175.097049690869, -36.8074338361656], [175.097073596429, -36.8075408909201], [175.097073596576, -36.8075408963253], [175.097045818697, -36.8076119897194], [175.097045817626, -36.8076119915409], [175.096965029176, -36.8076415390606], [175.096965025839, -36.8076415400207], [175.096889740152, -36.8076592726136], [175.096811342393, -36.8076697550124], [175.096811333455, -36.8076697560714], [175.096715280905, -36.8076716098163], [175.096715270846, -36.807671610895], [175.096651147302, -36.8076728482429], [175.096651138315, -36.8076728475001], [175.096601171649, -36.8076573314157], [175.09656850272, -36.8076344782887], [175.096568495629, -36.8076344648942], [175.09656980654, -36.8076113522582], [175.096569805247, -36.8076113459719], [175.096532832237, -36.8075396740939], [175.096532831043, -36.8075396714111], [175.096529077677, -36.8074139394899], [175.096529074021, -36.8074139287387], [175.096448929855, -36.8073108534935], [175.096448922838, -36.8073108428016], [175.096364221918, -36.8072019479425], [175.096364217314, -36.8072019435172], [175.096196954887, -36.8070481505824], [175.096196950307, -36.807048147058], [175.095980748794, -36.806849349572], [175.095980745335, -36.8068493460278], [175.095889475509, -36.8067793919573], [175.095889474339, -36.8067793901754], [175.095855181276, -36.8067363718334], [175.095855174333, -36.8067363638441], [175.095820876967, -36.8067100818204], [175.095775661489, -36.8066665782408], [175.095775655715, -36.8066665720335], [175.095739835135, -36.8066321077923], [175.095686754552, -36.8065914341196], [175.095633023092, -36.8065659822481], [175.095633012862, -36.8065659770207], [175.095571034868, -36.8065366020242], [175.095571030337, -36.8065366003014], [175.095500679496, -36.8065214457759], [175.09550067499, -36.806521444954], [175.095436409887, -36.8065156053116], [175.095436403165, -36.8065156054301], [175.095365546557, -36.8065169688662], [175.095286992516, -36.8064978759132], [175.095286981239, -36.806497873408], [175.0951908541, -36.8064744871855], [175.095190846208, -36.8064744855219], [175.09510717515, -36.8064541433027], [175.095107172885, -36.8064541424413], [175.095018333916, -36.8064325356826], [175.095018321519, -36.8064325331972], [175.094933634582, -36.8064119266503], [175.094870719219, -36.8063966317007], [175.094726980584, -36.8063616749993], [175.094726965897, -36.8063616707516], [175.094632395462, -36.8063243639877], [175.094577017609, -36.8063127593864], [175.094577013103, -36.8063127585644], [175.09449886531, -36.8062963843613], [175.094498857394, -36.8062963817969], [175.094432938202, -36.8062710035061], [175.094432925732, -36.806270998318], [175.094374185595, -36.8062483758699], [175.09437417539, -36.8062483715432], [175.094269144385, -36.8062079373993], [175.094269136469, -36.8062079348348], [175.094209532708, -36.8061950381359], [175.094209528177, -36.8061950364131], [175.094148470884, -36.8061818173874], [175.094148457391, -36.8061818158225], [175.094011075922, -36.8061844702114], [175.093929142532, -36.8061718540419], [175.093929135736, -36.8061718514577], [175.093875001851, -36.8061495757413], [175.093874997321, -36.8061495740185], [175.093785076684, -36.8061251832334], [175.093785067648, -36.8061251806886], [175.093687105201, -36.8060986160263], [175.093687093875, -36.8060986117193], [175.093630695453, -36.8060645461953], [175.093630686343, -36.8060645409479], [175.093566705793, -36.8060259194568], [175.093566703503, -36.8060259176946], [175.09348374297, -36.8059758251732], [175.093483737295, -36.8059758225693], [175.09342063738, -36.8059551682504], [175.093315624539, -36.8059014567615], [175.093315619985, -36.8059014541378], [175.093263980909, -36.8058750422978], [175.09326397404, -36.8058750370109], [175.093220373078, -36.8058281466492], [175.09322036616, -36.8058281395607], [175.093189109861, -36.8057945324097], [175.093189104113, -36.8057945271031], [175.093125062073, -36.8057454396371], [175.093077343014, -36.8057088704259], [175.093077339433, -36.8057088623773], [175.093076092501, -36.8056666493527], [175.093076091258, -36.8056666448681], [175.093048467618, -36.8055956156787], [175.093048466424, -36.8055956129958], [175.093020663658, -36.8055574799447], [175.092964454184, -36.8054803943555], [175.092964449555, -36.8054803890292], [175.092916813242, -36.8054438858895], [175.092916809808, -36.8054438832461], [175.092844917442, -36.8054127687813], [175.092844906091, -36.8054127635733], [175.092782847599, -36.8053859166561], [175.092782845309, -36.8053859148938], [175.092694391602, -36.8053476363236], [175.092694388217, -36.8053476354819], [175.092577623344, -36.8053403146842], [175.092577608731, -36.8053403131388], [175.092529967743, -36.8053368561393], [175.092529958756, -36.8053368553961], [175.092460544375, -36.8053212895914], [175.092460533098, -36.805321287086], [175.092393237439, -36.8053061859732], [175.092393232933, -36.8053061851512], [175.092357856809, -36.8053068708992], [175.092357845606, -36.8053068710964], [175.092294117105, -36.8053017999157], [175.09229411372, -36.8053017990739], [175.092208931654, -36.8052950090087], [175.092208926052, -36.8052950091073], [175.092118340252, -36.8052877994373], [175.092118336891, -36.8052877994965], [175.09204273192, -36.8052817754147], [175.092042729655, -36.8052817745532], [175.091946366678, -36.8052740958957], [175.091946363292, -36.805274095054], [175.091843906391, -36.805257150014], [175.091843904126, -36.8052571491526], [175.09166617262, -36.8052579330992], [175.091666156935, -36.8052579333752], [175.09122974871, -36.8052818815033], [175.091229744229, -36.8052818815821], [175.091151041468, -36.8052834021441], [175.091151039227, -36.8052834021835], [175.091046723277, -36.8053036326995], [175.090962264543, -36.8053052597911], [175.090962253365, -36.805305260889], [175.09083989095, -36.8053076131657], [175.090839876337, -36.8053076116201], [175.090734653564, -36.8052954118513], [175.090734647963, -36.8052954119498], [175.09065366251, -36.8053179266932], [175.090653648019, -36.8053179296519], [175.090515381493, -36.805344000546], [175.090515378132, -36.8053440006051], [175.090330990993, -36.8053475512275], [175.090182260194, -36.8053504151526], [175.090182249015, -36.8053504162504], [175.090068348933, -36.8053526090289], [175.089996943618, -36.8053469081816], [175.089996931295, -36.8053469083983], [175.089938049942, -36.8053480418204], [175.089866395525, -36.8053494213948], [175.089811652353, -36.8053504747948], [175.089740119295, -36.8053446507575], [175.089740108092, -36.8053446509544], [175.089643353377, -36.8053465130862], [175.089643343294, -36.8053465132635], [175.08957603543, -36.8053478090482], [175.089504516308, -36.8053491770132], [175.08943721092, -36.8053504816888], [175.089437195212, -36.8053504810636], [175.089382316728, -36.8053441648953], [175.089382308837, -36.8053441632314], [175.089318567992, -36.8053216018048], [175.089318554426, -36.8053215975367], [175.089256326539, -36.8052995646875], [175.089199737689, -36.805286443019], [175.08913178579, -36.8052639572994], [175.089131772151, -36.8052639503287], [175.089067154892, -36.8052144137763], [175.088998115707, -36.8051614830766], [175.088998105453, -36.8051614769477], [175.088913181096, -36.8051188676468], [175.088913173082, -36.8051188614785], [175.088861106066, -36.8050622318492], [175.088795455663, -36.804990789123], [175.088732005272, -36.8049217691593], [175.088731999499, -36.8049217629516], [175.088672374064, -36.8048568893356], [175.088672369412, -36.8048568831082], [175.088626383591, -36.8047887982281], [175.088626381301, -36.8047887964658], [175.088561622041, -36.8047391629764], [175.088561615196, -36.8047391585901], [175.08847674692, -36.8047034140994], [175.088476740101, -36.8047034106139], [175.0884228529, -36.804662106955], [175.088380681535, -36.8045764859224], [175.088380680317, -36.8045764823386], [175.088387723134, -36.8045255963726], [175.08838772513, -36.8045255873245], [175.088403266279, -36.8044779292436], [175.088422084681, -36.8043963579713], [175.088422083512, -36.8043963561892], [175.088260851664, -36.8043484289952], [175.088260836977, -36.8043484247467], [175.088116787829, -36.8043137141508], [175.087951687828, -36.8042793839247], [175.087951683322, -36.8042793831026], [175.087777914723, -36.8042350535157], [175.087777898966, -36.8042350510885], [175.08769769206, -36.8042263010878], [175.08761272961, -36.8041973300033], [175.08761272508, -36.8041973282803], [175.087515320914, -36.8041753479966], [175.087515310783, -36.8041753463719], [175.087100349077, -36.8040844732926], [175.087100342307, -36.8040844716088], [175.086994337937, -36.8040558685934], [175.086994333432, -36.8040558677711], [175.086783972593, -36.8040595659863], [175.086783958054, -36.8040595671428], [175.086582394282, -36.8040766373284], [175.086410164242, -36.8040898187762], [175.086345945755, -36.8041006735913]], [[175.111722193479, -36.8148926700283], [175.111265741181, -36.8148849055881], [175.110959195541, -36.8149044589079], [175.11055720022, -36.8149627423738], [175.110161282677, -36.8150826428357], [175.109975205884, -36.8151758900915], [175.10986505421, -36.8151584458204], [175.109460395039, -36.8151197734577], [175.109067136348, -36.8151722123782], [175.109086099068, -36.8151011601171], [175.109089363592, -36.8150505258866], [175.109089503685, -36.8150496671683], [175.109243853161, -36.814477864467], [175.10924385929, -36.8144778427271], [175.109376449816, -36.813999793156], [175.109376450887, -36.8139997913344], [175.109386624265, -36.8139171222457], [175.109383009816, -36.8139200038432], [175.109313156082, -36.8139235877077], [175.109313150455, -36.8139235869062], [175.109190242454, -36.8139046883229], [175.109190232321, -36.8139046867001], [175.1090790809, -36.8138760247335], [175.109079066285, -36.8138760231902], [175.108976758538, -36.8138780087612], [175.108976745069, -36.8138780080988], [175.108903670632, -36.8138628766378], [175.10890365699, -36.8138628696695], [175.108849883264, -36.8138216808218], [175.108849877588, -36.8138216782186], [175.108806655601, -36.8138135816633], [175.108806646638, -36.8138135818223], [175.108742098652, -36.8138235867018], [175.108742095291, -36.8138235867614], [175.108641096355, -36.813839238634], [175.108641089657, -36.8138392396541], [175.108521092605, -36.8138415683734], [175.108521089243, -36.8138415684331], [175.108418363153, -36.8138152728128], [175.108418360887, -36.8138152719517], [175.108341792347, -36.8137861580981], [175.108341784405, -36.8137861546338], [175.10828742597, -36.8137587378122], [175.108287419198, -36.8137587361297], [175.108203096812, -36.8137437072941], [175.10820308892, -36.8137437056314], [175.108133356279, -36.8137312696898], [175.108133350578, -36.8137312661857], [175.108052460987, -36.8136291722811], [175.108052454091, -36.8136291660943], [175.107945263499, -36.8135470417288], [175.107774983059, -36.8134165808833], [175.107774977383, -36.8134165782801], [175.107619584613, -36.8133517498048], [175.1076195699, -36.8133517446579], [175.107416250907, -36.8133010850556], [175.107416247545, -36.8133010851152], [175.107247729125, -36.8132591114295], [175.107247714411, -36.8132591062826], [175.10704833377, -36.8131771300245], [175.107048326949, -36.8131771265402], [175.106793432714, -36.8130723206707], [175.106793425918, -36.8130723180872], [175.106462147476, -36.8129361265362], [175.10646169353, -36.8129359642352], [175.10635242727, -36.8129035249819], [175.106345741895, -36.8129013135914], [175.106264800739, -36.8128705904257], [175.106261785424, -36.8128683824978], [175.106244700358, -36.8128621363997], [175.106241050349, -36.8128405744243], [175.106241089819, -36.8128387017285], [175.106021970173, -36.8120885138215], [175.106021968855, -36.8120885066345], [175.106005564848, -36.8120091405174], [175.106005563506, -36.8120091324295], [175.106001625022, -36.8118779686588], [175.10600162017, -36.8118779552253], [175.105948556468, -36.8118065688489], [175.105955137733, -36.8117852275758]]]}, "properties": {"OBJECTID": 11513, "TRACKNAME": "Awaroa track", "CONDITIONSOFUSE": "Awaawaroa Wetland Reserve", "STATUS": "Open", "WEBLINK": "https://www.aucklandcouncil.govt.nz/en/parks-recreation/find-park-beach/park-detail/1221.html", "VALIDATIONSTATE": 3, "created_user": "AC_owner", "last_edited_user": "AC_owner", "last_edited_date": 1789875254325, "created_date": 1789875254325, "PARK_SAPSITEID": null, "TRACK_ID": null, "KAURIDIEBACK_TRACK": null, "KAURIDIEBACK_MITIGATED": null, "SegmentID": null, "GlobalID": "9d9f9154-421f-4c2f-b103-6f8beabed4c0", "Shape__Length": 3270.9459987932573}}]}