{"type": "FeatureCollection", "features": [{"type": "Feature", "id": 12021, "geometry": {"type": "LineString", "coordinates": [[175.112841287497, -36.7996332038002], [175.112835434047, -36.7998635572374], [175.112722674099, -36.8001937898882], [175.112952031387, -36.8010029356578], [175.112941503939, -36.8017281643255], [175.113259511313, -36.802437756103], [175.113140633791, -36.8038752553684], [175.112963042856, -36.8042850228185], [175.112863364971, -36.804869766769], [175.113378291868, -36.8054288892438], [175.113013010465, -36.8058811853606], [175.112642779482, -36.8068185612969], [175.112394563188, -36.8070973121086], [175.112089792557, -36.8073133815383], [175.11222449548, -36.8086679912167], [175.111728012851, -36.8094459435617], [175.111263178897, -36.8102674214589], [175.111066818162, -36.8111037259538], [175.110879173496, -36.8115920519444], [175.110881213154, -36.812331753896], [175.110826733134, -36.8127883209201], [175.110718117397, -36.8132703446548], [175.110981557966, -36.8135449046137], [175.111462082296, -36.8137372258135], [175.111814249296, -36.8143580318138], [175.111833191602, -36.8143821898277], [175.111726464312, -36.8149327649629]]}, "properties": {"OBJECTID": 12021, "TRACKNAME": "Awaroa Rd.", "CONDITIONSOFUSE": null, "STATUS": "Open", "WEBLINK": null, "VALIDATIONSTATE": 3, "created_user": "AC_owner", "last_edited_user": "AC_owner", "last_edited_date": 1789875254325, "created_date": 1789875254325, "PARK_SAPSITEID": null, "TRACK_ID": null, "KAURIDIEBACK_TRACK": null, "KAURIDIEBACK_MITIGATED": null, "SegmentID": null, "GlobalID": "982e1e96-4210-4718-afae-dbd7c6011bb3", "Shape__Length": 1827.5900323771255}}, {"type": "Feature", "id": 12022, "geometry": {"type": "LineString", "coordinates": [[175.111735590575, -36.8149012503094], [175.11165827317, -36.8152006738029], [175.111468139851, -36.8153857033139], [175.111082277289, -36.8153925570024], [175.110688032344, -36.8154136671898], [175.110152380726, -36.8155572121902], [175.109811227061, -36.8159142268916], [175.109594811891, -36.8161808466293], [175.109482711444, -36.8164121054173], [175.109130377253, -36.816601773593], [175.10863955122, -36.8174199802087], [175.108425352974, -36.8177676843054], [175.108405541084, -36.8179249966423], [175.108500252694, -36.8179391893274]]}, "properties": {"OBJECTID": 12022, "TRACKNAME": "Awaroa Rd.", "CONDITIONSOFUSE": "Awaawaroa Esplanade Reserve", "STATUS": "Open", "WEBLINK": "https://www.aucklandcouncil.govt.nz/en/parks-recreation/find-park-beach/park-detail/1391.html", "VALIDATIONSTATE": 3, "created_user": "AC_owner", "last_edited_user": "AC_owner", "last_edited_date": 1789875254325, "created_date": 1789875254325, "PARK_SAPSITEID": null, "TRACK_ID": null, "KAURIDIEBACK_TRACK": null, "KAURIDIEBACK_MITIGATED": null, "SegmentID": null, "GlobalID": "6d10011a-1fa7-4dd7-9185-28d81e42f6c8", "Shape__Length": 501.3447406169064}}]}