{"type": "FeatureCollection", "features": [{"type": "Feature", "id": 8608, "geometry": {"type": "MultiLineString", "coordinates": [[[175.071200211027, -36.78895555919], [175.071211339672, -36.7889528533872], [175.071246121113, -36.7889028441462], [175.071270499272, -36.7888868061277], [175.071355930269, -36.788860756332], [175.071357585572, -36.7888623858997]], [[175.071623443882, -36.78894422363], [175.071622594312, -36.7889505836337]], [[175.071623443882, -36.78894422363], [175.071576564891, -36.7889329944452]], [[175.071623443882, -36.78894422363], [175.071628394209, -36.7889429161072], [175.071632901078, -36.7889391232956], [175.071657075499, -36.7889347453522], [175.071678763709, -36.7889325873798], [175.071681262684, -36.7889323392412], [175.071685367387, -36.7889322542016], [175.071696387598, -36.7889301415002], [175.071700936789, -36.7889270464616], [175.071704239234, -36.788922762691], [175.071704446999, -36.788922072275], [175.071766421845, -36.7887939802204]], [[175.071576564891, -36.7889329944452], [175.071565123225, -36.7889398048802]], [[175.071576564891, -36.7889329944452], [175.071576687669, -36.7889323938382], [175.071575217204, -36.7889261021973], [175.071576564891, -36.7889329944452]], [[175.071354672213, -36.7888992613564], [175.071356383403, -36.7889003446597], [175.071367132392, -36.7889081339666], [175.071368986268, -36.7889102296557], [175.071354672213, -36.7888992613564]], [[175.071357585572, -36.7888623858997], [175.07135068381, -36.7888694182601], [175.071354672213, -36.7888992613564]], [[175.071357585572, -36.7888623858997], [175.07137341442, -36.7888542867962], [175.071373459639, -36.7888542598705], [175.07138015659, -36.7888477781702], [175.071384685609, -36.7888433928233], [175.071391646847, -36.7888366550534], [175.07141506463, -36.7888174971884], [175.071434289045, -36.7887994596939], [175.071434609802, -36.7887989286437], [175.071438094133, -36.7887907877225], [175.071438847278, -36.7887868385934], [175.071441208307, -36.7887766415319], [175.071436744207, -36.7887728265596]], [[175.071380004531, -36.7888479989356], [175.071401846381, -36.7888504647465], [175.071402991616, -36.7888505890038], [175.071421972299, -36.7888527946073], [175.071423077223, -36.7888530448484], [175.071439851875, -36.788858553416], [175.071439910774, -36.7888585767252], [175.071464902391, -36.7888707704362], [175.071465023889, -36.7888708296083], [175.071494592801, -36.7888843000339], [175.071495535203, -36.7888847153411], [175.071508702368, -36.7888901713823], [175.07151967784, -36.7888947192346], [175.071530860192, -36.7888966713223], [175.071535238232, -36.7888941281679], [175.071549085984, -36.7888935651355], [175.071551061165, -36.7888934658282], [175.071571237648, -36.7888924716636], [175.071571960609, -36.7888924365348], [175.071572515861, -36.7888925404253], [175.071596982382, -36.788903044293], [175.071597593559, -36.7889034770874], [175.071598171788, -36.7889041844532], [175.071615985767, -36.7889260633525], [175.071616191157, -36.7889262832981], [175.071623443882, -36.78894422363]]]}, "properties": {"OBJECTID": 8608, "TRACKNAME": "Backpackers Paths", "CONDITIONSOFUSE": "Catherine Mitchell Reserve", "STATUS": "Open", "WEBLINK": "https://www.aucklandcouncil.govt.nz/en/parks-recreation/find-park-beach/park-detail/184.html", "VALIDATIONSTATE": 3, "created_user": "AC_owner", "last_edited_user": "AC_owner", "last_edited_date": 1789875254325, "created_date": 1789875254325, "PARK_SAPSITEID": null, "TRACK_ID": null, "KAURIDIEBACK_TRACK": null, "KAURIDIEBACK_MITIGATED": null, "SegmentID": null, "GlobalID": "f3fb8e8f-0822-44e0-95bb-7caee590280c", "Shape__Length": 96.81714511376339}}]}