{"type": "FeatureCollection", "features": [{"type": "Feature", "id": 2832, "geometry": {"type": "LineString", "coordinates": [[174.608581996756, -36.9465179947641], [174.608597000079, -36.9465099948045], [174.608642996627, -36.946494995064], [174.608733997998, -36.9464909949345], [174.60879500326, -36.9464800010873], [174.608916998159, -36.9464530019962], [174.609100002892, -36.9465219991476], [174.609282995938, -36.9465519946898], [174.609558003406, -36.9465289960125], [174.609786995407, -36.9465979996122], [174.610030996439, -36.9466629955348], [174.610291000856, -36.9466479952924], [174.610503995554, -36.9466900026617], [174.610855005863, -36.946732003022], [174.611114996477, -36.9467510001312], [174.611465002782, -36.946723995839], [174.611633000535, -36.9467010025268], [174.612045004906, -36.9467319951632], [174.612305003303, -36.9468270004971], [174.612517997427, -36.9468460017604], [174.612685995221, -36.9468879943704], [174.612868998439, -36.9468960002656], [174.612884995283, -36.946891997284], [174.612946002028, -36.9468959997672], [174.613037003372, -36.9468840013515], [174.613098006023, -36.9468500028528], [174.613159000801, -36.9468379973952], [174.613266003935, -36.9468839996531], [174.613402998805, -36.946949000351], [174.61357100111, -36.9468729957843], [174.613753994849, -36.9467889995512], [174.6138920023, -36.946762003057], [174.613875996147, -36.9467809957663], [174.6137540047, -36.946922002763], [174.613753995703, -36.9469449963477], [174.613814999558, -36.946976002896], [174.613891998037, -36.9469220019188], [174.614043995891, -36.9468799968661], [174.614227002887, -36.9468190022034], [174.614410001408, -36.946738997886], [174.614639004633, -36.9467699999751], [174.614684999072, -36.9467889968861], [174.614914000761, -36.9468879963668], [174.61495999498, -36.9468989981908], [174.615189004003, -36.9469680000791], [174.615371995126, -36.9469599942841], [174.615570001885, -36.9469259962454], [174.615860001276, -36.9469530022297], [174.616119002361, -36.9470250012357], [174.616333001676, -36.9470830014186], [174.616394005245, -36.9470979986455], [174.616424993979, -36.9470939983977], [174.616439996554, -36.9470859974647], [174.616439994727, -36.947079003009], [174.616485998465, -36.947083000614], [174.616530999962, -36.9471400022466], [174.616546995417, -36.9472809990549], [174.616500997867, -36.9473229973089], [174.616501003835, -36.9473269992241], [174.61650100366, -36.9473609981687], [174.616607997711, -36.9475940006921], [174.616561997992, -36.947806994198], [174.616348003967, -36.948158000189], [174.616318000201, -36.9481809964926], [174.616179996331, -36.9482380017287], [174.616135005668, -36.9482570017001], [174.615783994392, -36.9484439961666], [174.615478997015, -36.9486270014889], [174.615554997803, -36.9488069945838], [174.615661998421, -36.9489590024798], [174.61584499796, -36.9491839948661], [174.615921003492, -36.9493869991053], [174.615860003393, -36.9497639988594], [174.61587499626, -36.9498479989492], [174.616073998077, -36.9499239962618], [174.616134996806, -36.9499360011751], [174.616135004568, -36.9499469975421], [174.616149997671, -36.9499549957383], [174.616165002194, -36.9499630027906], [174.616302003773, -36.9499020001908], [174.616302000554, -36.9498789977774], [174.616348003143, -36.949699002813], [174.616364004315, -36.9496919978047], [174.616591999649, -36.9494819976973], [174.616928003426, -36.9494019971987], [174.617172002994, -36.9493599970174], [174.617325001187, -36.9491999963962], [174.617737001865, -36.9491000029642], [174.617783004065, -36.9490890016063], [174.618010997259, -36.9491000008771], [174.618423000091, -36.9489969945379], [174.61868299803, -36.9490089984057], [174.61881999641, -36.9490429952637], [174.618865997254, -36.9490589979523], [174.618927001888, -36.9491270022287], [174.619049001552, -36.9493140001793], [174.618941995926, -36.9494209984023], [174.61889600208, -36.9495469943208], [174.618667995355, -36.9499440020118], [174.618850996553, -36.9500809998132], [174.619141004979, -36.9501720023532], [174.619414999257, -36.9502979966826], [174.619674998762, -36.9503559941807], [174.619965005012, -36.9504240012807], [174.620148002257, -36.9504699968289], [174.620300002677, -36.9502789996285], [174.620438002066, -36.9502260006785], [174.62059000439, -36.9502179950899], [174.620742995862, -36.950298001606], [174.621016998938, -36.9504549985045], [174.621033006048, -36.9505229940837], [174.621162449043, -36.950505552182]]}, "properties": {"OBJECTID": 2832, "TRACKNAME": "Beveridge Track", "CONDITIONSOFUSE": "Waitakere Central Regional Park", "STATUS": "Open", "WEBLINK": "https://www.aucklandcouncil.govt.nz/en/parks-recreation/find-park-beach/park-detail/204.html", "VALIDATIONSTATE": 3, "created_user": "AC_owner", "last_edited_user": "AC_owner", "last_edited_date": 1789875254325, "created_date": 1789875254325, "PARK_SAPSITEID": null, "TRACK_ID": null, "KAURIDIEBACK_TRACK": null, "KAURIDIEBACK_MITIGATED": null, "SegmentID": null, "GlobalID": "b5a90be4-d323-4749-a581-00daa3061bd9", "Shape__Length": 1837.1523727022202}}]}