{"type": "FeatureCollection", "features": [{"type": "Feature", "id": 11825, "geometry": {"type": "LineString", "coordinates": [[174.66101185763, -36.9510898771539], [174.661011896389, -36.951089903652], [174.66101207151, -36.9510900553318], [174.66101185763, -36.9510898771539]]}, "properties": {"OBJECTID": 11825, "TRACKNAME": "Bill Haresnape Walk", "CONDITIONSOFUSE": null, "STATUS": "Open", "WEBLINK": null, "VALIDATIONSTATE": 3, "created_user": "AC_owner", "last_edited_user": "AC_owner", "last_edited_date": 1789875254325, "created_date": 1789875254325, "PARK_SAPSITEID": null, "TRACK_ID": null, "KAURIDIEBACK_TRACK": null, "KAURIDIEBACK_MITIGATED": null, "SegmentID": null, "GlobalID": "12f7bea4-8bf7-42b0-b2c3-1ebc2c282e7f", "Shape__Length": 0.054933497618048555}}, {"type": "Feature", "id": 11826, "geometry": {"type": "LineString", "coordinates": [[174.66101185763, -36.9510898771539], [174.661012229242, -36.9510901820173]]}, "properties": {"OBJECTID": 11826, "TRACKNAME": "Bill Haresnape Walk", "CONDITIONSOFUSE": null, "STATUS": "Open", "WEBLINK": null, "VALIDATIONSTATE": 3, "created_user": "AC_owner", "last_edited_user": "AC_owner", "last_edited_date": 1789875254325, "created_date": 1789875254325, "PARK_SAPSITEID": null, "TRACK_ID": null, "KAURIDIEBACK_TRACK": null, "KAURIDIEBACK_MITIGATED": null, "SegmentID": null, "GlobalID": "2ed2440a-171e-43de-a25e-b194061e0798", "Shape__Length": 0.04732451727461797}}, {"type": "Feature", "id": 11827, "geometry": {"type": "LineString", "coordinates": [[174.66101185763, -36.9510898771539], [174.661011998689, -36.9510902185926]]}, "properties": {"OBJECTID": 11827, "TRACKNAME": "Bill Haresnape Walk", "CONDITIONSOFUSE": null, "STATUS": "Open", "WEBLINK": null, "VALIDATIONSTATE": 3, "created_user": "AC_owner", "last_edited_user": "AC_owner", "last_edited_date": 1789875254325, "created_date": 1789875254325, "PARK_SAPSITEID": null, "TRACK_ID": null, "KAURIDIEBACK_TRACK": null, "KAURIDIEBACK_MITIGATED": null, "SegmentID": null, "GlobalID": "643add49-0832-474e-8285-5e085b3dbe00", "Shape__Length": 0.03991515966947321}}, {"type": "Feature", "id": 11829, "geometry": {"type": "LineString", "coordinates": [[174.66101185763, -36.9510898771539], [174.661011832956, -36.9510899820551]]}, "properties": {"OBJECTID": 11829, "TRACKNAME": "Bill Haresnape Walk", "CONDITIONSOFUSE": null, "STATUS": "Open", "WEBLINK": null, "VALIDATIONSTATE": 3, "created_user": "AC_owner", "last_edited_user": "AC_owner", "last_edited_date": 1789875254325, "created_date": 1789875254325, "PARK_SAPSITEID": null, "TRACK_ID": null, "KAURIDIEBACK_TRACK": null, "KAURIDIEBACK_MITIGATED": null, "SegmentID": null, "GlobalID": "0bb54899-2d76-4045-b754-e883b1d74443", "Shape__Length": 0.011845674288948118}}, {"type": "Feature", "id": 11830, "geometry": {"type": "LineString", "coordinates": [[174.66101185763, -36.9510898771539], [174.661011820143, -36.9510899092254], [174.661011800169, -36.951089920321], [174.66101185763, -36.9510898771539]]}, "properties": {"OBJECTID": 11830, "TRACKNAME": "Bill Haresnape Walk", "CONDITIONSOFUSE": null, "STATUS": "Open", "WEBLINK": null, "VALIDATIONSTATE": 3, "created_user": "AC_owner", "last_edited_user": "AC_owner", "last_edited_date": 1789875254325, "created_date": 1789875254325, "PARK_SAPSITEID": null, "TRACK_ID": null, "KAURIDIEBACK_TRACK": null, "KAURIDIEBACK_MITIGATED": null, "SegmentID": null, "GlobalID": "28686563-29b1-4a7b-8497-c16ed8996749", "Shape__Length": 0.014052159557162276}}, {"type": "Feature", "id": 11831, "geometry": {"type": "LineString", "coordinates": [[174.66101185763, -36.9510898771539], [174.661011794634, -36.9510899240038], [174.661011737205, -36.9510900203498], [174.661011716539, -36.9510900512847], [174.661011622785, -36.9510901814886], [174.66101185763, -36.9510898771539]]}, "properties": {"OBJECTID": 11831, "TRACKNAME": "Bill Haresnape Walk", "CONDITIONSOFUSE": null, "STATUS": "Open", "WEBLINK": null, "VALIDATIONSTATE": 3, "created_user": "AC_owner", "last_edited_user": "AC_owner", "last_edited_date": 1789875254325, "created_date": 1789875254325, "PARK_SAPSITEID": null, "TRACK_ID": null, "KAURIDIEBACK_TRACK": null, "KAURIDIEBACK_MITIGATED": null, "SegmentID": null, "GlobalID": "5650cec2-f0bd-4a9c-ad09-2ce4579770ef", "Shape__Length": 0.0798030358017896}}, {"type": "Feature", "id": 11832, "geometry": {"type": "LineString", "coordinates": [[174.66101185763, -36.9510898771539], [174.661011623898, -36.9510899741638]]}, "properties": {"OBJECTID": 11832, "TRACKNAME": "Bill Haresnape Walk", "CONDITIONSOFUSE": null, "STATUS": "Open", "WEBLINK": null, "VALIDATIONSTATE": 3, "created_user": "AC_owner", "last_edited_user": "AC_owner", "last_edited_date": 1789875254325, "created_date": 1789875254325, "PARK_SAPSITEID": null, "TRACK_ID": null, "KAURIDIEBACK_TRACK": null, "KAURIDIEBACK_MITIGATED": null, "SegmentID": null, "GlobalID": "120a37d8-6f70-472c-878f-eaa0e130c979", "Shape__Length": 0.023434162854639534}}, {"type": "Feature", "id": 11833, "geometry": {"type": "LineString", "coordinates": [[174.66101185763, -36.9510898771539], [174.661011246569, -36.9510901299674]]}, "properties": {"OBJECTID": 11833, "TRACKNAME": "Bill Haresnape Walk", "CONDITIONSOFUSE": null, "STATUS": "Open", "WEBLINK": null, "VALIDATIONSTATE": 3, "created_user": "AC_owner", "last_edited_user": "AC_owner", "last_edited_date": 1789875254325, "created_date": 1789875254325, "PARK_SAPSITEID": null, "TRACK_ID": null, "KAURIDIEBACK_TRACK": null, "KAURIDIEBACK_MITIGATED": null, "SegmentID": null, "GlobalID": "49b471dd-d60f-488c-9db4-e8ddd4a3e492", "Shape__Length": 0.061224341272107914}}, {"type": "Feature", "id": 11834, "geometry": {"type": "LineString", "coordinates": [[174.66101185763, -36.9510898771539], [174.661011498964, -36.9510899614902]]}, "properties": {"OBJECTID": 11834, "TRACKNAME": "Bill Haresnape Walk", "CONDITIONSOFUSE": null, "STATUS": "Open", "WEBLINK": null, "VALIDATIONSTATE": 3, "created_user": "AC_owner", "last_edited_user": "AC_owner", "last_edited_date": 1789875254325, "created_date": 1789875254325, "PARK_SAPSITEID": null, "TRACK_ID": null, "KAURIDIEBACK_TRACK": null, "KAURIDIEBACK_MITIGATED": null, "SegmentID": null, "GlobalID": "e679d1d6-bbc2-40ee-b65b-0de634e8fce4", "Shape__Length": 0.033284381112509205}}, {"type": "Feature", "id": 11835, "geometry": {"type": "LineString", "coordinates": [[174.66101185763, -36.9510898771539], [174.661011316589, -36.9510899928847]]}, "properties": {"OBJECTID": 11835, "TRACKNAME": "Bill Haresnape Walk", "CONDITIONSOFUSE": null, "STATUS": "Open", "WEBLINK": null, "VALIDATIONSTATE": 3, "created_user": "AC_owner", "last_edited_user": "AC_owner", "last_edited_date": 1789875254325, "created_date": 1789875254325, "PARK_SAPSITEID": null, "TRACK_ID": null, "KAURIDIEBACK_TRACK": null, "KAURIDIEBACK_MITIGATED": null, "SegmentID": null, "GlobalID": "96517bac-6325-4f2c-9292-4f461b2f5103", "Shape__Length": 0.04986541864976755}}, {"type": "Feature", "id": 11836, "geometry": {"type": "LineString", "coordinates": [[174.66101185763, -36.9510898771539], [174.66101078869, -36.9510899380776]]}, "properties": {"OBJECTID": 11836, "TRACKNAME": "Bill Haresnape Walk", "CONDITIONSOFUSE": null, "STATUS": "Open", "WEBLINK": null, "VALIDATIONSTATE": 3, "created_user": "AC_owner", "last_edited_user": "AC_owner", "last_edited_date": 1789875254325, "created_date": 1789875254325, "PARK_SAPSITEID": null, "TRACK_ID": null, "KAURIDIEBACK_TRACK": null, "KAURIDIEBACK_MITIGATED": null, "SegmentID": null, "GlobalID": "037abb33-bc46-4e39-8ed5-323a50424659", "Shape__Length": 0.09543636637991357}}, {"type": "Feature", "id": 12429, "geometry": {"type": "LineString", "coordinates": [[174.661104715054, -36.9507809193913], [174.661161184615, -36.9507803338982], [174.661193905731, -36.9507798760659], [174.661258790939, -36.9507575053549], [174.661327690735, -36.9507148062945], [174.661365115918, -36.9506594321766], [174.661386823925, -36.9506328956752], [174.661401495961, -36.9506243439088], [174.661437038043, -36.9506190766193], [174.661520651157, -36.9506381768324], [174.661557833967, -36.950640041417], [174.661585846932, -36.9506301104405], [174.661607684339, -36.9506095335802], [174.661592763545, -36.9505381981917], [174.661619135734, -36.9505211352991], [174.661718222585, -36.9505686373939], [174.661758660939, -36.9505835727131], [174.661788185088, -36.9505748130161], [174.661793840338, -36.9505616165942], [174.661794402091, -36.9504507154294], [174.66181345119, -36.9504385249105], [174.66190349768, -36.950480190998], [174.661939480038, -36.950495188631], [174.661975047923, -36.9504911132986], [174.662011842078, -36.9504750969045], [174.662037877369, -36.9504425373157], [174.662048852142, -36.9504006496305], [174.662108037235, -36.950321121988], [174.66215204952, -36.9502954655715], [174.662287525447, -36.9502399108865], [174.662315409147, -36.950223475646], [174.662340847542, -36.9502235530151]]}, "properties": {"OBJECTID": 12429, "TRACKNAME": "Bill Haresnape Walk", "CONDITIONSOFUSE": "BILL HARESNAPE WALK", "STATUS": "Open", "WEBLINK": null, "VALIDATIONSTATE": 3, "created_user": "AC_owner", "last_edited_user": "AC_owner", "last_edited_date": 1789875254325, "created_date": 1789875254325, "PARK_SAPSITEID": null, "TRACK_ID": null, "KAURIDIEBACK_TRACK": null, "KAURIDIEBACK_MITIGATED": null, "SegmentID": null, "GlobalID": "deff967b-5a99-48a0-85df-8989ae53f913", "Shape__Length": 161.08806287093262}}]}