{"type": "FeatureCollection", "features": [{"type": "Feature", "id": 11984, "geometry": {"type": "LineString", "coordinates": [[175.022684788833, -36.7932895471039], [175.023419243236, -36.7936981062304], [175.023951526974, -36.7930553973548], [175.024035608915, -36.7930323353735], [175.024154436582, -36.7930540900108], [175.024344086333, -36.7931385256622], [175.02457892817, -36.793144613577], [175.025325469522, -36.7929905558706], [175.025654103284, -36.793183102166], [175.026150416752, -36.7938800386637], [175.026202786381, -36.794122202537], [175.026204080891, -36.7944207180674], [175.026216881694, -36.7945948662313], [175.026471711079, -36.7951651410821], [175.026595422003, -36.7953096589989], [175.026842409252, -36.7953952745092], [175.027111623029, -36.7953893634313], [175.027638075724, -36.7952971662684], [175.027849819483, -36.795790235273], [175.027992965526, -36.7957996828883], [175.028036623976, -36.7957854112759], [175.028560552186, -36.795818205697], [175.028967504164, -36.7958229470539], [175.029072342788, -36.7958236617252], [175.029380119457, -36.7959636381171], [175.02990189548, -36.7958362099191], [175.030034745823, -36.795797216744], [175.030198252676, -36.7957401721091], [175.030276343532, -36.7957104607797], [175.030675068454, -36.7960325051006], [175.031031597929, -36.7963285602612], [175.030737351775, -36.7965439195171], [175.031216464948, -36.7969533329101], [175.031850056627, -36.7964387495047], [175.032075244039, -36.7962596848268], [175.03216403679, -36.796325535759], [175.032259920902, -36.7964110798575], [175.032342320816, -36.7965457298381], [175.032414626532, -36.7966092215575]]}, "properties": {"OBJECTID": 11984, "TRACKNAME": "Blake St to Wilma", "CONDITIONSOFUSE": null, "STATUS": "Open", "WEBLINK": null, "VALIDATIONSTATE": 3, "created_user": "AC_owner", "last_edited_user": "AC_owner", "last_edited_date": 1789875254325, "created_date": 1789875254325, "PARK_SAPSITEID": null, "TRACK_ID": null, "KAURIDIEBACK_TRACK": null, "KAURIDIEBACK_MITIGATED": null, "SegmentID": null, "GlobalID": "fe08027a-a164-4ff6-95a4-e94f69be52fb", "Shape__Length": 1317.7742179636623}}]}