{"type": "FeatureCollection", "features": [{"type": "Feature", "id": 12782, "geometry": {"type": "LineString", "coordinates": [[174.265221140481, -36.4832806614881], [174.265062179946, -36.4832601757636], [174.264795948117, -36.4832088037138], [174.264750117369, -36.4832043630954], [174.264733357151, -36.4832091715443], [174.264691709279, -36.4832293206651], [174.264497121367, -36.4833291307917], [174.264414775202, -36.4833678412429], [174.264358397388, -36.4833826285368], [174.264320371721, -36.4833853960213], [174.264265587363, -36.4833780942226], [174.264213653732, -36.4833660313481], [174.264175487199, -36.4833601291685], [174.264126533526, -36.4833511888773], [174.264088533476, -36.4833555326638], [174.264040875417, -36.483366285352], [174.263998149348, -36.4833801390655], [174.263965182601, -36.4833938893737], [174.263908919907, -36.4834157696995], [174.263876993744, -36.4834334501281], [174.263856855827, -36.4834557356171], [174.263837758512, -36.4834819512477], [174.263813716384, -36.4835042780866], [174.263795248871, -36.4835092036497], [174.263768922885, -36.4835110591552], [174.263746461554, -36.4835105082978], [174.263724026959, -36.4835115347019], [174.263702617929, -36.4835157026328], [174.263680298542, -36.4835238222717], [174.263639446488, -36.483532926066], [174.263605260907, -36.4835317114835], [174.263565786521, -36.4835221973024], [174.263539378964, -36.4835118821543], [174.263480473714, -36.4835009024245], [174.263434160606, -36.4834958426016], [174.263409790876, -36.4834955967501], [174.263374242862, -36.4834995041816], [174.263341240179, -36.4835037641639], [174.263253540063, -36.483513363882], [174.26317843841, -36.483517312335], [174.263144201653, -36.4835129448668], [174.263092306486, -36.4835032465185], [174.263005982673, -36.483477358264], [174.26295107041, -36.4834621739765], [174.262912673634, -36.4834420849018], [174.262892821195, -36.4834217995235], [174.262851922265, -36.4833678403403], [174.262826034486, -36.4833365822981], [174.262795151934, -36.4832982826516], [174.262770175747, -36.4832630746809], [174.262756012231, -36.4832324804056], [174.262750416227, -36.4831883952977], [174.262749751055, -36.4831474112979], [174.262771585467, -36.4831093424604], [174.26282347079, -36.4830583423689], [174.262893836304, -36.4830032054749], [174.262940172295, -36.4829711838464], [174.26302137587, -36.4829222378422], [174.26309000656, -36.4828805202541], [174.263141299911, -36.4828531751084], [174.26318771249, -36.4828258825172], [174.263207812047, -36.4828012321224], [174.263222157754, -36.4827829501372], [174.263224790988, -36.4827647912581], [174.263216675575, -36.4827459583094], [174.263196874429, -36.4827288257312], [174.263175917546, -36.4827006688509], [174.263156490499, -36.4826464824326], [174.263151068903, -36.4826121195085], [174.263153987138, -36.4825455746258], [174.263160261354, -36.482488680365], [174.263175313636, -36.4824307250032], [174.263197432057, -36.4823610813592], [174.263248946889, -36.482245987822], [174.263284367515, -36.4821729418472], [174.263339752221, -36.4821083069053], [174.263410626057, -36.4820582882069], [174.263478630599, -36.4820193850664], [174.263566599195, -36.4819888919923], [174.263671352653, -36.4819512753552], [174.263779946359, -36.4819059808078], [174.263851784918, -36.4818815710331], [174.263950823007, -36.4818489898346], [174.264031254183, -36.4818126645158], [174.26406224261, -36.4817973594051], [174.26409632499, -36.4817922683654], [174.264119671645, -36.481787291063], [174.264224757737, -36.4817664699674], [174.264280261421, -36.4817579994987], [174.264368870834, -36.481744447335], [174.26439657265, -36.4817271396747], [174.264485274722, -36.4816987547751], [174.264569677887, -36.4816765497869], [174.264617881463, -36.4816657063752], [174.26466016697, -36.4816597692009], [174.264699190782, -36.4816499921245], [174.264758046369, -36.4816303177568], [174.264803325904, -36.4816117563447], [174.26485529522, -36.4815866659595], [174.264905989382, -36.4815691775334], [174.264947059756, -36.4815591560196], [174.264996413713, -36.4815591375721], [174.265060281609, -36.4815680455873], [174.265136723956, -36.481581865687], [174.265216321968, -36.4815976706354], [174.265292665933, -36.4816054374948], [174.265363167797, -36.4815996452536], [174.265404204188, -36.4815876055816], [174.265446383962, -36.4815689965729], [174.265488406716, -36.4815408031246], [174.265531687656, -36.4815131002303], [174.265589450869, -36.4814923075162], [174.265632410327, -36.4814832753605], [174.265695991036, -36.4814745283487], [174.265768908488, -36.4814636647906], [174.265826135737, -36.4814484270157], [174.265891519342, -36.4814307011948], [174.265945577496, -36.4814110771449], [174.265988847193, -36.4813918911679], [174.266032795161, -36.4813652708769], [174.266065933663, -36.4813377971094], [174.266089572805, -36.4813162358277], [174.26610985564, -36.481285024006], [174.266129654849, -36.4812486510651], [174.266145541374, -36.4812174849891], [174.266159932506, -36.4811927937172], [174.266180694748, -36.481166419421], [174.266204396845, -36.4811487319092], [174.266236103964, -36.4811316057817], [174.266262761682, -36.4811235739441], [174.266291791575, -36.4811139015138], [174.266336080796, -36.481108265204], [174.266380454079, -36.4811077942335], [174.266414034825, -36.4811074378022], [174.266489242261, -36.4811098685222], [174.266540395623, -36.4811083573576], [174.266607907135, -36.4811047343836], [174.266671810996, -36.481100504229], [174.266735746381, -36.4810982109358], [174.266809680431, -36.4810961341683], [174.266867655891, -36.4810961649377], [174.266994454114, -36.4810993384175], [174.26705960919, -36.481098323786], [174.267119120897, -36.4810944627568], [174.26715942275, -36.4810895148327], [174.267232010884, -36.4810784113901], [174.267290970529, -36.4810651927097], [174.267359040314, -36.4810467109832], [174.267423827234, -36.4810230978438], [174.267470309682, -36.4810048453692], [174.267525092621, -36.4809806930056], [174.267567109294, -36.4809582907545], [174.267597554231, -36.4809373023155], [174.267629130573, -36.4809121046666], [174.267655088723, -36.4808856758153], [174.267674234141, -36.4808583502769], [174.267692518421, -36.4808271585233], [174.267706555577, -36.480799342775], [174.267712783571, -36.4807622267376], [174.267716122603, -36.4807275059159], [174.267711319705, -36.4806723769883], [174.267707300769, -36.4806054153244], [174.267710293104, -36.4805494147958], [174.267722184512, -36.480500414176], [174.267742949296, -36.4804568370881], [174.267767951972, -36.4804337113851], [174.267797950795, -36.4804176270523], [174.267827010446, -36.4804039172124], [174.267869863704, -36.480397943126], [174.267948954846, -36.4803994680659], [174.268102489962, -36.4804167552052], [174.268117180883, -36.4804197523587], [174.268142594465, -36.4804218467683], [174.268159134635, -36.4804185176715], [174.268175584888, -36.4804096717124], [174.268187117133, -36.4803985135046], [174.26819858402, -36.4803834139209], [174.268205044086, -36.4803604843172], [174.268205659852, -36.4803384056081], [174.268199534072, -36.4803219172734], [174.268179475566, -36.4802890217802], [174.268138626117, -36.4802382171701], [174.268086617378, -36.4801615178159], [174.268026582363, -36.4800715017828], [174.267931130541, -36.4799046099622], [174.26785210304, -36.4797872065817], [174.26778435163, -36.4797027911298], [174.267738572324, -36.4796537722569], [174.267715741861, -36.4796328260937], [174.267692498945, -36.4796250005036], [174.267668032944, -36.479618702351], [174.267643031208, -36.4796179583513], [174.267619353435, -36.4796217418194], [174.267591994769, -36.4796296002104], [174.267503118842, -36.4796577873197], [174.2674010929, -36.4796840965887], [174.267327601663, -36.4796979943174], [174.26723464102, -36.4797055406897], [174.267155291018, -36.4797048698953], [174.267083871465, -36.4796925112773], [174.267014827598, -36.4796725596589], [174.266976323866, -36.4796482478809], [174.266953476054, -36.4796262921226], [174.26692605131, -36.479591771776], [174.266911192601, -36.479561659533], [174.266898609908, -36.4795179012067], [174.266888945762, -36.4794614987055], [174.266882709086, -36.479385384613], [174.26688671282, -36.4792859537796], [174.266891726424, -36.4792102250447], [174.266908994133, -36.4791580772124], [174.266946833187, -36.4791031886653], [174.267006549903, -36.4790490774202], [174.267091775809, -36.4789886401615], [174.267179583689, -36.4789332208748], [174.267243210988, -36.4788891579868], [174.267327664786, -36.4788196474851], [174.267413795117, -36.4787380116481], [174.26751572122, -36.4786289650196], [174.267601038274, -36.4785357332336], [174.267666736544, -36.4784654139217], [174.267770568641, -36.4783583642872], [174.26784775656, -36.4782647147863], [174.267906271702, -36.4781752994855], [174.267942178231, -36.4781169001537], [174.267977336421, -36.4780509401313], [174.268017433531, -36.4779813966039], [174.268050439133, -36.4779366490825], [174.268098360232, -36.4778872032932], [174.268182154334, -36.4778156817423], [174.26828327324, -36.47773388507], [174.268345608991, -36.4776873130519], [174.268412045949, -36.4776240474935], [174.268501872134, -36.4775393444952], [174.268645388036, -36.4774142144654], [174.268727948734, -36.4773437143793], [174.2687723857, -36.4773104495615], [174.268832953903, -36.4772704532844], [174.268899201069, -36.4772339293926], [174.268956795674, -36.4772030459536], [174.268993218058, -36.4771764243899], [174.26901528427, -36.4771504603192], [174.269032435152, -36.4771295930761], [174.269116580869, -36.4770030755571], [174.26920601044, -36.4768558178433], [174.269300944763, -36.4767014376857], [174.269384390232, -36.476532044216], [174.269420087749, -36.4764226918072], [174.26944168275, -36.4762912901456], [174.269439495567, -36.4761954569824], [174.269414400107, -36.4759591104272], [174.269393736703, -36.4758029328655], [174.269369704319, -36.4756699991498], [174.269347653048, -36.4755819450286], [174.269323457977, -36.4755156072737], [174.269288604176, -36.4754468606213], [174.269241685445, -36.4753661339241], [174.269162852056, -36.4752195968465], [174.269122081827, -36.4751373794934], [174.269090575007, -36.4751049971177], [174.269081172481, -36.4750999479994], [174.269071755449, -36.4750970210651], [174.269024878582, -36.4750955021724], [174.2689450317, -36.4751024046433], [174.268869573751, -36.4751102709217], [174.268794032414, -36.4751130916814], [174.268717283394, -36.4751184484135], [174.268654390755, -36.4751307206881], [174.268613924556, -36.4751392234842], [174.268561739925, -36.4751569312324], [174.268531896508, -36.4751416722327], [174.268515948575, -36.4751213462474], [174.268517553594, -36.4751000448761], [174.268523139452, -36.4750834311296], [174.268518901687, -36.4750629806496], [174.2685334246, -36.4750557317829], [174.268638127782, -36.4750120508828], [174.268742792304, -36.4749660057801], [174.26881642055, -36.4749321141358], [174.268878287216, -36.4748951951266], [174.268936172971, -36.4748535884753], [174.268996793145, -36.4748001282998], [174.26906192076, -36.4747237591971], [174.269121101566, -36.4746419354909], [174.269177304727, -36.4745569910317], [174.26920099444, -36.4745133825581], [174.269211087594, -36.47447386078], [174.269211471712, -36.4744375946725], [174.269198361021, -36.4744117207765], [174.269167556175, -36.474378151842], [174.26914383825, -36.4743602740085], [174.269092719401, -36.4743379567613], [174.269035822115, -36.4743204308953], [174.268972183871, -36.4743084954139], [174.268901804643, -36.4743021494053], [174.26883928313, -36.4742988721939], [174.268770020625, -36.4743011853507], [174.268681292032, -36.4743068587409], [174.268607278896, -36.4743171055594], [174.268535280711, -36.4743312720823], [174.268451700896, -36.4743534440259], [174.268380858968, -36.4743786347073], [174.268301234157, -36.4744039178023], [174.268236183494, -36.4744251047676], [174.268186619266, -36.4744382438573], [174.268150574582, -36.4744425690228], [174.268108625151, -36.4744438027322], [174.268069550485, -36.4744418534789], [174.268029294979, -36.4744273035693], [174.267995870449, -36.4744126810547], [174.267965207356, -36.4743877814178], [174.267946318545, -36.4743666987288], [174.267935198659, -36.4743431680576], [174.267930858369, -36.4743164120455], [174.267932155377, -36.4742761950633], [174.267937882084, -36.4742083419036], [174.26793819087, -36.4741673466465], [174.267952523686, -36.473850747601], [174.267967539422, -36.4737485872161], [174.267985627413, -36.4736887347399], [174.268010770256, -36.473623032553], [174.268066320424, -36.4735223660055], [174.268168297522, -36.4733461488488], [174.268219208638, -36.4732532299814], [174.268254036084, -36.4731970478678], [174.268315040677, -36.4731386637906], [174.268420874283, -36.4730528585813], [174.268576143913, -36.4729299618856], [174.268745676072, -36.4728049887264], [174.26881385909, -36.4727484517792], [174.268856053219, -36.4727056634412], [174.268905082456, -36.4726435571843], [174.268960850386, -36.4725563592877], [174.269016555461, -36.4724653137109], [174.269051665462, -36.4724264489672], [174.269112574729, -36.4723622916634], [174.269187746795, -36.4722960571089], [174.269208343427, -36.4722706134427], [174.269223598026, -36.4722483789928], [174.269232007874, -36.4722254285728], [174.269237516288, -36.4722040865655], [174.269239993594, -36.4721764693008], [174.269235717272, -36.4721536547237], [174.269226484883, -36.4721261629152], [174.269202138998, -36.4720696643002], [174.269131527764, -36.471929311079], [174.269085122226, -36.4718367859267], [174.269067812883, -36.4717928256378], [174.269048436114, -36.4717417928615], [174.269032000479, -36.4716915175774], [174.269011314314, -36.4716200022749], [174.268990717031, -36.4715540047468], [174.268962275205, -36.471485726114], [174.268933961911, -36.4714253284532], [174.268903876764, -36.4713759861744], [174.268873073284, -36.4713424171212], [174.268826552771, -36.4713027085877], [174.268691011827, -36.4711906355009], [174.268545595665, -36.4710715727655], [174.268473280759, -36.4710061249378], [174.268427646095, -36.4709608899037], [174.268403789227, -36.4709343413545], [174.268385813385, -36.4709093069369], [174.268366822588, -36.4708819187808], [174.268351709663, -36.4708529127522], [174.268279997365, -36.47070468743], [174.268219417576, -36.4705807804629], [174.268209210422, -36.470553298924], [174.268200003168, -36.470527383407], [174.268191709261, -36.4704975161063], [174.268178855845, -36.4704274949409], [174.268161021438, -36.4702913101117], [174.268148026831, -36.4702126184144], [174.268135610081, -36.47016939475], [174.268112575911, -36.4701333774922], [174.268085855429, -36.4701108013812], [174.268046488749, -36.4700907241771], [174.267995475756, -36.4700747118923], [174.267928887281, -36.4700612305137], [174.267831958458, -36.4700425527395], [174.267665629734, -36.4700175177038], [174.267537538285, -36.4700031128189], [174.267427063981, -36.4699916739766], [174.267346904341, -36.4699838542426], [174.267293258487, -36.4699859997448], [174.267275706675, -36.4699869749269], [174.267267039829, -36.4699941614466], [174.267253544369, -36.4700045525465], [174.267213676255, -36.4700136470686], [174.267029539054, -36.4700337334463], [174.266868923175, -36.47005987552], [174.266731702603, -36.4700841932736], [174.266657756179, -36.4700983793228], [174.266621727318, -36.4701034908171], [174.266579804732, -36.470106301236], [174.266514346765, -36.470102266067], [174.266426239013, -36.4700858589481], [174.266277284059, -36.4700488131537], [174.266121369359, -36.4700039586679], [174.265939865247, -36.4699459734784], [174.265741682383, -36.4698826480043], [174.265582713092, -36.4698299419554], [174.265390309166, -36.4697618246471], [174.265249020246, -36.4697160251341], [174.265205776601, -36.4696975647419], [174.265192937079, -36.4696882409726], [174.265188854251, -36.469677248608], [174.265186620669, -36.4696599291317], [174.265197447233, -36.4696054221423], [174.265229820417, -36.4694955066199], [174.265241968122, -36.4694622690511], [174.26527975803, -36.4693854039436], [174.265315853481, -36.4693243232997], [174.265340571549, -36.4692838579487], [174.265350805885, -36.4692530060846], [174.265357163485, -36.4692237719798], [174.265362364168, -36.4691835135867], [174.265365806407, -36.4691550982707], [174.265378005269, -36.4691250143479], [174.265421574316, -36.4690433579578], [174.265482616904, -36.4689559984162], [174.265540925645, -36.4688804922686], [174.265605126765, -36.4688072881231], [174.265621344239, -36.4687842551299], [174.265625953902, -36.4687676527562], [174.265628483678, -36.4687431882862], [174.265616788719, -36.4686841910715], [174.265602358953, -36.4686370463905], [174.265585540702, -36.4685631248745], [174.265561034656, -36.4684364693351], [174.265541290984, -36.468302668801], [174.265509144853, -36.4681863429539], [174.265463567486, -36.4680843475894], [174.265433460243, -36.468033427961], [174.265362719813, -36.4678844025644], [174.265289000315, -36.4677322554056], [174.265230123201, -36.4675925631331], [174.265239649983, -36.4675782731616], [174.265237493341, -36.4675656837196], [174.265213843562, -36.4675517446121]]}, "properties": {"OBJECTID": 12782, "TRACKNAME": "Blue track\r\n", "CONDITIONSOFUSE": "Te Rau Puriri Regional Park", "STATUS": "Open", "WEBLINK": null, "VALIDATIONSTATE": 3, "created_user": "AC_owner", "last_edited_user": "AC_owner", "last_edited_date": 1789875254325, "created_date": 1789875254325, "PARK_SAPSITEID": null, "TRACK_ID": null, "KAURIDIEBACK_TRACK": null, "KAURIDIEBACK_MITIGATED": null, "SegmentID": null, "GlobalID": "91919196-6616-41b3-a564-7f245c6a421d", "Shape__Length": 3024.1416680690336}}]}