{"type": "FeatureCollection", "features": [{"type": "Feature", "id": 12183, "geometry": {"type": "LineString", "coordinates": [[174.530579985777, -37.0028043203045], [174.530428202171, -37.0028127550436], [174.530381748483, -37.0028264751344], [174.530349397635, -37.002846190309], [174.530184869312, -37.0030129837769], [174.530010320798, -37.0031724628391], [174.529872687548, -37.0032740855977], [174.529725359811, -37.0034045935446], [174.529679412012, -37.0034536209557], [174.529575103762, -37.0036022240628], [174.529211508193, -37.0039438124941], [174.529155380057, -37.0039845982257], [174.529065796888, -37.0040114537599], [174.529008599863, -37.004057570278], [174.528947172601, -37.0041379115689], [174.528850493183, -37.0042950543202], [174.528788062469, -37.0044149796599], [174.52864183522, -37.0046449715627], [174.528001117805, -37.0051899360192], [174.52791215899, -37.0053010159006], [174.527835621877, -37.0054291011514], [174.527547193675, -37.0056337250803], [174.527330352956, -37.0058939805259], [174.527194661492, -37.0060109505038], [174.52705334341, -37.0061887529434], [174.52700534949, -37.0062736984399], [174.526989332376, -37.0063620839177], [174.526999279879, -37.0063839381075], [174.527031993404, -37.0064168365496], [174.52716775162, -37.0064967709614], [174.527201093118, -37.006536445757], [174.527386761571, -37.006997507376], [174.527399903396, -37.0070692328264], [174.527405532213, -37.0072313281715], [174.527427749542, -37.007310016923], [174.527474622829, -37.0073986961594], [174.52768860405, -37.0076919854069], [174.527753167713, -37.0078096730464], [174.527849661345, -37.0079030907252], [174.527927114169, -37.0079486284778], [174.528117440588, -37.0080002182152], [174.528285583988, -37.0080222477617], [174.528352250202, -37.0080405221358], [174.52867260725, -37.0081930496982], [174.528779433508, -37.0082571251581], [174.52884850568, -37.0083291717862], [174.528965203267, -37.0085696119149], [174.52910537621, -37.0087970619657], [174.529158918418, -37.008863026097], [174.529213293778, -37.0089053315842], [174.529292737211, -37.0089369312936], [174.529418452002, -37.0089662661611], [174.529484381122, -37.0089705315539], [174.529597996184, -37.0089646630393], [174.529636950555, -37.0089715844271], [174.529840663383, -37.0090701133757], [174.529971761177, -37.0091464351484], [174.530330314704, -37.0092419003671], [174.530362956505, -37.0092379632139], [174.530383025435, -37.0092158330712], [174.530450269239, -37.009012590591], [174.530469013462, -37.0089897555364], [174.53051775721, -37.0089614237736], [174.530563490009, -37.00894609678], [174.530604983097, -37.0089475679761], [174.530712298851, -37.0089681117531], [174.530773129397, -37.0089842291826], [174.530800926461, -37.0090042483544], [174.530817859433, -37.0090390447341], [174.530868209564, -37.0092227505237], [174.530899918996, -37.0092548099333], [174.530950783734, -37.0092665445751], [174.53099231554, -37.0092606366657], [174.531038583514, -37.0092413934196], [174.531117286205, -37.0091710891731], [174.531184289308, -37.009127141758], [174.531453816543, -37.0090227904675], [174.531676448196, -37.0089833184272], [174.531782858343, -37.0090046994613], [174.531861630099, -37.0089996436132], [174.531930674509, -37.0089835103908], [174.532259108058, -37.0088925948721], [174.532471753142, -37.0088180407879], [174.532561585265, -37.0088072280141], [174.532727800774, -37.0088063700704], [174.533086890596, -37.0087206518779], [174.533130915777, -37.0086894497193], [174.533200061748, -37.008587544502], [174.533231200044, -37.0085589722109], [174.53329239634, -37.008533539408], [174.533418428907, -37.008511245496], [174.533457053982, -37.0084969069912], [174.53366613699, -37.0083633862059], [174.533796935587, -37.0082546861876], [174.533965569826, -37.0081714152959], [174.53402476249, -37.0081530701129], [174.53419034228, -37.008146099975], [174.534469847501, -37.0081079767161], [174.534647228152, -37.0080244890048], [174.534791552003, -37.0079122653596], [174.534893778203, -37.0078532232308], [174.535294007792, -37.0077477097774], [174.535439000298, -37.007689354107], [174.535466956255, -37.0076686894137], [174.535485385518, -37.007642189153], [174.535498254004, -37.0075693367205], [174.535417592512, -37.0072994773567], [174.535292530403, -37.0070029246999], [174.53528635796, -37.0068388836927], [174.535310022207, -37.0067737234396], [174.535363118054, -37.0066947314978], [174.53539990021, -37.0066642117083], [174.535535812816, -37.006597579126], [174.535652519718, -37.006570018871], [174.535713135683, -37.0065737303496], [174.535782653531, -37.0065911064544], [174.535925935427, -37.0066533957645], [174.535998539673, -37.0066968006919]]}, "properties": {"OBJECTID": 12183, "TRACKNAME": "Bob Gordon Track", "CONDITIONSOFUSE": "Waitakere South Regional Park", "STATUS": "Temp Closed", "WEBLINK": "https://www.aucklandcouncil.govt.nz/en/parks-recreation/find-park-beach/park-detail/212.html", "VALIDATIONSTATE": 3, "created_user": "AC_owner", "last_edited_user": "AC_owner", "last_edited_date": 1789875254325, "created_date": 1789875254325, "PARK_SAPSITEID": null, "TRACK_ID": null, "KAURIDIEBACK_TRACK": null, "KAURIDIEBACK_MITIGATED": null, "SegmentID": null, "GlobalID": "30eb8706-2414-486b-ac7c-59932736df7a", "Shape__Length": 1726.2668674050208}}]}