{"type": "FeatureCollection", "features": [{"type": "Feature", "id": 2318, "geometry": {"type": "LineString", "coordinates": [[174.517496832972, -36.9307409745372], [174.517491929779, -36.9307465210965], [174.517370072436, -36.9308845448268], [174.517296158443, -36.930933153414], [174.517231843195, -36.9309567977047], [174.517156853626, -36.9309641825079], [174.516842396532, -36.9309669105668], [174.516675055074, -36.9309389783871], [174.516434710794, -36.9309795986091], [174.516363523463, -36.9309992560168], [174.516096880049, -36.9311632657096], [174.515832874689, -36.9313511182933], [174.515789245287, -36.9313897578672], [174.515735232764, -36.9314835222274], [174.515682040073, -36.9315160734221], [174.515607678426, -36.9315251528179], [174.515313275895, -36.931520716439], [174.515239722688, -36.9315275318764], [174.515105271645, -36.9315576944307], [174.514657727018, -36.9316982027442], [174.514621532781, -36.9317279226968], [174.514436157193, -36.9319535550367], [174.514292122208, -36.9321077134931], [174.514026856619, -36.9323048982915], [174.51390720258, -36.9323651657243], [174.513878302412, -36.9323896006017], [174.513825840632, -36.9324710947887], [174.513810792678, -36.9325992534042], [174.513754727904, -36.9326745740711]]}, "properties": {"OBJECTID": 2318, "TRACKNAME": "Browne Track", "CONDITIONSOFUSE": "Waitakere West Regional Park", "STATUS": "Temp Closed", "WEBLINK": "https://www.aucklandcouncil.govt.nz/en/parks-recreation/find-park-beach/park-detail/3451.html", "VALIDATIONSTATE": 3, "created_user": "AC_owner", "last_edited_user": "AC_owner", "last_edited_date": 1789875254325, "created_date": 1789875254325, "PARK_SAPSITEID": null, "TRACK_ID": null, "KAURIDIEBACK_TRACK": null, "KAURIDIEBACK_MITIGATED": null, "SegmentID": null, "GlobalID": "9cad6b65-5916-4215-83de-576014946d52", "Shape__Length": 430.9117303500969}}]}