{"type": "FeatureCollection", "features": [{"type": "Feature", "id": 202, "geometry": {"type": "LineString", "coordinates": [[174.491796540706, -37.0076843888383], [174.492089462882, -37.0077327349723], [174.492220729608, -37.0077929868127], [174.492398195533, -37.0078086189876], [174.492484382186, -37.0078025775442], [174.492663977769, -37.0077336650158], [174.492877474355, -37.007756967167], [174.492952519266, -37.007748953677], [174.493066459859, -37.0077206380231], [174.493187574573, -37.0076415559086], [174.493481187678, -37.0075014081081], [174.493627777771, -37.0074432661184], [174.49378481594, -37.0073987029614], [174.493880461754, -37.007378931848], [174.49419523994, -37.0073643875945], [174.494480735819, -37.0073197048851], [174.494934745256, -37.0072716908441], [174.495234559845, -37.0072126052354], [174.495315481555, -37.0071869036988], [174.49545229869, -37.0070979705993], [174.495680335928, -37.0070617770115], [174.49571930493, -37.0070340288052], [174.495843667548, -37.0069110944371], [174.495882747775, -37.0068845552975], [174.495953118618, -37.0068793083179], [174.496117612012, -37.0069064528689], [174.496172636529, -37.0068960677212], [174.496205806825, -37.0068722610916], [174.496209303552, -37.0068424064392], [174.496193272051, -37.0067311657601], [174.496197825598, -37.0066284600639], [174.496219343479, -37.0065720982356], [174.496290921115, -37.0064720888499], [174.496302196431, -37.0064401242818], [174.496270423579, -37.0062749258902], [174.496273245264, -37.0062239970154], [174.496401984588, -37.0060396794806], [174.496548364552, -37.0059230439322], [174.496586067258, -37.0058818298244], [174.496599162749, -37.0057555612736], [174.496621722284, -37.0056547385356], [174.496697385985, -37.0054771192381], [174.496740788781, -37.0053399108146], [174.496736416625, -37.0052814354659], [174.49665180943, -37.0051275341399], [174.49655961869, -37.0048928072848], [174.496572552623, -37.0048354557877], [174.496677474907, -37.0046266320722], [174.496684303323, -37.0045858722256], [174.496655171816, -37.0044921019432], [174.496627996212, -37.0044352040236], [174.496501999942, -37.0043209776877], [174.496403883689, -37.004191971627], [174.496327176589, -37.0040729133055], [174.496318743924, -37.0040233007914], [174.496345244581, -37.0039039523714], [174.496328686171, -37.0038568453359], [174.49618403059, -37.0036808468721], [174.496029827618, -37.0035862232106], [174.495938104241, -37.0034682751083], [174.495911203688, -37.0034220392967], [174.49590621755, -37.0033541569583], [174.495916210119, -37.0032170066989], [174.495941691686, -37.0031812044609], [174.496074466621, -37.0030654422519], [174.496111271808, -37.0030235031942], [174.496236725265, -37.0026508598189], [174.496240473801, -37.0025817983478], [174.496183152407, -37.0023656067794], [174.496226323182, -37.0022303546514], [174.496286230663, -37.0019044509328], [174.496222457204, -37.0017196457466], [174.496191629107, -37.0016553332072], [174.495991647749, -37.0014914025589], [174.495879452284, -37.0013821689565], [174.495692819904, -37.0011038116547], [174.495666355761, -37.0010388427584], [174.495655423795, -37.000884391438], [174.495694406099, -37.0007382281484], [174.495769046086, -37.0005918750005], [174.495843389464, -37.0004758228711], [174.495937512576, -37.0003715283422], [174.495954637663, -37.0003329660182], [174.495885064632, -36.9994214492912], [174.495973500515, -36.9989394611351], [174.496200169155, -36.9984253679429], [174.496496156755, -36.9980225255015]]}, "properties": {"OBJECTID": 202, "TRACKNAME": "Buck Taylor Track", "CONDITIONSOFUSE": "Waitakere West Regional Park", "STATUS": "Closed upgrade", "WEBLINK": "https://www.aucklandcouncil.govt.nz/en/parks-recreation/find-park-beach/park-detail/3451.html", "VALIDATIONSTATE": 3, "created_user": "AC_owner", "last_edited_user": "AC_owner", "last_edited_date": 1789875254325, "created_date": 1789875254325, "PARK_SAPSITEID": null, "TRACK_ID": null, "KAURIDIEBACK_TRACK": null, "KAURIDIEBACK_MITIGATED": null, "SegmentID": null, "GlobalID": "6589107c-ae48-456c-905c-6afc0312ffec", "Shape__Length": 1490.817459691324}}, {"type": "Feature", "id": 1514, "geometry": {"type": "LineString", "coordinates": [[174.489330629334, -37.0099789065079], [174.489425361598, -37.0098395953517], [174.489479481514, -37.0097867355802], [174.489642292404, -37.0097335172662], [174.489784420608, -37.0096532481925], [174.48981488846, -37.0096077194068], [174.489963238817, -37.0093120522754], [174.490035294064, -37.0091907676846], [174.490108393554, -37.0091001818691], [174.490177642881, -37.009031095752], [174.490224417631, -37.0090133284744], [174.490415333635, -37.0089769251948], [174.490615073341, -37.0089020228815], [174.490664999806, -37.0088659210004], [174.49069466903, -37.0087809856893], [174.490726670778, -37.0087577568002], [174.490785585403, -37.0087475055358], [174.490825787954, -37.008748191145], [174.49096875388, -37.0088091653759], [174.49101899817, -37.0088113769329], [174.491197557687, -37.0087601164673], [174.491411772587, -37.0086726994532], [174.491462958373, -37.0086449910708], [174.491482046449, -37.0086006784107], [174.49149407659, -37.008434687468], [174.491491324157, -37.0083921311524], [174.491471945102, -37.0083473609709], [174.491427003752, -37.0083120797722], [174.491323342298, -37.0082604558389], [174.491077774976, -37.0081939498556], [174.491040472132, -37.008156661647], [174.491038470456, -37.0081125374369], [174.49133770807, -37.0078510412469], [174.491464341977, -37.0077111634907], [174.491529795262, -37.0076876049714], [174.491601473336, -37.0076760986317], [174.491695349139, -37.0076735953803], [174.491796540706, -37.0076843888383]]}, "properties": {"OBJECTID": 1514, "TRACKNAME": "Buck Taylor Track", "CONDITIONSOFUSE": "Waitakere West Regional Park", "STATUS": "Open", "WEBLINK": "https://www.aucklandcouncil.govt.nz/en/parks-recreation/find-park-beach/park-detail/3451.html", "VALIDATIONSTATE": 3, "created_user": "AC_owner", "last_edited_user": "AC_owner", "last_edited_date": 1789875254325, "created_date": 1789875254325, "PARK_SAPSITEID": null, "TRACK_ID": null, "KAURIDIEBACK_TRACK": null, "KAURIDIEBACK_MITIGATED": null, "SegmentID": null, "GlobalID": "c511eec5-9d13-4899-b5e7-bea539803799", "Shape__Length": 439.2599540704046}}, {"type": "Feature", "id": 1781, "geometry": {"type": "LineString", "coordinates": [[174.489232197512, -37.0101513185765], [174.489330148761, -37.0100197638334], [174.489330629334, -37.0099789065079]]}, "properties": {"OBJECTID": 1781, "TRACKNAME": "Buck Taylor Track", "CONDITIONSOFUSE": "Waitakere West Regional Park", "STATUS": "Open", "WEBLINK": "https://www.aucklandcouncil.govt.nz/en/parks-recreation/find-park-beach/park-detail/3451.html", "VALIDATIONSTATE": 3, "created_user": "AC_owner", "last_edited_user": "AC_owner", "last_edited_date": 1789875254325, "created_date": 1789875254325, "PARK_SAPSITEID": null, "TRACK_ID": null, "KAURIDIEBACK_TRACK": null, "KAURIDIEBACK_MITIGATED": null, "SegmentID": null, "GlobalID": "7ab35197-bce4-4f33-9dd8-442543374e19", "Shape__Length": 21.534840672754687}}, {"type": "Feature", "id": 3244, "geometry": {"type": "LineString", "coordinates": [[174.496496156755, -36.9980225255015], [174.496627449213, -36.9978438341516], [174.496675628216, -36.997743631928], [174.496740952155, -36.9976684181179], [174.496753903578, -36.997622451378], [174.496726581893, -36.9971572149305], [174.496694035967, -36.9970669884571], [174.496648292239, -36.9970058538886], [174.496542897897, -36.9969200090738], [174.496441215482, -36.9968815792568], [174.496407461285, -36.9968617270272], [174.496290790077, -36.9967589371318], [174.496260976099, -36.9967144416294], [174.496236713872, -36.996622888335], [174.496260988652, -36.9965048036435], [174.496279105103, -36.9964746167971], [174.496319335347, -36.9964344398997], [174.496393311669, -36.9963863066426], [174.496544114206, -36.9963377030145], [174.496631375413, -36.9963288563229], [174.496754359872, -36.9963340952277], [174.497017488318, -36.9963735178318], [174.49719586353, -36.996454085282], [174.497433918582, -36.9965994515923], [174.497699944912, -36.9967969135217], [174.497883861472, -36.9969569079293], [174.497934214354, -36.9969877847474], [174.498054731778, -36.9970348124307], [174.498117485546, -36.9970508666406], [174.49849083111, -36.997078845311], [174.498601506597, -36.9970798093393]]}, "properties": {"OBJECTID": 3244, "TRACKNAME": "Buck Taylor Track", "CONDITIONSOFUSE": "Waitakere West Regional Park", "STATUS": "Closed upgrade", "WEBLINK": "https://www.aucklandcouncil.govt.nz/en/parks-recreation/find-park-beach/park-detail/3451.html", "VALIDATIONSTATE": 3, "created_user": "AC_owner", "last_edited_user": "AC_owner", "last_edited_date": 1789875254325, "created_date": 1789875254325, "PARK_SAPSITEID": null, "TRACK_ID": null, "KAURIDIEBACK_TRACK": null, "KAURIDIEBACK_MITIGATED": null, "SegmentID": null, "GlobalID": "8a02e9e4-e3c8-4aa6-abb6-e13ef3a1c904", "Shape__Length": 435.02911779066346}}]}