{"type": "FeatureCollection", "features": [{"type": "Feature", "id": 2219, "geometry": {"type": "LineString", "coordinates": [[175.288005912624, -37.0404341747259], [175.2878924043, -37.0403149408722], [175.287804908576, -37.0402263248204], [175.287691520137, -37.0401784755142], [175.287594688732, -37.0401784598599], [175.287542520835, -37.040117307786], [175.287405542645, -37.0400876946651], [175.287291700142, -37.0400561661367], [175.287165004805, -37.0398091469922], [175.286913930385, -37.0396911773311], [175.286722125685, -37.0398871641948], [175.286277057324, -37.0398330283227], [175.286052657789, -37.0401159270776], [175.285339773267, -37.0401900502809], [175.284962769856, -37.039991697394], [175.284701761715, -37.0397710380188], [175.284065884592, -37.0394398879113], [175.283710405305, -37.0393990854962], [175.283754817811, -37.0395320732025], [175.283606337632, -37.0394869595422], [175.283656554552, -37.0395930506959], [175.283534631222, -37.039542018111], [175.283460991968, -37.0395381998709], [175.283371334687, -37.0396579073809], [175.283289940195, -37.0397213265796], [175.283448429568, -37.0397687984096], [175.283801301895, -37.0397293063548], [175.284140217469, -37.0398775847872], [175.284478436349, -37.0400044532061], [175.284694043322, -37.0404713409371], [175.285337440356, -37.0406734744634], [175.285677863419, -37.040734209078], [175.286000527648, -37.0406822607502], [175.286335462037, -37.0405735222875], [175.286560200847, -37.040546225649], [175.286782171179, -37.0405724163818], [175.28679868618, -37.0405781794706]]}, "properties": {"OBJECTID": 2219, "TRACKNAME": "Bush Walk", "CONDITIONSOFUSE": "Waharau Regional Park", "STATUS": "Open", "WEBLINK": "https://www.aucklandcouncil.govt.nz/en/parks-recreation/find-park-beach/park-detail/233.html", "VALIDATIONSTATE": 3, "created_user": "AC_owner", "last_edited_user": "AC_owner", "last_edited_date": 1789875254325, "created_date": 1789875254325, "PARK_SAPSITEID": null, "TRACK_ID": null, "KAURIDIEBACK_TRACK": null, "KAURIDIEBACK_MITIGATED": null, "SegmentID": null, "GlobalID": "fd164337-7c1d-4a10-b86c-68737c51b1d5", "Shape__Length": 930.2011202107686}}, {"type": "Feature", "id": 2907, "geometry": {"type": "LineString", "coordinates": [[175.290253695659, -37.0414827698091], [175.290069379261, -37.0413434291291], [175.289970358372, -37.0413342020119], [175.289802711188, -37.0413829156793], [175.289573887827, -37.0413266895404], [175.289401742438, -37.0412530022888], [175.289288755473, -37.0411901592237], [175.288907530123, -37.0411755188228], [175.288603305774, -37.0411440521188], [175.288404616748, -37.0410796807478], [175.288238188916, -37.0409746986152], [175.28819040565, -37.0408061248146], [175.288014689373, -37.0406063040592], [175.287967322574, -37.0404459594289]]}, "properties": {"OBJECTID": 2907, "TRACKNAME": "Bush Walk", "CONDITIONSOFUSE": "Waharau Regional Park", "STATUS": "Open", "WEBLINK": "https://www.aucklandcouncil.govt.nz/en/parks-recreation/find-park-beach/park-detail/233.html", "VALIDATIONSTATE": 3, "created_user": "AC_owner", "last_edited_user": "AC_owner", "last_edited_date": 1789875254325, "created_date": 1789875254325, "PARK_SAPSITEID": null, "TRACK_ID": null, "KAURIDIEBACK_TRACK": null, "KAURIDIEBACK_MITIGATED": null, "SegmentID": null, "GlobalID": "16d54624-8398-419b-99eb-78230044a9c3", "Shape__Length": 261.94045011598143}}]}