{"type": "FeatureCollection", "features": [{"type": "Feature", "id": 11995, "geometry": {"type": "LineString", "coordinates": [[174.989717629138, -36.801236587285], [174.990102182585, -36.8017119387205], [174.990706861572, -36.8021158960945], [174.991546782938, -36.8023569443606], [174.992126143, -36.8025074253161], [174.993157960448, -36.80246640032], [174.993363283384, -36.8024592822787], [174.994513250316, -36.8001061071485], [174.994732006663, -36.7997227316834], [174.995008380829, -36.799569771692], [174.995398752629, -36.7995454221604], [174.995789124099, -36.799521070453], [174.996186100265, -36.7994669424061], [174.996818107181, -36.7990884897791], [174.997404627802, -36.7985902747662]]}, "properties": {"OBJECTID": 11995, "TRACKNAME": "Cable Bay Lane Roadside", "CONDITIONSOFUSE": "Park Point Walkway", "STATUS": "Open", "WEBLINK": null, "VALIDATIONSTATE": 3, "created_user": "AC_owner", "last_edited_user": "AC_owner", "last_edited_date": 1789875254325, "created_date": 1789875254325, "PARK_SAPSITEID": null, "TRACK_ID": null, "KAURIDIEBACK_TRACK": null, "KAURIDIEBACK_MITIGATED": null, "SegmentID": null, "GlobalID": "01f39f27-9eb2-4b9c-81b8-ddb69db18f67", "Shape__Length": 987.1429273542861}}]}