{"type": "FeatureCollection", "features": [{"type": "Feature", "id": 12010, "geometry": {"type": "LineString", "coordinates": [[175.052490826428, -36.7961109764313], [175.055214008397, -36.7971763003999], [175.055557757316, -36.7975436777765], [175.055910068463, -36.7977258214536], [175.056356722721, -36.7980034031922], [175.056600750393, -36.7982844885269], [175.056756296952, -36.7986259775251], [175.056729792811, -36.7993193229444], [175.056764111853, -36.7995496912069], [175.056828022659, -36.7996757014911], [175.056855567618, -36.7997495657214], [175.057416007647, -36.8003791108836], [175.057671241483, -36.8006643035748], [175.057673309836, -36.8006672547094], [175.057965903683, -36.8012099670383], [175.057967938758, -36.8012115902158], [175.058071586183, -36.8012472588168], [175.058394195365, -36.8015412663345], [175.058764102061, -36.8019193146595], [175.059674406804, -36.8024519987352], [175.060086358769, -36.8026939379717], [175.060296932891, -36.802776333879], [175.060524232243, -36.8031803926662]]}, "properties": {"OBJECTID": 12010, "TRACKNAME": "Calais Tce to O'Brien Rd", "CONDITIONSOFUSE": null, "STATUS": "Open", "WEBLINK": null, "VALIDATIONSTATE": 3, "created_user": "AC_owner", "last_edited_user": "AC_owner", "last_edited_date": 1789875254325, "created_date": 1789875254325, "PARK_SAPSITEID": null, "TRACK_ID": null, "KAURIDIEBACK_TRACK": null, "KAURIDIEBACK_MITIGATED": null, "SegmentID": null, "GlobalID": "3356e99a-8b80-4dca-9f32-658517bda1aa", "Shape__Length": 1128.1081681636647}}]}