{"type": "FeatureCollection", "features": [{"type": "Feature", "id": 1255, "geometry": {"type": "LineString", "coordinates": [[175.084901799953, -36.8185316413956], [175.085015367479, -36.8185426550853], [175.085147888404, -36.8185700733341], [175.085239208602, -36.8186130766902], [175.085330276815, -36.8186467919834], [175.08539829084, -36.8186827683658], [175.085475498656, -36.8187167267206], [175.085552314264, -36.8187358204423], [175.085622132695, -36.8187531892239], [175.085657445053, -36.8187767244688], [175.085695178108, -36.8188039486116], [175.085725762098, -36.8188238534458], [175.085738070843, -36.8188515146907], [175.085750390802, -36.8188791757374], [175.085750794321, -36.8188940401192], [175.085764210504, -36.8189426732225], [175.08577849165, -36.8189661809066], [175.085800169022, -36.8190114784331], [175.085802989262, -36.8190315369626], [175.085799294244, -36.8190626696396], [175.085795736714, -36.8190992798122], [175.085792636472, -36.8191523216853], [175.085795395864, -36.8191705516418], [175.085811951687, -36.819194019404], [175.08581921044, -36.8192103317503], [175.085820103114, -36.8192432135612], [175.085820499803, -36.8192578256974], [175.085825533588, -36.8192760067279], [175.08582667426, -36.8193180233755], [175.085826971656, -36.8193289779731], [175.08581961982, -36.8193930632829], [175.085813898163, -36.819433370712], [175.08580136357, -36.8194737886827], [175.085743778076, -36.8195296253123], [175.085705649867, -36.8195485637351], [175.085649110456, -36.8195586950318], [175.085515559882, -36.8195793167407], [175.085447509535, -36.819584160989], [175.08533846155, -36.8195860742141], [175.085234199544, -36.8195970425661], [175.085159287068, -36.8196001864075], [175.085070677142, -36.8196017408437], [175.085002131183, -36.8195883241644], [175.084939951792, -36.8195583470297], [175.084895935899, -36.8195280512643], [175.084849607234, -36.8194959754208], [175.084821601632, -36.8194690490702], [175.08478331949, -36.8193984546734], [175.084778379857, -36.8192998668943], [175.084783457691, -36.8192358125084], [175.084779398855, -36.8191700977474], [175.084778011139, -36.8191189552359], [175.084790645227, -36.819082185888], [175.084818645312, -36.8190250480121], [175.084842602831, -36.8189862504059], [175.084863364182, -36.818904030101], [175.084865964392, -36.8188296451936], [175.084871074255, -36.8187626429851], [175.084876447347, -36.8187049285713], [175.084883523879, -36.8186248860928], [175.084901799953, -36.8185316413956]]}, "properties": {"OBJECTID": 1255, "TRACKNAME": "Cascades Loop Track", "CONDITIONSOFUSE": "Whakanewha Regional Park", "STATUS": "Open", "WEBLINK": "https://www.aucklandcouncil.govt.nz/en/parks-recreation/find-park-beach/park-detail/3422.html", "VALIDATIONSTATE": 3, "created_user": "AC_owner", "last_edited_user": "AC_owner", "last_edited_date": 1789875254325, "created_date": 1789875254325, "PARK_SAPSITEID": null, "TRACK_ID": null, "KAURIDIEBACK_TRACK": null, "KAURIDIEBACK_MITIGATED": null, "SegmentID": null, "GlobalID": "4445c51a-ea65-4657-9f7d-86b742ecb7d9", "Shape__Length": 358.5734150051429}}]}