{"type": "FeatureCollection", "features": [{"type": "Feature", "id": 2692, "geometry": {"type": "LineString", "coordinates": [[174.520719815048, -36.8935478136325], [174.520718539439, -36.8935476055205], [174.52071316705, -36.8935466287033], [174.520707793052, -36.8935455707832], [174.520702439704, -36.8935444224615], [174.520697095609, -36.8935431748705], [174.520691761125, -36.893541846033], [174.520686424852, -36.8935404270811], [174.520681109052, -36.8935389087162], [174.520675825122, -36.8935372998062], [174.520670729061, -36.893535544272], [174.520665832088, -36.89353364197], [174.520661122806, -36.8935315840323], [174.520656623652, -36.8935293701719], [174.520652323765, -36.8935270185552], [174.520648211569, -36.893524511303], [174.520644298282, -36.8935218482716], [174.520640595303, -36.893519038329], [174.520637080193, -36.8935160817623], [174.520633763993, -36.8935129694166], [174.520630646881, -36.8935097103032], [174.520627739898, -36.8935062952672], [174.520625020784, -36.8935027336073], [174.520622500758, -36.8934990251797], [174.520620179642, -36.8934951609732], [174.520618057614, -36.8934911499991], [174.520616134496, -36.8934869832461], [174.520614410466, -36.8934826697255], [174.520612874126, -36.8934782005696], [174.520611548272, -36.893473593514], [174.520610377523, -36.8934688853223], [174.520609275342, -36.8934642393489], [174.520608219827, -36.893459682915], [174.520607222196, -36.8934552158772], [174.520606282093, -36.8934508202127], [174.520605388656, -36.8934465140877], [174.520604541705, -36.893442288491], [174.52060376368, -36.8934381431353], [174.520603020922, -36.8934340784515], [174.520602347089, -36.8934300940087], [174.520601719922, -36.8934261991055], [174.520601139242, -36.8934223847306], [174.520600616089, -36.8934186417289], [174.520600151, -36.8934149971346], [174.520599743437, -36.8934114239136], [174.520599371143, -36.8934079313644], [174.520599067952, -36.8934045280677], [174.520598811248, -36.8934012052992], [174.52059861225, -36.8933979629153], [174.520598459738, -36.8933948010597], [174.520598364933, -36.8933917195888], [174.52059826016, -36.8933887013413], [174.520598021112, -36.8933857028399], [174.52059764761, -36.8933827150732], [174.520597151053, -36.893379746909], [174.520596508823, -36.8933767896231], [174.520595743359, -36.8933738429283], [174.520594843621, -36.8933709159795], [174.520593809607, -36.8933680087768], [174.520592641141, -36.8933651123088], [174.520591338399, -36.8933622355869], [174.520589901204, -36.8933593695997], [174.520588329735, -36.8933565233585], [174.520586623812, -36.893353687852], [174.520584794655, -36.8933508629365], [174.520582820183, -36.8933480669221], [174.520580722298, -36.8933452724873], [174.520578490139, -36.8933424977986], [174.520576123705, -36.8933397428559], [174.520573622818, -36.8933369986478], [174.520570987656, -36.8933342741857], [174.520568218041, -36.8933315604582], [174.520565415483, -36.893328883207], [174.520562703753, -36.8933262588755], [174.520560082851, -36.8933236874635], [174.520557541736, -36.893321178126], [174.52055509127, -36.8933187126967], [174.52055273181, -36.8933163091985], [174.520550463178, -36.8933139586198], [174.520548274155, -36.8933116611043], [174.520546175959, -36.8933094165084], [174.520544168591, -36.893307224832], [174.52054224101, -36.8933050952304], [174.520540404256, -36.8933030185483], [174.520538658151, -36.8933009857744], [174.520537003232, -36.8932990239429], [174.520535427742, -36.8932971061633], [174.52053394308, -36.8932952413033], [174.520532549424, -36.8932934383743], [174.520531246595, -36.893291688365], [174.520530023196, -36.8932899824075], [174.520528890982, -36.8932883473924], [174.520527838198, -36.8932867564292], [174.520526517579, -36.8932852410037], [174.520524648643, -36.8932838047058], [174.520522231389, -36.8932824475355], [174.520519265996, -36.8932811785042], [174.520515763504, -36.8932799884569], [174.520511712874, -36.8932788865485], [174.520507113926, -36.8932778637675], [174.520501978058, -36.8932769289817], [174.520496305092, -36.8932760731796], [174.520490072589, -36.8932752966483], [174.520483303167, -36.893274608112], [174.520475996646, -36.8932739985592], [174.520468130588, -36.8932734682769], [174.52045972761, -36.8932730259893], [174.520450787534, -36.8932726626848], [174.520441299319, -36.8932723875183], [174.520431262786, -36.8932721914783], [174.520420677935, -36.8932720745646], [174.520409556164, -36.8932720456449], [174.520397897474, -36.8932721047191], [174.520385690287, -36.8932722339078], [174.520373371085, -36.8932723735425], [174.520361096403, -36.8932724945788], [174.52034886624, -36.8932725970166], [174.520336691817, -36.8932726807124], [174.520324572954, -36.8932727366549], [174.520312498611, -36.893272773999], [174.520300468609, -36.8932727837333], [174.520288505566, -36.8932727745821], [174.520276587042, -36.8932727468326], [174.520264713039, -36.8932727004847], [174.520252894595, -36.8932726263836], [174.52024113207, -36.893272542552], [174.520229413707, -36.8932724220993], [174.520217751262, -36.8932722919163], [174.520206144378, -36.8932721339799], [174.520194582013, -36.8932719574454], [174.520183075388, -36.893271762169], [174.520171613104, -36.8932715392831], [174.520160206559, -36.8932712976554], [174.520148844534, -36.8932710374295], [174.520137560688, -36.8932707581747], [174.520126546999, -36.8932705205305], [174.520115870963, -36.8932703326469], [174.520105521719, -36.8932702126903], [174.520095521525, -36.8932701513624], [174.520085858984, -36.8932701397953], [174.520076523234, -36.8932701961556], [174.520067525137, -36.8932703022769], [174.520058864871, -36.8932704671708], [174.520050542437, -36.8932706908372], [174.520042546615, -36.8932709734199], [174.520034899844, -36.8932713146317], [174.520027579507, -36.8932717057485], [174.520020608399, -36.8932721645061], [174.520013963724, -36.8932726731687], [174.52000765706, -36.8932732496157], [174.520001676829, -36.8932738759678], [174.519996045649, -36.8932745609495], [174.5199907523, -36.8932753047043], [174.519985785563, -36.8932761073759], [174.519981156658, -36.8932769688206], [174.519976842609, -36.8932778622915], [174.519972683844, -36.8932786636385], [174.519968645812, -36.8932793282351], [174.519964740087, -36.8932798739607], [174.519960955274, -36.8932802919474], [174.519957302591, -36.8932805820516], [174.519953782216, -36.8932807532849], [174.519950371355, -36.8932807879113], [174.519947104021, -36.8932807035233], [174.519943946379, -36.8932804915399], [174.519940932266, -36.8932801605421], [174.519938027665, -36.8932796929375], [174.519935255373, -36.893279106462], [174.519932615212, -36.8932783921042], [174.51993009614, -36.8932775590189], [174.519927709019, -36.8932765890399], [174.519925442988, -36.8932755003335], [174.519923309088, -36.8932742837448], [174.519921296099, -36.8932729394173], [174.51991940402, -36.893271467351], [174.51991764425, -36.8932698764139], [174.519915961587, -36.8932682123806], [174.519914147508, -36.8932667122752], [174.519912180111, -36.8932654034191], [174.519910070615, -36.8932642856685], [174.519907796404, -36.8932633502993], [174.519905380094, -36.8932626060358], [174.519902810466, -36.8932620530214], [174.519900098561, -36.8932616821012], [174.519897222119, -36.8932615025737], [174.519894203399, -36.8932615051404], [174.519891031361, -36.8932616989563], [174.519887706005, -36.8932620840212], [174.519884227331, -36.8932626603353], [174.51988060638, -36.8932634187435], [174.519876832111, -36.8932643684008], [174.519872904345, -36.8932655002957], [174.519868823439, -36.8932668324512], [174.519864600256, -36.8932683467006], [174.519860223575, -36.8932700431878], [174.519855693577, -36.8932719309239], [174.51985101026, -36.893274009909], [174.519846284031, -36.8932761885936], [174.51984176811, -36.8932782203683], [174.519837485115, -36.8932801139574], [174.519833434689, -36.8932818513381], [174.519829605968, -36.8932834506768], [174.519826009816, -36.8932848938071], [174.51982264659, -36.893286198752], [174.519819504712, -36.8932873476321], [174.519816595582, -36.8932883493153], [174.519813919199, -36.8932892038017], [174.519811464344, -36.8932899112348], [174.519809242235, -36.8932904714711], [174.519807252875, -36.8932908845105], [174.519805485042, -36.8932911504967], [174.519803949777, -36.8932912602747], [174.519802647438, -36.8932912318673], [174.519801566628, -36.8932910564067], [174.519800718386, -36.8932907247379], [174.519800103069, -36.8932902548838], [174.519799709103, -36.893289628965], [174.519799547883, -36.8932888558494], [174.519799348895, -36.893287875902], [174.519798661221, -36.893286586727], [174.519797496079, -36.8932849881808], [174.51979584225, -36.8932830804071], [174.519793699736, -36.8932808634057], [174.519791068356, -36.8932783281653], [174.519787959687, -36.893275492565], [174.519784350935, -36.8932723388692], [174.519780264715, -36.893268875802], [174.51977568981, -36.893265103507], [174.519770637438, -36.8932610218405], [174.519765084982, -36.8932566220783], [174.519759055238, -36.8932519219558], [174.519752536631, -36.8932469035939], [174.519745529516, -36.8932415850151], [174.519738044758, -36.8932359480532], [174.519730060095, -36.8932300020064], [174.519721597966, -36.8932237465875], [174.519712646975, -36.8932171729287], [174.519703218697, -36.893210298909], [174.519693290516, -36.893203115804], [174.519688235867, -36.893199484848], [174.519683273475, -36.8931959789034], [174.519678391764, -36.8931925800909], [174.519673602309, -36.8931893062898], [174.519668904931, -36.8931861484887], [174.519664288234, -36.8931830978197], [174.519659763794, -36.8931801721622], [174.519655331431, -36.8931773625047], [174.519650979927, -36.8931746689908], [174.51964673172, -36.8931720913335], [174.519642564193, -36.8931696208083], [174.519638477703, -36.8931672754382], [174.51963448329, -36.8931650460682], [174.519630580956, -36.8931629326983], [174.519626770699, -36.8931609353285], [174.51962305252, -36.8931590539588], [174.519619415199, -36.8931572887328], [174.519615858737, -36.8931556396504], [174.51961240575, -36.8931541154361], [174.519609033443, -36.893152698354], [174.519605753213, -36.8931513972722], [174.519602498638, -36.8931502581086], [174.519599213979, -36.8931492996038], [174.519595910633, -36.8931485306256], [174.519592588423, -36.8931479421625], [174.519589236306, -36.8931475433696], [174.519585876722, -36.8931473339598], [174.519582487054, -36.8931473052087], [174.51957906748, -36.8931474661277], [174.51957564026, -36.8931478074184], [174.519572183134, -36.8931483383791], [174.519568707321, -36.8931490588665], [174.519565201424, -36.8931499600126], [174.519561688059, -36.8931510505418], [174.51955813339, -36.8931523218731], [174.519554571254, -36.8931537825876], [174.519550990253, -36.8931554238172], [174.519547379345, -36.893157254717], [174.519543738531, -36.8931592752868], [174.519540090071, -36.8931614762283], [174.519536411705, -36.8931638668399], [174.519532714473, -36.8931664379666], [174.519528726431, -36.8931690578815], [174.519524334315, -36.893171673951], [174.519519526368, -36.8931742592844], [174.519514303126, -36.8931768409158], [174.519508675452, -36.8931794006788], [174.519502632304, -36.8931819477284], [174.519496184903, -36.893184481921], [174.519489321849, -36.8931869943885], [174.519482043323, -36.8931894941424], [174.519474360542, -36.893191981039], [174.519466273506, -36.8931944550783], [174.5194577596, -36.8931969075358], [174.519448841439, -36.8931993471357], [174.519439518845, -36.8932017648667], [174.519429780957, -36.8932041788948], [174.519419627416, -36.8932065711973], [174.51940906962, -36.8932089506419], [174.519398096173, -36.8932113083606], [174.519386707251, -36.8932136533646], [174.519374914075, -36.8932159855104], [174.519362750303, -36.8932183043675], [174.519350865584, -36.8932205475447], [174.519339517786, -36.8932227027306], [174.519328706907, -36.8932247699254], [174.51931844399, -36.8932267399743], [174.519308706952, -36.8932286311872], [174.519299506656, -36.8932304253979], [174.51929084328, -36.893232131618], [174.519282728045, -36.8932337497041], [174.51927513851, -36.8932352799433], [174.519268097116, -36.8932367220487], [174.519261581245, -36.893238067296], [174.519255602473, -36.8932393335646], [174.519250171662, -36.8932405026883], [174.519245277773, -36.893241583822], [174.519240909585, -36.8932425771092], [174.519237089537, -36.8932434822632], [174.519233795191, -36.8932442995708], [174.519231048807, -36.8932450197339], [174.519228839344, -36.8932456519072], [174.519227166981, -36.8932462051022], [174.519225986661, -36.8932466708815], [174.519224851576, -36.8932471541098], [174.519223650247, -36.8932476922673], [174.519222371276, -36.8932482764863], [174.519221014662, -36.8932489067666], [174.519219580584, -36.8932495921198], [174.519218068864, -36.8932503235343], [174.5192164909, -36.8932511098782], [174.519214835293, -36.8932519422835], [174.519213102044, -36.8932528207501], [174.519211291153, -36.8932537452782], [174.519209414017, -36.8932547247355], [174.51920744802, -36.8932557503977], [174.519205415778, -36.8932568309892], [174.519203305715, -36.8932579486306], [174.519201118188, -36.8932591213448], [174.519198864417, -36.8932603489884], [174.519196521785, -36.8932616228367], [174.519194112729, -36.893262942603], [174.51919162603, -36.8932643084305], [174.519189061868, -36.8932657293308], [174.519186386227, -36.8932671877115], [174.519183306153, -36.8932686242229], [174.519179765193, -36.8932700215595], [174.519175774564, -36.8932713795778], [174.519171323228, -36.8932727074327], [174.519166399607, -36.8932739872448], [174.519161026497, -36.8932752367498], [174.5191551925, -36.8932764470798], [174.519148908836, -36.8932776180913], [174.519142153244, -36.8932787590825], [174.519134947806, -36.8932798517435], [174.519127281659, -36.8932809142406], [174.519119154626, -36.8932819375624], [174.519110566705, -36.8932829217086], [174.519101518077, -36.8932838756906], [174.519092019602, -36.8932847813421], [174.519082049199, -36.8932856569726], [174.519071629129, -36.8932864932836], [174.519060748172, -36.8932872904187], [174.519049406506, -36.8932880573889], [174.519037614995, -36.893288776028], [174.519025418336, -36.8932894367505], [174.519013195129, -36.8932898904961], [174.519000978856, -36.893290127823], [174.518988780556, -36.8932901395763], [174.51897658901, -36.8932899258996], [174.518964415438, -36.8932894866493], [174.5189522488, -36.8932888309804], [174.518940088915, -36.8932879498813], [174.518927947005, -36.8932868432087], [174.518915823069, -36.8932855109625], [174.518903694847, -36.8932839624411], [174.518891584599, -36.8932821883462], [174.518879492505, -36.8932801976891], [174.518867407165, -36.893277981602], [174.518855328581, -36.8932755400848], [174.518843267972, -36.893272872994], [174.518831225516, -36.8932699893411], [174.518819178418, -36.8932668713902], [174.518807160872, -36.8932635457451], [174.518795138683, -36.8932599858019], [174.518783134649, -36.8932562092966], [174.518771239416, -36.8932522601389], [174.518759771234, -36.8932483415751], [174.518748786557, -36.8932444709111], [174.518738251726, -36.8932406485773], [174.5187282004, -36.8932368741436], [174.51871861014, -36.8932331478969], [174.518709491986, -36.8932294606825], [174.518700835076, -36.8932258306668], [174.518692650273, -36.8932222396836], [174.518684937755, -36.8932186967444], [174.518677686302, -36.8932152019928], [174.518670907133, -36.8932117552854], [174.518664588852, -36.8932083477543], [174.518658743033, -36.8932049972789], [174.51865336932, -36.8932016858367], [174.518648456851, -36.8931984315937], [174.518644016488, -36.8931952163839], [174.518640048409, -36.8931920492188], [174.518636541395, -36.8931889302417], [174.518633506665, -36.8931858593093], [174.51863094404, -36.8931828274103], [174.518628708027, -36.8931798544319], [174.518626473263, -36.8931769445334], [174.518624217133, -36.8931740889902], [174.518621928773, -36.8931713059686], [174.518619619046, -36.8931685773023], [174.51861728813, -36.8931659120026], [174.518614924807, -36.8931633102131], [174.518612540294, -36.8931607717903], [174.518610134594, -36.8931582967342], [174.518607707526, -36.8931558760334], [174.51860524805, -36.8931535188427], [174.518602767564, -36.8931512340301], [174.51860026571, -36.8931490035729], [174.518597731449, -36.8931468366257], [174.518595187219, -36.8931447329018], [174.518592599182, -36.89314268382], [174.518590001355, -36.893140706973], [174.518587370941, -36.8931387846246], [174.518584719518, -36.8931369346543], [174.518582046727, -36.8931351390393], [174.518579341528, -36.8931334069345], [174.518576637043, -36.8931317108752], [174.518573977614, -36.8931300232536], [174.518571351844, -36.8931283352017], [174.51856875991, -36.8931266557309], [174.518566212675, -36.893124966675], [174.518563699098, -36.8931232771888], [174.518561230577, -36.8931215961402], [174.518558795715, -36.8931199146614], [174.518556405551, -36.8931182235975], [174.518554060443, -36.8931165409713], [174.518551737774, -36.8931148580582], [174.518549460161, -36.8931131835828], [174.518547227247, -36.8931114995224], [174.518545028169, -36.893109824043], [174.518542873791, -36.8931081389785], [174.518540753249, -36.8931064624952], [174.518538666365, -36.8931047855816], [174.518536624358, -36.8931031080943], [174.518534627229, -36.8931014300333], [174.518532652717, -36.8930997606969], [174.518530734124, -36.893098081632], [174.518528838326, -36.8930964203031], [174.518526987942, -36.8930947854347], [174.518525149312, -36.8930931774572], [174.518523355917, -36.8930915869288], [174.518521585675, -36.8930900321593], [174.518519838407, -36.8930885041371], [174.518518136374, -36.8930869935641], [174.518516457493, -36.89308551875], [174.518514801587, -36.8930840706832], [174.518513179696, -36.8930826402091], [174.518511592178, -36.8930812453503], [174.518510038674, -36.8930798680842], [174.518508508324, -36.8930785265769], [174.518507012167, -36.8930772116735], [174.518505538805, -36.8930759145062], [174.518504099817, -36.8930746529543], [174.518502694843, -36.893073408995], [174.518501313022, -36.8930722007946], [174.518499965216, -36.8930710101867], [174.518498651604, -36.8930698461829], [174.518497361145, -36.8930687179378], [174.518496093124, -36.893067589406], [174.518494824747, -36.8930664428513], [174.518493556012, -36.8930652782738], [174.518492298318, -36.8930641045414], [174.518491040267, -36.8930629127862], [174.518489781859, -36.8930617030081], [174.518488534314, -36.8930604750637], [174.518487286411, -36.8930592290966], [174.51848603833, -36.8930579741179], [174.518484801111, -36.893056700973], [174.518483563535, -36.8930554098053], [174.518482325602, -36.8930541006147], [174.518481098531, -36.8930527732579], [174.518479871282, -36.8930514368896], [174.518478643676, -36.8930500824985], [174.518477426932, -36.8930487099412], [174.518476198611, -36.8930473195043], [174.518474992373, -36.8930459107578], [174.518473774736, -36.8930444931433], [174.518472567962, -36.8930430573626], [174.51847137205, -36.8930416034156], [174.518470198755, -36.8930401581932], [174.518469070695, -36.8930387304199], [174.518467999267, -36.8930373289639], [174.518466973252, -36.8930359539685], [174.51846600369, -36.893034596279], [174.518465079542, -36.89303326505], [174.518464200807, -36.8930319602817], [174.518463378525, -36.8930306728192], [174.518462601656, -36.8930294118173], [174.51846188142, -36.8930281771327], [174.518461206417, -36.8930269598972], [174.518460588048, -36.893025768979], [174.518460003871, -36.8930246046649], [174.518459487368, -36.8930234575131], [174.518459005058, -36.8930223369654], [174.518458579202, -36.8930212337235], [174.518458210157, -36.8930201658102], [174.518457886168, -36.8930191063348], [174.51845760777, -36.8930180823314], [174.518457374607, -36.8930170757772], [174.518457198075, -36.8930160955403], [174.518457066243, -36.8930151057183], [174.518456968068, -36.8930141154661], [174.518456914592, -36.8930131156289], [174.518456905637, -36.8930120971953], [174.51845691912, -36.8930110784748], [174.518456988521, -36.8930100500259], [174.518457080004, -36.8930090032673], [174.518457227404, -36.8930079467803], [174.518457397244, -36.8930068900065], [174.518457622822, -36.8930058144929], [174.518457870661, -36.893004729681], [174.518458163199, -36.8930036352841], [174.518458500435, -36.8930025313021], [174.518458871151, -36.8930014178785], [174.518459286566, -36.8930002948699], [174.51845973546, -36.8929991624197], [174.518460229052, -36.8929980203844], [174.518460756124, -36.8929968689075], [174.518461327717, -36.8929956988341], [174.518461932967, -36.8929945283306], [174.518462582916, -36.8929933482419], [174.518463344701, -36.8929921486964], [174.518464263199, -36.8929909291204], [174.518465316151, -36.8929896988121], [174.518466514596, -36.8929884486167], [174.518467869755, -36.8929871783909], [174.518469359367, -36.8929858974327], [174.518471005692, -36.892984596444], [174.518472786471, -36.8929832847229], [174.518474723963, -36.8929819529714], [174.518476795729, -36.8929806014761], [174.518479024387, -36.8929792389617], [174.51848138732, -36.8929778567036], [174.518483906966, -36.8929764544148], [174.518486561066, -36.8929750413937], [174.518489371878, -36.8929736083421], [174.518492317144, -36.8929721645581], [174.518495418944, -36.892970691732], [174.518498655376, -36.892969217185], [174.518502048342, -36.8929677135959], [174.518505575762, -36.8929661992745], [174.518509259895, -36.8929646649223], [174.51851305497, -36.8929630660561], [174.518516972209, -36.8929614025323], [174.51852101161, -36.8929596743509], [174.518525161775, -36.892957872644], [174.518529422883, -36.8929560064228], [174.518533805976, -36.8929540665327], [174.51853831123, -36.892952061985], [174.518542927249, -36.8929499839117], [174.518547654033, -36.8929478323127], [174.518552502979, -36.892945616056], [174.518557474087, -36.8929433351417], [174.518562555959, -36.8929409807018], [174.518567759994, -36.8929385616041], [174.518573074793, -36.8929360689807], [174.518578511754, -36.8929335116996], [174.51858405948, -36.8929308808928], [174.518589729367, -36.8929281854282], [174.518595510019, -36.8929254164378], [174.518601412833, -36.8929225827897], [174.518607426411, -36.8929196756158], [174.518613582983, -36.8929166223944], [174.518619971558, -36.8929128180699], [174.518626634515, -36.8929081359086], [174.51863356099, -36.8929025940767], [174.518640750627, -36.8928961745515], [174.518648203603, -36.8928888863442], [174.518655931137, -36.8928807293114], [174.51866392201, -36.8928717035964], [174.518672176222, -36.8928618091993], [174.518680693772, -36.89285104612], [174.5186894857, -36.8928394052035], [174.518698541144, -36.8928269046161], [174.518707859747, -36.8928135263349], [174.518717441864, -36.8927992883826], [174.518727298358, -36.892784172593], [174.518737418188, -36.8927681881208], [174.518747801352, -36.892751334966], [174.518758447851, -36.8927336131284], [174.518769368725, -36.8927150134533], [174.518780553111, -36.8926955541067], [174.518792000651, -36.8926752170658], [174.518803591147, -36.8926541661138], [174.518814688168, -36.8926331304834], [174.518825204281, -36.8926122284706], [174.518835139131, -36.8925914420527], [174.518844504115, -36.8925707800978], [174.518853276796, -36.8925502428929], [174.518861479611, -36.8925298301513], [174.518869101344, -36.8925095420165], [174.518876141994, -36.8924893784887], [174.518882601561, -36.8924693395679], [174.518888480047, -36.8924494252541], [174.518893788492, -36.8924296263927], [174.518898516035, -36.89240996115], [174.518902651278, -36.892390420658], [174.518906216481, -36.8923709956184], [174.518909200784, -36.8923517041978], [174.518911604008, -36.8923325373845], [174.518913437194, -36.8923134860238], [174.518914678261, -36.8922945684255], [174.518915349291, -36.8922757662798], [174.518915439243, -36.8922570887416], [174.518915051413, -36.8922386516682], [174.518914552138, -36.8922208199377], [174.518913998406, -36.8922036378899], [174.51891336778, -36.8921871058116], [174.518912671656, -36.8921712325709], [174.518911898459, -36.8921560002883], [174.518911059586, -36.8921414178318], [174.518910155037, -36.8921274852015], [174.518909173772, -36.8921142115522], [174.518908126653, -36.8921015787176], [174.518907013859, -36.8920895957091], [174.518905824169, -36.8920782626702], [174.518904568804, -36.8920675794575], [174.518903247763, -36.8920575460709], [174.518901861047, -36.8920481625104], [174.518900397435, -36.8920394289196], [174.518898868148, -36.8920313451548], [174.518897261966, -36.8920239113597], [174.518895601327, -36.8920171272472], [174.518893852574, -36.8920109932479], [174.518892049364, -36.8920055089311], [174.518890222677, -36.8920005386955], [174.518888511396, -36.891995729231], [174.518886937424, -36.8919910532165], [174.51888548972, -36.8919865198067], [174.518884168106, -36.8919821199904], [174.51888297276, -36.8919778627788], [174.518881903682, -36.8919737481721], [174.518880960695, -36.8919697671588], [174.518880143797, -36.8919659197389], [174.518879464386, -36.8919622147804], [174.518878900024, -36.8919586525702], [174.518878472971, -36.89195522381], [174.518878172186, -36.8919519376547], [174.51887799767, -36.8919487941042], [174.518877949242, -36.8919457841471], [174.518878026905, -36.8919429077834], [174.518878230835, -36.8919401740246], [174.518878561034, -36.8919375828706], [174.518879028541, -36.8919351251667], [174.518879611097, -36.891932810211], [174.518880330961, -36.8919306287053], [174.518881108529, -36.8919285275852], [174.518881840149, -36.8919263729703], [174.51888250356, -36.8919241741589], [174.518883098585, -36.8919219221397], [174.518883636443, -36.8919196167692], [174.518884117312, -36.8919172670588], [174.518884541014, -36.8919148639971], [174.518884896329, -36.8919124077275], [174.518885194477, -36.8919098981066], [174.518885424417, -36.8919073442892], [174.51888559719, -36.8919047371206], [174.518885712795, -36.8919020766007], [174.518885771233, -36.8918993627294], [174.518885761464, -36.8918966046617], [174.518885694527, -36.8918937932427], [174.518885559204, -36.8918909286157], [174.518885366892, -36.891888019649], [174.518885117234, -36.8918850483195], [174.518884799368, -36.8918820327935], [174.518884424514, -36.8918789729276], [174.518883992314, -36.8918758506991], [174.518883424234, -36.8918726671118], [174.518882640848, -36.8918693781129], [174.518881619895, -36.8918659930007], [174.518880372594, -36.8918625116316], [174.518878898768, -36.8918589249943], [174.518877198594, -36.8918552421001], [174.518875272074, -36.8918514629491], [174.518873119027, -36.8918475785298], [174.518870739634, -36.8918435978537], [174.518868133893, -36.8918395209207], [174.518865301627, -36.8918353387193], [174.518862243014, -36.891831060261], [174.518858958054, -36.8918266855458], [174.518855446747, -36.8918222145737], [174.518851697696, -36.8918176384765], [174.518847733338, -36.8918129569676], [174.518843531593, -36.8918081883564], [174.518839114542, -36.8918033143334], [174.518834459925, -36.8917983441967], [174.518829590003, -36.891793268648], [174.518824482515, -36.8917880969857], [174.518819395858, -36.8917828439334], [174.518814543019, -36.8917774977547], [174.518809935751, -36.8917720853402], [174.5188055623, -36.8917665797993], [174.518801445461, -36.891760998868], [174.518797562796, -36.891755342833], [174.518793925345, -36.8917496025397], [174.518790533109, -36.8917437779879], [174.518787375046, -36.8917378783327], [174.518784473417, -36.8917318942757], [174.518781805962, -36.8917258351152], [174.51877938372, -36.8917196916964], [174.518777206872, -36.8917134730308], [174.518775264018, -36.8917071702503], [174.518773566378, -36.8917007832116], [174.51877212535, -36.8916943207826], [174.518770918496, -36.8916877832502], [174.518769945636, -36.891681161603], [174.518769229209, -36.8916744555542], [174.518768746955, -36.891667674402], [174.518768509914, -36.8916608089915], [174.518768406968, -36.8916539148257], [174.518768348898, -36.8916470200862], [174.518768346924, -36.8916401246295], [174.518768389826, -36.891633228599], [174.518768488645, -36.89162632284], [174.518768643738, -36.8916194253753], [174.518768843708, -36.8916125273369], [174.518769099774, -36.8916056285813], [174.518769400537, -36.8915987202405], [174.518769757574, -36.8915918201941], [174.518770159488, -36.8915849195739], [174.518770617497, -36.8915780182366], [174.518771131602, -36.8915711161821], [174.518771690404, -36.8915642045424], [174.51877230548, -36.8915573011971], [174.518772965433, -36.891550397278], [174.518773681481, -36.8915434926418], [174.518774453446, -36.891536578277], [174.518775270466, -36.8915296723498], [174.518776132363, -36.891522765849], [174.518777061573, -36.8915158584876], [174.518778034053, -36.8915088694497], [174.518779083102, -36.8915017802821], [174.518780197323, -36.8914945821169], [174.518781387755, -36.8914872657993], [174.518782632319, -36.8914798496389], [174.518783942055, -36.8914723244809], [174.518785328002, -36.8914646811704], [174.518786779299, -36.8914569378736], [174.518788295768, -36.8914490855793], [174.518789877409, -36.8914411242873], [174.51879152422, -36.8914330539977], [174.518793236203, -36.8914248747104], [174.518795013179, -36.8914165774141], [174.518796866724, -36.8914081799881], [174.51879878544, -36.8913996735645], [174.518800758108, -36.8913910582867], [174.518802807167, -36.8913823338678], [174.518804921397, -36.8913735004512], [174.518807100798, -36.891364558037], [174.518809356589, -36.8913555064817], [174.51881166669, -36.891346364095], [174.518814159152, -36.891337363596], [174.518816846802, -36.8913285859441], [174.518819730176, -36.8913200581735], [174.518822819956, -36.8913117531066], [174.518826105103, -36.8913036798982], [174.518829597014, -36.8912958474162], [174.518833284292, -36.8912882467926], [174.518837167114, -36.8912808870388], [174.518841267562, -36.8912737498452], [174.518845552335, -36.8912668536648], [174.518850043694, -36.8912601891994], [174.518854741639, -36.8912537564488], [174.518859635128, -36.891247564568], [174.518864723983, -36.8912416045455], [174.518870019424, -36.8912358762378], [174.518875521449, -36.8912303796448], [174.518881218841, -36.8912251149102], [174.518887111778, -36.8912200910451], [174.5188932113, -36.8912152988948], [174.518899506188, -36.8912107386025], [174.518905985045, -36.8912064013004], [174.518912307906, -36.8912021200747], [174.518918394987, -36.8911978328494], [174.518924246825, -36.891193566659], [174.518929862884, -36.8911892944692], [174.518935254739, -36.8911850341593], [174.518940399953, -36.8911807860165], [174.518945309567, -36.8911765408857], [174.518949994799, -36.8911722986236], [174.518954433391, -36.8911680685286], [174.518958647779, -36.8911638503137], [174.51896261517, -36.891159626243], [174.518966358357, -36.8911554140525], [174.518969854904, -36.8911512140292], [174.518973127069, -36.8911470168747], [174.518976152416, -36.8911428228759], [174.518978953559, -36.8911386407574], [174.518981519281, -36.8911344706627], [174.518983849224, -36.8911302945689], [174.518985932527, -36.8911261306422], [174.518987791627, -36.891121978596], [174.518989437744, -36.8911178382866], [174.518991085468, -36.89111377908], [174.518992757595, -36.8911098187121], [174.518994465342, -36.8911059570394], [174.518996208712, -36.8911021940619], [174.518997976305, -36.8910985209117], [174.518999779519, -36.8910949464568], [174.519001618355, -36.8910914706971], [174.519003481415, -36.8910880847646], [174.519005380096, -36.8910847975274], [174.519007314399, -36.8910816089854], [174.519009284323, -36.8910785191387], [174.519011278471, -36.8910755191192], [174.51901330824, -36.8910726177949], [174.519015373631, -36.8910698151659], [174.519017463425, -36.8910671113755], [174.519019588661, -36.8910644972689], [174.519021749519, -36.8910619818576], [174.519023934779, -36.8910595652849], [174.519026166879, -36.891057247264], [174.519028411985, -36.8910550192138], [174.519030692533, -36.8910528808474], [174.519032895798, -36.891050806565], [174.519035043683, -36.8910487690456], [174.519037102886, -36.8910467867422], [174.519039106888, -36.8910448502131], [174.519041033427, -36.8910429687567], [174.519042882326, -36.8910411333615], [174.519044664804, -36.8910393438841], [174.519046369642, -36.891037600468], [174.519048008237, -36.891035911981], [174.51904956937, -36.8910342785667], [174.519051063903, -36.8910326820588], [174.519052492194, -36.8910311404801], [174.519053842845, -36.8910296449627], [174.519055116034, -36.8910282045179], [174.519056322801, -36.8910268099909], [174.519057463148, -36.8910254613818], [174.519058526032, -36.8910241678453], [174.519059522496, -36.8910229202266], [174.519060441498, -36.8910217276806], [174.519061282681, -36.8910205721845], [174.519062079881, -36.8910194623192], [174.519062876367, -36.8910183164083], [174.519063694754, -36.8910171431762], [174.519064512606, -36.8910159429098], [174.51906535236, -36.8910147153223], [174.519066202619, -36.8910134515457], [174.519067063561, -36.8910121605913], [174.519067935187, -36.8910108424592], [174.519068817316, -36.891009488138], [174.519069710129, -36.891008106639], [174.519070624666, -36.8910066888075], [174.519071550064, -36.8910052528096], [174.519072474749, -36.8910037807661], [174.519073421156, -36.89100227239], [174.519074378247, -36.8910007368362], [174.519075346021, -36.8909991741046], [174.519076335697, -36.8909975840519], [174.519077324659, -36.8909959579535], [174.519078335523, -36.8909943045339], [174.519079345851, -36.8909926240801], [174.519080377903, -36.8909909072936], [174.519081431321, -36.8909891361518], [174.519082572169, -36.8909872467138], [174.519083766613, -36.8909852303987], [174.519085048486, -36.8909830957874], [174.519086406213, -36.8909808250007], [174.519087828933, -36.8909784362048], [174.519089338905, -36.8909759201014], [174.519090913868, -36.8909732859887], [174.519092564864, -36.890970524712], [174.519094291893, -36.8909676362712], [174.519096094954, -36.8909646206663], [174.519097974227, -36.8909614869087], [174.519099918313, -36.8909582261305], [174.519101949651, -36.8909548380448], [174.519104045802, -36.8909513229384], [174.519106218164, -36.8909476896793], [174.519108466558, -36.8909439292561], [174.519110790986, -36.8909400416688], [174.519113191624, -36.8909360359288], [174.519115657075, -36.8909319031682], [174.519118209778, -36.8909276430999], [174.519120849018, -36.8909232196784], [174.51912360738, -36.8909185784047], [174.519126484507, -36.8909137012561], [174.519129491797, -36.8909085971003], [174.519132629428, -36.890903274949], [174.519135885645, -36.8908977079112], [174.519139260985, -36.8908919230212], [174.519142766487, -36.8908859111241], [174.519146390753, -36.8908796633519], [174.519150145361, -36.8908731975841], [174.519154018733, -36.8908664959411], [174.519158022267, -36.890859567291], [174.519162144566, -36.8908524027659], [174.519166385986, -36.8908450203884], [174.519170757568, -36.8908374110038], [174.519175247915, -36.890829565744], [174.519179868423, -36.8908214934771], [174.519184607874, -36.8908131943463], [174.519189477487, -36.8908046682084], [174.519194466043, -36.8907959152066], [174.519199584581, -36.8907869261863], [174.519204702939, -36.8907779281542], [174.519209681344, -36.8907692293639], [174.519214519616, -36.8907608208038], [174.519219206537, -36.8907527026175], [174.519223742286, -36.8907448838164], [174.519228126684, -36.8907373553891], [174.519232382347, -36.8907301260601], [174.519236475441, -36.8907231872484], [174.519240428581, -36.8907165476785], [174.519244230371, -36.8907101984824], [174.51924788081, -36.8907041396602], [174.519251391297, -36.8906983800798], [174.51925476183, -36.8906929197412], [174.519257981014, -36.8906877497766], [174.519261048847, -36.8906828701859], [174.519263965508, -36.8906782899805], [174.519266742217, -36.890674009017], [174.519269367575, -36.8906700184274], [174.519271852803, -36.8906663180683], [174.519274186859, -36.8906629170946], [174.519276380785, -36.8906598063514], [174.519278465378, -36.8906568412256], [174.519280505095, -36.8906538766737], [174.519282488539, -36.8906509038276], [174.519284415887, -36.890647931699], [174.519286298181, -36.8906449511327], [174.51928812438, -36.8906419712838], [174.519289894306, -36.8906389831408], [174.519291619355, -36.8906359955717], [174.519293288131, -36.8906329997086], [174.519294900812, -36.8906300045628], [174.519296468438, -36.8906270009794], [174.51929797979, -36.890623989102], [174.519299435048, -36.8906209779419], [174.51930084543, -36.8906179673558], [174.519302188319, -36.890614948619], [174.519303497551, -36.8906119303127], [174.519304739291, -36.8906089038558], [174.519305936155, -36.8906058779728], [174.519307087964, -36.8906028436522], [174.519308172281, -36.8905998011811], [174.519309211721, -36.8905967592839], [174.519310195067, -36.890593718104], [174.519311133359, -36.8905906684866], [174.519312015555, -36.8905876195866], [174.519312841657, -36.890584571404], [174.519313611485, -36.8905815149273], [174.519314336616, -36.890578468036], [174.519315005294, -36.8905754038392], [174.519315618057, -36.8905723493712], [174.519316174546, -36.8905692866091], [174.519316686159, -36.890566224421], [174.519317141499, -36.8905631539388], [174.519317540922, -36.8905600931854], [174.519317895113, -36.8905570149831], [174.519318193387, -36.8905539465096], [174.519318435388, -36.8905508697421], [174.519318621294, -36.8905477936919], [174.519318762324, -36.8905447182156], [174.519318847081, -36.8905416344453], [174.519318875743, -36.8905385513924], [174.51931884831, -36.8905354690569], [174.519318775823, -36.8905323782839], [174.519318779725, -36.8905291783695], [174.519318892601, -36.8905258148148], [174.519319148287, -36.8905222962007], [174.519319512769, -36.890518604935], [174.519320019882, -36.8905147495986], [174.519320647366, -36.8905107394897], [174.519321394865, -36.8905065565857], [174.519322273955, -36.8905022187658], [174.519323284457, -36.8904977170186], [174.519324415152, -36.8904930514877], [174.51932567708, -36.8904882130181], [174.519327070599, -36.8904832196326], [174.519328573092, -36.8904780626068], [174.519330218394, -36.8904727505217], [174.51933198371, -36.8904672656413], [174.519333880439, -36.8904616168336], [174.51933589736, -36.8904558042421], [174.519338045871, -36.8904498367347], [174.519340314397, -36.8904436964321], [174.519342714513, -36.8904374012135], [174.519345223602, -36.8904309423546], [174.519347584702, -36.8904243772239], [174.519349686337, -36.8904177433018], [174.519351528149, -36.8904110225655], [174.519353110318, -36.8904042240264], [174.519354444063, -36.8903973475411], [174.519355518164, -36.8903903932531], [174.519356332622, -36.8903833611623], [174.519356887258, -36.8903762422574], [174.51935719347, -36.8903690454062], [174.519357240039, -36.8903617707523], [174.519357026965, -36.8903544182957], [174.519356554249, -36.8903469880363], [174.519355833108, -36.8903394798307], [174.519354852325, -36.8903318938223], [174.51935361172, -36.8903242209998], [174.519352111473, -36.8903164703745], [174.519350362802, -36.8903086418029], [174.519348354489, -36.8903007354286], [174.519346086534, -36.8902927512514], [174.519343570155, -36.8902846891279], [174.519340816751, -36.890276557926], [174.519338199939, -36.8902685241279], [174.519335821583, -36.8902606314994], [174.519333670463, -36.890252880184], [174.51933174658, -36.8902452701817], [174.519330049934, -36.8902378014925], [174.519328591743, -36.8902304739729], [174.519327360968, -36.8902232967779], [174.519326368469, -36.8902162517412], [174.519325591987, -36.8902093481611], [174.51932505396, -36.8902025857507], [174.519324754568, -36.8901959735213], [174.519324682232, -36.8901894935938], [174.519324837133, -36.8901831549793], [174.519325219269, -36.8901769576781], [174.519325840039, -36.890170910558], [174.519326687867, -36.8901649957396], [174.51932776293, -36.8901592222344], [174.519329076626, -36.8901535989103], [174.51933061738, -36.8901481078879], [174.519332385548, -36.8901427671901], [174.519334302062, -36.890137550787], [174.519335794044, -36.8901324299501], [174.519336748947, -36.8901273880915], [174.519337144157, -36.8901224164866], [174.519337002467, -36.8901175328715], [174.519336312481, -36.890112728378], [174.519335074019, -36.8901079939949], [174.519333298659, -36.8901033476014], [174.519330963783, -36.890098780473], [174.519328091651, -36.8900942833114], [174.519324682621, -36.8900898741393], [174.519320713896, -36.8900855352208], [174.519316208274, -36.8900812842917], [174.519311154177, -36.8900771034727], [174.519305551962, -36.8900730107864], [174.519299401273, -36.89006898821], [174.519292713507, -36.8900650446113], [174.519285477625, -36.8900611891451], [174.519277693268, -36.8900574037885], [174.519269360615, -36.8900536975528], [174.519260491064, -36.8900500793057], [174.519251185049, -36.8900465207219], [174.519242014734, -36.8900430144841], [174.519233058114, -36.890039532554], [174.519224304327, -36.8900360930979], [174.519215775634, -36.8900326868176], [174.519207460814, -36.8900293138564], [174.519199348649, -36.890025974358], [174.519191461756, -36.8900226770468], [174.519183777517, -36.8900194131985], [174.519176318371, -36.8900161825261], [174.51916906188, -36.8900129853165], [174.519162019263, -36.8900098214265], [174.519155190697, -36.8900066998674], [174.519148587225, -36.8900036114844], [174.519142175188, -36.8900005567079], [174.519135999462, -36.889997534964], [174.519130015351, -36.8899945558382], [174.519124256332, -36.8899916098887], [174.519118711186, -36.8899886972588], [174.519113379914, -36.8899858179487], [174.519108251297, -36.8899829721018], [174.51910333691, -36.8899801775976], [174.519098558578, -36.8899774534631], [174.519093927521, -36.8899747995549], [174.519089444096, -36.8899722338957], [174.519085107945, -36.8899697384629], [174.519080908206, -36.8899673314227], [174.519076866961, -36.8899649944653], [174.519072950731, -36.8899627370327], [174.519069192994, -36.8899605496829], [174.51906557167, -36.8899584507258], [174.51906209762, -36.8899564219951], [174.519058771022, -36.8899544725021], [174.519055580659, -36.8899526023905], [174.519052548967, -36.8899508113733], [174.519049642291, -36.8899490998809], [174.519046894107, -36.8899474584714], [174.519044282157, -36.8899458964433], [174.519041828878, -36.8899444135096], [174.519039500615, -36.8899430101007], [174.519037331023, -36.8899416857863], [174.519035297486, -36.8899404318418], [174.519033294213, -36.88993900625], [174.519031027159, -36.889936727729], [174.519028462132, -36.8899335696749], [174.519025610172, -36.8899295229329], [174.51902247128, -36.8899245875029], [174.519019045635, -36.8899187723963], [174.519015333057, -36.8899120686016], [174.519011322507, -36.8899044852737], [174.519007036066, -36.8898960041029], [174.519002451831, -36.8898866524101], [174.518997580665, -36.8898764120292], [174.518992422569, -36.8898652829599], [174.518986966323, -36.8898532653459], [174.518981234545, -36.8898403679114], [174.518975204796, -36.8898265909434], [174.51896888794, -36.8898119162755], [174.518962284333, -36.8897963619306], [174.518955393976, -36.8897799279084], [174.51894821669, -36.8897626051976], [174.518940752477, -36.889744393798], [174.518932990297, -36.8897253028645], [174.518925120187, -36.8897058617759], [174.518917455087, -36.8896871391619], [174.518910028831, -36.8896691436036], [174.518902819339, -36.889651893411], [174.518895837651, -36.8896353794291], [174.518889072369, -36.88961959279], [174.518882535069, -36.8896045513732], [174.518876225392, -36.8895902371559], [174.518870143696, -36.889576668161], [174.518864278584, -36.8895638355205], [174.518858652313, -36.8895517299363], [174.518853242804, -36.889540369718], [174.518848049877, -36.8895297458542], [174.518843095969, -36.8895198580583], [174.518838358465, -36.8895106976055], [174.51883384894, -36.8895022823754], [174.518829555997, -36.8894946035], [174.518825490853, -36.889487660836], [174.518821653331, -36.8894814453718], [174.518818043787, -36.8894759751305], [174.518814662042, -36.8894712411005], [174.518811378083, -36.8894669114371], [174.518808059576, -36.8894625371467], [174.518804694944, -36.8894581003499], [174.518801273147, -36.8894536102017], [174.518797816444, -36.8894490574036], [174.518794302576, -36.889444451254], [174.518790753981, -36.889439791466], [174.518787148042, -36.8894350693151], [174.518783496157, -36.8894302936692], [174.518779798327, -36.8894254645283], [174.518776054371, -36.889420572881], [174.518772253251, -36.8894156278822], [174.518768417404, -36.889410629245], [174.518764535611, -36.8894055771127], [174.518760596474, -36.8894004626175], [174.518756622611, -36.8893952944839], [174.518752591404, -36.8893900639872], [174.518748514251, -36.8893847799955], [174.518744391152, -36.8893794425088], [174.518740221929, -36.8893740425157], [174.518738172135, -36.8893714006631]]}, "properties": {"OBJECTID": 2692, "TRACKNAME": "Cascade Track", "CONDITIONSOFUSE": "Waitakere North Regional Park", "STATUS": "Temp Closed", "WEBLINK": "https://www.aucklandcouncil.govt.nz/en/parks-recreation/find-park-beach/park-detail/3407.html", "VALIDATIONSTATE": 3, "created_user": "AC_owner", "last_edited_user": "AC_owner", "last_edited_date": 1789875254325, "created_date": 1789875254325, "PARK_SAPSITEID": null, "TRACK_ID": null, "KAURIDIEBACK_TRACK": null, "KAURIDIEBACK_MITIGATED": null, "SegmentID": null, "GlobalID": "f5930f01-3584-4391-89d7-a406c17b08f6", "Shape__Length": 698.1600868925016}}, {"type": "Feature", "id": 3220, "geometry": {"type": "LineString", "coordinates": [[174.524108074218, -36.8927367626978], [174.524071666426, -36.8926766667717], [174.524066666535, -36.8926316669514], [174.524071666797, -36.892593333361], [174.52407666653, -36.892556666409], [174.524083333866, -36.8925199996956], [174.524083333486, -36.8924783329966], [174.524098333805, -36.8924433332716], [174.524093333542, -36.8924066666161], [174.524083333263, -36.8923683334769], [174.524070862426, -36.8923436273872], [174.524075379577, -36.8923399729722], [174.52407960467, -36.8923363042765], [174.524083515267, -36.892332621588], [174.524087111189, -36.8923289158953], [174.524090415232, -36.8923252049333], [174.524093404779, -36.8923214799787], [174.52409609105, -36.8923177408874], [174.524098462824, -36.8923139878034], [174.524100542541, -36.8923102204388], [174.524102307762, -36.8923064390816], [174.524103769886, -36.8923026525992], [174.524104917335, -36.8922988431127], [174.524105772726, -36.8922950193458], [174.524106313801, -36.8922911905976], [174.524106551421, -36.8922873387015], [174.524106474723, -36.8922834818241], [174.52410610579, -36.8922796016549], [174.52410542254, -36.8922757165044], [174.524104435835, -36.8922718082059], [174.524103134814, -36.8922678949263], [174.524101541736, -36.8922639673661], [174.524099633983, -36.8922600168018], [174.524097636836, -36.8922560854117], [174.524095775035, -36.89225218834], [174.524094048403, -36.8922483165752], [174.524092457297, -36.8922444881402], [174.524090990139, -36.8922406851561], [174.524089647109, -36.8922369166343], [174.524088450825, -36.8922331912983], [174.52408737849, -36.8922294914132], [174.524086441501, -36.8922258258465], [174.524085628461, -36.8922221857307], [174.524084950948, -36.8922185889448], [174.524084408781, -36.8922150264771], [174.524084001782, -36.8922114893165], [174.52408371909, -36.8922079956296], [174.524083571565, -36.8922045272497], [174.524083548168, -36.8922010933322], [174.524083671338, -36.892197693589], [174.524083907415, -36.8921943284522], [174.524084290059, -36.8921909974898], [174.524084796831, -36.8921877009897], [174.52408543877, -36.8921844297967], [174.524086216234, -36.8921812019334], [174.524087106249, -36.8921779906536], [174.524087972751, -36.8921747255932], [174.524088781364, -36.8921713711386], [174.52408952105, -36.892167936445], [174.524090180409, -36.8921644126449], [174.5240907931, -36.8921607993067], [174.524091325465, -36.892157096862], [174.524091788901, -36.8921533141783], [174.524092183052, -36.8921494332328], [174.524092519494, -36.8921454719045], [174.524092787008, -36.8921414303372], [174.524092985236, -36.8921372905081], [174.524093114537, -36.8921330704401], [174.524093174909, -36.892128770133], [174.524093177215, -36.8921243714203], [174.524093110593, -36.8921198924686], [174.524092963645, -36.8921153244106], [174.524092758809, -36.8921106669581], [174.524092484866, -36.8921059202554], [174.524092153215, -36.8921010931697], [174.524091741238, -36.8920961769776], [174.524091271552, -36.8920911804025], [174.524090721361, -36.8920860857097], [174.524090101705, -36.8920808837436], [174.524089310178, -36.8920755037087], [174.524088380078, -36.8920699271501], [174.524087289148, -36.8920641633673], [174.524086037387, -36.8920582123602], [174.524084624615, -36.8920520651175], [174.524083062232, -36.8920457305064], [174.524081338839, -36.8920391996597], [174.524079465834, -36.8920324814447], [174.524077431998, -36.8920255760054], [174.524075237331, -36.8920184833418], [174.524072892874, -36.8920111942985], [174.524070387587, -36.8920037180308], [174.524067732508, -36.8919960453834], [174.524064916599, -36.8919881855116], [174.52406193986, -36.8919801384154], [174.524058802112, -36.8919718950834], [174.524055514931, -36.8919634733945], [174.524052077781, -36.8919548463144], [174.524048468761, -36.8919460411651], [174.52404472117, -36.8919370394921], [174.524040801531, -36.8919278507386], [174.524036728875, -36.8919183034], [174.524041466056, -36.8919127352603], [174.524046014481, -36.8919072686924], [174.524050374152, -36.8919019036966], [174.524054534028, -36.891896649428], [174.52405849411, -36.8918915058868], [174.524062265616, -36.891886472929], [174.524065837149, -36.8918815416873], [174.524069220106, -36.8918767210289], [174.524072403269, -36.891872011098], [174.524075397678, -36.8918674027392], [174.524078192292, -36.8918629051078], [174.524080798332, -36.89185851806], [174.524083204398, -36.8918542327282], [174.524085421888, -36.8918500579799], [174.524087439585, -36.8918459939591], [174.524089268528, -36.8918420315105], [174.524090897677, -36.8918381797895], [174.524092327032, -36.8918344387959], [174.524093567633, -36.8918307993744], [174.524094619659, -36.8918272705366], [174.524095471891, -36.8918238524264], [174.524096135369, -36.8918205358883], [174.524096599053, -36.8918173300777], [174.524096994886, -36.8918140980966], [174.524097344766, -36.8918108126228], [174.524097648874, -36.8918074826677], [174.52409791807, -36.8918040900647], [174.524098130275, -36.8918006531243], [174.524098296528, -36.8917971626913], [174.524098428049, -36.8917936186217], [174.524098513797, -36.8917900300709], [174.524098542195, -36.8917863791599], [174.52409853604, -36.8917826836238], [174.524098483754, -36.8917789255836], [174.524098385696, -36.8917751230621], [174.524098241865, -36.8917712760594], [174.524098063123, -36.8917673664087], [174.52409782721, -36.8917634034093], [174.524097545525, -36.8917593959286], [174.524097229107, -36.8917553348113], [174.524096866738, -36.8917512202014], [174.524096447198, -36.8917470522428], [174.524095992925, -36.8917428306475], [174.524095492701, -36.8917385555596], [174.524094946705, -36.8917342359905], [174.524094344255, -36.8917298991182], [174.524093642625, -36.8917256536552], [174.524092830954, -36.8917215177684], [174.524091909243, -36.8917174914575], [174.524090877312, -36.8917135657114], [174.52408974656, -36.8917097493973], [174.524088505767, -36.8917060426594], [174.524087154754, -36.891702436486], [174.5240856937, -36.8916989398888], [174.524084133826, -36.8916955527236], [174.524082463731, -36.8916922661231], [174.524080683596, -36.8916890890986], [174.52407880464, -36.8916860215062], [174.524076804424, -36.8916830636338], [174.524074705207, -36.8916802061821], [174.524072507169, -36.8916774581624], [174.524070187692, -36.8916748108513], [174.524067769394, -36.8916722729722], [174.524065241055, -36.8916698446692], [174.524062602676, -36.8916675259421], [174.524059865296, -36.8916653076357], [174.524057017875, -36.8916631989053], [174.524054060235, -36.8916611907395], [174.524051057719, -36.8916591831492], [174.524048075132, -36.8916570491115], [174.524045123695, -36.8916547884824], [174.524042181147, -36.8916524105611], [174.524039258528, -36.8916499061923], [174.524036356019, -36.8916472843874], [174.52403347344, -36.8916445361351], [174.52403061079, -36.8916416614352], [174.524027756851, -36.8916386604318], [174.52402493424, -36.8916355418484], [174.524022131738, -36.8916323058289], [174.524019348987, -36.8916289343505], [174.524016575305, -36.8916254545914], [174.524013832593, -36.8916218392294], [174.52401109877, -36.8916181065753], [174.524008396097, -36.8916142473299], [174.524005702314, -36.8916102707922], [174.524003039679, -36.8916061676632], [174.524000385756, -36.8916019382305], [174.523997751941, -36.8915975913619], [174.523995138057, -36.8915931180457], [174.523992555321, -36.8915885181382], [174.523989959217, -36.8915838102377], [174.523987216906, -36.8915790861854], [174.523984239354, -36.8915743831781], [174.523981060396, -36.8915697097955], [174.523977646017, -36.8915650484465], [174.523974030053, -36.8915604077107], [174.523970190067, -36.891555787876], [174.523966125878, -36.891551179931], [174.523961849065, -36.8915466017544], [174.52395734823, -36.8915420444788], [174.523952634591, -36.8915375079603], [174.523947707969, -36.8915329831874], [174.523942557504, -36.8915284883268], [174.523937194235, -36.8915240142232], [174.523931606765, -36.891519552009], [174.52392580667, -36.8915151195631], [174.523919782374, -36.8915106990066], [174.523913545275, -36.8915062992069], [174.523907084332, -36.8915019293193], [174.523900410407, -36.8914975711771], [174.52389351246, -36.8914932339356], [174.523886401709, -36.8914889174507], [174.523879066937, -36.8914846218664], [174.523871676428, -36.891480345024], [174.523864667726, -36.8914760813109], [174.523858108146, -36.891471829864], [174.52385197525, -36.8914675909708], [174.523846291476, -36.8914633643439], [174.523841034384, -36.891459150271], [174.523836215016, -36.8914549395969], [174.523831844949, -36.8914507502006], [174.523827901565, -36.8914465733585], [174.523824395904, -36.8914423999153], [174.523821328324, -36.8914382478939], [174.523818698467, -36.8914340992715], [174.523816506691, -36.891429972071], [174.523814741419, -36.8914258484135], [174.523813425268, -36.8914217370226], [174.523812547018, -36.8914176380422], [174.523812095631, -36.8914135606276], [174.523812093184, -36.8914094864682], [174.523812517421, -36.8914054248634], [174.523813379559, -36.891401375669], [174.523814690817, -36.8913973387413], [174.523816428757, -36.8913933143679], [174.52381860442, -36.8913892933937], [174.523820883025, -36.8913853702497], [174.523822917856, -36.8913816034653], [174.523824720311, -36.8913780019081], [174.523826290212, -36.8913745565666], [174.523827616519, -36.8913712765962], [174.523828710271, -36.8913681528415], [174.523829571469, -36.8913651853026], [174.523830189252, -36.8913623921462], [174.523830563082, -36.8913597463381], [174.523830704716, -36.8913572747686], [174.523830613616, -36.8913549504035], [174.523830279101, -36.8913528004208], [174.523829723073, -36.8913507974987], [174.523828912409, -36.8913489691029], [174.523827869192, -36.8913472969229], [174.523826593421, -36.8913457809587], [174.523825074055, -36.8913444303655], [174.523823322135, -36.8913432359881], [174.52382133784, -36.8913422068378], [174.523819109772, -36.8913413340471], [174.523816638109, -36.8913406266276], [174.523813945291, -36.8913400842911], [174.523811008162, -36.8913396712801], [174.523807955617, -36.8913390975029], [174.523804807945, -36.8913382545348], [174.523801565326, -36.8913371513873], [174.523798238978, -36.8913357879166], [174.523794817682, -36.8913341642663], [174.523791290219, -36.8913322805806], [174.523787678848, -36.89133012756], [174.523783983749, -36.8913277142161], [174.523780182483, -36.8913250408367], [174.523776297489, -36.8913221071338], [174.523772317368, -36.8913189042401], [174.523768242478, -36.8913154501782], [174.523764083681, -36.8913117267816], [174.523759818718, -36.8913077433493], [174.523755470027, -36.8913034995936], [174.523751026388, -36.8912989956583], [174.523746487623, -36.8912942225321], [174.52374186513, -36.8912891890823], [174.523737136471, -36.8912838955969], [174.523732324084, -36.891278341788], [174.523727416751, -36.8912725277995], [174.52372242551, -36.891266444476], [174.523717386527, -36.8912602175455], [174.523712519593, -36.8912541776958], [174.523707836822, -36.8912483698399], [174.523703326816, -36.8912427851103], [174.523699000973, -36.8912374323747], [174.523694847895, -36.8912323027654], [174.5236908788, -36.8912273961388], [174.52368708247, -36.8912227126385], [174.523683470302, -36.8912182611323], [174.523680042118, -36.8912140326086], [174.523676786877, -36.8912100362229], [174.523673715441, -36.8912062538084], [174.523670816948, -36.8912027035318], [174.523668102438, -36.8911993762379], [174.523665560871, -36.891196281082], [174.523663203288, -36.8911934089088], [174.523661029687, -36.8911907597183], [174.52365902903, -36.8911883426657], [174.523657212177, -36.8911861395845], [174.523655568266, -36.8911841686414], [174.523654108518, -36.8911824296923], [174.523652821355, -36.8911809048585], [174.523651718353, -36.8911796120189], [174.523650673955, -36.8911784446194], [174.523649562601, -36.891177296106], [174.523648384112, -36.8911761574674], [174.523647138846, -36.8911750467262], [174.523645837664, -36.8911739457159], [174.523644469526, -36.8911728635916], [174.523643023393, -36.8911718095088], [174.523641521344, -36.8911707651568], [174.523639952339, -36.8911697396909], [174.523638327597, -36.8911687329672], [174.52363662468, -36.8911677452734], [174.523634866026, -36.8911667763219], [174.523633040417, -36.8911658262565], [174.523631147852, -36.8911648950772], [174.523629188331, -36.8911639827839], [174.523627161854, -36.8911630893767], [174.523625068421, -36.8911622148556], [174.523622919073, -36.8911613500653], [174.523620702947, -36.8911605131724], [174.523618419866, -36.8911596951657], [174.52361606965, -36.8911588870335], [174.523613652657, -36.8911581067989], [174.52361116853, -36.8911573364389], [174.523608604436, -36.8911564949948], [174.523605948978, -36.8911555735991], [174.523603213195, -36.8911545630966], [174.523600374829, -36.8911534727864], [174.52359745596, -36.8911522843578], [174.523594445726, -36.8911510159777], [174.523591344128, -36.891149667646], [174.523588150808, -36.8911482213398], [174.523584877342, -36.8911466949381], [174.523581512333, -36.8911450795734], [174.523578055781, -36.8911433752456], [174.523574507865, -36.8911415909662], [174.523570879624, -36.8911397175798], [174.523567148621, -36.8911377553742], [174.523563337473, -36.8911357130731], [174.523559445822, -36.8911335726536], [174.523555451587, -36.8911313524263], [174.523551377029, -36.891129043092], [174.523547199887, -36.8911266539498], [174.523542942421, -36.8911241757006], [174.523538604632, -36.8911216083445], [174.52353416408, -36.891118952169], [174.52352965496, -36.8911162337768], [174.523525123582, -36.8911135246836], [174.523520559084, -36.8911108430561], [174.523515983547, -36.8911081705836], [174.52351138611, -36.8911055254329], [174.523506766414, -36.8911028895812], [174.523502124638, -36.8911002720398], [174.523497460783, -36.8910976728088], [174.523492774849, -36.8910950918881], [174.523488066835, -36.8910925292778], [174.523483336741, -36.8910899849778], [174.523478584568, -36.8910874589882], [174.523473810316, -36.891084951309], [174.523469025203, -36.8910824617962], [174.523464206613, -36.8910799817262], [174.523459377341, -36.891077528834], [174.52345451477, -36.8910750943961], [174.523449641161, -36.8910726691132], [174.523444734431, -36.891070271296], [174.523439816662, -36.8910678826338], [174.523434865774, -36.8910655214371], [174.523429903846, -36.8910631693956], [174.523424919839, -36.8910608356643], [174.523419970384, -36.8910585465583], [174.523415100358, -36.891056301502], [174.523410332379, -36.8910541092191], [174.523405643828, -36.8910519609859], [174.523401035064, -36.8910498748253], [174.523396528168, -36.8910478324267], [174.523392112277, -36.8910458519569], [174.523387775815, -36.8910439155369], [174.52338353018, -36.8910420320342], [174.523379375192, -36.8910401924375], [174.523375299992, -36.8910384149133], [174.523371315439, -36.8910366812952], [174.523367433111, -36.891035009462], [174.523363630213, -36.8910333816786], [174.523359906921, -36.8910318069565], [174.523356285676, -36.8910302850079], [174.523352743859, -36.8910288071092], [174.523349293049, -36.8910273911393], [174.523345932885, -36.8910260190755], [174.523342663549, -36.891024699929], [174.52333947382, -36.891023433844], [174.523336374919, -36.8910222206763], [174.523333366843, -36.8910210604261], [174.523330370883, -36.891019945089], [174.523327376176, -36.8910188928316], [174.523324393584, -36.8910178854873], [174.523321400847, -36.8910169323552], [174.523318409185, -36.8910160332914], [174.523315429638, -36.8910151791407], [174.523312440125, -36.8910143882135], [174.523309451508, -36.8910136423433], [174.523306464145, -36.8910129595528], [174.523303488896, -36.8910123216754], [174.523300503324, -36.8910117289988], [174.523297519005, -36.8910111994019], [174.52329454698, -36.8910107237295], [174.523291564632, -36.8910102932578], [174.523288583358, -36.8910099168545], [174.523285614556, -36.8910096033871], [174.523282635432, -36.8910093351204], [174.523279657203, -36.8910091119107], [174.523276680227, -36.8910089517807], [174.523273715366, -36.8910088365638], [174.523270740539, -36.8910087845705], [174.523267766608, -36.8910087776341], [174.523264781996, -36.8910087978757], [174.523261706377, -36.8910087561883], [174.523258539574, -36.8910086435603], [174.523255292805, -36.891008459848], [174.523251955031, -36.8910082142066], [174.523248525893, -36.8910078886132], [174.523245005749, -36.8910075010908], [174.523241405818, -36.8910070514954], [174.523237703305, -36.8910065220919], [174.523233921005, -36.8910059306154], [174.52323005874, -36.8910052680545], [174.523226094071, -36.8910045346969], [174.523222049436, -36.8910037302549], [174.523217902398, -36.8910028550162], [174.523213675573, -36.8910019177044], [174.523209368782, -36.8910009093082], [174.523204959588, -36.8909998301152], [174.523200470608, -36.8909986888491], [174.523195879044, -36.8909974677749], [174.523191207695, -36.8909961846276], [174.52318645638, -36.8909948303958], [174.523181602661, -36.8909934053671], [174.5231766722, -36.8909920714592], [174.523165115765, -36.8909972582846], [174.523153878948, -36.8910021525727], [174.52314298401, -36.8910067450244], [174.52313240887, -36.8910110539504], [174.523122164389, -36.8910150611842], [174.523112250747, -36.891018775737], [174.523102667944, -36.8910221976092], [174.52309341598, -36.8910253268007], [174.523084483636, -36.8910281634554], [174.52307589335, -36.8910307072858], [174.523067622506, -36.8910329495682], [174.52305968268, -36.8910349081816], [174.523052073515, -36.8910365651033], [174.523044795189, -36.8910379293448], [174.523037836485, -36.8910390010498], [174.523031219839, -36.8910397799309], [174.523024922636, -36.8910402572644], [174.523018956451, -36.8910404509292], [174.523013320928, -36.8910403429026], [174.523008016245, -36.8910399421961], [174.523003042402, -36.8910392488096], [174.522998246273, -36.8910384630078], [174.522993562693, -36.8910376937902], [174.522988980441, -36.8910369413009], [174.522984499698, -36.8910362145512], [174.522980120284, -36.8910355045297], [174.522975853419, -36.8910348110926], [174.522971687882, -36.8910341343837], [174.522967612635, -36.8910334835583], [174.522963649937, -36.8910328493174], [174.522959799786, -36.8910322316609], [174.522956039925, -36.8910316398879], [174.522952392433, -36.8910310556879], [174.522948835409, -36.8910305063829], [174.522945390754, -36.891029964651], [174.522942047608, -36.8910294486588], [174.52293881701, -36.8910289492511], [174.522935676522, -36.8910284667156], [174.522932648761, -36.891028009776], [174.52292972233, -36.8910275695647], [174.522926897228, -36.8910271460818], [174.522924162415, -36.8910267484826], [174.522921372044, -36.8910263786365], [174.52291844794, -36.8910260555732], [174.522915401323, -36.8910257791488], [174.522912220793, -36.8910255404958], [174.52290891775, -36.8910253484817], [174.522905480974, -36.8910252032503], [174.522901921505, -36.8910250956465], [174.522898228304, -36.8910250348253], [174.522894412409, -36.8910250116316], [174.522890462782, -36.8910250352206], [174.522886390641, -36.8910251054484], [174.522882195807, -36.8910252133036], [174.522877867061, -36.8910253589302], [174.522873404761, -36.8910255603507], [174.522868819589, -36.8910257903872], [174.522864100863, -36.8910260762177], [174.522859259445, -36.8910263996756], [174.522854295512, -36.8910267697723], [174.522849197668, -36.8910271776401], [174.522843977309, -36.8910276321466], [174.522838634258, -36.8910281242804], [174.522833382749, -36.8910287053775], [174.5228282673, -36.8910293568399], [174.522823276872, -36.8910300878228], [174.522818422862, -36.8910309071938], [174.522813682654, -36.8910318062292], [174.522809089903, -36.8910327844974], [174.522804622173, -36.8910338422863], [174.522800279464, -36.8910349795958], [174.522796073172, -36.8910362052934], [174.52279200312, -36.8910375103679], [174.522788058088, -36.8910388949629], [174.522784238077, -36.8910403590786], [174.522780554305, -36.8910419025712], [174.522776995732, -36.8910435345958], [174.522773573219, -36.8910452369859], [174.522770275905, -36.8910470279081], [174.522767114831, -36.8910488982071], [174.522764078777, -36.8910508480269], [174.522761179142, -36.891052886235], [174.522758404347, -36.8910549949524], [174.522755743354, -36.8910571833343], [174.522753127416, -36.8910593801524], [174.522750533737, -36.8910615676714], [174.522747973893, -36.8910637637704], [174.52274542509, -36.8910659507141], [174.522742910122, -36.8910681462377], [174.522740417413, -36.8910703324623], [174.52273795854, -36.8910725272668], [174.522735522105, -36.8910747217837], [174.522733107929, -36.8910769070015], [174.52273071637, -36.8910791009431], [174.522728358289, -36.8910812854418], [174.522726022824, -36.8910834786643], [174.522723709798, -36.8910856715992], [174.522721430249, -36.8910878550912], [174.522719173317, -36.891090047307], [174.522716938645, -36.8910922302237], [174.522714737808, -36.8910944217204], [174.522712548011, -36.8910966040618], [174.52271039205, -36.8910987949832], [174.522708269746, -36.8911009854732], [174.522706146904, -36.891103148929], [174.522703977217, -36.8911052138344], [174.522701749466, -36.8911071803334], [174.52269947469, -36.8911090392707], [174.522697153069, -36.8911107996577], [174.522694762164, -36.891112461782], [174.522692324235, -36.8911140163445], [174.522689839281, -36.8911154633455], [174.522687296263, -36.8911168119399], [174.522684695181, -36.8911180621277], [174.522682047073, -36.8911192047539], [174.522679340723, -36.8911202399622], [174.522676576308, -36.8911211767639], [174.522673765048, -36.8911220150153], [174.522670906763, -36.891122745705], [174.522667990413, -36.8911233779882], [174.522665015821, -36.8911239028534], [174.522661983164, -36.8911243293121], [174.522658903482, -36.891124648209], [174.522655776777, -36.8911248595442], [174.522652580966, -36.8911249816281], [174.522649306086, -36.8911250776842], [174.522645855461, -36.8911253652803], [174.522642228911, -36.8911258354052], [174.522638426617, -36.89112649707], [174.52263443718, -36.8911273414073], [174.522630283216, -36.8911283771408], [174.522625942289, -36.8911296045581], [174.522621436835, -36.8911310233715], [174.522616744238, -36.8911326248573], [174.522611875895, -36.8911344178831], [174.522606842848, -36.8911363932935], [174.522601622836, -36.8911385603876], [174.522596227078, -36.8911409190216], [174.522590655576, -36.8911434691955], [174.522584908148, -36.8911462018977], [174.522578984975, -36.8911491261398], [174.522572885878, -36.8911522329102], [174.522566599815, -36.8911555313642], [174.522560149226, -36.8911590212141], [174.522553522712, -36.8911626935923], [174.522546709412, -36.8911665666653], [174.522539897364, -36.8911705028178], [174.522533308086, -36.8911743549916], [174.522526952795, -36.891178123043], [174.522520831492, -36.891181806972], [174.522514932958, -36.8911854069226], [174.522509268233, -36.8911889137393], [174.522503837676, -36.8911923454452], [174.522498629708, -36.8911956841613], [174.522493655729, -36.8911989387551], [174.522488904519, -36.8912021093706], [174.522484398337, -36.8912051867086], [174.522480115104, -36.8912081890798], [174.522476054461, -36.8912110984612], [174.522472227806, -36.8912139237205], [174.52246863514, -36.8912166648578], [174.522465276463, -36.891219321873], [174.522462140376, -36.8912218858986], [174.522459238278, -36.8912243658022], [174.522456570347, -36.8912267705952], [174.522454125007, -36.8912290823985], [174.522451913476, -36.8912313010685], [174.522449908543, -36.8912337514471], [174.522448092421, -36.8912366681182], [174.522446465291, -36.8912400600934], [174.522445026973, -36.8912439183611], [174.522443789044, -36.8912482608005], [174.522442728709, -36.8912530696763], [174.522441868584, -36.8912583537124], [174.522441186232, -36.8912641131962], [174.52244070409, -36.8912703478404], [174.522440410939, -36.8912770577885], [174.522440295382, -36.8912842341731], [174.522440380036, -36.8912918857179], [174.522440653681, -36.8913000125667], [174.522441116318, -36.8913086147196], [174.522441767947, -36.8913176921764], [174.522442608388, -36.8913272359259], [174.522443649041, -36.8913372548356], [174.522444867467, -36.8913477491931], [174.522446274884, -36.8913587188545], [174.522447882513, -36.8913701636761], [174.522449667737, -36.8913820749341], [174.522451328177, -36.8913944835445], [174.522452729026, -36.8914073822213], [174.522453859244, -36.8914207801197], [174.522454707433, -36.891434668372], [174.522455285169, -36.8914490648572], [174.522455603314, -36.8914639514089], [174.522455639429, -36.8914793283145], [174.522455405091, -36.8914952134531], [174.522454899942, -36.8915115888018], [174.522454112942, -36.8915284635159], [174.52245306635, -36.8915458282964], [174.522451749125, -36.8915636922984], [174.522450150048, -36.8915820556658], [174.522448280338, -36.8916009182547], [174.522446139816, -36.8916202710538], [174.522443728661, -36.8916401230743], [174.522441046872, -36.8916604743164], [174.52243809427, -36.8916813157685], [174.522434871034, -36.8917026564421], [174.522431365944, -36.8917244964809], [174.522427600186, -36.8917467725175], [174.522423700991, -36.8917685454969], [174.522419706972, -36.8917894994449], [174.52241560691, -36.8918096345051], [174.522411423062, -36.8918289413787], [174.522407133351, -36.8918474383761], [174.522402748814, -36.8918651163419], [174.522398258235, -36.89188197542], [174.52239368405, -36.8918980153229], [174.522389003642, -36.8919132273267], [174.522384239809, -36.8919276291666], [174.522379369932, -36.8919412121188], [174.522374405053, -36.891953967028], [174.522369345528, -36.8919659119171], [174.522364179961, -36.8919770379185], [174.52235893061, -36.8919873357331], [174.522353575395, -36.8919968236714], [174.522348125178, -36.8920054835667], [174.522342591535, -36.892013333298], [174.522336940452, -36.8920203552739], [174.522331205944, -36.8920265670858], [174.522325400484, -36.8920320316697], [174.522319726609, -36.8920373413344], [174.522314231704, -36.8920426216643], [174.522308927166, -36.8920478815273], [174.522303801417, -36.8920531030441], [174.522298854995, -36.8920583132492], [174.522294087364, -36.8920634851082], [174.522289510099, -36.8920686365002], [174.522285100584, -36.8920737587015], [174.522280881258, -36.8920788514245], [174.52227684108, -36.8920839238243], [174.52227299109, -36.8920889667458], [174.52226930885, -36.8920939804766], [174.522265816798, -36.8920989647292], [174.522262503895, -36.8921039286587], [174.522259369961, -36.8921088632537], [174.522256415175, -36.8921137775257], [174.522253650579, -36.8921186623196], [174.522251064951, -36.892123517779], [174.522248658293, -36.892128343904], [174.522246430783, -36.892133149706], [174.522244370666, -36.8921379082946], [174.522242420414, -36.8921425482973], [174.522240580026, -36.8921470697141], [174.522238826886, -36.8921514638213], [174.522237183432, -36.8921557303311], [174.522235638444, -36.8921598693875], [174.522234191924, -36.8921638809904], [174.522232844049, -36.8921677741512], [174.52223159464, -36.8921715398585], [174.522230454918, -36.8921751779686], [174.522229413842, -36.8921786976366], [174.522228471053, -36.8921820808397], [174.52222762691, -36.8921853456008], [174.522226881234, -36.8921884829084], [174.522226245423, -36.8921915016301], [174.522225696681, -36.8921943840308], [174.522225257804, -36.8921971478456], [174.522224917394, -36.892199784207], [174.522224675451, -36.8922022931149], [174.522224543373, -36.892204683437], [174.522224498364, -36.892206937438], [174.522224453534, -36.8922092004504], [174.522224045271, -36.8922118106401], [174.522223251676, -36.8922147953288], [174.522222084145, -36.8922181633842], [174.52222053128, -36.8922219059386], [174.522218604302, -36.8922260228483], [174.522216303387, -36.8922305231246], [174.52221361696, -36.8922353888884], [174.522210556776, -36.8922406470303], [174.522207111079, -36.8922462706596], [174.522203291446, -36.8922522776555], [174.522199097877, -36.8922586680179], [174.522194507575, -36.8922654240114], [174.522189554556, -36.8922725632276], [174.522184216203, -36.8922800769425], [174.522178503912, -36.8922879740238], [174.522172406286, -36.8922962456037], [174.522165934544, -36.8923048915383], [174.522159077646, -36.892313920983], [174.52215184663, -36.8923233247822], [174.522144241498, -36.8923331029361], [174.522136515458, -36.8923430088305], [174.522129186507, -36.8923525671161], [174.522122265864, -36.8923617776492], [174.522115741952, -36.892370622551], [174.52210962617, -36.892379110689], [174.522103918517, -36.8923872420634], [174.522098619174, -36.8923950256856], [174.522093716563, -36.8924024436766], [174.522089222082, -36.8924095049041], [174.522085135732, -36.8924162093681], [174.522081457512, -36.8924225570687], [174.522078176204, -36.8924285481497], [174.522075303027, -36.8924341824674], [174.522072837982, -36.8924394600217], [174.522070769848, -36.8924443809565], [174.522069121065, -36.8924489449843], [174.522067869016, -36.8924531433811], [174.522067014058, -36.8924569941699], [174.52206657845, -36.8924604880516], [174.522066539755, -36.8924636253139], [174.522066909013, -36.8924663968015], [174.522067465061, -36.8924689675946], [174.522067930281, -36.8924714854693], [174.52206832747, -36.8924739681607], [174.522068645229, -36.8924764068014], [174.52206888356, -36.8924788013912], [174.52206904246, -36.8924811519302], [174.522069122111, -36.8924834674297], [174.522069122332, -36.8924857388785], [174.522069043124, -36.8924879662765], [174.522068884486, -36.8924901496236], [174.522068646419, -36.8924922889199], [174.522068329102, -36.8924943931768], [174.522067932176, -36.8924964443715], [174.522067456, -36.8924984605267], [174.522066911613, -36.8925004324874], [174.522066276757, -36.8925023695524], [174.522065562293, -36.8925042535552], [174.522064768578, -36.8925061025185], [174.522063906653, -36.8925079072873], [174.522062954079, -36.892509668149], [174.522061933474, -36.8925113938275], [174.522060703103, -36.8925132934539], [174.522059210093, -36.8925155299519], [174.522057443403, -36.8925181124768], [174.522055391454, -36.8925210231496], [174.522053077045, -36.8925242797054], [174.522050477557, -36.8925278734205], [174.522047604209, -36.8925318041509], [174.522044457002, -36.8925360718968], [174.522041036114, -36.8925406856694], [174.522037341187, -36.892545627446], [174.522033372579, -36.8925509152493], [174.522029130111, -36.892556540068], [174.522024613783, -36.8925625019019], [174.522019812375, -36.8925688008948], [174.522014737107, -36.892575436903], [174.522009399198, -36.8925824097825], [174.522003776388, -36.8925897288324], [174.521997879717, -36.8925973848974], [174.521991709006, -36.8926053689661], [174.521985264613, -36.8926136990612], [174.521978557398, -36.8926223570162], [174.521971936895, -36.8926308606271], [174.521965567453, -36.8926390094869], [174.521959449074, -36.8926468035959], [174.521953570538, -36.8926542430976], [174.521947954283, -36.8926613277048], [174.521942588913, -36.8926680485497], [174.521937463387, -36.8926744147875], [174.521932588924, -36.8926804262746], [174.521927976564, -36.8926860738558], [174.521923604227, -36.8926913758413], [174.521919471556, -36.8926963142086], [174.521915601167, -36.8927008976814], [174.521911981663, -36.8927051173921], [174.521908613402, -36.8927089913637], [174.521905484806, -36.8927125017169], [174.521902607275, -36.8927156573195], [174.521899991847, -36.8927184490165], [174.521897616444, -36.892720895118], [174.521895491925, -36.8927229774576], [174.521893618471, -36.8927247050467], [174.521891973821, -36.8927260871841], [174.521890337707, -36.8927273340066], [174.521888655105, -36.8927285003015], [174.521886914796, -36.8927295862123], [174.52188512782, -36.8927305825839], [174.521883283138, -36.8927314985715], [174.521881380749, -36.8927323341751], [174.521879431872, -36.8927330892509], [174.521877425289, -36.8927337639426], [174.521875372039, -36.8927343490952], [174.521873261261, -36.8927348628752], [174.521871092598, -36.8927352872596], [174.521868877447, -36.8927356311164], [174.521866604589, -36.892735894589], [174.521864285065, -36.8927360685225], [174.521861908012, -36.8927361710833], [174.521859473075, -36.8927361842486], [174.52185699165, -36.8927361168861], [174.521854463737, -36.8927359689959], [174.521851866719, -36.8927357318538], [174.521849223393, -36.8927354231954], [174.521846511678, -36.8927350613308], [174.521843568116, -36.8927348917239], [174.521840370984, -36.8927349507075], [174.521836920282, -36.8927352382819], [174.52183321619, -36.8927357634582], [174.521829258349, -36.8927365082137], [174.521825047296, -36.8927374995826], [174.521820582495, -36.8927387105306], [174.521815875342, -36.8927401499254], [174.52181090358, -36.8927418270658], [174.521805678248, -36.8927437327967], [174.521800199524, -36.8927458761294], [174.52179447827, -36.8927482388973], [174.521788492406, -36.8927508394107], [174.521782264191, -36.8927536683707], [174.521775771366, -36.8927567350761], [174.52176903601, -36.8927600212166], [174.521762036043, -36.8927635451024], [174.521754793725, -36.8927672974347], [174.521747298015, -36.8927712873685], [174.521739548555, -36.8927754968809], [174.521731634742, -36.8927799067994], [174.52172395689, -36.8927843317223], [174.521716548479, -36.8927887622071], [174.521709420548, -36.8927931890986], [174.521702562237, -36.8927976305636], [174.521695973188, -36.8928020685791], [174.52168965358, -36.8928065121567], [174.521683603233, -36.892810952285], [174.521677833726, -36.8928154068431], [174.52167233348, -36.892819857952], [174.521667102675, -36.8928243146231], [174.521662141312, -36.8928287768565], [174.521657460429, -36.892833235497], [174.521653049167, -36.8928377087113], [174.521648907166, -36.8928421784764], [174.521645034607, -36.892846653804], [174.52164143131, -36.8928511256826], [174.521638108853, -36.8928556119912], [174.521635055658, -36.8928600948509], [174.521632271904, -36.8928645832731], [174.521629757592, -36.8928690772577], [174.521627410853, -36.8928735330411], [174.521624971854, -36.8928778638145], [174.52162240676, -36.8928820609974], [174.521619738008, -36.8928861243025], [174.521616954379, -36.8928900538735], [174.521614055874, -36.8928938497104], [174.521611042492, -36.8928975118131], [174.521607914411, -36.8929010491931], [174.521604671276, -36.8929044438276], [174.521601324661, -36.8929077135956], [174.521597862991, -36.892910840618], [174.521594275404, -36.8929138430614], [174.521590584159, -36.8929167116268], [174.521586778037, -36.892919446458], [174.521582857039, -36.8929220475551], [174.521578832383, -36.8929245147742], [174.521574681631, -36.8929268484028], [174.521570416003, -36.8929290482971], [174.521566046895, -36.8929311233249], [174.521561562733, -36.892933055607], [174.521556963872, -36.8929348631663], [174.521552262428, -36.8929365909159], [174.521547483521, -36.8929383737397], [174.521542626795, -36.8929401936148], [174.521537692249, -36.8929420505412], [174.521532680063, -36.8929439535302], [174.521527590056, -36.8929458935706], [174.521522422409, -36.8929478796736], [174.521517177121, -36.8929499118392], [174.521511865233, -36.8929519809124], [174.521506464484, -36.8929540961919], [174.521500985916, -36.8929562485227], [174.521495429706, -36.892958446916], [174.521489795677, -36.8929606823606], [174.521484084007, -36.8929629638677], [174.521478305736, -36.8929652822824], [174.521472438606, -36.8929676469033], [174.521466493834, -36.8929700575867], [174.521460471242, -36.8929725053213], [174.52145437083, -36.892974990107], [174.521448203997, -36.8929775208116], [174.521441948303, -36.8929800977224], [174.521435770249, -36.89298262857], [174.521429814255, -36.8929850393954], [174.521424080143, -36.8929873211871], [174.521418568091, -36.8929894829566], [174.521413289318, -36.8929915245602], [174.521408232606, -36.8929934461417], [174.521403386555, -36.8929952388333], [174.521398784825, -36.8929969022041], [174.521394394114, -36.8929984547079], [174.521390236505, -36.8929998780345], [174.521386289557, -36.8930011724714], [174.521382587109, -36.8930023465989], [174.521379095502, -36.8930034008481], [174.521375825955, -36.8930043350754], [174.52137278951, -36.8930051401256], [174.521369975125, -36.893005825154], [174.521367371402, -36.8930063812926], [174.521365012178, -36.893006817122], [174.521362863796, -36.8930071330732], [174.521360948515, -36.8930073198475], [174.521359244075, -36.8930073867435], [174.521357662332, -36.8930074160135], [174.521356137222, -36.8930074715992], [174.521354657347, -36.8930075446331], [174.521353234105, -36.8930076439827], [174.521351867139, -36.8930077516254], [174.521350545587, -36.8930078857275], [174.521349280488, -36.8930080371341], [174.521348060804, -36.8930082150002], [174.521346897574, -36.8930084101707], [174.521345779579, -36.8930086227892], [174.521344718038, -36.8930088527122], [174.52134371313, -36.8930091089511], [174.521342753457, -36.893009382638], [174.521341850239, -36.8930096736294], [174.521341003654, -36.8930099909366], [174.521340202303, -36.8930103256918], [174.521339446188, -36.8930106778953], [174.521338757746, -36.8930110472594], [174.521338103499, -36.8930114432267], [174.521337516925, -36.8930118563548], [174.521336975944, -36.8930123049538], [174.521336508361, -36.8930130590786], [174.521336127541, -36.8930142267223], [174.521335833306, -36.8930157988736], [174.521335626013, -36.8930177935552], [174.521335505305, -36.8930201927444], [174.521335471539, -36.8930230144639], [174.521335524358, -36.893026240691], [174.5213356529, -36.8930298895922], [174.521335879246, -36.8930339428571], [174.521336181137, -36.8930384097848], [174.521336569791, -36.8930432902313], [174.521337045208, -36.8930485841969], [174.521337607389, -36.8930542916813], [174.521338256334, -36.8930604126847], [174.521338991864, -36.8930669381957], [174.521339814336, -36.8930738862369], [174.521340712353, -36.8930812479408], [174.521341696955, -36.8930890141522], [174.521342779718, -36.8930972027502], [174.521343937848, -36.8931057959995], [174.521345170449, -36.8931147488429], [174.521346377571, -36.8931235487797], [174.521347522693, -36.8931320520584], [174.521348617393, -36.8931402765583], [174.521349650094, -36.8931482044001], [174.521350620974, -36.8931558445953], [174.521351541253, -36.8931631970002], [174.521352399532, -36.8931702527471], [174.521353207389, -36.893177029715], [174.521353942027, -36.8931835101687], [174.521354637462, -36.8931897116997], [174.521355270897, -36.8931956165728], [174.521355842511, -36.8932012337992], [174.521356363525, -36.8932065632354], [174.521356822717, -36.893211605025], [174.521357219909, -36.8932163501565], [174.521357566679, -36.8932208165092], [174.52135785145, -36.8932249862039], [174.521358085618, -36.8932288681083], [174.521358257966, -36.8932324623661], [174.521358379712, -36.8932357688336], [174.521358406695, -36.8932388241312], [174.521358264673, -36.8932418455383], [174.521357909661, -36.8932448786868], [174.521357341304, -36.8932479055537], [174.521356571177, -36.8932509440182], [174.521355598923, -36.8932539760575], [174.521354413501, -36.8932570108267], [174.52135302631, -36.8932600571935], [174.521351436992, -36.8932630971351], [174.521349634686, -36.8932661488179], [174.521347630252, -36.8932691940755], [174.521345424048, -36.8932722509307], [174.521343004498, -36.8932753015043], [174.521340383, -36.893278354664], [174.521337548513, -36.8932814195649], [174.521334511898, -36.8932844780406], [174.521331273514, -36.8932875481137], [174.521327821783, -36.8932906119052], [174.521324168104, -36.8932936782827], [174.521320312655, -36.8932967562577], [174.521316243859, -36.893299827951], [174.521312051471, -36.8933028922132], [174.521307980886, -36.8933058737921], [174.521304076802, -36.8933087631018], [174.521300317138, -36.8933115784523], [174.521296712756, -36.8933143016773], [174.521293252615, -36.8933169419317], [174.521289959155, -36.8933194989283], [174.521286809936, -36.8933219729544], [174.521283815999, -36.893324354855], [174.521280977702, -36.8933266626529], [174.521278283467, -36.8933288784689], [174.521275755913, -36.8933310110272], [174.5212733726, -36.893333060615], [174.52127114457, -36.8933350180773], [174.52126906096, -36.8933369015807], [174.521267143851, -36.8933386928148], [174.521265370984, -36.8933404010786], [174.521263753578, -36.8933420262284], [174.521262280414, -36.8933435684077], [174.521260973752, -36.893345018318], [174.521259811331, -36.8933463852578], [174.521258658698, -36.8933476799628], [174.521257179452, -36.8933489157543], [174.521255362373, -36.893350092776], [174.521253207462, -36.8933512110279], [174.521250714896, -36.8933522795214], [174.521247895538, -36.8933532800899], [174.521244727307, -36.8933542310437], [174.521241232283, -36.8933551140725], [174.521237399606, -36.8933559473428], [174.521233229096, -36.8933567218431], [174.521228720752, -36.8933574375735], [174.521223885796, -36.8933580943901], [174.521218713006, -36.8933586924367], [174.521213191164, -36.8933592318568], [174.521207342709, -36.8933597123631], [174.5212011566, -36.8933601431106], [174.521194632479, -36.8933605060765], [174.521187781923, -36.8933608191397], [174.521180582316, -36.8933610735763], [174.521173056094, -36.8933612690987], [174.521165180821, -36.8933614059943], [174.521157217045, -36.8933616071185], [174.521149482127, -36.8933620306541], [174.521141964849, -36.8933626767449], [174.521134676607, -36.8933635542586], [174.521127628444, -36.8933646540403], [174.521120798098, -36.8933659853886], [174.521114208009, -36.8933675480164], [174.52110783538, -36.8933693241881], [174.521101691966, -36.8933713407943], [174.521095777411, -36.8933735798124], [174.521090091714, -36.8933760412422], [174.521084646273, -36.8933787339516], [174.521079418471, -36.8933816492166], [174.521074419527, -36.8933847868935], [174.521069649799, -36.8933881650051], [174.52106510875, -36.8933917565173], [174.521060796737, -36.8933955794529], [174.521056713762, -36.8933996338119], [174.521052859645, -36.8934039105829], [174.521049234385, -36.893408409766], [174.521045838163, -36.8934131403725], [174.521042555028, -36.8934179145995], [174.521039281145, -36.8934225895573], [174.521036027375, -36.8934271470795], [174.521032782678, -36.893431596321], [174.521029547232, -36.8934359462933], [174.5210263319, -36.89344017883], [174.52102312582, -36.8934443120974], [174.521019928813, -36.8934483370842], [174.521016752098, -36.8934522536468], [174.521013595675, -36.8934560617852], [174.521010437106, -36.8934597617865], [174.521007298829, -36.8934633533636], [174.521004180845, -36.8934668365165], [174.521001060714, -36.8934702115323], [174.520997972095, -36.8934734779804], [174.520994881508, -36.8934766453028], [174.520991811035, -36.8934796951896], [174.520988761034, -36.8934826456635], [174.520985708886, -36.8934854880005], [174.520982676851, -36.8934882129019], [174.520979665288, -36.8934908383904], [174.520976596197, -36.8934933925057], [174.520973436457, -36.8934959027132], [174.520970196929, -36.8934983508461], [174.520966877792, -36.8935007459161], [174.520963468006, -36.8935030970781], [174.52095997861, -36.893505395177], [174.520956398387, -36.8935076403565], [174.520952738555, -36.893509832473], [174.520948988073, -36.8935119806814], [174.520945157803, -36.8935140668154], [174.520941248104, -36.8935161088976], [174.520937247576, -36.8935180980605], [174.520933167439, -36.8935200341602], [174.520928996474, -36.8935219173405], [174.5209247459, -36.8935237474576], [174.520920404677, -36.8935255336667], [174.520915983666, -36.8935272578012], [174.520911483225, -36.893528937884], [174.520906891955, -36.8935305650473], [174.520902209858, -36.893532139291], [174.52089745955, -36.8935336693393], [174.520892651893, -36.8935351370258], [174.520887809325, -36.8935365420632], [174.520882932027, -36.8935378934628], [174.520878031037, -36.8935391820696], [174.520873083919, -36.8935404081709], [174.520868102069, -36.8935415806345], [174.520863096528, -36.8935426903052], [174.520858045036, -36.8935437464819], [174.520852958635, -36.8935447400094], [174.520847848722, -36.8935456797555], [174.5208426925, -36.8935465479846], [174.520837501726, -36.8935473715874], [174.520832275863, -36.8935481235295], [174.520827026488, -36.8935488216903], [174.520821731163, -36.8935494663569], [174.520816400928, -36.8935500483743], [174.520811047002, -36.8935505675988], [174.520805646947, -36.8935510243178], [174.52080021216, -36.893551427399], [174.520794742643, -36.8935517768423], [174.520789249256, -36.8935520544814], [174.52078375426, -36.8935522510176], [174.520778268695, -36.8935523572958], [174.52077279274, -36.8935523823274], [174.520767326037, -36.8935523080897], [174.520761868766, -36.8935521435941], [174.520756420926, -36.8935518888405], [174.520750982696, -36.8935515528403], [174.520745542499, -36.8935511177145], [174.520740122953, -36.893550592187], [174.520734713017, -36.893549985413], [174.520729312333, -36.8935492793696], [174.520723921081, -36.8935484830684], [174.520719815048, -36.8935478136325]]}, "properties": {"OBJECTID": 3220, "TRACKNAME": "Cascade Track", "CONDITIONSOFUSE": "Waitakere North Regional Park", "STATUS": "Temp Closed", "WEBLINK": "https://www.aucklandcouncil.govt.nz/en/parks-recreation/find-park-beach/park-detail/3407.html", "VALIDATIONSTATE": 3, "created_user": "AC_owner", "last_edited_user": "AC_owner", "last_edited_date": 1789875254325, "created_date": 1789875254325, "PARK_SAPSITEID": null, "TRACK_ID": null, "KAURIDIEBACK_TRACK": null, "KAURIDIEBACK_MITIGATED": null, "SegmentID": null, "GlobalID": "e6dc0dbc-cc43-41ce-9d76-d1ba13aa4e5f", "Shape__Length": 651.4107127743104}}]}