{"type": "FeatureCollection", "features": [{"type": "Feature", "id": 10368, "geometry": {"type": "LineString", "coordinates": [[175.072025792418, -36.7887188376984], [175.072014447485, -36.7887549976967], [175.072007647276, -36.7887914629125], [175.072005333634, -36.788828521472], [175.072007470008, -36.7888667229087], [175.072012965699, -36.7889014606405], [175.072022058091, -36.7889389909887], [175.072062016549, -36.7890610995253], [175.072074121439, -36.789105886979], [175.072080762766, -36.7891525371527], [175.072079061835, -36.7891946956349], [175.072073486341, -36.7892206373816], [175.072064321339, -36.7892458350623], [175.072051483968, -36.78927051402], [175.072034893215, -36.7892948273276], [175.072014421809, -36.7893189465487], [175.071990007984, -36.7893429321001], [175.071961560163, -36.7893668736651], [175.071928992992, -36.7893908427591], [175.071917767357, -36.7893900325189], [175.071868820754, -36.7894003608912], [175.071868803172, -36.7894003738158], [175.071856868429, -36.7894234515465], [175.071824034457, -36.7894869277014], [175.07182403117, -36.7894869304627], [175.071708366122, -36.7895482771265], [175.071708359523, -36.789548281748], [175.071575730584, -36.7896728314848], [175.071575727272, -36.7896728333451], [175.071515714066, -36.7896827739475], [175.071515439593, -36.7896828183871], [175.071514196842, -36.7896830266096], [175.07150822822, -36.7896840156821], [175.071507986084, -36.7896840541504], [175.071506820303, -36.7896842493148], [175.071435923185, -36.7896960009537], [175.070456815966, -36.7897094785241], [175.070251575526, -36.7897350233704], [175.070199181746, -36.7897397384166], [175.070152871464, -36.7897419676301], [175.070104075571, -36.7897415624862], [175.070059490022, -36.7897379217789], [175.07001832658, -36.7897309790663], [175.069980193316, -36.7897206638635], [175.069941889566, -36.7897055575232], [175.069906565712, -36.7896862880887], [175.069874040436, -36.7896627558879], [175.069844196303, -36.7896348747517], [175.069816913686, -36.7896025227212], [175.069792156365, -36.7895656454889], [175.069769870713, -36.7895241628214], [175.069750018653, -36.7894780033382]]}, "properties": {"OBJECTID": 10368, "TRACKNAME": "Cath Mitchell Taraire Walk", "CONDITIONSOFUSE": "Catherine Mitchell Reserve", "STATUS": "Open", "WEBLINK": "https://www.aucklandcouncil.govt.nz/en/parks-recreation/find-park-beach/park-detail/184.html", "VALIDATIONSTATE": 3, "created_user": "AC_owner", "last_edited_user": "AC_owner", "last_edited_date": 1789875254325, "created_date": 1789875254325, "PARK_SAPSITEID": null, "TRACK_ID": null, "KAURIDIEBACK_TRACK": null, "KAURIDIEBACK_MITIGATED": null, "SegmentID": null, "GlobalID": "c4de39d1-b3ee-4148-8030-a151ba1f1a13", "Shape__Length": 304.64771710373907}}]}