{"type": "FeatureCollection", "features": [{"type": "Feature", "id": 12174, "geometry": {"type": "LineString", "coordinates": [[174.479479468896, -36.987266313373], [174.479535917237, -36.9873851392154], [174.47960165334, -36.9874271614381], [174.479652377528, -36.9874424741592], [174.479716831519, -36.9874461503716], [174.479954741707, -36.9874257156478], [174.479997331079, -36.9874410305065], [174.480007487758, -36.9874868011614], [174.479911693329, -36.9876992746946], [174.479884486909, -36.9877356142894], [174.479848925314, -36.98776290924], [174.479790172219, -36.9877844001332], [174.479553396178, -36.9878408207601], [174.479398869708, -36.9878613420676], [174.479329187808, -36.9879010322344], [174.479313668195, -36.9879293301107], [174.4793180786, -36.9879963454177], [174.479342632928, -36.9881096379045], [174.479369491212, -36.9881423199881], [174.479544627768, -36.9882129848678], [174.479733643231, -36.9883330422902], [174.47979947691, -36.9883655538134], [174.479972511187, -36.9884297364356], [174.480094986217, -36.9884401792287], [174.480262206304, -36.9883974063358], [174.48038008377, -36.988336446283], [174.480523569002, -36.9882245101965], [174.48065589973, -36.9880930454001], [174.480728365988, -36.9880584845206], [174.480797317642, -36.9880362169421], [174.480838597852, -36.9880309246888], [174.481148229866, -36.9880539396278], [174.481204289878, -36.9880679862783], [174.481247350124, -36.9880994381771], [174.481444280087, -36.9883018505629], [174.481532046584, -36.9884067190015]]}, "properties": {"OBJECTID": 12174, "TRACKNAME": "Cave Rock Track", "CONDITIONSOFUSE": "Waitakere West Regional Park", "STATUS": "Temp Closed", "WEBLINK": "https://www.aucklandcouncil.govt.nz/en/parks-recreation/find-park-beach/park-detail/3451.html", "VALIDATIONSTATE": 3, "created_user": "AC_owner", "last_edited_user": "AC_owner", "last_edited_date": 1789875254325, "created_date": 1789875254325, "PARK_SAPSITEID": null, "TRACK_ID": null, "KAURIDIEBACK_TRACK": null, "KAURIDIEBACK_MITIGATED": null, "SegmentID": null, "GlobalID": "7868f5ee-2d37-426e-bfe7-1a2e5fd4e716", "Shape__Length": 411.0161403212385}}]}