{"type": "FeatureCollection", "features": [{"type": "Feature", "id": 413, "geometry": {"type": "LineString", "coordinates": [[175.082966441967, -36.8174778164916], [175.082976705517, -36.8174917356906], [175.082980738652, -36.8174970187438], [175.082984893819, -36.8175022545933], [175.082987734243, -36.8175057198927], [175.082990703049, -36.8175093722155], [175.082993594154, -36.8175130529389], [175.082996396843, -36.8175167802768], [175.082997828763, -36.8175187380465], [175.083007275635, -36.8175322632648], [175.083014248941, -36.8175426231971], [175.083018612727, -36.8175493515497], [175.083022843521, -36.8175561363108], [175.083026907953, -36.8175629870783], [175.083029072702, -36.8175667526339], [175.083039166128, -36.8175846919086], [175.083049541419, -36.8176031039324], [175.083065691192, -36.8176261105385], [175.083081912355, -36.8176492691123], [175.083086011787, -36.8176549295464], [175.083090243969, -36.8176605245627], [175.083094608899, -36.8176660541614], [175.08309698722, -36.8176690138146], [175.083105537288, -36.8176796435375], [175.083111728789, -36.8176876287161], [175.083117423615, -36.8176954874036], [175.083122941119, -36.8177034213026], [175.08312609465, -36.8177080978679], [175.083132294276, -36.8177172095297], [175.083138682188, -36.8177262367742], [175.083141022776, -36.8177294584651], [175.083151409472, -36.8177433277204], [175.083162095283, -36.8177570655503], [175.083162744981, -36.8177578743481], [175.083166270933, -36.8177622289298], [175.083169885059, -36.8177665278881], [175.083173598808, -36.8177707800351], [175.083177411935, -36.8177749763623], [175.083181301788, -36.8177791082536], [175.083185291507, -36.8177832023424], [175.083187653226, -36.8177855493996], [175.083202264442, -36.8177997682231], [175.083216896363, -36.8178139235907], [175.083228397279, -36.8178250603938], [175.083239954468, -36.8178362052225], [175.083248686842, -36.8178444613166], [175.083250698986, -36.8178463187837], [175.083261503897, -36.817856178921], [175.083277243655, -36.8178702607861], [175.083292761734, -36.8178840220659], [175.083294073773, -36.8178852789178], [175.083295352686, -36.8178865543764], [175.083296598474, -36.8178878484416], [175.083297833545, -36.8178891607206], [175.083298792859, -36.8178902254684], [175.083306258026, -36.8178972239204], [175.083308054806, -36.8178985804323], [175.083326963543, -36.8179117054467], [175.083345699083, -36.8179246442203], [175.083356781783, -36.8179323453696], [175.083368012836, -36.8179401430607], [175.083369644933, -36.8179412140417], [175.083371287747, -36.8179422668089], [175.083372974647, -36.8179432917642], [175.08337467202, -36.817944289497], [175.083376391069, -36.8179452598107], [175.083378132284, -36.8179462207229], [175.083379905892, -36.8179471360022], [175.083381690461, -36.8179480420764], [175.083383485502, -36.817948920928], [175.083384393861, -36.8179493466443], [175.083388493781, -36.8179513027103], [175.083392538897, -36.8179533048019], [175.08339655211, -36.8179553705436], [175.08339861097, -36.8179564700961], [175.083404887694, -36.8179601545576], [175.083411088182, -36.8179639214721], [175.083417201231, -36.8179677710361], [175.083423215879, -36.8179717124546], [175.083423866282, -36.817972133679], [175.083429276569, -36.8179756981309], [175.083434774297, -36.8179791799327], [175.08344034826, -36.8179825792809], [175.083445998704, -36.8179859051841], [175.083451133449, -36.8179888165148], [175.083458538238, -36.8179927606039], [175.083466030224, -36.8179966130339], [175.083473586508, -36.8180003561803], [175.083477107411, -36.818002042989], [175.083484941621, -36.818005700146], [175.083492851089, -36.8180092388141], [175.083500847266, -36.8180126678056], [175.083503988149, -36.8180139827282], [175.083510209249, -36.8180164423893], [175.083516495137, -36.8180188107844], [175.083518816321, -36.8180196623852], [175.083521772064, -36.8180207642403], [175.083524694925, -36.8180218937107], [175.083527585637, -36.8180230778227], [175.083530454672, -36.8180242893536], [175.08353190673, -36.8180249218506], [175.083535324837, -36.8180265383554], [175.083538710796, -36.8180282095016], [175.083542064361, -36.8180299262807], [175.083543133254, -36.8180304843769], [175.083547408095, -36.8180326897355], [175.08355171533, -36.818034849461], [175.083555713437, -36.8180367712538], [175.083589004387, -36.8180519424357], [175.08362241103, -36.8180668321767], [175.083639685683, -36.8180742625217], [175.083641715299, -36.8180751102182], [175.083660688279, -36.8180831597257], [175.083683119587, -36.8180930683767], [175.083688578767, -36.8180955413849], [175.083702622449, -36.8181020549548], [175.083715867165, -36.818108456347], [175.083721277651, -36.8181112005975], [175.083726634313, -36.8181140269085], [175.083731914251, -36.8181169176554], [175.083737129159, -36.8181198906591], [175.083740478124, -36.8181218508644], [175.083754804059, -36.8181305045767], [175.083764781808, -36.8181367288973], [175.083767108652, -36.8181382022917], [175.083769391165, -36.8181396944893], [175.083771641285, -36.8181412323198], [175.083773869729, -36.8181427975693], [175.083774064121, -36.8181429383696], [175.083775516461, -36.8181439944702], [175.083776947125, -36.8181450779898], [175.083778344906, -36.8181461891248], [175.083779731727, -36.818147309465], [175.083781085178, -36.8181484394033], [175.083782244969, -36.8181494555673], [175.083785119245, -36.818152100069], [175.083787938474, -36.8181547815876], [175.083790680491, -36.8181575095248], [175.083793378421, -36.8181602652739], [175.083795999383, -36.8181630764503], [175.083798576014, -36.8181659064298], [175.083801097843, -36.8181687824352], [175.083801433779, -36.8181691821313], [175.083819078135, -36.818190242655], [175.083819831619, -36.8181911577857], [175.08382395592, -36.8181960786897], [175.083827969639, -36.8182010556103], [175.083831895674, -36.818206106172], [175.083835699433, -36.8182111949294], [175.083835967163, -36.8182115597692], [175.083847163902, -36.8182304890843], [175.083847890648, -36.8182320716463], [175.083849845565, -36.8182367782177], [175.083851688677, -36.8182414957622], [175.083853431923, -36.8182462511094], [175.083855075057, -36.8182510352508], [175.083855575262, -36.8182525316544], [175.083857465252, -36.8182585642765], [175.083859221761, -36.8182646352909], [175.083860855504, -36.8182707264835], [175.083861572126, -36.8182735890706], [175.083866814389, -36.8182949301062], [175.083871920242, -36.8183162014289], [175.083875162388, -36.8183311692783], [175.083876264827, -36.8183366839396], [175.08387751614, -36.8183427277585], [175.08387890118, -36.8183487421938], [175.08388040923, -36.8183547454596], [175.083881330019, -36.8183581091957], [175.08388250929, -36.8183619100377], [175.08388378916, -36.818365700103], [175.083885135283, -36.8183694529547], [175.08388655984, -36.8183732044313], [175.083888073304, -36.8183769273101], [175.083889401591, -36.8183800225246], [175.083892981296, -36.8183884229831], [175.083896383188, -36.8183968806369], [175.083897648888, -36.8184001481957], [175.083904896088, -36.8184210124409], [175.08390785003, -36.8184294869608], [175.083910970825, -36.8184379134903], [175.083912777889, -36.8184425415354], [175.083913905432, -36.8184452617226], [175.083915110676, -36.8184479535084], [175.083916371701, -36.8184506353033], [175.083917202716, -36.8184523422189], [175.08392053016, -36.8184588814058], [175.083921936605, -36.818461551638], [175.083925028677, -36.8184672657543], [175.08392826568, -36.8184729502904], [175.083928630138, -36.8184735748114], [175.08393233, -36.8184797920131], [175.083935833724, -36.8184853907557], [175.083944246819, -36.8184984022504], [175.083952948068, -36.8185112915233], [175.08395463998, -36.8185137404379], [175.083962076331, -36.8185242183738], [175.083969722889, -36.8185345934807], [175.083974999794, -36.8185415040721], [175.083985919496, -36.8185555892294], [175.083996850162, -36.8185696651803], [175.084012895255, -36.8185904472692], [175.084029088465, -36.8186113168889], [175.084032091468, -36.8186149866103], [175.084035160235, -36.8186186011004], [175.084038317665, -36.8186221779839], [175.084041541103, -36.8186257086449], [175.084044853204, -36.8186292016992], [175.084048219619, -36.81863263071], [175.084051674697, -36.8186360221141], [175.084054378972, -36.8186385974852], [175.084080486269, -36.8186633401116], [175.084097175071, -36.8186797486045], [175.084114022462, -36.8186962174055], [175.084123532399, -36.818705442216], [175.084133019195, -36.8187146403925], [175.084144547923, -36.8187259658872], [175.084156159976, -36.8187374701799], [175.084158346593, -36.8187395589097], [175.084160565604, -36.8187416020064], [175.084162840151, -36.8187436261032], [175.08416514758, -36.8187456225844], [175.084167521017, -36.8187475728431], [175.084169904926, -36.8187494958791], [175.08417043184, -36.8187499102515], [175.084177129468, -36.8187550564108], [175.084183936213, -36.8187600925002], [175.084185182971, -36.818761007992], [175.084193697835, -36.8187670235871], [175.084202343739, -36.8187729107016], [175.084211109967, -36.8187786875495], [175.084220018195, -36.8187843267116], [175.084229024093, -36.8187898469913], [175.084237762501, -36.8187950114402], [175.084291442391, -36.8188265981084], [175.084327884665, -36.8188422095304], [175.084332782862, -36.8188438361089], [175.084340542354, -36.8188468005157], [175.084347534641, -36.8188508238847], [175.084353565085, -36.818855756408], [175.084357357143, -36.8188599981295], [175.084363011388, -36.8188692454681], [175.0843684659, -36.818878568413], [175.084373720434, -36.8188879579555], [175.084376601092, -36.8188933152459], [175.084387815608, -36.8189149571092], [175.08439439585, -36.8189281719579], [175.084397702621, -36.8189343599852], [175.084399859695, -36.8189382518303], [175.084402990927, -36.8189454073278], [175.08440321168, -36.8189461064714], [175.084404234153, -36.8189503246555], [175.084405156271, -36.8189545626255], [175.084405999709, -36.8189587929622], [175.084406743035, -36.8189630520936], [175.084407243161, -36.8189661978766], [175.084408555628, -36.8189744938686], [175.084410057848, -36.818982759494], [175.084411084553, -36.8189879600219], [175.084415724606, -36.8190089961335], [175.084420646498, -36.8190300903934], [175.084425972996, -36.8190512226227], [175.084431509949, -36.8190722610309], [175.084439531263, -36.8191014036318], [175.084447522597, -36.8191302673545], [175.08444840569, -36.8191338931237], [175.084449222041, -36.8191375380894], [175.084449937792, -36.8191411938322], [175.084450186127, -36.8191424963636], [175.084450838276, -36.8191458738186], [175.08445154645, -36.819149250291], [175.084452343775, -36.819152607174], [175.084453208331, -36.8191559628779], [175.084453270955, -36.819156205131], [175.084455071133, -36.8191622303039], [175.084457027693, -36.8191682347083], [175.084459084609, -36.8191742193267], [175.08446035548, -36.8191776760612], [175.084464988413, -36.8191897713896], [175.08446850979, -36.8191984973195], [175.084472506461, -36.8192078007597], [175.084476691909, -36.8192170377982], [175.084478143491, -36.8192201308429], [175.084484050948, -36.8192329248598], [175.084487597596, -36.8192409293051], [175.084490470645, -36.8192480713015], [175.084493198517, -36.8192552338697], [175.084495321691, -36.8192611812733], [175.084499320721, -36.8192722241818], [175.08450326634, -36.8192825379732], [175.08450449574, -36.8192852924197], [175.084505791883, -36.8192880276697], [175.084507132601, -36.8192907531249], [175.084508551265, -36.8192934591871], [175.084510014262, -36.8192961464458], [175.084511532794, -36.8192988147046], [175.08451311758, -36.8193014457494], [175.084514746942, -36.8193040669993], [175.084515752616, -36.8193055996], [175.084517707207, -36.8193086387577], [175.084519584341, -36.8193117153259], [175.084521405938, -36.8193148108939], [175.084523161038, -36.8193179346672], [175.084524838192, -36.8193210778334], [175.084526460054, -36.8193242490083], [175.084527218729, -36.8193257679146], [175.084531874917, -36.8193362404904], [175.084536308716, -36.8193467800571], [175.084540520126, -36.8193573866149], [175.084543989199, -36.819366663253], [175.084546380646, -36.8193734081085], [175.084548604995, -36.8193801919464], [175.084550695373, -36.8193869961599], [175.084552629857, -36.8193938391593], [175.084554419165, -36.8194007027308], [175.084556063296, -36.8194075868743], [175.084556190501, -36.81940814345], [175.084557337866, -36.8194140719137], [175.08455836222, -36.8194200115477], [175.084559263562, -36.819425962352], [175.084559574846, -36.8194283453402], [175.084560294875, -36.8194333980235], [175.084561126466, -36.8194384307241], [175.084562058904, -36.8194434616562], [175.084563091698, -36.8194484728023], [175.084563448948, -36.8194500708525], [175.084568676385, -36.8194712679015], [175.084573884309, -36.81949215885], [175.084574879579, -36.8194970264458], [175.084575763287, -36.8195019140242], [175.084576557599, -36.8195068121834], [175.084577240104, -36.8195117213165], [175.084577328355, -36.8195124948874], [175.08458208291, -36.8195327899151], [175.084583100888, -36.8195356021465], [175.08458842153, -36.819547838629], [175.084594009141, -36.819559998325], [175.084599852271, -36.8195720724223], [175.08460596237, -36.819584069733], [175.084612327988, -36.819595981445], [175.084618960087, -36.8196077983528], [175.084618971781, -36.8196078161737], [175.084658964771, -36.8196774252372], [175.084666278108, -36.8196907984575], [175.084668127997, -36.819694109839], [175.084670044384, -36.819697393015], [175.084672027513, -36.8197006569945], [175.084674088345, -36.8197038925721], [175.084674685227, -36.8197048194564], [175.08469322747, -36.8197325066765], [175.08471180163, -36.8197601302425], [175.084721563647, -36.8197745060203], [175.084731164397, -36.8197887223916], [175.084733201601, -36.8197919133174], [175.084735171819, -36.8197951144311], [175.084737064579, -36.8197983529553], [175.084738901802, -36.8198016104796], [175.084740650363, -36.819804905611], [175.084742331692, -36.8198082019215], [175.084742521975, -36.8198086041695], [175.084750053568, -36.819824235821], [175.084752721676, -36.81983002044], [175.084757632508, -36.8198407859683], [175.084761963529, -36.8198508406253], [175.084769396722, -36.8198690427084], [175.08477051678, -36.8198718982126], [175.084772466501, -36.819877235768], [175.084774293943, -36.8198826115201], [175.084776021028, -36.8198880070583], [175.084777242296, -36.8198921135953], [175.084778561028, -36.8198965068391], [175.084779968912, -36.8199008804931], [175.084781488604, -36.819905243173], [175.084783086242, -36.8199095864597], [175.084784783994, -36.8199139009513], [175.084784807627, -36.8199139456019], [175.084802693145, -36.8199558488218], [175.084820574038, -36.8199975808725], [175.084829675438, -36.8200190073864], [175.084838709368, -36.82004042607], [175.084841268902, -36.8200467533715], [175.084843672542, -36.8200531194595], [175.084845953903, -36.8200595237442], [175.0848464902, -36.8200611096398], [175.084853006484, -36.8200810492839], [175.084853460433, -36.8200824924157], [175.084854992601, -36.820087314539], [175.084856424655, -36.8200921654573], [175.084857756352, -36.8200970361619], [175.084858976242, -36.8201019178406], [175.084859203359, -36.8201028512097], [175.084861426888, -36.820120757106], [175.084861431409, -36.8201221630558], [175.084861187614, -36.8201301168047], [175.084860775496, -36.820138064493], [175.084860418634, -36.8201430909976], [175.084858806687, -36.8201646603595], [175.084856098434, -36.8202073844533], [175.084854883238, -36.8202233317523], [175.084853331153, -36.8202392579214], [175.084852179204, -36.8202492735521], [175.08484945429, -36.8202583343554], [175.084844820786, -36.8202668788424], [175.084840955229, -36.8202719128124], [175.084828326943, -36.8202870057774], [175.084819551376, -36.8202978311026], [175.084791758598, -36.8203365968295], [175.084786623866, -36.8203436088815], [175.084781363921, -36.8203505510255], [175.084775922491, -36.8203574152353], [175.084770355848, -36.8203642095371], [175.084764629885, -36.8203709165029], [175.084762749075, -36.8203730765614], [175.08475926461, -36.8203768690626], [175.084755700486, -36.8203806178959], [175.084752045253, -36.820384314249], [175.084748309873, -36.8203879489167], [175.084744506038, -36.8203915397199], [175.0847406223, -36.8203950778464], [175.084740611584, -36.8203950960604], [175.084732990468, -36.8204017821866], [175.084725232199, -36.8204083715749], [175.084717325084, -36.8204148464042], [175.084715778148, -36.8204160902923], [175.084689758617, -36.8204367538148], [175.084663414815, -36.8204570354598], [175.084655148105, -36.8204630659416], [175.084646732548, -36.8204689818643], [175.084638201515, -36.8204747736295], [175.084633653198, -36.820477782628], [175.084624745096, -36.8204837252137], [175.084615986083, -36.8204897913661], [175.084607342054, -36.8204959636573], [175.084602483938, -36.8204995368944], [175.084592958721, -36.8205071126422], [175.084583605491, -36.8205148295811], [175.08457442376, -36.8205226696936], [175.084565413773, -36.8205306419886], [175.08455656359, -36.8205387196362], [175.084552529807, -36.8205425127524], [175.084543990434, -36.8205504767921], [175.084535267866, -36.820558299836], [175.084526363079, -36.8205660179188], [175.08451732016, -36.8205736032284], [175.084508094534, -36.8205810655594], [175.084504505457, -36.8205838954961], [175.084475921353, -36.8206054872238], [175.084466215566, -36.820612606465], [175.084456348993, -36.8206195843171], [175.084446850198, -36.8206260690162], [175.084425004665, -36.8206406746456], [175.084403334741, -36.8206551419962], [175.084392968319, -36.820662290843], [175.084391064516, -36.8206636040762], [175.084389115403, -36.820664900078], [175.084387131941, -36.820666169643], [175.084385136296, -36.8206674033697], [175.08438351503, -36.8206683871798], [175.084378479244, -36.820671197418], [175.084373384987, -36.8206739185513], [175.084368233237, -36.8206765866145], [175.08436302326, -36.8206791745815], [175.084357766507, -36.8206816912646], [175.084357312713, -36.8206819065216], [175.084330374185, -36.8206947357533], [175.084327080194, -36.8206960463249], [175.084324100965, -36.8206978020271], [175.084321558046, -36.8206999376375], [175.084320079344, -36.8207016309743], [175.084309070369, -36.8207148478228], [175.084297876766, -36.82072828422], [175.084296704968, -36.8207297198106], [175.08429557848, -36.8207311726326], [175.084294486341, -36.8207326518913], [175.084293405652, -36.8207341399623], [175.084292370028, -36.8207356362559], [175.084291379958, -36.8207371587898], [175.084290401094, -36.8207386811272], [175.084289456578, -36.8207402299012], [175.084288718364, -36.8207415317064], [175.084287370533, -36.8207439167495], [175.084286090667, -36.8207463276399], [175.084284856355, -36.8207487647704], [175.084283678314, -36.8207512099272], [175.084282545582, -36.8207536723154], [175.084281954747, -36.8207550346273], [175.084278650386, -36.820762987966], [175.084275504366, -36.820770992606], [175.084273425066, -36.8207765810804], [175.084269619341, -36.8207867153454], [175.084265588042, -36.8207967994878], [175.08426538785, -36.8207972716746], [175.084255371917, -36.8208206467902], [175.084245155504, -36.8208440704855], [175.084240163063, -36.8208550908077], [175.084236463087, -36.8208629249004], [175.084227208691, -36.820881726078], [175.084213573204, -36.8209026770697], [175.0842124886, -36.8209040210004], [175.084205518665, -36.8209123991335], [175.084198377716, -36.8209206721089], [175.084193329492, -36.8209263306679], [175.084190254927, -36.8209299447181], [175.084187111664, -36.8209335058948], [175.084183888742, -36.8209370234032], [175.084180574954, -36.8209404974398], [175.084177192469, -36.8209439186029], [175.084173741529, -36.8209472959011], [175.08417044062, -36.8209504182043], [175.084161507439, -36.8209575058479], [175.084151169817, -36.8209632391268], [175.084144971548, -36.8209657632968], [175.084118787884, -36.820974189911], [175.084092221278, -36.8209825511299], [175.084065952567, -36.8209907358726], [175.084039494092, -36.8209989509758], [175.084022563089, -36.8210046286026], [175.08400576194, -36.8210105473013], [175.083989090156, -36.8210166890547], [175.083972570636, -36.8210230714874], [175.08395616952, -36.82102968618], [175.083939931384, -36.8210365233381], [175.083933560414, -36.8210392938763], [175.083912139275, -36.8210484751548], [175.083890519088, -36.8210573444641], [175.083868711547, -36.821065919625], [175.083846704959, -36.8210741828163], [175.083830740269, -36.8210799426176], [175.083805839277, -36.8210881303638], [175.083780771631, -36.8210959605061], [175.083755526371, -36.8211034422498], [175.083730136867, -36.8211105659965], [175.083728033476, -36.8211111346387], [175.083682685693, -36.8211230967413], [175.083637095953, -36.8211344051188], [175.083622492985, -36.821137878756], [175.08357370091, -36.8211489187785], [175.083570235107, -36.8211496825478], [175.083545330931, -36.8211552745493], [175.083520571232, -36.8211612335465], [175.083517264013, -36.8211620576254], [175.083476313233, -36.821173284624], [175.083438282638, -36.8211842981876], [175.08342847184, -36.8211871380075], [175.083418590145, -36.8211898438741], [175.083408637309, -36.8211924067788], [175.083398646946, -36.8211948261323], [175.083388596892, -36.8211971113361], [175.083378498108, -36.8211992531852], [175.083368373003, -36.8212012512865], [175.08336078757, -36.8212026460652], [175.0833532523, -36.821203823652], [175.083351488451, -36.8212040979198], [175.083341829784, -36.8212055200237], [175.083335041884, -36.8212069729258], [175.083328671089, -36.8212093378436], [175.08332588423, -36.821210747655], [175.083316610953, -36.8212156330102], [175.083307270931, -36.8212205375605], [175.083302282789, -36.8212230404765], [175.083297270281, -36.8212254717153], [175.083292177382, -36.8212278322588], [175.083287060117, -36.8212301211252], [175.083282095573, -36.8212322540934], [175.083264298141, -36.8212398845962], [175.083255026259, -36.8212439948035], [175.083232375903, -36.8212545674829], [175.083228701406, -36.821256317318], [175.083205002444, -36.821267908815], [175.083202757071, -36.82126902973], [175.083186093135, -36.8212775326428], [175.083170609148, -36.8212857264568], [175.083155652542, -36.8212939380648], [175.083140869631, -36.8213023539259], [175.083139137015, -36.8213033667099], [175.083128602731, -36.8213097072196], [175.083118196102, -36.8213162077252], [175.083118129847, -36.8213162449384], [175.083110589467, -36.821320955699], [175.083102956512, -36.8213255599254], [175.083098012475, -36.8213284496193], [175.083089474082, -36.8213331508304], [175.083082854889, -36.8213366917797], [175.083076920657, -36.8213398602038], [175.0830710561, -36.8213431175367], [175.08306680603, -36.8213455534297], [175.083063706419, -36.8213474193668], [175.083060630683, -36.8213493389634], [175.083057611952, -36.8213512936129], [175.083056081274, -36.8213523118696], [175.083052437515, -36.8213547822014], [175.083048851737, -36.821357323621], [175.083045916572, -36.8213594660788], [175.08301950646, -36.8213793970214], [175.082993416649, -36.8213991510978], [175.082967589617, -36.8214182606399], [175.082941640535, -36.8214374173803], [175.082915032824, -36.8214575049841], [175.082888698151, -36.8214773264202], [175.082881254253, -36.8214827024383], [175.082873717779, -36.8214879719222], [175.08286605487, -36.8214931264521], [175.082860976623, -36.8214964420997], [175.082849514988, -36.8215037271758], [175.082837892079, -36.8215108528427], [175.082831735699, -36.8215145118502], [175.082823278149, -36.821519301756], [175.082814705369, -36.8215239765113], [175.082808925056, -36.821527034069], [175.082804570944, -36.8215293546069], [175.082800274325, -36.8215317282153], [175.082796035441, -36.8215341639028], [175.082791831639, -36.8215366530536], [175.082787696779, -36.8215392040871], [175.082784886539, -36.8215409928422], [175.082772739954, -36.8215490650323], [175.082760780439, -36.821557007761], [175.082746835943, -36.8215661659753], [175.0827328018, -36.8215753257588], [175.082722003918, -36.8215822837367], [175.082711044761, -36.8215890823054], [175.08270738318, -36.8215913095878], [175.082700818293, -36.8215952010719], [175.082694161075, -36.8215989950305], [175.082687422732, -36.821602691267], [175.082681333297, -36.8216059254824], [175.082646686855, -36.8216235130726], [175.0826116621, -36.8216412064248], [175.082594093092, -36.821650238856], [175.082576490709, -36.8216592808825], [175.082554296954, -36.8216709900867], [175.08255007607, -36.8216732632161], [175.082524129363, -36.8216871382022], [175.082520248519, -36.8216891349824], [175.082516310183, -36.8216910786918], [175.082512336521, -36.8216929599289], [175.082508327533, -36.8216947786938], [175.082504261297, -36.8216965533965], [175.082500182146, -36.8216982652343], [175.082498906709, -36.8216987742835], [175.082491320099, -36.8217017823567], [175.082483651875, -36.8217046746903], [175.082475936143, -36.8217074687126], [175.082471871343, -36.8217088828687], [175.082451289505, -36.8217142997708], [175.082447886501, -36.8217149001734], [175.082445140467, -36.8217153358443], [175.082442393455, -36.8217157354802], [175.082439633773, -36.82171608126], [175.082436862153, -36.8217164002099], [175.082434089312, -36.8217166741161], [175.082431326944, -36.8217169207997], [175.0824285407, -36.8217171138235], [175.082425753723, -36.821717279821], [175.082422965525, -36.8217174007748], [175.082422248866, -36.8217174313568], [175.082419135222, -36.8217175399864], [175.082416020846, -36.8217176215896], [175.082412893799, -36.8217176493368], [175.082409776981, -36.8217176408526], [175.082406647493, -36.8217175785123], [175.082403539438, -36.8217174797443], [175.082400419201, -36.8217173451376], [175.082397308461, -36.8217171472734], [175.082395870747, -36.8217170462799], [175.08238260192, -36.821715151678], [175.082372843268, -36.8217124745366], [175.082346175414, -36.8217030544763], [175.082319649085, -36.8216934787092], [175.08230684194, -36.8216887639515], [175.082293955382, -36.8216840145315], [175.082285941365, -36.8216811806362], [175.08227975242, -36.8216790898859], [175.082274898412, -36.8216774444251], [175.082270098478, -36.8216757259127], [175.082266712652, -36.8216744783422], [175.082262450334, -36.821672741398], [175.082258230885, -36.8216709315987], [175.082254043832, -36.8216690761665], [175.082249900135, -36.8216671658967], [175.082245788346, -36.8216651919766], [175.082241742081, -36.8216631538175], [175.082237717005, -36.8216610702219], [175.082235111408, -36.8216596557607], [175.082221393059, -36.8216523431838], [175.082207511758, -36.821645222733], [175.082202067939, -36.8216424970275], [175.082188748186, -36.821636240999], [175.082182652501, -36.8216334546081], [175.082164542563, -36.8216254258118], [175.08216303393, -36.8216247762643], [175.082158239348, -36.8216228413413], [175.082153401897, -36.8216209792731], [175.082148543989, -36.8216191896672], [175.082143620557, -36.8216174643], [175.082138676669, -36.821615811395], [175.082133700873, -36.8216142221399], [175.082128682209, -36.8216127057395], [175.082126343156, -36.8216120256735], [175.082121573942, -36.8216106130592], [175.082116814224, -36.8216091371873], [175.082112097618, -36.8216075974688], [175.082107412432, -36.8216059760828], [175.082102770603, -36.8216042998589], [175.082098160681, -36.8216025599849], [175.082093593872, -36.8216007562644], [175.082092981943, -36.8216005146195], [175.082075190412, -36.8215926514789], [175.082057571579, -36.8215845419591], [175.082048168252, -36.8215800830033], [175.082003135527, -36.8215586006843], [175.081932442149, -36.8215243186975], [175.081926601276, -36.8215214196737], [175.081896120943, -36.8215065863791], [175.081865316177, -36.8214921913835], [175.08184867692, -36.82148465052], [175.081805628776, -36.8214697939786], [175.081795538894, -36.8214673028505], [175.081784417628, -36.82146481176], [175.081773255936, -36.8214624836107], [175.081762031405, -36.8214603187951], [175.081750765959, -36.8214582989033], [175.081741306559, -36.8214567340811], [175.081719968592, -36.8214532772709], [175.081715555816, -36.8214526064772], [175.081705696685, -36.8214511838483], [175.081695796638, -36.8214499061434], [175.081689329614, -36.8214491361316], [175.081648494663, -36.821444380408], [175.08163793716, -36.8214432494078], [175.081590852206, -36.8214415954432], [175.081583798178, -36.8214419172673], [175.081557446692, -36.8214458217295], [175.081555262884, -36.8214463196378], [175.081545361578, -36.8214487192508], [175.08153550851, -36.8214512442004], [175.08152938777, -36.8214529106416], [175.081519686962, -36.8214556762747], [175.081510068496, -36.8214585846732], [175.081503032595, -36.8214608169334], [175.081500053225, -36.8214617433713], [175.081497061917, -36.8214626429791], [175.081494046734, -36.821463488927], [175.081491008163, -36.8214642992322], [175.081487957167, -36.82146506469], [175.081484882539, -36.8214657854964], [175.081481806691, -36.8214664612591], [175.08147888601, -36.8214670712133], [175.081468085316, -36.8214689638156], [175.081457246856, -36.821470703857], [175.081452378875, -36.8214714380418], [175.081425217898, -36.8214752575076], [175.08139929315, -36.8214787759156], [175.081385673551, -36.8214804835354], [175.081373725975, -36.8214818374059], [175.0813662559, -36.821482527023], [175.081358760729, -36.821483117936], [175.081351274078, -36.8214836095562], [175.081348262754, -36.8214837704439], [175.081321797104, -36.8214851171581], [175.081295272763, -36.8214867803496], [175.081276085433, -36.8214865665366], [175.081271836368, -36.821486145224], [175.081248216657, -36.8214828815044], [175.081236937838, -36.8214811952792], [175.081201392794, -36.821475968228], [175.081183704203, -36.8214735560216], [175.081166251414, -36.8214711577097], [175.081160351963, -36.8214702335229], [175.081154461522, -36.821469228061], [175.0811486025, -36.8214681409315], [175.081142774899, -36.8214669721345], [175.081140835612, -36.8214665644525], [175.081123023948, -36.8214629196093], [175.081114131885, -36.8214611915822], [175.081061498892, -36.8214517211243], [175.081036395165, -36.821447473888], [175.081020666309, -36.8214449822801], [175.081004876077, -36.821442708057], [175.08098903592, -36.8214406600311], [175.080973157043, -36.8214388380063], [175.080957239201, -36.8214372329739], [175.08095721679, -36.8214372333663], [175.08095274533, -36.8214368790269], [175.080948275821, -36.8214365967574], [175.080943796571, -36.8214363687362], [175.080939307824, -36.8214362039723], [175.080934832235, -36.8214361110819], [175.080930335698, -36.8214360726362], [175.080929719157, -36.8214360744173], [175.080919295454, -36.8214361577671], [175.08090886445, -36.8214363854521], [175.080902995262, -36.8214365783361], [175.080877289856, -36.8214374339516], [175.080851387632, -36.8214384732675], [175.080832109749, -36.8214394687115], [175.080825103466, -36.8214398978108], [175.080817427787, -36.8214404467847], [175.080809765997, -36.821441094658], [175.080802118828, -36.8214418684571], [175.080798385253, -36.8214422673002], [175.080792854929, -36.8214429679882], [175.080787348967, -36.8214437403535], [175.080781845201, -36.8214445937972], [175.080776377247, -36.8214455277309], [175.080771413048, -36.8214464348195], [175.080760864223, -36.8214485212346], [175.080750375328, -36.8214507508079], [175.080745327585, -36.8214518846831], [175.080719379285, -36.8214578458817], [175.080693613439, -36.8214639210498], [175.08066768803, -36.8214698998625], [175.080663054396, -36.8214710084592], [175.080658444881, -36.8214721797246], [175.080653859484, -36.8214734136587], [175.080649320861, -36.821474718878], [175.08064479515, -36.8214760869621], [175.080640782449, -36.8214773559356], [175.0806145915, -36.8214888463358], [175.080612061327, -36.8214902155391], [175.080606172773, -36.8214934190936], [175.080600214791, -36.8214965427462], [175.080594187379, -36.8214995864966], [175.080588090295, -36.8215025413363], [175.080587437471, -36.8215028592062], [175.080561484747, -36.8215144535809], [175.080535513003, -36.8215257598666], [175.080530876226, -36.8215275805412], [175.080526181471, -36.8215293301264], [175.08052146284, -36.8215310260512], [175.080516708885, -36.8215326595031], [175.080511919119, -36.8215342124646], [175.080510674115, -36.8215346037907], [175.080484520351, -36.8215449849111], [175.080482938714, -36.8215457787019], [175.08048042023, -36.8215471657238], [175.080477936337, -36.8215485881922], [175.080475475831, -36.8215500463033], [175.080473072328, -36.8215515394686], [175.080470680763, -36.821553059464], [175.080468455814, -36.8215545224648], [175.080466044033, -36.821556123931], [175.080463586454, -36.8215576901467], [175.080461094284, -36.8215592209159], [175.080458589687, -36.8215607068374], [175.080456326731, -36.821562008269], [175.08044348876, -36.8215689837253], [175.080430591831, -36.8215758520561], [175.08040292206, -36.8215902794978], [175.080375210367, -36.8216044012244], [175.080350775447, -36.8216165728597], [175.080326250144, -36.8216287190329], [175.080299977305, -36.8216417430102], [175.080273791417, -36.8216546663169], [175.080271211531, -36.8216558561228], [175.080268608015, -36.8216570012772], [175.080265981356, -36.8216581197975], [175.080263330822, -36.8216591846576], [175.080260646184, -36.8216602320884], [175.080257948877, -36.8216612256629], [175.080255228427, -36.8216621926033], [175.080252495552, -36.821663114696], [175.080249806035, -36.8216639819518], [175.080243326445, -36.8216660601933], [175.080236916526, -36.8216682273452], [175.080230531457, -36.821670484192], [175.080224216304, -36.821672838958], [175.080222174506, -36.8216736137598], [175.080208703576, -36.8216791581869], [175.080195593171, -36.8216847684069], [175.080188393304, -36.821687985878], [175.080181274557, -36.821691301072], [175.080174203315, -36.8216947145774], [175.080169458383, -36.8216970959377], [175.080162452193, -36.8217008417854], [175.080155527367, -36.8217046943649], [175.080148694379, -36.8217086264538], [175.080141953961, -36.8217126650785], [175.080138458426, -36.8217148172726], [175.080132944005, -36.8217181764907], [175.080127371361, -36.8217214556104], [175.080121729288, -36.8217246548278], [175.080116006581, -36.8217277743389], [175.080110225652, -36.8217308137516], [175.080109329963, -36.8217312710644], [175.08008747947, -36.8217420094131], [175.080065444317, -36.8217525527031], [175.08003966123, -36.8217646216866], [175.080013928795, -36.8217764914919], [175.080007789025, -36.8217791135677], [175.080001602238, -36.8217816553489], [175.079995345534, -36.8217840992102], [175.079989053018, -36.8217864625807], [175.079988453777, -36.8217866893795], [175.079985090964, -36.8217879469584], [175.079981751781, -36.8217892491887], [175.07997845864, -36.8217905956782], [175.079975178167, -36.8217919960241], [175.079971932286, -36.8217934318166], [175.07996873269, -36.8217949208771], [175.079965545519, -36.8217964547852], [175.07996239294, -36.8217980241399], [175.079960834434, -36.8217988445581], [175.07994512686, -36.8218074925202], [175.079929723781, -36.821816207256], [175.079919081716, -36.8218223060198], [175.079908406765, -36.8218284323971], [175.079894978494, -36.8218363825172], [175.079881889067, -36.8218444258496], [175.079869163321, -36.8218522374913], [175.079856320151, -36.8218598529001], [175.079832615317, -36.8218704253647], [175.079832493276, -36.8218704725653], [175.079828319286, -36.8218719966984], [175.079824191826, -36.8218735831084], [175.079820088239, -36.8218752231784], [175.079816019976, -36.8218769257214], [175.079812009203, -36.8218786813363], [175.079808011098, -36.8218804908075], [175.07980442467, -36.8218821849188], [175.079787069125, -36.8218908346578], [175.079783640791, -36.8218925710673], [175.079780236575, -36.8218943701457], [175.079776867195, -36.8218962136795], [175.079773543613, -36.8218980924639], [175.079770266559, -36.8219000335252], [175.079769273431, -36.8219006187227], [175.079760256366, -36.8219062834528], [175.079751547443, -36.8219117354912], [175.079725601406, -36.8219277279196], [175.079699555973, -36.8219437761598], [175.079666011285, -36.8219648226363], [175.079648217059, -36.8219759045316], [175.079632685311, -36.8219852523918], [175.079614319583, -36.8219959296829], [175.079595752883, -36.8220066375266], [175.0795693734, -36.8220219435033], [175.079542993907, -36.8220372494744], [175.079515308017, -36.8220535787407], [175.079487922957, -36.8220698396464], [175.079474533081, -36.8220775547098], [175.079463444673, -36.8220837333465], [175.079451146569, -36.8220903657707], [175.079438719837, -36.8220968021578], [175.079438476486, -36.8220969235844], [175.079431406148, -36.8221003730825], [175.079424266138, -36.822103733669], [175.079417055968, -36.8221069873264], [175.079413166971, -36.8221086867195], [175.079400758964, -36.8221141583826], [175.079388479093, -36.822119808063], [175.079386409022, -36.8221207816317], [175.079368666058, -36.8221296183486], [175.079352634596, -36.8221379023665], [175.07934038421, -36.8221442275022], [175.079327983274, -36.8221503750102], [175.079319827221, -36.8221543031592], [175.079316957667, -36.8221555611033], [175.079314076175, -36.8221567922171], [175.07931117081, -36.8221579696705], [175.079308219646, -36.8221591118729], [175.079305256059, -36.8221602092275], [175.079302469077, -36.8221612043494], [175.079296739699, -36.8221632513898], [175.079291034682, -36.8221653701079], [175.079285399336, -36.822167577737], [175.079282715398, -36.8221686521729], [175.079273418085, -36.8221726633748], [175.079264214072, -36.8221768081391], [175.079255103116, -36.8221810774569], [175.079252789934, -36.8221821814583], [175.079237743781, -36.8221895919881], [175.079224032048, -36.822196600626], [175.079219156733, -36.8221991374511], [175.079214350357, -36.8222017361611], [175.079209590754, -36.8222044061569], [175.079204889129, -36.8222071472423], [175.079200256443, -36.8222099502127], [175.079195670286, -36.8222128154601], [175.079191153312, -36.8222157516012], [175.079190723855, -36.8222160385172], [175.079166301139, -36.8222353029413], [175.079161157434, -36.8222403500768], [175.079141372857, -36.8222611557044], [175.079121774618, -36.8222818048479], [175.079096849719, -36.8223077837249], [175.07907195842, -36.822333762009], [175.079066301948, -36.8223397464503], [175.079060781893, -36.8223458006093], [175.079057289749, -36.8223497372897], [175.079054507436, -36.8223529765646], [175.079051804293, -36.8223562414938], [175.079049181051, -36.8223595591032], [175.079046614569, -36.8223629027589], [175.0790441275, -36.8223662810775], [175.079043706087, -36.8223668652817], [175.079041667718, -36.822369839179], [175.079039686108, -36.8223728391225], [175.07903777295, -36.8223758829337], [175.07903592727, -36.8223789345776], [175.079034150041, -36.8223820300892], [175.079032440289, -36.8223851334335], [175.079030776091, -36.82238826302], [175.079029829507, -36.8223901542843], [175.079026399791, -36.8223972264007], [175.079023128171, -36.8224043408167], [175.079020014647, -36.8224114975323], [175.079019087558, -36.822413694898], [175.079017481843, -36.8224177427888], [175.079015966016, -36.8224217981202], [175.079014541052, -36.8224258969274], [175.079013205732, -36.8224299941665], [175.079012104501, -36.8224336276474], [175.079010363624, -36.8224393092578], [175.079008509472, -36.8224449477844], [175.079006520365, -36.8224505706456], [175.079005967672, -36.8224521035124], [175.078997873804, -36.8224724162113], [175.078989362157, -36.822492619048], [175.078987725739, -36.8224963610329], [175.078979571401, -36.8225144395608], [175.078971021695, -36.8225324078345], [175.078967227556, -36.8225400992083], [175.078965156565, -36.822544353523], [175.078963006404, -36.8225485821833], [175.078960743455, -36.8225527857773], [175.078958400848, -36.8225569456995], [175.078956408277, -36.822560369445], [175.078949910937, -36.8225692527531], [175.078942995775, -36.8225759532066], [175.078929805324, -36.8225864857951], [175.078916504275, -36.8225970743947], [175.078902907255, -36.8226079115209], [175.078889255178, -36.8226187856607], [175.078882608671, -36.8226242286029], [175.078876471038, -36.8226294192929], [175.078867780036, -36.8226367817134], [175.078864380901, -36.8226395991478], [175.078859374518, -36.822643508229], [175.078854287988, -36.8226473556208], [175.078850649878, -36.8226500420393], [175.07884625321, -36.822653282506], [175.078841925725, -36.8226565938665], [175.078837678142, -36.8226599579075], [175.07883586798, -36.8226614226367], [175.078824042136, -36.8226714266178], [175.07881246403, -36.8226814713298], [175.078799915438, -36.822692524446], [175.078787553438, -36.8227034300891], [175.078783693658, -36.8227066251114], [175.078779776386, -36.822709767061], [175.078775790174, -36.8227128471251], [175.078774218977, -36.8227140282705], [175.078760436807, -36.8227263107012], [175.078759423695, -36.8227274009687], [175.078758207184, -36.8227288463011], [175.078757013571, -36.822730309259], [175.07875585455, -36.8227318076639], [175.078754729146, -36.8227333054809], [175.078753637846, -36.8227348207275], [175.078752580407, -36.8227363443948], [175.078751858153, -36.8227374115493], [175.078745854796, -36.8227463222591], [175.078726379967, -36.8227740263706], [175.078706970408, -36.8228016572334], [175.078705044551, -36.8228042325847], [175.078703072652, -36.8228067636762], [175.078701043751, -36.8228092597125], [175.078698969783, -36.822811747524], [175.078696827362, -36.8228141914675], [175.07869596747, -36.8228151438595], [175.07869379192, -36.8228176064084], [175.078691673129, -36.8228200950036], [175.078689600136, -36.8228226188499], [175.078687594864, -36.8228251595378], [175.078685635145, -36.8228277264681], [175.078683732429, -36.8228303284534], [175.078683484207, -36.8228306843021], [175.078679318268, -36.8228370662693], [175.078675299707, -36.8228435087501], [175.078671405626, -36.8228499941188], [175.078668932184, -36.8228542915188], [175.078666382496, -36.8228586713693], [175.078663742431, -36.8228630257613], [175.078661000297, -36.8228673368733], [175.078658178748, -36.822871613322], [175.078655255129, -36.8228758464906], [175.078655082177, -36.8228760838537], [175.078644608337, -36.8228904805494], [175.078642257408, -36.82289391957], [175.078639827552, -36.8228973419448], [175.078637329243, -36.8229007204516], [175.078635693746, -36.8229028400733], [175.078629558232, -36.8229060388377], [175.078622815161, -36.8229083288997], [175.078615698146, -36.8229096430823], [175.078608396708, -36.8229099420193], [175.07860112351, -36.8229092129783], [175.078599354232, -36.8229088743862], [175.078577210853, -36.8229042503958], [175.078555270395, -36.8228996679176], [175.07855079178, -36.822898637638], [175.07854633387, -36.822897543905], [175.078541907871, -36.8228963865227], [175.078537513783, -36.822895165491], [175.078533129194, -36.822893881202], [175.078530518026, -36.8228930886548], [175.078525307139, -36.822891512373], [175.078520053624, -36.8228900179535], [175.078514768198, -36.822888587183], [175.078509462311, -36.8228872288741], [175.078504113796, -36.8228859524276], [175.078503177392, -36.8228857344645], [175.078496673478, -36.8228844331574], [175.078490149591, -36.8228832223294], [175.078483594769, -36.8228821111852], [175.078477019729, -36.8228810815112], [175.078475939358, -36.8228809291566], [175.078468070309, -36.8228797238243], [175.078460231952, -36.8228784097987], [175.078452424044, -36.8228769780709], [175.078450587046, -36.8228766226347], [175.078429782515, -36.8228721734905], [175.078424729735, -36.8228710541032], [175.078408005528, -36.8228674168791], [175.078398118482, -36.8228653815806], [175.07838041525, -36.8228620228496], [175.078371966431, -36.8228605212065], [175.078345803671, -36.8228560936386], [175.078338273719, -36.8228549905244], [175.078330724038, -36.8228539868979], [175.078323143664, -36.8228530919638], [175.078318567378, -36.822852595151], [175.07831042648, -36.8228517010042], [175.078302316031, -36.8228506891553], [175.078294202657, -36.8228495692008], [175.078293110593, -36.8228493990228], [175.078289223938, -36.822848700877], [175.078285346538, -36.8228479304651], [175.078281501537, -36.8228471144215], [175.078277655318, -36.822846253334], [175.078273841009, -36.8228453285973], [175.078270047649, -36.822844349416], [175.078268365095, -36.8228439011464], [175.078264694997, -36.8228429198097], [175.078260993232, -36.8228420111307], [175.07825728148, -36.8228411476913], [175.078253548292, -36.8228403206787], [175.078249805849, -36.8228395659319], [175.078246031006, -36.8228388568165], [175.078242257383, -36.8228381927448], [175.078240118079, -36.8228378516043], [175.078227628661, -36.8228361772498], [175.07821508809, -36.8228346840488], [175.078213693963, -36.8228345371777], [175.078194581776, -36.8228325550065], [175.078187444761, -36.82283188665], [175.078169209543, -36.8228304118959], [175.078161110795, -36.8228298324574], [175.078145956641, -36.8228287004016], [175.078135663293, -36.8228278078249], [175.078131029762, -36.8228272669407], [175.078126416937, -36.8228266626031], [175.078121802162, -36.8228259861954], [175.078117208337, -36.8228252553431], [175.078112646179, -36.8228244518328], [175.07811110248, -36.8228241633674], [175.078106821681, -36.8228234000027], [175.078102531138, -36.8228226908862], [175.078098208685, -36.8228220454186], [175.078093876488, -36.8228214541994], [175.078089545754, -36.8228209170324], [175.078085194558, -36.8228204523272], [175.078083598486, -36.8228202999724], [175.078074701703, -36.8228196443505], [175.078065774959, -36.822819124447], [175.078056952234, -36.8228187198933], [175.078040997131, -36.8228182327386], [175.078030655072, -36.8228180259936], [175.078015316768, -36.8228179606764], [175.078003940141, -36.82281805142], [175.077994648002, -36.8228181147324], [175.077985341002, -36.8228180431086], [175.077978397657, -36.8228179031214], [175.077968946687, -36.8228174825058], [175.077959503266, -36.8228169265622], [175.077953011067, -36.8228164722437], [175.077943082394, -36.8228157986001], [175.077933157376, -36.822815260087], [175.077926221094, -36.822814966752], [175.077899801158, -36.8228142929956], [175.077873422149, -36.8228138889083], [175.077847017808, -36.8228137917005], [175.077820587646, -36.8228139833547], [175.077812790241, -36.8228141827567], [175.077805007452, -36.822814508085], [175.077797227343, -36.822814932509], [175.077793713408, -36.8228151651848], [175.07778604633, -36.8228156236842], [175.077778376815, -36.8228159920956], [175.077770692927, -36.8228162435885], [175.077768586514, -36.8228162894241], [175.077762117703, -36.8228162853371], [175.077755657661, -36.8228161909663], [175.07774919494, -36.8228159974988], [175.077743032821, -36.8228157266721], [175.077733616198, -36.8228153324763], [175.077724202744, -36.8228150553936], [175.077715634096, -36.8228149257765], [175.077708237899, -36.8228150370412], [175.077700844382, -36.8228152474017], [175.077693464995, -36.8228155656709], [175.077688864114, -36.8228158173439], [175.077683165569, -36.8228161062305], [175.07767745387, -36.8228163232427], [175.077671728772, -36.8228164593716], [175.077666012687, -36.8228165142256], [175.077664174234, -36.8228165193232], [175.077656815794, -36.8228163685472], [175.077649454429, -36.8228161096656], [175.07764211304, -36.8228157603043], [175.077638250266, -36.8228155303964], [175.077625838818, -36.8228146657869], [175.077613456114, -36.8228136204133], [175.077612028614, -36.8228134831315], [175.077605057496, -36.8228127307229], [175.077598117315, -36.8228118786299], [175.077591207828, -36.8228109178439], [175.077587088054, -36.8228103048669], [175.07758187695, -36.8228095487315], [175.077576667551, -36.8228088556572], [175.077571426729, -36.8228082442491], [175.077566187855, -36.8228077049108], [175.07756092852, -36.8228072380341], [175.077559928539, -36.82280715637], [175.077550306076, -36.8228066125364], [175.077540664855, -36.8228062042251], [175.077532721531, -36.8228059825475], [175.077522791644, -36.8228056784235], [175.077512858103, -36.8228052391674], [175.077506985869, -36.8228049091833], [175.077483652594, -36.8228031268597], [175.077481124265, -36.8228029096743], [175.077463957981, -36.8228015783623], [175.077454545989, -36.8228009407119], [175.077431317222, -36.8227997063453], [175.077428466122, -36.8227995759174], [175.077406133805, -36.8227987404761], [175.077402386499, -36.8227986347246], [175.077381106781, -36.8227981684409], [175.077376576056, -36.8227981124331], [175.077363905909, -36.8227980454631], [175.077351240634, -36.8227981586668], [175.077350557092, -36.8227981706135], [175.077323960063, -36.8227988247374], [175.077297580082, -36.8227996282831], [175.077271403993, -36.8228005093767], [175.07724887509, -36.8228015250099], [175.077245013048, -36.8228017367142], [175.077219791869, -36.8228051788304], [175.077216882791, -36.8228058065041], [175.077206477637, -36.8228082416036], [175.077196132651, -36.822810828872], [175.07719124578, -36.8228121130078], [175.077187575205, -36.8228131866136], [175.077183917055, -36.8228143050673], [175.077180316637, -36.8228154856031], [175.077176717438, -36.8228167111825], [175.077173141867, -36.822817981414], [175.077169601618, -36.8228193141192], [175.07716610741, -36.8228206910848], [175.07716384509, -36.8228216048839], [175.077150355214, -36.8228260497119], [175.077141512997, -36.8228278265808], [175.077120830572, -36.8228303781858], [175.077099868005, -36.8228329346829], [175.077068087129, -36.8228367437656], [175.077036141333, -36.8228406728911], [175.077020392301, -36.8228428318249], [175.077009003234, -36.8228445360206], [175.076982452697, -36.822848569137], [175.076956576932, -36.8228522659877], [175.076930401535, -36.8228560762248], [175.0769250886, -36.8228569441829], [175.076919789063, -36.8228578930239], [175.076914525091, -36.8228589133474], [175.07690926331, -36.8228600147494], [175.076904036851, -36.8228611786251], [175.076903468774, -36.8228613147339], [175.076887897067, -36.8228650568427], [175.076877697734, -36.8228676415384], [175.076861219583, -36.8228718591464], [175.076844775047, -36.8228760761649], [175.07680842123, -36.8228853188153], [175.076772142191, -36.8228944249528], [175.076758724643, -36.8228965701537], [175.07674946318, -36.8228969392753], [175.076745852042, -36.822896894215], [175.076742239686, -36.8228968041108], [175.076738636831, -36.8228966507494], [175.076735033001, -36.8228964613528], [175.076731438917, -36.8228962177078], [175.076727843127, -36.8228959110013], [175.076724246363, -36.8228955682596], [175.076723897771, -36.8228955292853], [175.076703122534, -36.8228934046837], [175.076697309005, -36.8228927581784], [175.076672867828, -36.8228898053347], [175.076670820365, -36.8228895436783], [175.076657722695, -36.8228877626164], [175.076644675939, -36.8228857913902], [175.076644642322, -36.8228857919775], [175.076631050147, -36.8228835508757], [175.076618601679, -36.8228813168291], [175.076597601878, -36.822875861316], [175.076591748414, -36.8228737373684], [175.076576961669, -36.8228667041797], [175.07656889561, -36.8228615274225], [175.076559704876, -36.8228533149011], [175.076556928589, -36.8228501457584], [175.076553959618, -36.822846484266], [175.076551067627, -36.8228427673505], [175.07654826455, -36.8228390218425], [175.076545981799, -36.822835862103], [175.076536921245, -36.8228183638975], [175.076536281566, -36.8228166806259], [175.076530574364, -36.8228050363734], [175.076522449418, -36.822794362701], [175.076521018524, -36.8227928554867], [175.076494208799, -36.8227719540028], [175.076493284585, -36.822771357264], [175.076487501062, -36.8227676728371], [175.076481630329, -36.8227640800636], [175.076475683106, -36.8227605607303], [175.076469671084, -36.8227571326589], [175.076463571853, -36.822753796241], [175.076463423745, -36.8227537086983], [175.076443021361, -36.8227425645191], [175.076423347099, -36.8227318132019]]}, "properties": {"OBJECTID": 413, "TRACKNAME": "Central Track", "CONDITIONSOFUSE": "Whakanewha Regional Park", "STATUS": "Open", "WEBLINK": "https://www.aucklandcouncil.govt.nz/en/parks-recreation/find-park-beach/park-detail/3422.html", "VALIDATIONSTATE": 3, "created_user": "AC_owner", "last_edited_user": "AC_owner", "last_edited_date": 1789875254325, "created_date": 1789875254325, "PARK_SAPSITEID": null, "TRACK_ID": null, "KAURIDIEBACK_TRACK": null, "KAURIDIEBACK_MITIGATED": null, "SegmentID": null, "GlobalID": "085ddcfe-729d-4649-92d4-2c0dde99ddee", "Shape__Length": 1268.4961195025576}}]}