{"type": "FeatureCollection", "features": [{"type": "Feature", "id": 875, "geometry": {"type": "LineString", "coordinates": [[174.495158401722, -36.9256361341602], [174.495496462832, -36.9254824037013], [174.495582716985, -36.9254288308429], [174.49575803992, -36.9252991243019], [174.495817508492, -36.9251859115962], [174.495840641485, -36.9251568936265], [174.496026375268, -36.9250199527837], [174.496376395175, -36.9249090644598], [174.496583211444, -36.9248192149952], [174.496638577783, -36.9247770633572], [174.496859296593, -36.9244508797776], [174.49704448785, -36.9242163350474], [174.497237306146, -36.9239332633673], [174.497370461275, -36.9235346581258], [174.497437971012, -36.9232627925657], [174.497460639036, -36.9230269702231], [174.497455074759, -36.9229588789162], [174.497340681095, -36.9227869430386], [174.497205797879, -36.9226516625992], [174.497174631054, -36.9225005805568], [174.497145226066, -36.9224453278022], [174.496954269523, -36.9221976141507], [174.496629343991, -36.9218118042558], [174.496532742403, -36.9215729690921], [174.496280797139, -36.9211586566482], [174.496235574547, -36.9211091012731], [174.495936688499, -36.9208374982047], [174.495799527352, -36.9206916176223], [174.495587177064, -36.9203723590057], [174.495566283802, -36.9203228665474], [174.495519677288, -36.9201248187787], [174.495388677967, -36.9198793219263], [174.495369726052, -36.9198292010663], [174.495345671141, -36.9196396485952], [174.495346595401, -36.9193334599455], [174.495176195871, -36.9187936751312], [174.495153114004, -36.9185900940428], [174.495148297911, -36.9185691590806]]}, "properties": {"OBJECTID": 875, "TRACKNAME": "Chateau Mosquito Track", "CONDITIONSOFUSE": "Waitakere West Regional Park", "STATUS": "Temp Closed", "WEBLINK": "https://www.aucklandcouncil.govt.nz/en/parks-recreation/find-park-beach/park-detail/3451.html", "VALIDATIONSTATE": 3, "created_user": "AC_owner", "last_edited_user": "AC_owner", "last_edited_date": 1789875254325, "created_date": 1789875254325, "PARK_SAPSITEID": null, "TRACK_ID": null, "KAURIDIEBACK_TRACK": null, "KAURIDIEBACK_MITIGATED": null, "SegmentID": null, "GlobalID": "9de38eeb-152e-44e6-9f6f-a06e95265d8e", "Shape__Length": 925.4703788645834}}, {"type": "Feature", "id": 3092, "geometry": {"type": "LineString", "coordinates": [[174.495148297911, -36.9185691590806], [174.495127880319, -36.9184803995998], [174.495042912994, -36.9183356006175], [174.494931915147, -36.9181713531743], [174.494905920108, -36.9181439632653], [174.494821636234, -36.9180973867263], [174.494793819211, -36.9180721199136], [174.494624111471, -36.917837150501], [174.494411412987, -36.9175655222505], [174.494381718213, -36.9175406575377], [174.49434430676, -36.9175224608904], [174.493731497932, -36.9172828518427], [174.493650363352, -36.9172388037448], [174.493503828742, -36.9171228645187], [174.493262311154, -36.916893960879], [174.493124926311, -36.9166950973025], [174.492947635979, -36.9164853418589], [174.492900125577, -36.9164506143764], [174.492782018614, -36.9163877410753], [174.492649154788, -36.9163452618205], [174.492576689351, -36.9163387181762], [174.492338006012, -36.9164427609809], [174.492179377424, -36.9165390102538], [174.492141405645, -36.9165473111963], [174.49208266459, -36.9165399638704], [174.492041277665, -36.9165187517695], [174.491953663116, -36.9164168528557], [174.491797600102, -36.9162967766935], [174.491513901327, -36.9161593474117], [174.491220847539, -36.9160320310875], [174.491173684735, -36.9160006876878], [174.49116987543, -36.9159722432093], [174.491184791889, -36.9159536769998], [174.491373705064, -36.9158625110799], [174.491401181098, -36.9158392442323], [174.491369964721, -36.9158082144518], [174.491132528559, -36.9156638486545], [174.491106700207, -36.9156356806101], [174.491118876604, -36.9156107220399], [174.491231946483, -36.9155055637804], [174.491253745674, -36.9154715157464], [174.491241320867, -36.9154347155758], [174.491166793303, -36.9153193384918], [174.491153282564, -36.9152532844585], [174.491154925361, -36.915204481686], [174.491184921948, -36.9151671218699], [174.491297574612, -36.9151201251823], [174.491307338778, -36.9151010017031], [174.491303954654, -36.9150684506526], [174.491229945347, -36.9147980855168], [174.491129650528, -36.9146927937427], [174.491039263752, -36.9145665288058], [174.490908343225, -36.9143140219245], [174.490788018748, -36.9140187650984], [174.490679547003, -36.9138289368756], [174.490613730575, -36.9135761893857], [174.490603040785, -36.9134987335808], [174.490619384389, -36.9133983681939], [174.490652657672, -36.9133569382579], [174.490916473541, -36.9131690443847], [174.491115057343, -36.9130785056475], [174.491240758706, -36.9129806160884], [174.491261183818, -36.9129423308302], [174.491277197428, -36.9128752210501], [174.491267205889, -36.9127604398009], [174.491290958776, -36.912727034238], [174.491356010221, -36.9126815996287], [174.491541687623, -36.9125814784275], [174.491744123735, -36.9124946219491], [174.491853795666, -36.9124244789456], [174.491895544305, -36.912387737503], [174.491911892052, -36.9123395432054], [174.491928819832, -36.9122185559605], [174.491913240275, -36.9121010416907], [174.491916830669, -36.9120588935805], [174.491949953062, -36.911967141669], [174.49202274989, -36.9118797046977], [174.492039357533, -36.9118483176745], [174.492089451266, -36.911513965002], [174.492120403495, -36.9114439362889], [174.492179805106, -36.9114122189588], [174.492819587027, -36.911204138597], [174.492954693508, -36.9110885973844], [174.493151410734, -36.9108917711195], [174.493177186271, -36.9108263050504], [174.493225100674, -36.9106239940177], [174.493230270129, -36.9105719109391], [174.493187887784, -36.9104804859286], [174.493123671699, -36.9103976099493], [174.493052383586, -36.9103285236612], [174.492965567735, -36.9102857181666], [174.492936020744, -36.910253865552], [174.492928304221, -36.9102328704704], [174.49293582421, -36.9102132612784], [174.493009119067, -36.9101659104085], [174.493144110289, -36.9101102034087], [174.493193811586, -36.9100991767954], [174.493500204271, -36.9101402129126], [174.493552676544, -36.9101642236339], [174.493727164647, -36.9103196250563], [174.493789413486, -36.9103534007559], [174.494260338777, -36.9105106073366], [174.494301705444, -36.9105148101057], [174.494404481346, -36.9104942007084], [174.494441183607, -36.9104969387981], [174.494486530729, -36.9105296828887], [174.494661420545, -36.9106992023202], [174.494807958086, -36.9109975956669], [174.494828506386, -36.9110267037078], [174.494850311146, -36.9110396704186], [174.494917629242, -36.911044411675], [174.495106892683, -36.9110065335171], [174.495146699198, -36.9109819748762], [174.495337652983, -36.910820262865], [174.495383771689, -36.9108056839701], [174.495465740102, -36.9108042103057], [174.495494466813, -36.9108095092241], [174.495529723413, -36.9108284537855], [174.495903243372, -36.9111136849133]]}, "properties": {"OBJECTID": 3092, "TRACKNAME": "Chateau Mosquito Track", "CONDITIONSOFUSE": "Waitakere West Regional Park", "STATUS": "Temp Closed", "WEBLINK": "https://www.aucklandcouncil.govt.nz/en/parks-recreation/find-park-beach/park-detail/3451.html", "VALIDATIONSTATE": 3, "created_user": "AC_owner", "last_edited_user": "AC_owner", "last_edited_date": 1789875254325, "created_date": 1789875254325, "PARK_SAPSITEID": null, "TRACK_ID": null, "KAURIDIEBACK_TRACK": null, "KAURIDIEBACK_MITIGATED": null, "SegmentID": null, "GlobalID": "e49a576b-9574-4e43-b8d9-8f74a5dfb2c7", "Shape__Length": 1657.205733359706}}]}