{"type": "FeatureCollection", "features": [{"type": "Feature", "id": 11993, "geometry": {"type": "LineString", "coordinates": [[175.002936715848, -36.7901354930063], [175.002788189111, -36.790298187932], [175.002342911725, -36.7903523459778], [175.001524310302, -36.790104842132], [174.999693933692, -36.7905368832661], [174.998841810519, -36.7909916703754], [174.998369041067, -36.7911477020364], [174.997845136099, -36.7911527089948], [174.996054358734, -36.7927319864226], [174.995872190878, -36.7930620473834]]}, "properties": {"OBJECTID": 11993, "TRACKNAME": "Church Bay Roadside walk", "CONDITIONSOFUSE": null, "STATUS": "Open", "WEBLINK": null, "VALIDATIONSTATE": 3, "created_user": "AC_owner", "last_edited_user": "AC_owner", "last_edited_date": 1789875254325, "created_date": 1789875254325, "PARK_SAPSITEID": null, "TRACK_ID": null, "KAURIDIEBACK_TRACK": null, "KAURIDIEBACK_MITIGATED": null, "SegmentID": null, "GlobalID": "933cfa53-ca9d-4f6a-bc86-efe7e15f4be0", "Shape__Length": 771.8311408244299}}]}