{"type": "FeatureCollection", "features": [{"type": "Feature", "id": 12039, "geometry": {"type": "LineString", "coordinates": [[174.989670173878, -36.7947648704287], [174.989668805667, -36.7948018690461], [174.989716801965, -36.7948729956205], [174.989818561202, -36.794962593569], [174.989885859234, -36.7950314096284], [174.989960295418, -36.7950962079705], [174.990195616953, -36.7953721206141], [174.990464422773, -36.7956725027183], [174.990468040788, -36.795676543149]]}, "properties": {"OBJECTID": 12039, "TRACKNAME": "Church Bay Closed section", "CONDITIONSOFUSE": "Church Bay Esplanade Reserve", "STATUS": "Temp Closed", "WEBLINK": "https://www.aucklandcouncil.govt.nz/en/parks-recreation/find-park-beach/park-detail/1225.html", "VALIDATIONSTATE": 3, "created_user": "AC_owner", "last_edited_user": "AC_owner", "last_edited_date": 1789875254325, "created_date": 1789875254325, "PARK_SAPSITEID": null, "TRACK_ID": null, "KAURIDIEBACK_TRACK": null, "KAURIDIEBACK_MITIGATED": null, "SegmentID": null, "GlobalID": "610b116d-2fcb-4a5d-be91-f6ea6324daf8", "Shape__Length": 124.81172738558807}}]}