{"type": "FeatureCollection", "features": [{"type": "Feature", "id": 2631, "geometry": {"type": "LineString", "coordinates": [[174.374985796672, -36.3361458042044], [174.374914775784, -36.3361132094814], [174.374789779972, -36.3360672819289], [174.374663786112, -36.3360315685144], [174.373940322766, -36.3356750694852], [174.373280944495, -36.3352968596121], [174.373134332347, -36.3351380032681], [174.373005468657, -36.3349219007367], [174.372805632912, -36.3347372758936], [174.372714514795, -36.334671231941], [174.372614204418, -36.3345933472767], [174.372524637071, -36.3345174332373], [174.372433141122, -36.3344374459177], [174.372354727063, -36.3343731623727], [174.372264611319, -36.3343017157853], [174.372166312298, -36.3342268437715], [174.372071450901, -36.3341566865361], [174.371955415796, -36.33407672458], [174.371758208072, -36.3339458239828], [174.371671028399, -36.3338823392345], [174.371587501933, -36.3338154085519], [174.371497462418, -36.3337373022603], [174.371421313556, -36.3336726233829], [174.37132127552, -36.3335955088291], [174.371214094849, -36.3335238606091], [174.371126241875, -36.3334685035861], [174.371028772286, -36.3334089856834], [174.370934278194, -36.3333509624499], [174.370830232781, -36.333286080373], [174.370726481952, -36.3332171445348], [174.370631802135, -36.3331479224638], [174.370550072803, -36.3330828680056], [174.370526966841, -36.3330617087564], [174.370512387974, -36.3330482746333], [174.370497812793, -36.3330347962942], [174.37048329013, -36.3330213263656], [174.370461541218, -36.3330010566121], [174.370439892958, -36.3329807442326], [174.370425501229, -36.3329671790426], [174.37041114038, -36.3329535954673], [174.370403968718, -36.3329467950145], [174.370389652931, -36.3329331757625], [174.370375361024, -36.3329195201762], [174.370361119342, -36.3329058694209], [174.37033979468, -36.332885327945], [174.370325631153, -36.332871622201], [174.37031150266, -36.3328578808964], [174.370297404216, -36.3328441374425], [174.370269324298, -36.3328165851841], [174.370255311239, -36.3328027542051], [174.37023438064, -36.3327819990505], [174.370213510102, -36.3327611737904], [174.370199655501, -36.3327472923084], [174.370185825925, -36.3327333762821], [174.370172024953, -36.3327194391923], [174.370151388563, -36.332698494947], [174.370137680256, -36.3326845045055], [174.370124012056, -36.3326705136025], [174.370103546344, -36.3326494529052], [174.370083178367, -36.3326283739558], [174.370069626557, -36.3326142843534], [174.370056118977, -36.3326001753116], [174.370042660557, -36.3325860738177], [174.370029206558, -36.3325719064644], [174.370015809863, -36.3325577663981], [174.3699957727, -36.3325364889235], [174.369982444868, -36.3325222723405], [174.369969161456, -36.3325080471335], [174.369955915512, -36.3324937980572], [174.369942698155, -36.3324795270166], [174.369929516322, -36.3324652483553], [174.369909818147, -36.3324437938977], [174.369896725607, -36.332429460121], [174.369883667318, -36.3324151097238], [174.369870644364, -36.3324007408906], [174.369857648868, -36.3323863492045], [174.369844709135, -36.3323719604836], [174.369818884758, -36.3323430832444], [174.369799634743, -36.3323213865446], [174.369793176218, -36.3323140757618], [174.369786702828, -36.3323066795096], [174.369780220941, -36.3322991796858], [174.36977384318, -36.3322916453138], [174.369767522964, -36.3322840886466], [174.369761270928, -36.3322764807154], [174.369755105652, -36.3322688645776], [174.369748992946, -36.3322611964533], [174.369742966826, -36.3322535102083], [174.369736999303, -36.3322457980502], [174.369731100244, -36.3322380508513], [174.369725271252, -36.3322302965388], [174.369719497136, -36.3322224947206], [174.369713783923, -36.3322146714703], [174.369708124646, -36.3322068106414], [174.369702559958, -36.3321989433192], [174.369697038462, -36.3321910610782], [174.36969157203, -36.3321831421471], [174.36968616997, -36.3321752089558], [174.369680809672, -36.3321672428329], [174.3696755147, -36.3321592534242], [174.369670286565, -36.3321512632493], [174.369665101463, -36.3321432491427], [174.369659975004, -36.332135211827], [174.369654898657, -36.3321271730353], [174.369649858375, -36.3321190941654], [174.369644879186, -36.332111004679], [174.369639945495, -36.3321029047547], [174.369635074042, -36.3320947960036], [174.369630238156, -36.3320866823373], [174.369625441725, -36.3320785312585], [174.369620694306, -36.3320703796177], [174.369615995822, -36.3320622229085], [174.369611330441, -36.3320540477904], [174.369606709443, -36.3320458622472], [174.369602141052, -36.3320376905243], [174.369597592318, -36.3320294960394], [174.369593078741, -36.3320212732058], [174.369588622054, -36.3320130542273], [174.369584186515, -36.3320048341048], [174.369575451386, -36.3319883950055], [174.369571121514, -36.3319801646568], [174.369566825028, -36.3319719321222], [174.36956253996, -36.3319636516789], [174.369558269052, -36.3319552890397], [174.369554042616, -36.3319468573791], [174.369549900886, -36.331938427452], [174.369545813327, -36.3319299734657], [174.369541809186, -36.3319215113115], [174.369537856191, -36.3319130431622], [174.36953396289, -36.331904548186], [174.369530145478, -36.3318960604532], [174.369526381565, -36.3318875739101], [174.369522653892, -36.331879057203], [174.369518998544, -36.3318705351597], [174.369515388164, -36.3318620360389], [174.369511815215, -36.331853511248], [174.369508287654, -36.3318449697104], [174.369504811585, -36.3318364420061], [174.369501372292, -36.3318279147816], [174.369497964078, -36.3318193808905], [174.369491252219, -36.3318023037965], [174.369487937418, -36.3317937598199], [174.369481397766, -36.3317767186133], [174.369478154289, -36.3317681756219], [174.369471742867, -36.3317511401568], [174.369465378374, -36.3317341122668], [174.369446466687, -36.3316832293408], [174.369436974719, -36.3316579194539], [174.369433802996, -36.3316495288881], [174.369430610283, -36.331641148479], [174.369424160505, -36.3316244028212], [174.369420918441, -36.3316160671492], [174.369417644406, -36.3316077507742], [174.369414348347, -36.331599449075], [174.36941101793, -36.3315911576855], [174.369407669004, -36.3315828908476], [174.369404282459, -36.3315746388642], [174.369400865308, -36.3315664205857], [174.369397402757, -36.3315582181522], [174.369393912848, -36.3315500439776], [174.36939036756, -36.3315418884669], [174.369386790286, -36.3315337513519], [174.369383164568, -36.3315256472447], [174.369379493592, -36.3315175670942], [174.369375778628, -36.3315095199004], [174.369371993946, -36.3315014996479], [174.369368165981, -36.331493488906], [174.369364279848, -36.3314855284111], [174.369360335967, -36.331477578494], [174.369356331358, -36.3314696599225], [174.369352753844, -36.3314627181543], [174.369349936573, -36.331458027652], [174.369346942061, -36.3314540955115], [174.36934322034, -36.3314501176159], [174.369338894361, -36.3314462440028], [174.369334152819, -36.3314426888619], [174.369329091798, -36.3314395313227], [174.369323905565, -36.3314368584045], [174.369318845526, -36.3314347754023], [174.369314070123, -36.3314332958255], [174.369309562579, -36.3314323522566], [174.369304699958, -36.3314318094016], [174.369299104523, -36.3314316643772], [174.369293112755, -36.3314319818392], [174.369286957965, -36.331432787961], [174.36928091712, -36.3314340570324], [174.369275287481, -36.3314357135299], [174.369270251739, -36.3314376922574], [174.369265986676, -36.3314398451519], [174.369262675316, -36.3314419988375], [174.369259313629, -36.3314448418204], [174.36925471998, -36.3314494820211], [174.369249598591, -36.3314550973455], [174.369244675967, -36.3314609294487], [174.369239932136, -36.3314669830669], [174.369235380791, -36.3314732129699], [174.369231011282, -36.3314796472251], [174.36922679535, -36.3314862627183], [174.369222745187, -36.3314930557039], [174.369218824316, -36.3315000428262], [174.369215035102, -36.3315071681674], [174.369211380167, -36.3315144542339], [174.369207822168, -36.3315218680994], [174.369204371557, -36.3315294339837], [174.369200984198, -36.331537112728], [174.369197687464, -36.3315448769747], [174.369194441775, -36.3315527569257], [174.369191221245, -36.3315607375527], [174.369188035955, -36.3315687583418], [174.369178330679, -36.331593514747], [174.369174949577, -36.3316020606301], [174.369164763122, -36.3316275247902], [174.3691510772, -36.3316613928546], [174.369147681243, -36.3316698541692], [174.369140876332, -36.3316867345781], [174.369134157671, -36.3317035779397], [174.36913082545, -36.3317119889429], [174.3691242346, -36.3317288146132], [174.369117755811, -36.3317456137581], [174.369114582369, -36.3317539940947], [174.369111438093, -36.3317623858162], [174.36910833944, -36.3317707743105], [174.369105277497, -36.3317791596796], [174.369102274401, -36.3317875335569], [174.369099311752, -36.331795926803], [174.369096401078, -36.3318042978184], [174.369093561598, -36.3318126626091], [174.369090773704, -36.3318210466411], [174.369088041568, -36.33182943364], [174.369085377175, -36.3318378081437], [174.369082777151, -36.3318461683879], [174.369080265394, -36.3318545429457], [174.369077812893, -36.331862929445], [174.369075430631, -36.3318713187455], [174.3690731326, -36.3318796827413], [174.369070921911, -36.3318880718789], [174.369068785931, -36.3318964646679], [174.369066741197, -36.3319048510027], [174.369064783505, -36.3319132453549], [174.369062917058, -36.3319216332529], [174.369061150909, -36.3319300227061], [174.369059483352, -36.3319384434826], [174.369057911449, -36.3319468550501], [174.369056442056, -36.3319552672459], [174.369055083066, -36.3319636853887], [174.369053830213, -36.3319721203448], [174.369052718502, -36.3319802805394], [174.369051934514, -36.3319877500616], [174.369051521298, -36.3319950152103], [174.369051417381, -36.3320023831886], [174.369051619312, -36.3320098477257], [174.369052110382, -36.3320174090131], [174.369052885179, -36.3320250761275], [174.369053907166, -36.3320328621079], [174.369055178222, -36.3320407471006], [174.36905666302, -36.3320487495395], [174.36905834974, -36.3320568307972], [174.369060221319, -36.3320650343393], [174.369062244553, -36.3320733091628], [174.369064412087, -36.3320816805928], [174.369066693972, -36.3320901561844], [174.369069069059, -36.3320987370813], [174.36907647804, -36.3321249669188], [174.369078946355, -36.332133909137], [174.369081381417, -36.3321429247549], [174.369083744933, -36.3321520538758], [174.369085990586, -36.3321612600702], [174.369088120493, -36.3321705370035], [174.369090096804, -36.3321799500151], [174.369091863176, -36.3321894627904], [174.369093403682, -36.3321990565809], [174.369094680814, -36.3322087525503], [174.369095672339, -36.3322185536576], [174.369096311691, -36.3322284759904], [174.369096582392, -36.3322384692553], [174.369096446307, -36.3322485825686], [174.36909584714, -36.3322587823194], [174.369094762219, -36.3322690462308], [174.369093194574, -36.3322792291319], [174.369091201102, -36.3322892717755], [174.36908893885, -36.3322991714607], [174.369086353647, -36.3323091433575], [174.369083423525, -36.3323191417426], [174.369080164515, -36.3323291276692], [174.36907655801, -36.3323391202813], [174.36907260553, -36.3323490789955], [174.369068289486, -36.3323590175351], [174.369063589587, -36.3323688586066], [174.369058538594, -36.3323786279771], [174.369053074956, -36.3323883101253], [174.369047216728, -36.332397854362], [174.369040955985, -36.3324072535665], [174.369034251181, -36.3324164892837], [174.36902711769, -36.3324255487169], [174.369019511503, -36.3324343999175], [174.369011450702, -36.3324429939989], [174.369002916289, -36.3324513275728], [174.368993852363, -36.3324593895605], [174.368984268691, -36.3324671014224], [174.368974192836, -36.3324744466162], [174.368963575424, -36.3324814049735], [174.368952405641, -36.332487931545], [174.368939982391, -36.3324943273386], [174.368925681867, -36.3325002803808], [174.36891011289, -36.3325048642004], [174.368894430541, -36.3325078717496], [174.368878844769, -36.3325094583802], [174.368863516059, -36.332509817872], [174.36884852204, -36.3325091206147], [174.368833912762, -36.3325075526386], [174.368819667057, -36.3325052412934], [174.368805798224, -36.3325023099276], [174.368792307137, -36.3324988721162], [174.368779177456, -36.3324950127844], [174.368766435296, -36.3324908235829], [174.368755717858, -36.3324869717753], [174.368686658306, -36.3324572490223], [174.368664708619, -36.3324231112633], [174.368621726101, -36.3323418359942], [174.368582997678, -36.3322205147999], [174.368540088502, -36.3320926598586], [174.36840422627, -36.3318229435621], [174.368190065346, -36.3313773278545], [174.368138971098, -36.3312784801111], [174.368105317924, -36.3312159772459], [174.36806450878, -36.3311494582238], [174.368016170273, -36.331070438195], [174.367967504951, -36.3309882685536], [174.367915052705, -36.3309033503952], [174.367864438026, -36.3308218890383], [174.367811348122, -36.3307334308552], [174.367764129165, -36.3306451326191], [174.367724239944, -36.3305461852747], [174.367692236713, -36.3304592958328], [174.367652202533, -36.3303813624205], [174.367539051804, -36.3302809285541], [174.367436253397, -36.3302178987943], [174.367332081544, -36.330156148516], [174.367235726244, -36.3300938787145], [174.367143269852, -36.3300210540196], [174.367066017072, -36.3299427051172], [174.366998931206, -36.3298517004495], [174.366957320508, -36.3297561052406], [174.366946060594, -36.3296529456969], [174.366953122138, -36.3295564241248], [174.366978473483, -36.3294593760202], [174.367022345309, -36.3293319033653], [174.367060664439, -36.3292078143187], [174.367085643989, -36.3291181300228], [174.36711451645, -36.3290215788795], [174.367158534539, -36.3289146164905], [174.367227006589, -36.3288151711045], [174.367300560412, -36.3287299134286], [174.367373198131, -36.3286531246605], [174.367448066089, -36.3285751239974], [174.367526854517, -36.3284936907091], [174.36760704022, -36.32841074945], [174.367694270921, -36.3283178501289], [174.367780666226, -36.3282276484826], [174.367868258065, -36.3281361845461], [174.367959384834, -36.3280422452179], [174.368045952034, -36.3279527977455], [174.368132110243, -36.3278588304273], [174.368220221345, -36.3277586268723], [174.368301177981, -36.3276502864897], [174.368364443902, -36.3275553118483], [174.368423930896, -36.327462001284], [174.368479465723, -36.327369047855], [174.368544642378, -36.327261619999], [174.36859464527, -36.3271752078132], [174.368630016568, -36.3270858359837], [174.36865291676, -36.3269957496752], [174.368668285068, -36.3269211584099], [174.368660627177, -36.326828686114], [174.368651842382, -36.3267480891357], [174.368633863323, -36.3266541809084], [174.368620101167, -36.326601046449], [174.368600243824, -36.3265359246593], [174.36860166159, -36.3265273652129], [174.368578595478, -36.3264515869549], [174.368551404472, -36.3263987622247], [174.368524989738, -36.3263685996117]]}, "properties": {"OBJECTID": 2631, "TRACKNAME": "Clearfell Track", "CONDITIONSOFUSE": "Atiu Regional Park", "STATUS": "Open", "WEBLINK": "https://www.aucklandcouncil.govt.nz/en/parks-recreation/find-park-beach/park-detail/205.html", "VALIDATIONSTATE": 3, "created_user": "AC_owner", "last_edited_user": "AC_owner", "last_edited_date": 1789875254325, "created_date": 1789875254325, "PARK_SAPSITEID": null, "TRACK_ID": null, "KAURIDIEBACK_TRACK": null, "KAURIDIEBACK_MITIGATED": null, "SegmentID": null, "GlobalID": "ff1f84dc-1a2f-4d02-9c08-89b1e5bb8094", "Shape__Length": 1665.6430204978112}}]}