{"type": "FeatureCollection", "features": [{"type": "Feature", "id": 59, "geometry": {"type": "LineString", "coordinates": [[174.744666302721, -36.6819479576487], [174.744709921923, -36.6819591984393], [174.744764778409, -36.6819759531504], [174.744801290572, -36.6819841883423], [174.745020530635, -36.6819822971068], [174.745318035911, -36.6818733776542], [174.745554013, -36.6817825163569], [174.74570002604, -36.6817380847738], [174.745902473903, -36.6817125599606], [174.746062039187, -36.6816481936738], [174.746168286193, -36.6815479559419]]}, "properties": {"OBJECTID": 59, "TRACKNAME": "Coastal Track", "CONDITIONSOFUSE": "Long Bay Regional Park", "STATUS": "Open", "WEBLINK": "https://www.aucklandcouncil.govt.nz/en/parks-recreation/find-park-beach/park-detail/215.html", "VALIDATIONSTATE": 3, "created_user": "AC_owner", "last_edited_user": "AC_owner", "last_edited_date": 1789875254325, "created_date": 1789875254325, "PARK_SAPSITEID": null, "TRACK_ID": null, "KAURIDIEBACK_TRACK": null, "KAURIDIEBACK_MITIGATED": null, "SegmentID": null, "GlobalID": "bfa0e423-b39f-4624-80ee-af326d721df0", "Shape__Length": 147.73940593121162}}, {"type": "Feature", "id": 2728, "geometry": {"type": "LineString", "coordinates": [[174.744666302721, -36.6819479576487], [174.744644718697, -36.6819600008047], [174.744618246584, -36.6819701686325], [174.744572231926, -36.6819747549259], [174.74453340069, -36.681975323984], [174.744504147552, -36.6819698847474], [174.744474806082, -36.6819605348497], [174.744447881286, -36.6819511585449], [174.744423306797, -36.6819378268315], [174.744403455321, -36.6819185669959], [174.744385976151, -36.6818973164205], [174.744358576759, -36.6818664313325], [174.744338725318, -36.6818471714848], [174.744318818332, -36.6818259474596], [174.744293846843, -36.6817950357942], [174.744259561847, -36.681781846328], [174.744220465936, -36.6817706923285], [174.744174363046, -36.681771367811], [174.744118714816, -36.6817799980082], [174.744067933257, -36.681788565894], [174.744009912901, -36.6817991957817], [174.743949332214, -36.681803986212], [174.743852524811, -36.6818171402041], [174.743774994917, -36.6818241438174], [174.74370951495, -36.6818270589301], [174.743668167827, -36.6818237526075], [174.743636443005, -36.6818163933847], [174.743599686515, -36.681801292966], [174.743580011653, -36.6817898452873], [174.743557589154, -36.6817647550397], [174.743525423131, -36.6817378515169], [174.743490299977, -36.681687528613], [174.743452716272, -36.6816352857588], [174.743427557435, -36.681596552751], [174.743406911967, -36.6815421058421], [174.743396539511, -36.6815129271396], [174.743390908397, -36.6814206281108], [174.743384232418, -36.6813415314375], [174.743399521477, -36.68125834536], [174.74343882968, -36.6811748165317], [174.74347483921, -36.6810968614043], [174.743539629236, -36.6810029361033], [174.743706344931, -36.6808584201973], [174.743897480977, -36.6806565256113], [174.743906462236, -36.6805983187202], [174.743905276249, -36.6805457951855], [174.743868025412, -36.6804924208604]]}, "properties": {"OBJECTID": 2728, "TRACKNAME": "Coastal Track", "CONDITIONSOFUSE": "Long Bay Regional Park", "STATUS": "Open", "WEBLINK": "https://www.aucklandcouncil.govt.nz/en/parks-recreation/find-park-beach/park-detail/215.html", "VALIDATIONSTATE": 3, "created_user": "AC_owner", "last_edited_user": "AC_owner", "last_edited_date": 1789875254325, "created_date": 1789875254325, "PARK_SAPSITEID": null, "TRACK_ID": null, "KAURIDIEBACK_TRACK": null, "KAURIDIEBACK_MITIGATED": null, "SegmentID": null, "GlobalID": "d9a29684-881f-4244-b045-070e47c11e25", "Shape__Length": 272.66014467685363}}, {"type": "Feature", "id": 12173, "geometry": {"type": "LineString", "coordinates": [[174.746960807484, -36.6707267486858], [174.746916877477, -36.6706240455835], [174.746903825415, -36.670583729443], [174.746887443517, -36.6705490596771], [174.746868937726, -36.6704976555546], [174.746863073447, -36.6704684109573], [174.746853784385, -36.6704406137352], [174.746835215489, -36.6703864162792], [174.746822080171, -36.6703419189833], [174.746805339828, -36.6702918860721], [174.746799538746, -36.6702654347959], [174.746790218157, -36.6702362409036], [174.746786435048, -36.6702223341574], [174.746775621924, -36.6702043301593], [174.746759607699, -36.6701864114815], [174.746736543283, -36.6701630077307], [174.746694071279, -36.6701245203112], [174.746663819436, -36.6700900539927], [174.746633650952, -36.670059768809], [174.746603430531, -36.670026690126], [174.746585535937, -36.6700018133758], [174.746564257356, -36.6699811776446], [174.746546583791, -36.6699660775316], [174.746520051977, -36.6699427246016], [174.746500549748, -36.6699234509133], [174.746482612455, -36.6698971776464], [174.746475109325, -36.6698721484451], [174.746464149861, -36.6698471699438], [174.746463613362, -36.6698234356752], [174.746461027601, -36.6697857692145], [174.746460112258, -36.6697452749835]]}, "properties": {"OBJECTID": 12173, "TRACKNAME": "Coastal Track", "CONDITIONSOFUSE": "Long Bay Regional Park", "STATUS": "Open", "WEBLINK": "https://www.aucklandcouncil.govt.nz/en/parks-recreation/find-park-beach/park-detail/215.html", "VALIDATIONSTATE": 3, "created_user": "AC_owner", "last_edited_user": "AC_owner", "last_edited_date": 1789875254325, "created_date": 1789875254325, "PARK_SAPSITEID": null, "TRACK_ID": null, "KAURIDIEBACK_TRACK": null, "KAURIDIEBACK_MITIGATED": null, "SegmentID": null, "GlobalID": "1995770f-e6aa-472f-920d-9bcfbcc3ee1c", "Shape__Length": 120.60950562688771}}, {"type": "Feature", "id": 12222, "geometry": {"type": "LineString", "coordinates": [[174.746231363719, -36.6698989060801], [174.746255155544, -36.6698567289562], [174.746341895129, -36.6698408517738], [174.746422036257, -36.6698173961357], [174.746460680426, -36.6697704104213], [174.746445277973, -36.6696540141407], [174.746361803966, -36.6693081814787], [174.746330278421, -36.6692107071069], [174.746290583708, -36.6690416943618], [174.746261135025, -36.6689082752315], [174.746248057146, -36.6688308940549], [174.746216069541, -36.6687522687028], [174.746168571445, -36.6686974480142], [174.746061225646, -36.6685381760554], [174.74598463563, -36.6683362191751], [174.745962917586, -36.6682685264174], [174.745976335701, -36.6682494224628], [174.746008551153, -36.6682470932069], [174.746026473486, -36.6682543595406], [174.746104788972, -36.668277877975], [174.74616227191, -36.6682909629423], [174.746188124681, -36.6682873694866], [174.746203799979, -36.6682748187294], [174.746187374335, -36.6682541676281], [174.746151972126, -36.6682177242703], [174.746104036232, -36.6681562875856], [174.746051073341, -36.6681077808748], [174.745938196191, -36.6680322651901], [174.745858094024, -36.6679672448144], [174.745826479529, -36.6679415451556], [174.745791701578, -36.6679170681646], [174.745789610342, -36.6679132048996], [174.745769749106, -36.6678763262296], [174.745780748187, -36.6678518756713], [174.745796475858, -36.6678294118074], [174.745829258236, -36.6677960247153], [174.745846939198, -36.6677906330397], [174.745922323356, -36.6677948709647], [174.745960978416, -36.6677812261088], [174.7460152713, -36.667741194992], [174.746051209093, -36.6676791997807], [174.746068144899, -36.6676384085876], [174.746051118549, -36.6676033470192], [174.746019455846, -36.6675671912954], [174.74585566825, -36.6674791241491], [174.745855206597, -36.6674787974107], [174.745765975664, -36.6674058363239], [174.745758014816, -36.6673595350745], [174.74575961096, -36.667358422813], [174.745764488237, -36.6673564926695], [174.745785328031, -36.6673442799719], [174.745835890242, -36.6673379689977], [174.745858008009, -36.6672967962824], [174.745835845882, -36.6672339918309], [174.745767770846, -36.6671792887971], [174.745724201688, -36.6670870907694], [174.745734170838, -36.6670182455939], [174.745772668056, -36.6669879727937], [174.745839359009, -36.6669814244282], [174.745941113139, -36.6669966437899], [174.746018653718, -36.6669602278894], [174.746023178134, -36.666956448787], [174.746026267915, -36.6669524617744], [174.746032546036, -36.6669462746265], [174.746065267393, -36.666908623071], [174.746076112657, -36.666896141361], [174.746086227874, -36.6668815070625], [174.746089866319, -36.6668477802314], [174.745896273489, -36.6663381600437], [174.745662507321, -36.6656824472044], [174.745690445723, -36.6655929143581], [174.745804175206, -36.6654241404495], [174.746040273962, -36.6652110939086], [174.746205344474, -36.6651236781628], [174.746495859776, -36.6651406660736], [174.74673700281, -36.6653071175959], [174.746996044149, -36.6654874719685], [174.747085203549, -36.665526241453], [174.747174254608, -36.6655220620601], [174.747288142304, -36.6654623676468], [174.747560879504, -36.6652610868963], [174.747944099294, -36.665008864138], [174.74827809769, -36.6648095839226], [174.748301197462, -36.6647164078837], [174.748250723719, -36.6645546847317], [174.748174141591, -36.6645122918068], [174.747903753999, -36.6644988550439], [174.747434320373, -36.6644835149285], [174.747373639054, -36.6644863623652], [174.747202055204, -36.6644869874733], [174.747138615093, -36.6644879183934], [174.747094008202, -36.6644904658172], [174.747021161677, -36.664491534698], [174.74696237639, -36.6644905043425], [174.746927175897, -36.6644929136903], [174.746865945069, -36.6644881334028], [174.746825790318, -36.6644792581109], [174.746785581416, -36.6644684817033], [174.746747604198, -36.6644519938943], [174.746721242704, -36.6644296570203], [174.746682783659, -36.6643923455351], [174.746639381619, -36.664343749252], [174.746605491953, -36.6643006920615], [174.746573919543, -36.6642557079862], [174.746537392774, -36.664199430265], [174.746510646334, -36.6641600540292], [174.746483686099, -36.6641112165086], [174.746468854744, -36.6640792370206], [174.746449208709, -36.6640416495031], [174.746433864018, -36.6639869539312], [174.746407455841, -36.6638585711554], [174.746372717956, -36.6636734970129], [174.746351734902, -36.6635772316841], [174.7463381515, -36.6634960008847], [174.746323234813, -36.6634602368588], [174.746315717928, -36.6634395163791], [174.746298709249, -36.6634151493444], [174.74627456854, -36.6633870921278], [174.746248250313, -36.6633666473879], [174.746174175667, -36.6633128221106], [174.746111961845, -36.6632644924838], [174.746071123556, -36.6632253318058], [174.746030530433, -36.6631975158036], [174.74599703778, -36.6631714975634], [174.745946835898, -36.6631343580171], [174.745920517843, -36.6631139131994], [174.745896634064, -36.6630972184483], [174.745870487231, -36.6630843516554], [174.745849251469, -36.6630808682501], [174.745823446626, -36.6630831394989], [174.745795506951, -36.6630949154739], [174.745713908001, -36.6631245141329], [174.745604668652, -36.6631791434769], [174.745513919919, -36.6632202424557], [174.745451068143, -36.6632476732203], [174.745402117629, -36.6632654357579], [174.745353198643, -36.6632850906969], [174.745304151428, -36.6632990688453], [174.74526671965, -36.6633071890532], [174.745219818494, -36.6633116622796], [174.745172906147, -36.6633161356516], [174.745137566734, -36.6633128678505], [174.745094978341, -36.6633002328517], [174.745040324637, -36.6632745244817], [174.744985767607, -36.6632526004364], [174.744931039705, -36.6632231073354], [174.744873920149, -36.6631917473599], [174.744835687615, -36.663163905365], [174.744799792488, -36.6631360200915], [174.744771083238, -36.6631137171725], [174.744754160554, -36.6630931344162], [174.744729946447, -36.663061301199], [174.744722205041, -36.6630311104695], [174.744721179355, -36.6629856782635], [174.744718146872, -36.6629554275463], [174.74471695011, -36.6629024172979], [174.744732332355, -36.6627506981046], [174.744733099665, -36.6626806141071], [174.744727291043, -36.6626314662165], [174.744712204401, -36.6625881329282], [174.744689569889, -36.6625221866161], [174.744658894879, -36.6624127947429], [174.744645900764, -36.6623580734795], [174.744635437259, -36.6623108776566], [174.744615268607, -36.6622505738469], [174.744597577077, -36.6621959214035], [174.74458497867, -36.6621582302885], [174.74456036912, -36.6621093578523], [174.744533068954, -36.662045372746], [174.744522850868, -36.6620095396317], [174.744507134557, -36.6619378042479], [174.744496714119, -36.6618925096748], [174.744484232972, -36.6618605044942], [174.744459708808, -36.6618154075366], [174.744446982403, -36.6617720396262], [174.744431938815, -36.6617305985462], [174.744419340573, -36.6616929074067], [174.744406645739, -36.6616514319123], [174.744393492094, -36.6615891323981], [174.744382687191, -36.6615267984723], [174.744377124182, -36.661489013273], [174.744366832018, -36.6614493954573], [174.744347219237, -36.6614136999545], [174.744330009081, -36.6613798621347], [174.744317912665, -36.6613648962683], [174.744305955355, -36.6613555980019], [174.744289417762, -36.6613520544989], [174.744242378414, -36.6613508506994], [174.744160652529, -36.6613747714925], [174.744034406734, -36.6614050229824], [174.743924527639, -36.6614312488608], [174.743861377818, -36.661445432957], [174.743800502485, -36.6614557979408], [174.743711559212, -36.6614722435767], [174.743636654538, -36.6614865996975], [174.743552408831, -36.6615029854383], [174.743463593707, -36.6615251166805], [174.743367635611, -36.661543557659], [174.743262496398, -36.6615716154291], [174.743110488117, -36.6616060288933], [174.743012352212, -36.6616320910348], [174.742975060173, -36.6616458871251], [174.742933401286, -36.6616749082298], [174.742887002039, -36.6617020968094], [174.742810698396, -36.6617581253665], [174.742752896974, -36.6618006328776], [174.742715989233, -36.6618314772519], [174.742683724869, -36.6618603517568], [174.742649913488, -36.6618935574606], [174.742424681752, -36.6620658476894], [174.742261169842, -36.6622166533418], [174.742048432141, -36.6623797985958], [174.741912230051, -36.662418603341], [174.741471338488, -36.6625385553254], [174.741210595316, -36.6626267281866], [174.741015217283, -36.6627430879463], [174.740813629666, -36.6628389562083], [174.740808961247, -36.6628422045086], [174.740778885198, -36.6628634749727], [174.740755983497, -36.6628903282098], [174.740733294689, -36.6629266337408], [174.740717791413, -36.6629685218868], [174.740698133886, -36.6630350962939], [174.740674034307, -36.6631130839318], [174.74065672528, -36.6631796149844], [174.740624684069, -36.6632179591162], [174.740592642826, -36.66325630324], [174.740568031654, -36.6633115837172], [174.740564779904, -36.66335185235], [174.740508269391, -36.6634805977758], [174.74045083424, -36.6635935817494], [174.740396839629, -36.6637458252126], [174.740396952469, -36.6637766694717], [174.740380934543, -36.6638074944238], [174.74031848095, -36.6638317943229], [174.74020594647, -36.6638655180975], [174.740140235457, -36.6639081363571], [174.740139245392, -36.6639087871966], [174.740064404809, -36.6639647340511], [174.739978974856, -36.664050423199], [174.739888956473, -36.6641256332641], [174.739815922261, -36.6641794849164], [174.739690803632, -36.6642481589766], [174.739560768757, -36.6642922882175]]}, "properties": {"OBJECTID": 12222, "TRACKNAME": "Coastal Track", "CONDITIONSOFUSE": "Long Bay Regional Park", "STATUS": "Open", "WEBLINK": "https://www.aucklandcouncil.govt.nz/en/parks-recreation/find-park-beach/park-detail/215.html", "VALIDATIONSTATE": 3, "created_user": "AC_owner", "last_edited_user": "AC_owner", "last_edited_date": 1789875254325, "created_date": 1789875254325, "PARK_SAPSITEID": null, "TRACK_ID": null, "KAURIDIEBACK_TRACK": null, "KAURIDIEBACK_MITIGATED": null, "SegmentID": null, "GlobalID": "2a5a4133-3457-4d90-9870-90109d3781bc", "Shape__Length": 2131.030300193442}}, {"type": "Feature", "id": 12407, "geometry": {"type": "LineString", "coordinates": [[174.743868025412, -36.6804924208604], [174.743806994336, -36.6804504546824], [174.743707025561, -36.6804325575505], [174.743610928234, -36.6804339650786], [174.743514519064, -36.6804215590797], [174.743468968751, -36.6803807450951], [174.743481322506, -36.6803197306438], [174.743504228941, -36.6802696124494], [174.743560884698, -36.6801941221224], [174.743631964639, -36.6801488417744], [174.743696601225, -36.6801230081963], [174.743846804116, -36.6800848613806], [174.744117122085, -36.6800449456546], [174.74429078132, -36.6799815677777], [174.744450401565, -36.6799045683414], [174.744579122929, -36.6798280215068], [174.744702493767, -36.6796885110708], [174.744777310282, -36.6796343148108], [174.744837898281, -36.6795808858983], [174.744857284672, -36.6795309885005], [174.74484308634, -36.6794999478763], [174.744862103639, -36.6794367354279], [174.744877890562, -36.6793756705181], [174.744889993087, -36.6793035907737], [174.744878577, -36.6792539843976], [174.74490421879, -36.6791734226065], [174.744916663746, -36.6791299752947], [174.74492015761, -36.6790396824313], [174.744920163035, -36.6790361579914], [174.744873748769, -36.6788370728511], [174.744877824564, -36.67877332945], [174.744879581903, -36.6787458560449], [174.744881625115, -36.6787138977345], [174.744949709784, -36.6785297403155], [174.745093672351, -36.6783492406686], [174.745106167291, -36.6783350583158], [174.745125534866, -36.678313074804], [174.745134500159, -36.6783028976023], [174.745205755616, -36.6782220177167], [174.745216404416, -36.6782099301612], [174.745312799392, -36.6781415424349], [174.745387480089, -36.6781062297123], [174.745389474639, -36.6781049601835], [174.74538955083, -36.6781049148993], [174.745390900444, -36.6781041244402], [174.745741969252, -36.6778543943574], [174.745742124623, -36.67785428752], [174.745742317641, -36.6778541630045], [174.74574605258, -36.6778518169502], [174.745750037753, -36.6778494023275], [174.745754072332, -36.677847044668], [174.745758156297, -36.6778447430705], [174.745762290807, -36.6778424993208], [174.745766472486, -36.677840312567], [174.745770668181, -36.6778382013227], [174.745770698039, -36.6778381855615], [174.74577078326, -36.6778381437501], [174.745774970801, -36.6778361173541], [174.745779289655, -36.6778341079611], [174.745783647948, -36.6778321601842], [174.745788047918, -36.6778302739906], [174.745792488427, -36.6778284484956], [174.745796968375, -36.6778266846166], [174.74580148335, -36.6778249851225], [174.745806035548, -36.6778233481784], [174.745810622731, -36.6778217738171], [174.745815241605, -36.6778202647908], [174.745819836583, -36.6778188372383], [174.74581989215, -36.6778188201987], [174.745819961059, -36.677818799358], [174.745824572148, -36.6778174409746], [174.745829284935, -36.6778161261681], [174.745834022741, -36.6778148785975], [174.745838785526, -36.6778136964603], [174.745843574449, -36.6778125815425], [174.745848386135, -36.6778115329922], [174.7458532217, -36.6778105507929], [174.745858075614, -36.6778096377299], [174.745862948954, -36.6778087919846], [174.745867795997, -36.6778080205373], [174.745867838364, -36.6778080136064], [174.745867916447, -36.6778080025462], [174.745872743885, -36.6778073043972], [174.745877667734, -36.6778066634232], [174.745882600982, -36.6778060917167], [174.745887546964, -36.6778055883275], [174.745892501227, -36.6778051542222], [174.745897465987, -36.6778047884669], [174.745902437908, -36.677804492012], [174.745907415893, -36.6778042657749], [174.745912396565, -36.6778041089037], [174.745917365381, -36.6778040216118], [174.74592236485, -36.6778040032757], [174.745927350227, -36.6778040545516], [174.745932331578, -36.6778041752919], [174.745937311142, -36.6778043654637], [174.745942285563, -36.6778046251164], [174.745947253721, -36.6778049542663], [174.745952216714, -36.6778053519958], [174.745956999644, -36.6778058037441], [174.745957090481, -36.677805812327], [174.745957165676, -36.6778058220406], [174.745957399297, -36.6778058600775], [174.746372994878, -36.6778783593368], [174.746373322529, -36.6778783986976], [174.746373917278, -36.6778784224223], [174.746648484497, -36.6778815269347], [174.746648746225, -36.6778815212919], [174.746649174066, -36.6778814879737], [174.746655426856, -36.6778808752424], [174.746662094528, -36.6778801509634], [174.746668750501, -36.677879354746], [174.746675394775, -36.6778784865902], [174.746682021819, -36.6778775492812], [174.746688630473, -36.6778765410334], [174.746695226331, -36.6778754617647], [174.746701801581, -36.6778743124911], [174.74670835958, -36.6778730931632], [174.746714895874, -36.6778718047479], [174.746721409303, -36.6778704454595], [174.746727902166, -36.6778690179683], [174.746734368828, -36.6778675205542], [174.746740811568, -36.6778659549866], [174.746747227009, -36.6778643204136], [174.746753615192, -36.6778626186373], [174.746759974958, -36.6778608478722], [174.746766306346, -36.6778590099203], [174.746772609317, -36.6778571029794], [174.746778872786, -36.6778551317192], [174.746785106739, -36.6778530923875], [174.746791307861, -36.6778509868357], [174.746797472796, -36.6778488151132], [174.746803602702, -36.6778465790056], [174.746809695304, -36.6778442767436], [174.746815747283, -36.6778419101786], [174.746821761978, -36.6778394783604], [174.746827736092, -36.6778369840414], [174.746833667347, -36.6778344254522], [174.746839558002, -36.6778318034612], [174.746845402483, -36.6778291190514], [174.746851214132, -36.6778263684217], [174.746856960795, -36.677823564663], [174.746862670171, -36.6778206956511], [174.746868331178, -36.6778177660554], [174.746873943834, -36.6778147767771], [174.746879505903, -36.677811727849], [174.746885019621, -36.6778086192382], [174.746890481654, -36.6778054518952], [174.746895888686, -36.6778022276712], [174.746901244033, -36.6777989447149], [174.746906545538, -36.6777956066635], [174.746911789784, -36.6777922108629], [174.74691697907, -36.6777887599836], [174.74692211006, -36.6777852549759], [174.746922137599, -36.677785235643], [174.746927184951, -36.6777816940048], [174.746932200427, -36.6777780789217], [174.746937154313, -36.6777744124627], [174.746942048804, -36.6777706927928], [174.746946881705, -36.677766921747], [174.746951651876, -36.6777630984406], [174.746956359378, -36.6777592255768], [174.746961003073, -36.6777553022711], [174.746965580763, -36.6777513303584], [174.746970092449, -36.6777473098386], [174.746974538151, -36.677743241613], [174.746978917829, -36.6777391238793], [174.746983229387, -36.6777349629778], [174.74698701411, -36.6777312082132], [174.74698749219, -36.6777307739479], [174.74698783675, -36.677730521916], [174.747441118428, -36.6774410282412], [174.747441374187, -36.6774408577335], [174.747441561705, -36.6774406386521], [174.747492844007, -36.6773780762062], [174.747493019118, -36.6773778528], [174.747493112992, -36.6773775999396], [174.747612346825, -36.677030664321], [174.747612461478, -36.6770302912731], [174.747612500681, -36.6770300951002], [174.747635154062, -36.6768560359416], [174.747635159877, -36.6768559961959], [174.747635184866, -36.676855864229], [174.747635270926, -36.6768555628091], [174.74763611348, -36.6768528886924], [174.747636138493, -36.6768528072019], [174.747636158238, -36.6768527402106], [174.747636992724, -36.6768498084203], [174.747637012327, -36.6768497351215], [174.747637032927, -36.6768496563998], [174.747637782353, -36.6768467240554], [174.747637800777, -36.6768466480698], [174.747637818102, -36.6768465730016], [174.747638483405, -36.6768436319771], [174.747638500526, -36.6768435478982], [174.747638514638, -36.6768434791869], [174.747639097871, -36.6768405213397], [174.747639113792, -36.676840433673], [174.747639124752, -36.6768403740216], [174.747639625609, -36.6768373858356], [174.747639638419, -36.6768373090311], [174.747639649052, -36.6768372349626], [174.74764006479, -36.6768342435193], [174.74764007339, -36.6768341784943], [174.747640083677, -36.6768340891076], [174.747640412384, -36.676831108857], [174.747640419743, -36.676831038442], [174.747640426817, -36.6768309554121], [174.747640671461, -36.6768279691845], [174.747640677559, -36.6768278924785], [174.747640682477, -36.6768278130857], [174.74764084196, -36.6768248217987], [174.74764084576, -36.6768247424222], [174.747640848501, -36.6768246657655], [174.747640922886, -36.6768216721222], [174.747640924407, -36.6768215909765], [174.747640925054, -36.6768215206601], [174.747640914886, -36.6768184994142], [174.74764091468, -36.6768184408281], [174.747640913579, -36.6768183921702], [174.747640818496, -36.6768153766777], [174.74764081542, -36.6768152901913], [174.747640811694, -36.6768152244459], [174.747640630556, -36.6768122138222], [174.747640625508, -36.6768121390825], [174.747640619239, -36.6768120598539], [174.747640355871, -36.6768090747742], [174.747640348504, -36.6768089964631], [174.747640340059, -36.6768089199706], [174.747639991713, -36.6768059379412], [174.74763998095, -36.6768058578771], [174.747639971488, -36.6768057859064], [174.747639535622, -36.6768027934439], [174.747639525144, -36.6768027259949], [174.747639510943, -36.6768026423759], [174.747638994027, -36.6767996781443], [174.747638981209, -36.6767996062228], [174.747638964852, -36.6767995262409], [174.747638364179, -36.6767965695485], [174.747638347965, -36.6767964958741], [174.747638330469, -36.6767964150076], [174.74763764126, -36.6767934524039], [174.74763762885, -36.6767933985038], [174.747637616583, -36.6767933509112], [174.747636842498, -36.6767903958631], [174.747636820466, -36.676790312359], [174.747636801059, -36.6767902459424], [174.747635947084, -36.6767873209109], [174.747635924076, -36.6767872437308], [174.74763590233, -36.6767871728417], [174.747634963499, -36.6767842562668], [174.747634943035, -36.6767841925699], [174.747634913152, -36.6767841082797], [174.747633900269, -36.6767812324522], [174.747633874028, -36.6767811607277], [174.747633845406, -36.6767810827286], [174.747632751269, -36.6767782261213], [174.74763272041, -36.676778148155], [174.747632691972, -36.6767780782655], [174.747631516622, -36.6767752426805], [174.747631481146, -36.6767751584725], [174.74763145401, -36.6767750966762], [174.747630186767, -36.6767722552292], [174.747630158492, -36.6767721925483], [174.74763012204, -36.6767721146641], [174.747628785361, -36.6767693202063], [174.74762875135, -36.6767692513], [174.747628713861, -36.6767691770366], [174.747627298309, -36.6767664080736], [174.74762726202, -36.676766337398], [174.747627223493, -36.6767662667553], [174.747625726707, -36.6767635179136], [174.747625689361, -36.6767634499576], [174.747625647417, -36.6767633766609], [174.747624072937, -36.6767606560008], [174.747624035672, -36.6767605916491], [174.747623991491, -36.6767605183853], [174.747622339357, -36.676757827709], [174.747622301035, -36.6767577660769], [174.747622251159, -36.6767576883898], [174.7476205398, -36.6767550508624], [174.747620488826, -36.6767549740928], [174.747620449466, -36.6767549160814], [174.747618646561, -36.6767522880102], [174.747618596808, -36.6767522157295], [174.747618552872, -36.6767521532785], [174.747616665336, -36.6767495435756], [174.747616627238, -36.6767494918553], [174.747616603033, -36.6767494606627], [174.747614629769, -36.6767468702456], [174.747614580178, -36.6767468051735], [174.74761452833, -36.6767467392332], [174.747612501618, -36.6767442099925], [174.747612457866, -36.6767441556512], [174.747612396905, -36.6767440826336], [174.747610317863, -36.6767416145529], [174.747610259242, -36.6767415460079], [174.747610207537, -36.6767414863751], [174.74760805194, -36.6767390473606], [174.747607991122, -36.6767389806506], [174.747607939478, -36.676738923721], [174.747605711984, -36.6767365218168], [174.747605648929, -36.6767364551396], [174.747605595068, -36.6767363991439], [174.74760329108, -36.6767340290091], [174.747603236101, -36.6767339730298], [174.747603173147, -36.6767339108579], [174.747600812172, -36.6767315938392], [174.747600752677, -36.6767315361235], [174.747600688626, -36.6767314748691], [174.74759823405, -36.676729175449], [174.747598202076, -36.6767291470745], [174.747598141523, -36.6767290920784], [174.747595645907, -36.6767268581593], [174.747595584236, -36.6767268031796], [174.74759551575, -36.6767267437931], [174.747592962008, -36.6767245621054], [174.747592899258, -36.6767245089443], [174.747592830834, -36.676724452261], [174.747590228016, -36.6767223271786], [174.747590152778, -36.6767222660885], [174.747590090131, -36.6767222174327], [174.747587404046, -36.6767201215151], [174.747587341399, -36.6767200728593], [174.747587266263, -36.6767200162745], [174.74758454593, -36.6767179893638], [174.747584469675, -36.6767179327954], [174.747584403693, -36.67671788509], [174.7475816149, -36.6767158988444], [174.747581538727, -36.6767158458803], [174.747581470528, -36.6767157991088], [174.747578619012, -36.6767138597538], [174.747578547436, -36.6767138121305], [174.747578482694, -36.676713769815], [174.747575566218, -36.6767118773835], [174.747575499218, -36.6767118341998], [174.747575416353, -36.6767117822353], [174.74757245308, -36.6767099481783], [174.747572395213, -36.6767099129729], [174.747572301039, -36.6767098557662], [174.747569310251, -36.6767080915186], [174.747569239936, -36.6767080501864], [174.747569154895, -36.6767080009579], [174.747566107057, -36.6767062871231], [174.747566032248, -36.6767062449555], [174.747565947288, -36.6767061993313], [174.747562851474, -36.6767045411843], [174.747562771071, -36.6767044990987], [174.747562694064, -36.676704458766], [174.747559546917, -36.6767028563561], [174.747559466534, -36.6767028151716], [174.747559380538, -36.6767027731681], [174.747556196701, -36.6767012307871], [174.747556113003, -36.676701191454], [174.747556033821, -36.6767011538574], [174.747552797533, -36.6766996672299], [174.747552707082, -36.6766996261932], [174.747549351628, -36.6766981647504], [174.747549269151, -36.6766981299063], [174.747549181039, -36.6766980933421], [174.747545873693, -36.6766967303438], [174.74754578672, -36.6766966946643], [174.747545702046, -36.6766966616551], [174.747542346763, -36.6766953561468], [174.747542263249, -36.6766953249234], [174.747542172962, -36.6766952910952], [174.747538779912, -36.6766940474345], [174.747538702052, -36.6766940188321], [174.747538606171, -36.6766939850861], [174.747535189999, -36.6766928075647], [174.747535102051, -36.676692778209], [174.747535011866, -36.6766927488862], [174.747531573711, -36.6766916383889], [174.74753147002, -36.6766916056588], [174.747531395638, -36.6766915824137], [174.747528187852, -36.6766906136553], [174.747527804961, -36.6766905066044], [174.747527400311, -36.6766904764893], [174.747044996177, -36.6766642230497], [174.747044610585, -36.676664194456], [174.747044256372, -36.6766640689553], [174.746716530217, -36.6765403927829], [174.746716116248, -36.6765402474263], [174.746715856086, -36.6765401737254], [174.746412853584, -36.6764660924468], [174.746412450539, -36.6764659847864], [174.746412092706, -36.6764657980436], [174.746298806093, -36.6764034300428], [174.746298524919, -36.6764032683149], [174.746298469465, -36.6764029933088], [174.746280672625, -36.6763015265162], [174.746280631652, -36.6763012485935], [174.746280690341, -36.6763009737158], [174.746361665751, -36.675964386614], [174.74636179745, -36.6759639258842], [174.746361830559, -36.675963855993], [174.746361992874, -36.6759635615677], [174.746448007679, -36.6758194081234], [174.746448146503, -36.675819163618], [174.746448196446, -36.6758188978823], [174.746476674292, -36.6756425558994], [174.746476729318, -36.6756422675548], [174.746476916122, -36.6756420169373], [174.74661996679, -36.6754594818332], [174.746620040698, -36.6754593852035], [174.746620117819, -36.6754592822171], [174.746838628164, -36.6751578449648], [174.746838817244, -36.6751575961161], [174.74683911099, -36.6751574232496], [174.747139943054, -36.6749886149317], [174.747270758442, -36.6749170109954], [174.747292132358, -36.6749012243631], [174.747295244421, -36.6748921271191], [174.747295994364, -36.6748834295983], [174.747294209266, -36.6748708510229], [174.747284325971, -36.6748494668248], [174.747242036845, -36.6748196896325], [174.747217254061, -36.6748046858685], [174.747176143085, -36.674779797525], [174.747143577428, -36.6747600820218], [174.747091378346, -36.6747014503889], [174.74703543058, -36.6746386075511], [174.747016789498, -36.6745568310729], [174.747012090109, -36.674508408061], [174.747038102167, -36.6744574404948], [174.747080398, -36.6744044537555], [174.747101302781, -36.6743639701591], [174.747103662303, -36.6743304549982], [174.747087343011, -36.6742980513201], [174.747041222098, -36.6742803140115], [174.747010060997, -36.6742846444703], [174.746946828877, -36.6742875580514], [174.746873042025, -36.6742792214174], [174.746824708922, -36.6742486178595], [174.746811249279, -36.674205695544], [174.746807959805, -36.6741500895359], [174.746851026213, -36.6740054888034], [174.746899264242, -36.6739230807078], [174.746921367121, -36.6738537843506], [174.746921430743, -36.67376663793], [174.746888969518, -36.673633400298], [174.746879981863, -36.6736046504308], [174.746829330218, -36.6735688312993], [174.74674744117, -36.6735409806859], [174.746610354665, -36.6734929180259], [174.746452850231, -36.6733736263886], [174.746418170011, -36.6733407230792], [174.746353256395, -36.6732522420982], [174.746314938504, -36.6732259234541], [174.746260058941, -36.6731939239057], [174.746110922412, -36.6731136511204], [174.745978707284, -36.6730525869953], [174.745874314282, -36.6730162693073], [174.745800043142, -36.6729653501827], [174.745767777724, -36.6728812782539], [174.745746175252, -36.6727374972347], [174.745784593736, -36.672562892532], [174.745829109551, -36.6724370716803], [174.745902357954, -36.672337640767], [174.745940354574, -36.6722381192517], [174.745933421184, -36.6721187801581], [174.745958979883, -36.6719375387889], [174.745990932179, -36.6718517553669], [174.746034474119, -36.6718101656848], [174.746135419309, -36.6717779718821], [174.746202022083, -36.6717258061373], [174.746385496905, -36.6716052633253], [174.746460530061, -36.6715608914265], [174.746583198932, -36.6715342293838], [174.746704135734, -36.6715244014069], [174.746846503311, -36.6715255882108], [174.746928972308, -36.6715156420742], [174.74699332994, -36.6714841214043], [174.747015429033, -36.6714422997794], [174.747037331198, -36.6712922118759], [174.747078333368, -36.6711366662102], [174.747074249154, -36.6710917341726], [174.747053775687, -36.6710398713182], [174.747058289708, -36.6709739202123], [174.747086073102, -36.6709094466153], [174.747098587766, -36.6708633975703], [174.747088311199, -36.6708286030897], [174.747035828167, -36.6707856927517], [174.746914795733, -36.6707088429373], [174.746846247451, -36.6706749034281], [174.746699863073, -36.6706158975475], [174.746569469169, -36.6705446443235], [174.746469160109, -36.6704849631265], [174.746344804081, -36.6704409218329], [174.746261939464, -36.6704225747839], [174.746150503538, -36.6703797508227], [174.746080574813, -36.6703106947278], [174.746056681319, -36.6702622331433], [174.746085438841, -36.6702225665607], [174.746120741396, -36.6701913354677], [174.74620855577, -36.670140564928], [174.746207660652, -36.6700347687018], [174.746215990304, -36.6699705725033], [174.746225911467, -36.6699160976943], [174.746231363719, -36.6698989060801]]}, "properties": {"OBJECTID": 12407, "TRACKNAME": "Coastal Track", "CONDITIONSOFUSE": "Long Bay Regional Park", "STATUS": "Open", "WEBLINK": "https://www.aucklandcouncil.govt.nz/en/parks-recreation/find-park-beach/park-detail/215.html", "VALIDATIONSTATE": 3, "created_user": "AC_owner", "last_edited_user": "AC_owner", "last_edited_date": 1789875254325, "created_date": 1789875254325, "PARK_SAPSITEID": null, "TRACK_ID": null, "KAURIDIEBACK_TRACK": null, "KAURIDIEBACK_MITIGATED": null, "SegmentID": null, "GlobalID": "1be12fb1-1f86-489e-aeb5-ca2ce51b78bc", "Shape__Length": 1765.1307201280165}}]}