{"type": "FeatureCollection", "features": [{"type": "Feature", "id": 849, "geometry": {"type": "LineString", "coordinates": [[175.268943246768, -36.9831776075024], [175.268850557148, -36.9831236196199], [175.268611226097, -36.9829537860205], [175.268376250994, -36.9828345007995], [175.268266360168, -36.9827705850701], [175.268218510342, -36.9827178664503], [175.268159810458, -36.9826413819935], [175.268166413156, -36.982496794609], [175.268146489401, -36.9824024091404], [175.26809400148, -36.9823448132392], [175.268002140511, -36.982288032977], [175.267899175457, -36.9822359981556], [175.267829523463, -36.982169735722], [175.267738109807, -36.9821264924702], [175.267685176068, -36.9820761869901], [175.267617859918, -36.9820609625771], [175.267535629594, -36.9820625340155], [175.267397469622, -36.9820858037424], [175.267290140339, -36.9821084842069], [175.267182455077, -36.9821187972273], [175.267037683669, -36.9820926782377], [175.266884970793, -36.9820177639478]]}, "properties": {"OBJECTID": 849, "TRACKNAME": "Coastal Walk", "CONDITIONSOFUSE": "Tapapakanga Regional Park", "STATUS": "Temp Closed", "WEBLINK": "https://www.aucklandcouncil.govt.nz/en/parks-recreation/find-park-beach/park-detail/227.html", "VALIDATIONSTATE": 3, "created_user": "AC_owner", "last_edited_user": "AC_owner", "last_edited_date": 1789875254325, "created_date": 1789875254325, "PARK_SAPSITEID": null, "TRACK_ID": null, "KAURIDIEBACK_TRACK": null, "KAURIDIEBACK_MITIGATED": null, "SegmentID": null, "GlobalID": "09b77c3e-021f-413e-80a5-aaa25668dbb1", "Shape__Length": 249.6529350518916}}, {"type": "Feature", "id": 1556, "geometry": {"type": "LineString", "coordinates": [[175.266882162824, -36.9820132392468], [175.266801893402, -36.9818840645525], [175.266753725305, -36.9817857481843], [175.266740142814, -36.9817138085821], [175.266692120077, -36.9816200046653], [175.266625772366, -36.9814814432494], [175.266485009359, -36.981303792055], [175.266397190927, -36.9811972834647], [175.266320599058, -36.9810905243338], [175.266161848087, -36.9809112155088], [175.26603364721, -36.980762740601], [175.265919430445, -36.980645235811], [175.265818712301, -36.9805431008132], [175.265783901763, -36.980470863447], [175.265760411928, -36.9803462726213], [175.265660025476, -36.9802545405741], [175.265581791894, -36.9802457420463], [175.265426661501, -36.9802698021071], [175.265233424888, -36.980320698625], [175.265066321279, -36.9803762691618], [175.264971128182, -36.9804459953974], [175.264851800751, -36.9805735377386], [175.264750791751, -36.9806642207139], [175.264711337955, -36.9806494091448], [175.264577998667, -36.9805427224899], [175.26445146908, -36.9804463241718], [175.264317965197, -36.9803344401405], [175.264269338328, -36.9802364198337], [175.2642501532, -36.980043990564], [175.264314873673, -36.9798341973455], [175.264294860452, -36.9796157287406], [175.264183128555, -36.9793730993149], [175.264111042679, -36.9793537550325], [175.264020163212, -36.9793556332193], [175.263942604106, -36.979367657622], [175.26381344219, -36.9793911840485], [175.263619036114, -36.9794056176339], [175.263443435255, -36.9793988372706], [175.26336452894, -36.9793691951671], [175.263337722577, -36.9793436873836], [175.263225863786, -36.9792991001131], [175.263181268909, -36.9793260869145], [175.263169792074, -36.9793732248869], [175.263131001207, -36.9793792370331], [175.263072246778, -36.9793700292681], [175.263035938261, -36.979250918549], [175.263032428066, -36.9791415466892], [175.263063217183, -36.9790887861256], [175.263113473526, -36.9790356362523], [175.263183208013, -36.9789820878244], [175.263182037798, -36.9789456275378], [175.26314874266, -36.9789202524766], [175.263096974304, -36.9789265391555], [175.263006426509, -36.9789388376967], [175.262941856844, -36.978950595693], [175.262857466774, -36.9789523402126], [175.262746944295, -36.9789494188269], [175.262676039809, -36.9789665157156], [175.262604296525, -36.9789575734119], [175.262439996753, -36.9788984297178], [175.262366422248, -36.978832211677], [175.262244070197, -36.9786627570086], [175.26222388698, -36.9784390909522], [175.262207025768, -36.9781163231447], [175.262156694359, -36.9777629920962], [175.262152181348, -36.9776223658931], [175.26211106346, -36.9775554658283], [175.261951932507, -36.9774545310113], [175.26161385181, -36.9772426380086], [175.261448056448, -36.9771366202789], [175.261332848597, -36.9769878653242], [175.26124580297, -36.9769062845657], [175.261170212863, -36.9767775663383], [175.261122100253, -36.9766951805121], [175.261081137902, -36.9766334863266], [175.261033532978, -36.9765667274881], [175.260953968922, -36.9765162503115], [175.260882051553, -36.9765021010121], [175.26083696089, -36.9765134506613], [175.260707802622, -36.9765369735857], [175.260599375045, -36.9765466457704], [175.260538316614, -36.9765684385693], [175.26049804703, -36.9765980817686], [175.260442374549, -36.9766280273778], [175.260362090591, -36.9766955642965], [175.26026015239, -36.9767263910971], [175.260132526932, -36.9767576980512], [175.259968786453, -36.9767855739692], [175.259830344613, -36.9767987010783]]}, "properties": {"OBJECTID": 1556, "TRACKNAME": "Coastal Walk", "CONDITIONSOFUSE": "Tapapakanga Regional Park", "STATUS": "Open", "WEBLINK": "https://www.aucklandcouncil.govt.nz/en/parks-recreation/find-park-beach/park-detail/227.html", "VALIDATIONSTATE": 3, "created_user": "AC_owner", "last_edited_user": "AC_owner", "last_edited_date": 1789875254325, "created_date": 1789875254325, "PARK_SAPSITEID": null, "TRACK_ID": null, "KAURIDIEBACK_TRACK": null, "KAURIDIEBACK_MITIGATED": null, "SegmentID": null, "GlobalID": "a1481e3a-cf42-45bf-b782-1a8e4233c802", "Shape__Length": 1139.6317653112994}}]}