{"type": "FeatureCollection", "features": [{"type": "Feature", "id": 1951, "geometry": {"type": "LineString", "coordinates": [[175.263971328687, -36.9843049013102], [175.263913810524, -36.9842729923009], [175.263799997855, -36.9842504091444], [175.263732567382, -36.9842310660169], [175.263618387001, -36.9841961119403], [175.263498823307, -36.9841530095068], [175.263430659685, -36.9841089255723], [175.263310606244, -36.9840493286068], [175.263202365999, -36.9839599082614], [175.26305982291, -36.9838007112077], [175.262874705332, -36.9836880706342], [175.262721978968, -36.983623218198], [175.26265968828, -36.9836037773339], [175.262567169121, -36.983605541547], [175.262433774777, -36.9836163369086], [175.262300991153, -36.9836477491808], [175.262158050518, -36.9836834808686], [175.262014986474, -36.983715088817], [175.261835698553, -36.9837391361612], [175.261666202163, -36.9837464920155], [175.261517021916, -36.9837452103753], [175.261335902151, -36.9837074039546], [175.261133979133, -36.9836617418421], [175.260952371411, -36.9836074413401], [175.260682042047, -36.9835094466965], [175.260494074328, -36.9834140083281], [175.260330708975, -36.9832809685935], [175.260193287407, -36.98315568539], [175.260097107621, -36.9830337433059], [175.260059542004, -36.9829808236235], [175.259994079704, -36.9828541695437], [175.259971568265, -36.9827885853311], [175.25992189244, -36.9826740083012]]}, "properties": {"OBJECTID": 1951, "TRACKNAME": "Coastal / Farm Walk", "CONDITIONSOFUSE": "Tapapakanga Regional Park", "STATUS": "Open", "WEBLINK": "https://www.aucklandcouncil.govt.nz/en/parks-recreation/find-park-beach/park-detail/227.html", "VALIDATIONSTATE": 3, "created_user": "AC_owner", "last_edited_user": "AC_owner", "last_edited_date": 1789875254325, "created_date": 1789875254325, "PARK_SAPSITEID": null, "TRACK_ID": null, "KAURIDIEBACK_TRACK": null, "KAURIDIEBACK_MITIGATED": null, "SegmentID": null, "GlobalID": "4082ffa6-9940-4cd0-b891-da4682bc2375", "Shape__Length": 444.28252079331855}}, {"type": "Feature", "id": 2018, "geometry": {"type": "LineString", "coordinates": [[175.266900103488, -36.9838317251072], [175.266801323766, -36.9838109818764], [175.266649779156, -36.9837899216909], [175.266599525765, -36.9837909537563], [175.266347747663, -36.98378002722], [175.266095696701, -36.98376103918], [175.265925352757, -36.983780704037], [175.265715065789, -36.9838092696415], [175.265667437011, -36.9838231120198], [175.265520705642, -36.9838708670853], [175.265406150377, -36.9839081497989], [175.265387518557, -36.9839125061655]]}, "properties": {"OBJECTID": 2018, "TRACKNAME": "Coastal / Farm Walk", "CONDITIONSOFUSE": "Tapapakanga Regional Park", "STATUS": null, "WEBLINK": "https://www.aucklandcouncil.govt.nz/en/parks-recreation/find-park-beach/park-detail/227.html", "VALIDATIONSTATE": 3, "created_user": "AC_owner", "last_edited_user": "AC_owner", "last_edited_date": 1789875254325, "created_date": 1789875254325, "PARK_SAPSITEID": null, "TRACK_ID": null, "KAURIDIEBACK_TRACK": null, "KAURIDIEBACK_MITIGATED": null, "SegmentID": null, "GlobalID": "457bb13e-4bb9-4cbb-addf-fd9124b0fff2", "Shape__Length": 137.91323155046192}}, {"type": "Feature", "id": 2405, "geometry": {"type": "LineString", "coordinates": [[175.25991909043, -36.9826751386615], [175.259870768596, -36.9825880140372], [175.260014989675, -36.9822407165447], [175.260037485655, -36.9821973660303], [175.260118123989, -36.9821099860274], [175.260186880007, -36.9820228323045], [175.260202587804, -36.9819509954625], [175.260183071325, -36.9818941378176], [175.259430337041, -36.9808150276094]]}, "properties": {"OBJECTID": 2405, "TRACKNAME": "Coastal / Farm Walk", "CONDITIONSOFUSE": "Tapapakanga Regional Park", "STATUS": "Open", "WEBLINK": "https://www.aucklandcouncil.govt.nz/en/parks-recreation/find-park-beach/park-detail/227.html", "VALIDATIONSTATE": 3, "created_user": "AC_owner", "last_edited_user": "AC_owner", "last_edited_date": 1789875254325, "created_date": 1789875254325, "PARK_SAPSITEID": null, "TRACK_ID": null, "KAURIDIEBACK_TRACK": null, "KAURIDIEBACK_MITIGATED": null, "SegmentID": null, "GlobalID": "3aeead2f-4477-4268-b330-91304e3fae2e", "Shape__Length": 231.82640892213175}}, {"type": "Feature", "id": 12792, "geometry": {"type": "LineString", "coordinates": [[175.265387518557, -36.9839125061655], [175.265088158717, -36.9839825090974], [175.264997289586, -36.9840011691753], [175.264752295817, -36.9840396955814], [175.26463314594, -36.9840532533461], [175.264528052139, -36.9840665427341], [175.264423293793, -36.9840911083671], [175.264325730102, -36.9841211793335], [175.264178966993, -36.9841521881498], [175.264095627568, -36.9841876293223], [175.264012789549, -36.9842399854309], [175.263971328687, -36.9843049013102]]}, "properties": {"OBJECTID": 12792, "TRACKNAME": "Coastal / Farm Walk", "CONDITIONSOFUSE": "Tapapakanga Regional Park", "STATUS": null, "WEBLINK": "https://www.aucklandcouncil.govt.nz/en/parks-recreation/find-park-beach/park-detail/227.html", "VALIDATIONSTATE": 3, "created_user": "AC_owner", "last_edited_user": "AC_owner", "last_edited_date": 1789875254325, "created_date": 1789875254325, "PARK_SAPSITEID": null, "TRACK_ID": null, "KAURIDIEBACK_TRACK": null, "KAURIDIEBACK_MITIGATED": null, "SegmentID": null, "GlobalID": "ab9295ca-b208-4706-8fde-f906a6681765", "Shape__Length": 136.95455714491206}}]}