{"type": "FeatureCollection", "features": [{"type": "Feature", "id": 417, "geometry": {"type": "LineString", "coordinates": [[174.477214686425, -36.9854891598115], [174.477064856189, -36.9854891172239], [174.476657905395, -36.9854751018011], [174.476417295122, -36.9854074913974], [174.476135083421, -36.9853431822071], [174.475988266453, -36.9852759574364]]}, "properties": {"OBJECTID": 417, "TRACKNAME": "Comans Track", "CONDITIONSOFUSE": "Waitakere West Regional Park", "STATUS": "Open", "WEBLINK": "https://www.aucklandcouncil.govt.nz/en/parks-recreation/find-park-beach/park-detail/3451.html", "VALIDATIONSTATE": 3, "created_user": "AC_owner", "last_edited_user": "AC_owner", "last_edited_date": 1789875254325, "created_date": 1789875254325, "PARK_SAPSITEID": null, "TRACK_ID": null, "KAURIDIEBACK_TRACK": null, "KAURIDIEBACK_MITIGATED": null, "SegmentID": null, "GlobalID": "0636339f-0257-4c59-a740-7af23c089f18", "Shape__Length": 113.44790907030306}}, {"type": "Feature", "id": 2284, "geometry": {"type": "LineString", "coordinates": [[174.473209351122, -36.9755468200971], [174.473146574827, -36.9755795741689], [174.473086756354, -36.9756252585172], [174.473045593716, -36.9756648885162], [174.47303028037, -36.9756963107953], [174.473021641877, -36.9757913405883], [174.473047150606, -36.9760026461603], [174.472967038541, -36.9762835767577], [174.472902643891, -36.9766274978409], [174.472915664651, -36.9766764515637], [174.473033964191, -36.976826809212], [174.473072338914, -36.976891366354], [174.473117301082, -36.976988759519], [174.473115350582, -36.9770356005376], [174.473080344841, -36.9770980127113], [174.472962118448, -36.977255686123], [174.472868632653, -36.9773266477417], [174.472762108477, -36.9773786441319], [174.472674921372, -36.9775018786307], [174.472638251104, -36.9775863767002], [174.472632101701, -36.9777202333342], [174.472599400036, -36.9778934844645], [174.472539110055, -36.9779952572129], [174.472526192521, -36.9780361861234], [174.472511604497, -36.9781822256972], [174.472508648962, -36.9784555827327], [174.472492412247, -36.9785312372694], [174.472290672097, -36.9789144304988], [174.47213404121, -36.9790359840902], [174.471916812106, -36.9792370140044], [174.471804118517, -36.9794990586007], [174.471806735065, -36.9795415704962], [174.47187713885, -36.9797115688949], [174.471942120825, -36.9799156158671], [174.472024955911, -36.9803791601243], [174.472046631258, -36.9804539478078], [174.472085821098, -36.9805345123334], [174.472200651374, -36.9806981637412], [174.472261607192, -36.9808185418421], [174.472260620172, -36.9808792608756], [174.472192229408, -36.9812511010971], [174.472160465939, -36.9812935796912], [174.472061862773, -36.9813482263904], [174.472025229967, -36.9813549091245], [174.471831262072, -36.9813500675513], [174.471720566764, -36.9813899914253], [174.471636803429, -36.9814328982995], [174.471560611795, -36.9814961811936], [174.471515737588, -36.98154688936], [174.471267540973, -36.9818549602736], [174.471245630645, -36.9818928006637], [174.471243871197, -36.981919286486], [174.471263843872, -36.9819430151701], [174.47134679233, -36.9819977632931], [174.471390139863, -36.9820550213283], [174.471403378596, -36.9821345376864], [174.471382726933, -36.9822435611446], [174.47140994387, -36.9823074007784], [174.47146975157, -36.9823920814956], [174.471703486328, -36.982655401087], [174.471738679704, -36.9826812754889], [174.471775284497, -36.9826940986743], [174.472126556356, -36.9827545864767], [174.472160529118, -36.9827724988309], [174.472205653794, -36.9828198916293], [174.472243978505, -36.9828811415757], [174.47227598371, -36.9830196535748], [174.47228073257, -36.9830789223544], [174.472252690482, -36.9831361371533], [174.472273177945, -36.9831638072395], [174.47230063153, -36.9831739946148], [174.47233529721, -36.9831532298669], [174.472471661963, -36.9830045891024], [174.472512391346, -36.9829475143036], [174.472511237548, -36.9828975660904], [174.472424461809, -36.9825994623265], [174.472431073258, -36.9825769904618], [174.472449372488, -36.9825587542271], [174.472488688939, -36.9825350563935], [174.472511891617, -36.9825304780571], [174.472532947233, -36.9825409971362], [174.472564746533, -36.9825743856948], [174.472627404377, -36.9826681251989], [174.472667732963, -36.9827965917934], [174.472668406518, -36.9828216232885], [174.472649444565, -36.9828777520474], [174.472656442253, -36.9828968822752], [174.472749765058, -36.9829633896436], [174.472915311574, -36.9830259270544], [174.472957212564, -36.9830488605305], [174.47298132148, -36.9830842823365], [174.473024776472, -36.9831907167502], [174.473171032463, -36.9832899623215], [174.473197049297, -36.9833147784051], [174.47321175593, -36.9833636840654], [174.473239835839, -36.9836283000272], [174.473255680161, -36.9836610391436], [174.473299044337, -36.9836654403474], [174.473506525083, -36.9836383386838], [174.473553762106, -36.9836390682383], [174.473572928289, -36.9836587864525], [174.473591236382, -36.9837493443691], [174.47360619679, -36.9837746942257], [174.473651576612, -36.9837839826994], [174.47383918867, -36.9837851865442], [174.473885469619, -36.983796338572], [174.473933633105, -36.9838182925651], [174.47414625871, -36.9839331895962], [174.474307852662, -36.984120261248], [174.474340705443, -36.9841476151235], [174.474373793537, -36.9841464109125], [174.474469173084, -36.9841080178485], [174.474520249386, -36.984110889631], [174.474748530624, -36.9841834433744], [174.474788271879, -36.9842114236101], [174.474878515698, -36.9842969321732], [174.474911744652, -36.9843152405508], [174.475146598642, -36.9843400297867], [174.475181334746, -36.9843502701931], [174.475201322523, -36.9843927192896], [174.475336077123, -36.9851062120068], [174.475352477595, -36.9851479034486], [174.475394055784, -36.9852087062649], [174.475428339632, -36.9852408823507], [174.475473524056, -36.9852615206901], [174.4756825475, -36.9852832678565], [174.475770008639, -36.98528510984], [174.475988266453, -36.9852759574364]]}, "properties": {"OBJECTID": 2284, "TRACKNAME": "Comans Track", "CONDITIONSOFUSE": "Waitakere West Regional Park", "STATUS": "Open", "WEBLINK": "https://www.aucklandcouncil.govt.nz/en/parks-recreation/find-park-beach/park-detail/3451.html", "VALIDATIONSTATE": 3, "created_user": "AC_owner", "last_edited_user": "AC_owner", "last_edited_date": 1789875254325, "created_date": 1789875254325, "PARK_SAPSITEID": null, "TRACK_ID": null, "KAURIDIEBACK_TRACK": null, "KAURIDIEBACK_MITIGATED": null, "SegmentID": null, "GlobalID": "550926f2-74ea-4b21-9de5-5eede8c8dba2", "Shape__Length": 1596.5085913155551}}]}