{"type": "FeatureCollection", "features": [{"type": "Feature", "id": 789, "geometry": {"type": "LineString", "coordinates": [[174.444035842857, -36.8487433222281], [174.44401308134, -36.8486717016104], [174.443983006764, -36.8485146130854], [174.443965838249, -36.8483358787351], [174.443951798153, -36.8481642543523], [174.44395432012, -36.8480735353723], [174.443959331532, -36.8479953153979], [174.443997564868, -36.8477692793024], [174.444027557736, -36.8476435863354], [174.444108690394, -36.8474097998751], [174.444156488244, -36.8472498542372], [174.444183868217, -36.8471408956382], [174.444210171156, -36.8469818421217], [174.444232593843, -36.8467798847451], [174.444289111691, -36.8464014725333], [174.444319673789, -36.846163604185], [174.444334595797, -36.846027376786], [174.444358566878, -36.845933386496], [174.444391082069, -36.8458565809386], [174.444511018219, -36.8456329950089], [174.444706410449, -36.8452580325869], [174.444812151432, -36.8450996808805], [174.444974680587, -36.8448540426257], [174.44508222495, -36.8446759644724], [174.445130659871, -36.8445798467732], [174.445174733174, -36.8444885594282], [174.445245399995, -36.8443217371158], [174.445307242485, -36.8441586095766], [174.445391508448, -36.8439683300118], [174.445446513795, -36.8438185539329], [174.445529447379, -36.8436290241977], [174.445631500819, -36.843369730789], [174.445795297265, -36.843054732407], [174.445799143808, -36.8430500768343]]}, "properties": {"OBJECTID": 789, "TRACKNAME": "Constable Road", "CONDITIONSOFUSE": null, "STATUS": "Open", "WEBLINK": null, "VALIDATIONSTATE": 3, "created_user": "AC_owner", "last_edited_user": "AC_owner", "last_edited_date": 1789875254325, "created_date": 1789875254325, "PARK_SAPSITEID": null, "TRACK_ID": null, "KAURIDIEBACK_TRACK": null, "KAURIDIEBACK_MITIGATED": null, "SegmentID": null, "GlobalID": "b092c63f-f2b2-40a6-9654-be9f580f44b9", "Shape__Length": 660.9686179425142}}]}