{"type": "FeatureCollection", "features": [{"type": "Feature", "id": 11988, "geometry": {"type": "LineString", "coordinates": [[175.029526928778, -36.7807486119973], [175.029529386708, -36.7807440508536], [175.029053656547, -36.7802520586773]]}, "properties": {"OBJECTID": 11988, "TRACKNAME": "Coromandel Rd to Sandy Bay", "CONDITIONSOFUSE": "Hekerua Bay Reserve", "STATUS": "Open", "WEBLINK": null, "VALIDATIONSTATE": 3, "created_user": "AC_owner", "last_edited_user": "AC_owner", "last_edited_date": 1789875254325, "created_date": 1789875254325, "PARK_SAPSITEID": null, "TRACK_ID": null, "KAURIDIEBACK_TRACK": null, "KAURIDIEBACK_MITIGATED": null, "SegmentID": null, "GlobalID": "45913dd4-aa97-4576-a81e-8ceebc27218c", "Shape__Length": 69.72127821272275}}]}