{"type": "FeatureCollection", "features": [{"type": "Feature", "id": 2017, "geometry": {"type": "LineString", "coordinates": [[175.089966968159, -37.0667621564506], [175.090039582052, -37.0667452881641], [175.090261552659, -37.0666219807197], [175.090559479553, -37.0665359926155], [175.090719379829, -37.0664015232817], [175.090956611908, -37.0663680559554], [175.091261405114, -37.0663295193107], [175.091383467662, -37.0662018468764], [175.091463063602, -37.0660204958765], [175.091620546967, -37.0658960720501], [175.091627270271, -37.065492627337], [175.091514530008, -37.065118955239], [175.091475509233, -37.0648597703018], [175.091496987474, -37.0646391027628]]}, "properties": {"OBJECTID": 2017, "TRACKNAME": "Cosseys George Track", "CONDITIONSOFUSE": "Hunua Ranges Regional Park", "STATUS": "Open", "WEBLINK": "https://www.aucklandcouncil.govt.nz/en/parks-recreation/find-park-beach/park-detail/213.html", "VALIDATIONSTATE": 3, "created_user": "AC_owner", "last_edited_user": "AC_owner", "last_edited_date": 1789875254325, "created_date": 1789875254325, "PARK_SAPSITEID": null, "TRACK_ID": null, "KAURIDIEBACK_TRACK": null, "KAURIDIEBACK_MITIGATED": null, "SegmentID": null, "GlobalID": "8a04b39b-50e8-41b8-99e9-d7d8da1350e4", "Shape__Length": 328.22343629103466}}, {"type": "Feature", "id": 2066, "geometry": {"type": "LineString", "coordinates": [[175.091185710601, -37.0639267271634], [175.091131693009, -37.0638451759963], [175.091110488721, -37.0637081661298]]}, "properties": {"OBJECTID": 2066, "TRACKNAME": "Cosseys George Track", "CONDITIONSOFUSE": null, "STATUS": "Open", "WEBLINK": null, "VALIDATIONSTATE": 3, "created_user": "AC_owner", "last_edited_user": "AC_owner", "last_edited_date": 1789875254325, "created_date": 1789875254325, "PARK_SAPSITEID": null, "TRACK_ID": null, "KAURIDIEBACK_TRACK": null, "KAURIDIEBACK_MITIGATED": null, "SegmentID": null, "GlobalID": "208d928a-2248-491a-a1a9-da33384d2c21", "Shape__Length": 25.568858048616693}}]}