{"type": "FeatureCollection", "features": [{"type": "Feature", "id": 12768, "geometry": {"type": "LineString", "coordinates": [[175.102817420947, -37.0608750699578], [175.102199007876, -37.0609009864869], [175.10125260559, -37.0613312894547], [175.099809507012, -37.0620165295621], [175.09933547882, -37.0622021500136], [175.098178195281, -37.0621143288516], [175.09756366262, -37.0621055097688], [175.097150756511, -37.0622801939444], [175.096929633965, -37.0627271710205], [175.096733610745, -37.0631933956333], [175.096037173191, -37.0633337058592], [175.09573568169, -37.0630928864309], [175.095275731649, -37.0624511843713], [175.094837815306, -37.0621635450791], [175.094213438197, -37.0622434951347], [175.093768823909, -37.0626058001037], [175.093448450894, -37.0630173128524]]}, "properties": {"OBJECTID": 12768, "TRACKNAME": "Cossey Access Road", "CONDITIONSOFUSE": "Hunua Ranges Regional Park", "STATUS": "Open", "WEBLINK": "https://www.aucklandcouncil.govt.nz/en/parks-recreation/find-park-beach/park-detail/213.html", "VALIDATIONSTATE": 3, "created_user": "AC_owner", "last_edited_user": "AC_owner", "last_edited_date": 1789875254325, "created_date": 1789875254325, "PARK_SAPSITEID": null, "TRACK_ID": null, "KAURIDIEBACK_TRACK": null, "KAURIDIEBACK_MITIGATED": null, "SegmentID": null, "GlobalID": "e84aeacc-ed59-45d5-9ade-3833b7a709d8", "Shape__Length": 1056.2047568409903}}]}