{"type": "FeatureCollection", "features": [{"type": "Feature", "id": 2546, "geometry": {"type": "LineString", "coordinates": [[175.091496990128, -37.0646390765793], [175.091260979343, -37.0641326857874], [175.091203964439, -37.0639542850386], [175.091134269535, -37.0638490663921], [175.091110488721, -37.0637081661298], [175.091052965989, -37.0633825620886], [175.091074814511, -37.0632828507769], [175.091124043777, -37.0631689140513], [175.091227270036, -37.0631882643003], [175.091280197699, -37.0633181876681], [175.091357772578, -37.0633223433084]]}, "properties": {"OBJECTID": 2546, "TRACKNAME": "Cosseys George Walk", "CONDITIONSOFUSE": "Hunua Ranges Regional Park", "STATUS": "Open", "WEBLINK": "https://www.aucklandcouncil.govt.nz/en/parks-recreation/find-park-beach/park-detail/213.html", "VALIDATIONSTATE": 3, "created_user": "AC_owner", "last_edited_user": "AC_owner", "last_edited_date": 1789875254325, "created_date": 1789875254325, "PARK_SAPSITEID": null, "TRACK_ID": null, "KAURIDIEBACK_TRACK": null, "KAURIDIEBACK_MITIGATED": null, "SegmentID": null, "GlobalID": "d22a004e-65bf-4e90-865b-8c5895babf3f", "Shape__Length": 202.05587656335328}}, {"type": "Feature", "id": 2582, "geometry": {"type": "LineString", "coordinates": [[175.091357772578, -37.0633223433084], [175.091460915177, -37.0633278684792], [175.091521227644, -37.0635120872168], [175.091557900881, -37.0636930367197], [175.091534769699, -37.0639875283331], [175.09162708006, -37.064235253662], [175.091837719101, -37.0644958344071], [175.092099561069, -37.0646785070373], [175.092412155452, -37.0647758977962], [175.092591552908, -37.064819877121], [175.092813121357, -37.0647757520151], [175.092950816068, -37.0647390436754], [175.093146609743, -37.0647273733039], [175.093202428392, -37.0646835660076], [175.093206905646, -37.0646417141368], [175.093179346895, -37.0645898595573], [175.093130174977, -37.0645477894306], [175.092947758893, -37.0644229403173], [175.092947761141, -37.0644229402776], [175.092807647976, -37.0643219947837], [175.092741517773, -37.064274350247], [175.092768672244, -37.0642737393907], [175.092857054453, -37.064271744106], [175.092722907789, -37.0641234884159], [175.09272288811, -37.0641234680341], [175.092763625359, -37.0641182958728], [175.092814288739, -37.0641118588667], [175.09281427573, -37.0641118356633], [175.092814319446, -37.0641118303854], [175.092778131643, -37.064044090857], [175.092756887504, -37.0640043224667], [175.092756901449, -37.0640042978864], [175.092775880667, -37.0639709837327], [175.092802189112, -37.0639248206289], [175.092844460482, -37.0638505833869], [175.0928444798, -37.063850549699], [175.092890943013, -37.0638052989157], [175.092944545286, -37.0637530904947], [175.092949735579, -37.063752317521], [175.093042191023, -37.0637385950193], [175.093287945762, -37.0635314778404], [175.093287977255, -37.0635313961703]]}, "properties": {"OBJECTID": 2582, "TRACKNAME": "Cosseys George Walk", "CONDITIONSOFUSE": "Hunua Ranges Regional Park", "STATUS": "Open", "WEBLINK": "https://www.aucklandcouncil.govt.nz/en/parks-recreation/find-park-beach/park-detail/213.html", "VALIDATIONSTATE": 3, "created_user": "AC_owner", "last_edited_user": "AC_owner", "last_edited_date": 1789875254325, "created_date": 1789875254325, "PARK_SAPSITEID": null, "TRACK_ID": null, "KAURIDIEBACK_TRACK": null, "KAURIDIEBACK_MITIGATED": null, "SegmentID": null, "GlobalID": "5721e3fb-c42e-417c-8084-17f0d2dadf50", "Shape__Length": 470.05299783821994}}]}