{"type": "FeatureCollection", "features": [{"type": "Feature", "id": 659, "geometry": {"type": "LineString", "coordinates": [[174.71204000151, -36.5373273988479], [174.71204000167, -36.5372649988736], [174.712003338316, -36.5371716630775], [174.711973333591, -36.5371133319795], [174.711903332081, -36.5370683299151], [174.711759996452, -36.5369933366653], [174.711684999535, -36.5369700036167], [174.711653335099, -36.5369600020254], [174.711569994655, -36.5369599996112], [174.711556663642, -36.5369516637887], [174.711575001045, -36.536915002207], [174.711581661128, -36.5368933362105], [174.711633337619, -36.5368433330971], [174.711633336499, -36.5367966678864], [174.711635000256, -36.5367733339225], [174.711621670879, -36.5367600043541], [174.711581663941, -36.5367450025835], [174.711500000727, -36.5367400003382], [174.711469997781, -36.53673999836], [174.711411665846, -36.5367333360838], [174.71134500431, -36.5367399987803], [174.711260001312, -36.536734999239], [174.711229998196, -36.5367233331487], [174.711163330523, -36.5367383337375], [174.711098328535, -36.5367366706279], [174.711068336607, -36.536725004336], [174.711061666188, -36.5367183305879], [174.711066668465, -36.5366999965305], [174.711081663652, -36.5366966715132], [174.71108667255, -36.5366933365767], [174.711105002646, -36.5366933349133], [174.711125000046, -36.5366833308727], [174.711144999082, -36.5366683330757], [174.711186666388, -36.5366466694481], [174.71124833428, -36.5366166692807], [174.711275000258, -36.5366066686547], [174.711343328961, -36.5365900036233], [174.71133166874, -36.5365849969822], [174.711290004397, -36.53658500009], [174.71124499665, -36.5365716654518], [174.711166665339, -36.5365566637493], [174.711141671701, -36.5365649998102], [174.711079995389, -36.5365733305016], [174.710994999192, -36.5365833298883], [174.710975002995, -36.5365650030365], [174.710954996771, -36.5365300005123], [174.71093166518, -36.5364966682159], [174.710903329413, -36.5364633356132], [174.710893328834, -36.5364500032619], [174.710871663392, -36.5364349994521], [174.710839999056, -36.5364016695278], [174.710820002335, -36.5363599965171], [174.710784998372, -36.5363383334845], [174.710718331287, -36.5362550005956], [174.710661666845, -36.536226662504], [174.710609995655, -36.5361983338696], [174.710573333876, -36.5361800026793], [174.710536667142, -36.5361533336411], [174.710505006038, -36.536109998088], [174.710475003169, -36.5360750036855], [174.710458338808, -36.5360466685233], [174.710416665865, -36.5359549995305], [174.710379996032, -36.5359149988472], [174.7103366685, -36.5358166652044], [174.710333331678, -36.5357833343975], [174.710320002418, -36.5357350034888], [174.710293332873, -36.535684998054], [174.710205002858, -36.5354766635997], [174.710131662403, -36.5354016648335], [174.710089995294, -36.5353649987825], [174.710061663544, -36.5353216694301], [174.710023337768, -36.5352799977545], [174.709928334583, -36.5352200023001], [174.709851667615, -36.5351866684961], [174.709708329099, -36.5352416629978], [174.70967667208, -36.5352583330576], [174.709644995766, -36.5352999990866], [174.709629997768, -36.5353600037188], [174.709618332996, -36.5354283345186], [174.709563330348, -36.5355266632148], [174.709471663201, -36.5356166658788], [174.709386665976, -36.5356783321211], [174.709358330857, -36.5357150015097], [174.709331671243, -36.5357166637066], [174.709286669276, -36.535700002084], [174.709290003206, -36.5356266708228], [174.709308330168, -36.5355783366497], [174.709281663151, -36.5355000000773], [174.709313338286, -36.5354166626384], [174.709316667116, -36.5353933318645], [174.70931666435, -36.5353333350085], [174.70930500476, -36.535281662901], [174.70930500044, -36.5352266688122], [174.709305005266, -36.5351999964446], [174.709306671344, -36.5351833327944], [174.709293335979, -36.5351899959967], [174.70925667, -36.5352100008082], [174.709236662984, -36.5352266659879], [174.709253334547, -36.5352649977069], [174.709241668238, -36.5352916659881], [174.709220004612, -36.5353533345587], [174.709171670566, -36.5353933373199], [174.709115005024, -36.535451667686], [174.709091665699, -36.5355133332126], [174.709088328866, -36.5355500047514], [174.709041661854, -36.5356033332344], [174.709040003717, -36.5356300022586], [174.709013334226, -36.5356616629736], [174.708981662522, -36.5356766654799], [174.708960002121, -36.5357050003453], [174.708901670771, -36.5357333380129], [174.708880005723, -36.5357416709607], [174.708849998351, -36.5357450035455], [174.708815002975, -36.5357333362772], [174.70880499847, -36.5356766646951], [174.708813337989, -36.535656669395], [174.708796662952, -36.5356399982036], [174.708748331185, -36.535593331566], [174.708744995268, -36.5355483366317], [174.708716664653, -36.5354583326652], [174.70866666911, -36.5353883346717], [174.708634997964, -36.5353566628055], [174.708620001153, -36.5352766625119], [174.7085816705, -36.5351966630837], [174.708518337141, -36.5351083324728], [174.708535000884, -36.5350133299407], [174.708498329982, -36.5350366697559], [174.708459999538, -36.5350449980577], [174.708415004568, -36.5350199980855], [174.708401669682, -36.5350033330574], [174.708365000714, -36.5349983329188], [174.708310002038, -36.5349933339947], [174.708271668613, -36.5350000037103], [174.708231670802, -36.535006670218], [174.708144997652, -36.5349149961004]]}, "properties": {"OBJECTID": 659, "TRACKNAME": "Couldrey House Track", "CONDITIONSOFUSE": "Wenderholm Regional Park", "STATUS": "Open", "WEBLINK": "https://www.aucklandcouncil.govt.nz/en/parks-recreation/find-park-beach/park-detail/3411.html", "VALIDATIONSTATE": 3, "created_user": "AC_owner", "last_edited_user": "AC_owner", "last_edited_date": 1789875254325, "created_date": 1789875254325, "PARK_SAPSITEID": null, "TRACK_ID": null, "KAURIDIEBACK_TRACK": null, "KAURIDIEBACK_MITIGATED": null, "SegmentID": null, "GlobalID": "9738ab27-7e0c-4c06-a1df-cb7bf9694305", "Shape__Length": 753.8682907896}}, {"type": "Feature", "id": 871, "geometry": {"type": "LineString", "coordinates": [[174.714838333155, -36.5385000037041], [174.714811669916, -36.5384833328252], [174.714778336422, -36.5384883372617], [174.714736665174, -36.5384966705716], [174.714663330219, -36.538473333556], [174.714511667361, -36.5383983372617], [174.714236661996, -36.5383516693744], [174.714003333992, -36.5382883298212], [174.713816670343, -36.5382050021383], [174.713608338641, -36.5381000005774], [174.713554999227, -36.5380766639183], [174.713440006087, -36.5379483354868], [174.713430005745, -36.5378899967157], [174.713236663317, -36.5377266661422], [174.71318166416, -36.5376883359229], [174.713081666292, -36.5376816692464], [174.712988327737, -36.5376816672681], [174.712873332426, -36.5376600003495], [174.712725000612, -36.5376416696417], [174.712670004835, -36.5376049977], [174.7123783298, -36.5375200032539], [174.712288338149, -36.5374833379911], [174.71228166756, -36.5374766643166], [174.712163338285, -36.5374233335119], [174.712080000598, -36.5373733310398], [174.712040001956, -36.537328330884], [174.71204000151, -36.5373273988479]]}, "properties": {"OBJECTID": 871, "TRACKNAME": "Couldrey House Track", "CONDITIONSOFUSE": "Wenderholm Regional Park", "STATUS": "Open", "WEBLINK": "https://www.aucklandcouncil.govt.nz/en/parks-recreation/find-park-beach/park-detail/3411.html", "VALIDATIONSTATE": 3, "created_user": "AC_owner", "last_edited_user": "AC_owner", "last_edited_date": 1789875254325, "created_date": 1789875254325, "PARK_SAPSITEID": null, "TRACK_ID": null, "KAURIDIEBACK_TRACK": null, "KAURIDIEBACK_MITIGATED": null, "SegmentID": null, "GlobalID": "fd1db995-32f7-4706-a7bf-6eb135732aa9", "Shape__Length": 295.4544035694072}}, {"type": "Feature", "id": 1392, "geometry": {"type": "LineString", "coordinates": [[174.709581664838, -36.5344133298867], [174.709636671342, -36.5343583312141], [174.709719996449, -36.534281671525], [174.709784996424, -36.5342016689853], [174.709929995625, -36.5341516713636], [174.710038328998, -36.5341099965233], [174.710070001463, -36.5340433347416], [174.710083336267, -36.5339783331295], [174.710088330573, -36.5339033374817], [174.71019166502, -36.5336433350231], [174.710281669429, -36.5335150012758], [174.71044333664, -36.533426670964], [174.710571665212, -36.5333399995719], [174.710681335699, -36.5331578044166]]}, "properties": {"OBJECTID": 1392, "TRACKNAME": "Couldrey House Track", "CONDITIONSOFUSE": "Wenderholm Regional Park", "STATUS": "Open", "WEBLINK": "https://www.aucklandcouncil.govt.nz/en/parks-recreation/find-park-beach/park-detail/3411.html", "VALIDATIONSTATE": 3, "created_user": "AC_owner", "last_edited_user": "AC_owner", "last_edited_date": 1789875254325, "created_date": 1789875254325, "PARK_SAPSITEID": null, "TRACK_ID": null, "KAURIDIEBACK_TRACK": null, "KAURIDIEBACK_MITIGATED": null, "SegmentID": null, "GlobalID": "f6e0e7a4-6c31-4bfe-b27c-a627d9d04b43", "Shape__Length": 179.80098798570782}}]}