{"type": "FeatureCollection", "features": [{"type": "Feature", "id": 2098, "geometry": {"type": "LineString", "coordinates": [[174.515656052095, -36.968001749572], [174.515656099876, -36.967979800852], [174.515629004394, -36.967948590194], [174.5155737348, -36.9679190101524], [174.515531797705, -36.9679069265239], [174.515507837539, -36.967922231042], [174.515458862958, -36.9680112796632], [174.515426671759, -36.9680414625302], [174.515368693405, -36.9680491972134], [174.515241676474, -36.9680422286095], [174.515214249789, -36.9680328349903], [174.515183260555, -36.9680097591268], [174.514970965173, -36.9678000902349], [174.514939109644, -36.9678013079955], [174.514830298846, -36.9678497205068], [174.514789140192, -36.9678525351729], [174.514483108253, -36.9678022861947], [174.51438609678, -36.9677704348959], [174.514340595911, -36.9677264430969], [174.514306762087, -36.9676754340878], [174.514282003436, -36.9674882850704], [174.51422605991, -36.967365674608], [174.51401484616, -36.9671292918584], [174.513894565597, -36.9670517405076], [174.513807691421, -36.967014414375], [174.513686409246, -36.9669038497454]]}, "properties": {"OBJECTID": 2098, "TRACKNAME": "Cowan Track", "CONDITIONSOFUSE": "Waitakere West Regional Park", "STATUS": "Temp Closed", "WEBLINK": "https://www.aucklandcouncil.govt.nz/en/parks-recreation/find-park-beach/park-detail/3451.html", "VALIDATIONSTATE": 3, "created_user": "AC_owner", "last_edited_user": "AC_owner", "last_edited_date": 1789875254325, "created_date": 1789875254325, "PARK_SAPSITEID": null, "TRACK_ID": null, "KAURIDIEBACK_TRACK": null, "KAURIDIEBACK_MITIGATED": null, "SegmentID": null, "GlobalID": "ff1012f0-937b-4c7c-b753-021e20320c51", "Shape__Length": 261.4264858460134}}]}