{"type": "FeatureCollection", "features": [{"type": "Feature", "id": 12003, "geometry": {"type": "LineString", "coordinates": [[175.051668345974, -36.7833730359063], [175.051678482599, -36.783374395035], [175.051678699625, -36.7833744237375], [175.051753290403, -36.7833844201948], [175.051753293763, -36.7833844201369], [175.052003356657, -36.7834159924876], [175.052003362257, -36.7834159923909], [175.052181072714, -36.7834390184052], [175.052181081723, -36.7834390200524], [175.05237595317, -36.7834628473907], [175.052662176045, -36.7834985017501], [175.052662183933, -36.7834985034165], [175.05302122181, -36.7835441428388], [175.05302122741, -36.7835441427422], [175.053354872308, -36.7835836922876], [175.053354882436, -36.7835836939153], [175.053634403957, -36.7836216437151], [175.053992270254, -36.7835723257206], [175.054330841321, -36.783526599156], [175.054330846921, -36.7835265990593], [175.05467380023, -36.7834757232352], [175.054673810286, -36.7834757221601], [175.055015407484, -36.7834252311155], [175.055015410844, -36.7834252310574], [175.05534899693, -36.783378135749], [175.05534900253, -36.7833781356522], [175.055437900889, -36.7833660842837], [175.055437904249, -36.7833660842257], [175.055697116827, -36.7833014334677], [175.055697121283, -36.7833014324894], [175.055960304063, -36.7832341645198], [175.056303716944, -36.7831499330019], [175.05630371916, -36.7831499320623], [175.05637261509, -36.7831309766704], [175.056372616162, -36.7831309748493], [175.056364880079, -36.7830945019215], [175.056364881127, -36.7830944991994], [175.056589268488, -36.7829749749335], [175.056589272896, -36.7829749721534], [175.05690944586, -36.7827972486702]]}, "properties": {"OBJECTID": 12003, "TRACKNAME": "Crescent Road East to Seaview heights", "CONDITIONSOFUSE": "Hill Road Crescent Road East", "STATUS": "Temp Closed", "WEBLINK": null, "VALIDATIONSTATE": 3, "created_user": "AC_owner", "last_edited_user": "AC_owner", "last_edited_date": 1789875254325, "created_date": 1789875254325, "PARK_SAPSITEID": null, "TRACK_ID": null, "KAURIDIEBACK_TRACK": null, "KAURIDIEBACK_MITIGATED": null, "SegmentID": null, "GlobalID": "60c7f26e-8b9a-4bf9-871d-127ade271fc1", "Shape__Length": 491.410384393358}}]}