{"type": "FeatureCollection", "features": [{"type": "Feature", "id": 12004, "geometry": {"type": "LineString", "coordinates": [[175.051625860383, -36.7834035446744], [175.051662535078, -36.7835390089319], [175.051924908903, -36.7840428893554], [175.051709440842, -36.7850790679749], [175.051699237753, -36.7851096895553], [175.051693958615, -36.785141106155], [175.051693689151, -36.7851728076778], [175.05169843374, -36.7852042794008], [175.051708115354, -36.7852350103316], [175.051722576801, -36.7852645015054], [175.051741583283, -36.7852922740858], [175.051764826202, -36.7853178771404], [175.051791928178, -36.785340894962], [175.051822449167, -36.7853609538187], [175.051855893612, -36.7853777280218], [175.051891718491, -36.7853909452143], [175.051929342125, -36.7854003907932], [175.051968153634, -36.7854059113938], [175.052007522847, -36.78540741738], [175.052046810538, -36.7854048842999], [175.052390585751, -36.7851760647713], [175.052736165112, -36.7849490113727], [175.053083534589, -36.7847237333122], [175.053432680076, -36.7845002397261], [175.053453520484, -36.7844804277019], [175.053476104491, -36.784461893152], [175.053500311423, -36.7844447351141], [175.053526011929, -36.7844290452701], [175.053553068682, -36.7844149074573], [175.053581337106, -36.7844023972194], [175.05361066615, -36.7843915814034], [175.053640899099, -36.7843825178025], [175.053671874405, -36.7843752548468], [175.053703426556, -36.784369831345], [175.053735386956, -36.7843662762769], [175.053767584828, -36.7843646086385], [175.053799848127, -36.7843648373406], [175.053832004459, -36.7843669611611], [175.053863881998, -36.7843709687514], [175.053895310413, -36.7843768386975], [175.053926121768, -36.7843845396338], [175.053956151427, -36.7843940304114], [175.053985238929, -36.7844052603173], [175.054013228848, -36.7844181693456], [175.054039971623, -36.7844326885185], [175.054065324356, -36.7844487402542], [175.054089151577, -36.7844662387819], [175.054111325965, -36.7844850906], [175.054131729034, -36.7845051949757], [175.05415025176, -36.7845264444831], [175.054166795167, -36.7845487255774], [175.054181270855, -36.7845719192015], [175.054193601473, -36.7845959014222], [175.05420372113, -36.7846205440923], [175.054211575752, -36.7846457155355], [175.054217123364, -36.7846712812499], [175.054203915194, -36.7846957163731], [175.0541970926, -36.7847217899186], [175.054196934911, -36.7847484344185], [175.054203448588, -36.7847745590285], [175.054216366965, -36.7847990941877], [175.054235161157, -36.7848210354078], [175.054259061721, -36.7848394843976], [175.05428709015, -36.78485368584], [175.054318098938, -36.7848630583158], [175.054350818558, -36.7848672181079], [175.05438390944, -36.7848659949107], [175.054416016814, -36.7848594388034], [175.054445826176, -36.7848478181989], [175.054472117106, -36.784831608855], [175.054493813234, -36.7848114743962], [175.054510026307, -36.7847882391436], [175.054914122329, -36.784480904491], [175.055278932002, -36.7845230933906], [175.055589390784, -36.784860315578], [175.056391400695, -36.7848151607594], [175.056965739569, -36.7845471120414], [175.057083984885, -36.7845325517365], [175.05724269717, -36.7845767361723], [175.057889718527, -36.7850629971025], [175.05813413385, -36.7851119539082], [175.058902241418, -36.7851080423338], [175.059018865258, -36.7846695745073], [175.059207212071, -36.7845130081871], [175.059435962964, -36.7843400986529], [175.059668804053, -36.7840294563189], [175.059851985962, -36.783898007834], [175.060117817209, -36.7838026711962], [175.060364107199, -36.7837765037834], [175.060819608905, -36.783792074786], [175.061151497564, -36.7838395093371], [175.061553007006, -36.7841626226262], [175.06167470237, -36.7842043135578], [175.062350178343, -36.7841550556323], [175.062905894029, -36.784498955078], [175.063297250124, -36.7845156293715], [175.06352920587, -36.7845350687955], [175.063656148645, -36.7845547666019], [175.064735854379, -36.7852915943243], [175.064848491282, -36.7854304272596], [175.065320127357, -36.7862638453697], [175.065520804236, -36.7863495267998], [175.066032318279, -36.7863500252049], [175.066783597236, -36.7867327438854], [175.066981912331, -36.7868028207521], [175.068084786042, -36.7867351484315], [175.068424834403, -36.7868684593175], [175.068902752506, -36.787210553935], [175.069786208703, -36.7882401487902], [175.070141473327, -36.7884326336366], [175.070482838464, -36.7886144085505], [175.071008935876, -36.7887225710006], [175.071892578331, -36.7886743254016], [175.072018539176, -36.7886191389428], [175.072183687283, -36.7885065618695]]}, "properties": {"OBJECTID": 12004, "TRACKNAME": "Cres Ext, View & Seaview", "CONDITIONSOFUSE": "Seventh Avenue Reserve Accessway", "STATUS": "Open", "WEBLINK": null, "VALIDATIONSTATE": 3, "created_user": "AC_owner", "last_edited_user": "AC_owner", "last_edited_date": 1789875254325, "created_date": 1789875254325, "PARK_SAPSITEID": null, "TRACK_ID": null, "KAURIDIEBACK_TRACK": null, "KAURIDIEBACK_MITIGATED": null, "SegmentID": null, "GlobalID": "8db3ecc3-ad01-4646-bc75-e328eaa90e39", "Shape__Length": 2513.696961016453}}]}