{"type": "FeatureCollection", "features": [{"type": "Feature", "id": 3248, "geometry": {"type": "LineString", "coordinates": [[174.563313046167, -36.9518172983838], [174.563257181738, -36.9518649053923], [174.5632286548, -36.951876565081], [174.563203929502, -36.9518415250078], [174.563141058929, -36.9516757613728], [174.563139312744, -36.9516673638909], [174.563087705204, -36.9516438356079], [174.562950297748, -36.9516291154828], [174.56292341, -36.9516360232006], [174.562894008091, -36.9516585574753], [174.562701787813, -36.9518722430464], [174.562682717461, -36.9519637816332], [174.562683277266, -36.9520321241251], [174.562814832425, -36.9524730026732], [174.562777271712, -36.9526076865175], [174.562762587187, -36.9527352892326], [174.562775330434, -36.9527937439079], [174.562843182532, -36.9529854111084], [174.562834425981, -36.9530065775517], [174.562774827652, -36.9530625025299], [174.562759394857, -36.9530874884619], [174.562771196644, -36.953114764092], [174.562842573358, -36.9531920730822], [174.562862837376, -36.9532297741634], [174.56283749868, -36.9534001593862], [174.562814497951, -36.9536898957505], [174.562836062084, -36.9537991194574], [174.562884013285, -36.9538573323737], [174.562841885468, -36.9538718282133], [174.562501517234, -36.9539300560876], [174.562463630339, -36.9539437920206], [174.562443467309, -36.9539615490927], [174.562351802789, -36.9540990792082], [174.562331388587, -36.9541469286394], [174.56234845729, -36.9545550706455], [174.562341933413, -36.9546121438369], [174.562307754373, -36.9546377387445], [174.562137616889, -36.9546980338551], [174.562077919125, -36.9547459900043], [174.561966557553, -36.9548624916532], [174.561806681886, -36.9550816261717], [174.561595944376, -36.9553284647663], [174.56158024736, -36.9553637060445], [174.561617329751, -36.9554090855939], [174.561743046571, -36.9555045377007], [174.561800425466, -36.9555086357907], [174.561912278044, -36.9554853956563], [174.562104855781, -36.9554085235022], [174.562272548416, -36.9553277655675], [174.562445358603, -36.9552323786422], [174.562501814828, -36.9551902868305], [174.562690065106, -36.9550126296823], [174.562726516507, -36.9549933124444], [174.562763789319, -36.9550119900599], [174.562953245956, -36.9551764983983], [174.562989355049, -36.9551873034949], [174.563066069164, -36.955188311659], [174.563087680525, -36.9551972245641], [174.563111699406, -36.9552408936004], [174.563202710949, -36.9555062695073], [174.563231457061, -36.9556681008138], [174.563172524974, -36.956262470965], [174.563273113065, -36.9565157164123], [174.563353415444, -36.9566125624492], [174.563368200663, -36.9567133150851], [174.563362149357, -36.9567621040337], [174.563316679567, -36.9567839486458], [174.563111213848, -36.9568186287424], [174.562828978952, -36.9568330480001], [174.562785133983, -36.9568443882536], [174.562769543275, -36.9568694312413], [174.562746017291, -36.9569689792892], [174.562691590316, -36.9571274527979], [174.562671700325, -36.9571531661864], [174.562608194428, -36.9571764890986], [174.562591475265, -36.957191660846], [174.562516829252, -36.9573698868046], [174.562484119363, -36.9574211528685], [174.562430582957, -36.9574330748269], [174.562180147231, -36.9574231142231], [174.562112307628, -36.9574420844655], [174.561937973284, -36.9575473518124], [174.561889217043, -36.957592822194], [174.561751163381, -36.9578253809325], [174.561724798151, -36.9579692217948], [174.561704958648, -36.9580029320887], [174.561649411622, -36.9580249356723], [174.561283164407, -36.9581263465703], [174.561241130521, -36.9581325905142], [174.56112818118, -36.9581325137769], [174.561089069674, -36.9581417243586], [174.560972674833, -36.9581970657701], [174.560934077163, -36.9582607709239], [174.560906078686, -36.9582725916756], [174.560726694234, -36.9582678059268], [174.560597069492, -36.9582473924868], [174.560556887923, -36.9582344481138], [174.560553379061, -36.9582257492833], [174.560564346626, -36.9582081323319], [174.560661595805, -36.9581111678161], [174.560670236118, -36.9580896434251], [174.560664193464, -36.9580633401756], [174.560631761592, -36.958033436793], [174.560415227641, -36.957911689537], [174.560371411869, -36.9578755270667], [174.560249978491, -36.9575546196945], [174.560165460497, -36.9574121471209], [174.560129664837, -36.9573763334407], [174.56008220222, -36.9573747749671], [174.559898447219, -36.9574066422335], [174.559846886337, -36.9574077334195], [174.559800851423, -36.9573878504351], [174.559608710932, -36.9572649420048], [174.559550308691, -36.9572510946247], [174.559393228155, -36.9572671326128], [174.559368653453, -36.9572767096231], [174.559331275096, -36.9573106435916], [174.559304278014, -36.9573206751416], [174.55913348244, -36.9573533471804], [174.559025404162, -36.9573654962519], [174.558999481102, -36.9573757651074], [174.558923303428, -36.9574776361939], [174.558887029461, -36.9575561672428], [174.558843425507, -36.9577174894436], [174.558826192297, -36.9578993696225], [174.558814573639, -36.9579396081881], [174.558773626072, -36.9579795296856], [174.558542251289, -36.9581504647937], [174.558373193416, -36.958261061317], [174.558349120214, -36.9583779803417], [174.558252232303, -36.9586605860502], [174.558218587615, -36.9586927698071], [174.558064787655, -36.9587911902156], [174.557966523785, -36.9588643043519], [174.557933723415, -36.958899459536], [174.557913047492, -36.9589392336938], [174.557910727554, -36.9589711757473], [174.557927209418, -36.9590022806795], [174.558192846919, -36.9593455163461], [174.558239500048, -36.9593954177955], [174.55835030055, -36.959482843425], [174.55837064243, -36.9595099478798], [174.558366191001, -36.9595487294637], [174.55832180651, -36.9596565400793], [174.558268684248, -36.9597387082231], [174.558247670141, -36.9597526332824], [174.558209355925, -36.9597561620293], [174.557948825527, -36.9597206769815], [174.557390488065, -36.959502713407], [174.557306824282, -36.9594906430067], [174.557182797594, -36.9594925186671], [174.557159555592, -36.9595050414047], [174.55713528425, -36.9595319335369], [174.557031990045, -36.9596908084141], [174.556979561684, -36.9598476018777], [174.556919558516, -36.9599728020779], [174.556891711185, -36.9600067229618], [174.556844692074, -36.9600208445934], [174.556527399478, -36.9600576774745], [174.556455123087, -36.9600738453851], [174.556217734764, -36.9601946349069], [174.556055448332, -36.9602985919565], [174.556023447056, -36.9603277186926], [174.556024253675, -36.9603542161011], [174.556052200142, -36.9603972681238], [174.556295469454, -36.9606822545084], [174.556303819623, -36.9607321468649], [174.556289308351, -36.9609511674011], [174.556295011997, -36.9610022049206], [174.556316890905, -36.9610292372962], [174.556423192917, -36.9611039036896], [174.556485755384, -36.961184489406], [174.556519339691, -36.9612583180973], [174.556544821694, -36.9613884958154], [174.556562996763, -36.9614132268704], [174.556610141708, -36.9614471657913], [174.556741288575, -36.9614914729379], [174.556764662998, -36.9615271755863], [174.556797123523, -36.9616210326317], [174.556805943257, -36.9616639008272], [174.556804181622, -36.9617224011887], [174.556770903657, -36.9619620997715], [174.556775754936, -36.9621695507801], [174.556835916101, -36.9624663435175], [174.556915445025, -36.9626489391315], [174.556962056686, -36.9627074964062], [174.557001155674, -36.9627367977463], [174.557033914551, -36.9627492493627], [174.557068381884, -36.9627391464739], [174.557173544144, -36.9626780234497], [174.557204698331, -36.9626754966092], [174.557247846432, -36.9627192890277], [174.557268226841, -36.9627655181105], [174.557248316957, -36.9628025446767], [174.55706591046, -36.9630058728845], [174.557017392726, -36.9632564335075], [174.556996425752, -36.9633071979352], [174.556956762766, -36.9633223552464], [174.556807312069, -36.9633306878266], [174.556759778071, -36.9633432883926], [174.556708768027, -36.9633866319885], [174.556563693431, -36.963545289042], [174.556535876327, -36.9636018911531], [174.556515946258, -36.9636697838815], [174.556523556348, -36.9637882808572], [174.556536251381, -36.9638170244801], [174.556558013345, -36.9638324209226], [174.556744754953, -36.9639058420148], [174.556957676389, -36.9640046783889], [174.557004748754, -36.9640367847162], [174.557016867231, -36.9640947839288], [174.557017625448, -36.9644371313008], [174.557066230854, -36.9645090267525], [174.557177402009, -36.9645782212767], [174.557183905673, -36.9646229387343], [174.557138485097, -36.9647967254441], [174.557098329707, -36.9648747056187], [174.557066014561, -36.964889322223], [174.556917928482, -36.9649048560273], [174.556870828387, -36.9649191184611], [174.556706316526, -36.9650812493312], [174.556668948808, -36.9651301763764], [174.556670078547, -36.9651521708563], [174.556687619081, -36.9651824300889], [174.556746510682, -36.9652580864328], [174.556782581319, -36.9652897521292], [174.556960158015, -36.9653564165774], [174.556998882671, -36.9653647356463], [174.557038227483, -36.9653620860885], [174.556904054245, -36.9655684228581], [174.556883176843, -36.9655833031281], [174.556845878284, -36.9655853345106], [174.556501611433, -36.9655199831028], [174.556443378549, -36.9655190971433], [174.556416181345, -36.9655403678767], [174.556345353058, -36.965629787044], [174.556188236853, -36.9657611480245], [174.555907976731, -36.9659314489101], [174.555679818911, -36.9660973365494]]}, "properties": {"OBJECTID": 3248, "TRACKNAME": "Cristies Track", "CONDITIONSOFUSE": "Waitakere Central Regional Park", "STATUS": "Closed Dieback", "WEBLINK": "https://www.aucklandcouncil.govt.nz/en/parks-recreation/find-park-beach/park-detail/204.html", "VALIDATIONSTATE": 3, "created_user": "AC_owner", "last_edited_user": "AC_owner", "last_edited_date": 1789875254325, "created_date": 1789875254325, "PARK_SAPSITEID": null, "TRACK_ID": null, "KAURIDIEBACK_TRACK": null, "KAURIDIEBACK_MITIGATED": null, "SegmentID": null, "GlobalID": "930cf79f-b144-4e96-a385-7eceb0430d09", "Shape__Length": 2913.803188276006}}]}