{"type": "FeatureCollection", "features": [{"type": "Feature", "id": 504, "geometry": {"type": "LineString", "coordinates": [[174.722367562127, -36.5134616769227], [174.722254803238, -36.5133947442701], [174.722139957388, -36.5133361714542], [174.722017813705, -36.5132410404846], [174.721866366081, -36.513141094476], [174.721617044573, -36.5130163747703], [174.7214832633, -36.5129816425911], [174.721215295221, -36.51289385372], [174.721044564875, -36.5128020415244], [174.720916458285, -36.5127305642781], [174.720797097255, -36.5126144424913]]}, "properties": {"OBJECTID": 504, "TRACKNAME": "Cudlip Point Loop Track", "CONDITIONSOFUSE": "Mahurangi Regional Park", "STATUS": "Open", "WEBLINK": "https://www.aucklandcouncil.govt.nz/en/parks-recreation/find-park-beach/park-detail/216.html", "VALIDATIONSTATE": 3, "created_user": "AC_owner", "last_edited_user": "AC_owner", "last_edited_date": 1789875254325, "created_date": 1789875254325, "PARK_SAPSITEID": null, "TRACK_ID": null, "KAURIDIEBACK_TRACK": null, "KAURIDIEBACK_MITIGATED": null, "SegmentID": null, "GlobalID": "dfda0155-20f7-4741-8c9a-2649b8a47d79", "Shape__Length": 171.25121991933082}}, {"type": "Feature", "id": 507, "geometry": {"type": "LineString", "coordinates": [[174.728820765888, -36.5168909754712], [174.728755425411, -36.5169000614228], [174.728689519195, -36.5168837208624], [174.728610047562, -36.5168808039838], [174.728514444421, -36.5168893108016], [174.728270890955, -36.516819588915], [174.728227325549, -36.5167876636859], [174.728186461888, -36.5167638379873], [174.728124223908, -36.516742357375], [174.728049678561, -36.5167342812539], [174.728000605369, -36.5167380444863], [174.727943836469, -36.5167358149586], [174.727887044946, -36.5167325680559], [174.727800482253, -36.5166941446465], [174.727759211674, -36.5166520119399], [174.727713980213, -36.5166017970008], [174.727702791332, -36.5165521074163], [174.727643141111, -36.5165336411828], [174.727453550525, -36.5165099353661], [174.727248951832, -36.5164080360106]]}, "properties": {"OBJECTID": 507, "TRACKNAME": "Cudlip Point Loop Track", "CONDITIONSOFUSE": "Mahurangi Regional Park", "STATUS": "Open", "WEBLINK": "https://www.aucklandcouncil.govt.nz/en/parks-recreation/find-park-beach/park-detail/216.html", "VALIDATIONSTATE": 3, "created_user": "AC_owner", "last_edited_user": "AC_owner", "last_edited_date": 1789875254325, "created_date": 1789875254325, "PARK_SAPSITEID": null, "TRACK_ID": null, "KAURIDIEBACK_TRACK": null, "KAURIDIEBACK_MITIGATED": null, "SegmentID": null, "GlobalID": "53ae2759-a9e0-42eb-a47b-e0a675483422", "Shape__Length": 159.92093059264795}}, {"type": "Feature", "id": 660, "geometry": {"type": "LineString", "coordinates": [[174.727248951832, -36.5164080360106], [174.727125440752, -36.5165672311442], [174.727045122392, -36.5166757172682], [174.726954578031, -36.5168558997199], [174.726804587652, -36.5170202481772], [174.726672214115, -36.5171795711817], [174.72653266069, -36.5172817602647], [174.726307659674, -36.5173947247636], [174.726149111683, -36.5174399488418], [174.725968086407, -36.5174044102741], [174.725707839566, -36.5173938670336], [174.725522336383, -36.5174227856049], [174.725385563859, -36.5173842207162], [174.725143199422, -36.517380571884], [174.725046996175, -36.5174392022279], [174.724780418015, -36.5174096696016], [174.724575446693, -36.5173601646898], [174.724495959969, -36.5173732387595], [174.724261089619, -36.5174410289729], [174.723976004363, -36.5175095446888], [174.723754897694, -36.5175318199466], [174.723425241606, -36.5175890540481], [174.723169217274, -36.5176356828998], [174.723071391523, -36.5176603110122], [174.722409858261, -36.5178341428425], [174.722279155227, -36.5176464291165], [174.722166018496, -36.5176358302087], [174.722117528203, -36.5175891494842]]}, "properties": {"OBJECTID": 660, "TRACKNAME": "Cudlip Point Loop Track", "CONDITIONSOFUSE": "Mahurangi Regional Park", "STATUS": "Open", "WEBLINK": "https://www.aucklandcouncil.govt.nz/en/parks-recreation/find-park-beach/park-detail/216.html", "VALIDATIONSTATE": 3, "created_user": "AC_owner", "last_edited_user": "AC_owner", "last_edited_date": 1789875254325, "created_date": 1789875254325, "PARK_SAPSITEID": null, "TRACK_ID": null, "KAURIDIEBACK_TRACK": null, "KAURIDIEBACK_MITIGATED": null, "SegmentID": null, "GlobalID": "14d3046c-d78c-4773-a333-c34ca68722f6", "Shape__Length": 543.9735548992463}}, {"type": "Feature", "id": 973, "geometry": {"type": "LineString", "coordinates": [[174.721958726549, -36.5119453593043], [174.721993139851, -36.5120313433446], [174.7220057521, -36.5122004931858], [174.722055232365, -36.5124335037555], [174.722085618997, -36.5126047811069], [174.722133197662, -36.5127519610187], [174.72220946749, -36.5128605677319], [174.7223207576, -36.5129495887542], [174.722409054299, -36.513067561118], [174.722453151636, -36.5131909411013], [174.72245964625, -36.5133506397267], [174.722367562127, -36.5134616769227]]}, "properties": {"OBJECTID": 973, "TRACKNAME": "Cudlip Point Loop Track", "CONDITIONSOFUSE": "Mahurangi Regional Park", "STATUS": "Open", "WEBLINK": "https://www.aucklandcouncil.govt.nz/en/parks-recreation/find-park-beach/park-detail/216.html", "VALIDATIONSTATE": 3, "created_user": "AC_owner", "last_edited_user": "AC_owner", "last_edited_date": 1789875254325, "created_date": 1789875254325, "PARK_SAPSITEID": null, "TRACK_ID": null, "KAURIDIEBACK_TRACK": null, "KAURIDIEBACK_MITIGATED": null, "SegmentID": null, "GlobalID": "068ca708-30e2-4014-a7e3-94d293708f6e", "Shape__Length": 181.11717058564423}}, {"type": "Feature", "id": 1640, "geometry": {"type": "LineString", "coordinates": [[174.722367562127, -36.5134616769227], [174.722391302537, -36.513599661505], [174.722462829828, -36.5137608050306], [174.722536358768, -36.513878990571], [174.722628613823, -36.5140422196801], [174.72271469737, -36.5141936123827], [174.72286687179, -36.5143941354186], [174.72307442594, -36.5145604676476], [174.723250125721, -36.5147558800545], [174.723362900394, -36.5149116567386], [174.723609965227, -36.5151275012951], [174.723643618724, -36.5151794842685], [174.72379378756, -36.5152894059259], [174.723946540396, -36.5153825961708], [174.724025662347, -36.515486389294], [174.724026984866, -36.5155459939384], [174.724105050182, -36.5156021048915], [174.724211858285, -36.5156220246965], [174.724442519225, -36.5157641712006], [174.724724398847, -36.5159508905735], [174.7249940306, -36.5159851503112], [174.725428380682, -36.5159860209448], [174.725931195831, -36.5160097491537], [174.726259001653, -36.5160026192572], [174.726562594825, -36.5159696047935], [174.726696305542, -36.5160034434099], [174.726794731187, -36.5160449471978], [174.727004760092, -36.5160562153893], [174.727159306058, -36.5160969061209], [174.727261426827, -36.5161717455046], [174.72732541583, -36.5162590616994], [174.727248951832, -36.5164080360106]]}, "properties": {"OBJECTID": 1640, "TRACKNAME": "Cudlip Point Loop Track", "CONDITIONSOFUSE": "Mahurangi Regional Park", "STATUS": "Open", "WEBLINK": "https://www.aucklandcouncil.govt.nz/en/parks-recreation/find-park-beach/park-detail/216.html", "VALIDATIONSTATE": 3, "created_user": "AC_owner", "last_edited_user": "AC_owner", "last_edited_date": 1789875254325, "created_date": 1789875254325, "PARK_SAPSITEID": null, "TRACK_ID": null, "KAURIDIEBACK_TRACK": null, "KAURIDIEBACK_MITIGATED": null, "SegmentID": null, "GlobalID": "1a50b797-6871-4349-95d2-34d3703e4df2", "Shape__Length": 621.675123813516}}]}