{"type": "FeatureCollection", "features": [{"type": "Feature", "id": 12233, "geometry": {"type": "LineString", "coordinates": [[174.514730163249, -36.9371419176595], [174.514776763447, -36.9370750549158], [174.514957416522, -36.9368916481813], [174.515132056021, -36.9366756434512], [174.515183334288, -36.936450387214], [174.515189993302, -36.9362717870499], [174.515219208845, -36.9362178642073], [174.515268738377, -36.9361526854977], [174.515327080371, -36.9361134978225], [174.51613316587, -36.9356790085935], [174.516182522977, -36.935660720679], [174.516369063186, -36.9356194809471], [174.516421171159, -36.9355762621257], [174.51655280505, -36.9354336527692], [174.516691763178, -36.9351954952448], [174.516688316587, -36.9351535987862], [174.516643407944, -36.9350337320696], [174.51663565805, -36.9349905565504], [174.516701475733, -36.9347009278022], [174.516724553236, -36.9344761933208], [174.516846062837, -36.9342347521556], [174.516886943819, -36.9341718284964], [174.517109607739, -36.9339564783359], [174.517495335245, -36.9338050419913], [174.517622066742, -36.9336963042842], [174.51778599254, -36.9335930220319], [174.517811283504, -36.9335910222378], [174.517835595055, -36.9336013475941], [174.518025154467, -36.933729027458], [174.51813177326, -36.9337871454875], [174.518573443555, -36.9339206868734], [174.518937415351, -36.934054742753], [174.519298481955, -36.934129497871], [174.519338835291, -36.9341424659824], [174.519393867102, -36.9341725614741], [174.519444464867, -36.9342191094881], [174.519616535233, -36.9344502798132], [174.519710290698, -36.9346498498143], [174.519834881888, -36.9347533705273]]}, "properties": {"OBJECTID": 12233, "TRACKNAME": "Cutty Grass Track", "CONDITIONSOFUSE": "Waitakere West Regional Park", "STATUS": "Open", "WEBLINK": "https://www.aucklandcouncil.govt.nz/en/parks-recreation/find-park-beach/park-detail/3451.html", "VALIDATIONSTATE": 3, "created_user": "AC_owner", "last_edited_user": "AC_owner", "last_edited_date": 1789875254325, "created_date": 1789875254325, "PARK_SAPSITEID": null, "TRACK_ID": null, "KAURIDIEBACK_TRACK": null, "KAURIDIEBACK_MITIGATED": null, "SegmentID": null, "GlobalID": "f6a9e660-ae6c-4813-a29f-e00c89c25ecc", "Shape__Length": 751.6856175729813}}, {"type": "Feature", "id": 12244, "geometry": {"type": "LineString", "coordinates": [[174.519834881888, -36.9347533705273], [174.520044274533, -36.934927350487], [174.520171593937, -36.9350625206536], [174.520290962588, -36.935216829272], [174.520432161001, -36.9353384271876], [174.520554682032, -36.9353964835913], [174.520603471129, -36.9354118310056], [174.520859700856, -36.9353902699578], [174.521073852847, -36.935426646195], [174.521117753103, -36.9354491046835], [174.521268190011, -36.9355733143717], [174.521397894621, -36.935623282768], [174.52145967316, -36.9356345695132], [174.521717379207, -36.9355765545758], [174.521972882133, -36.9355568302044], [174.522109719385, -36.9355092509687], [174.522291602351, -36.9354271217242], [174.522342041131, -36.9354136216645], [174.522578237454, -36.9354032743182], [174.522769032513, -36.9354310505101], [174.523128368186, -36.9353878726421], [174.523182207687, -36.935363025509], [174.523324961714, -36.9352269181877], [174.523370679523, -36.9352103595376], [174.523606475969, -36.935201962227], [174.523799934914, -36.9352761228008], [174.523993469173, -36.9352959749433], [174.524067724245, -36.9352943819693], [174.524270502008, -36.9352202199996], [174.524503156905, -36.9351037336845], [174.524738247988, -36.9350312201964], [174.524764460183, -36.935034867651], [174.524786660612, -36.9350501851867], [174.524969560138, -36.935241827925], [174.525089053226, -36.935302162895], [174.525146059893, -36.9353134459091], [174.525194232032, -36.9352972336102], [174.525483505954, -36.9351619458243], [174.525694380863, -36.9351042805281], [174.525774979276, -36.9350733827914], [174.526311378258, -36.9348296112044], [174.52646382663, -36.9347340180223], [174.526705893153, -36.9346921835334], [174.52699428356, -36.9346225948068], [174.527196727768, -36.9345268895853], [174.527577344904, -36.934366698086], [174.527799035241, -36.934241305745], [174.527864796608, -36.9341956438784], [174.528070619337, -36.9340094599527], [174.528372071254, -36.933686669182], [174.528592207973, -36.9334870320676], [174.528644571208, -36.9334564507863], [174.52884295768, -36.9333804537541], [174.529073360438, -36.9332406693025], [174.529117264182, -36.9332042477464], [174.529130290756, -36.9331650149283], [174.529177921415, -36.9328296172933], [174.529279610598, -36.9326687845216], [174.529446415454, -36.9323716922219], [174.529480515561, -36.9321503829902], [174.52960317837, -36.9320014211658], [174.529685111558, -36.9318089162302], [174.529715885798, -36.9317650380485], [174.529949530712, -36.93165183643], [174.530160938909, -36.9315855574195], [174.530404650519, -36.9315631457046], [174.530796484332, -36.9314635333148], [174.531100240084, -36.9314365604236], [174.531278826925, -36.9314532854925], [174.531451033373, -36.9314232847909], [174.53150766166, -36.9314039773925], [174.531543666051, -36.9313527663078], [174.531804076601, -36.9308094279234], [174.531870982353, -36.9305878480893], [174.532080277313, -36.9301812202017], [174.532123553792, -36.9301203516574], [174.532337174705, -36.9299574051221], [174.532418305253, -36.9299119931296], [174.532985707955, -36.9296477633799], [174.53343022123, -36.9295039805925], [174.533677473299, -36.9293812849323], [174.53403440596, -36.9291180015291], [174.534172116508, -36.928989472867], [174.534207730518, -36.928935733197], [174.53427427341, -36.9287687252401], [174.534288038568, -36.9285441440331], [174.534345646415, -36.9283632532995], [174.534203637177, -36.9276616551288], [174.534177513853, -36.9273116777622], [174.534237016549, -36.9272018260603], [174.534328626245, -36.9270778497762], [174.534496216443, -36.9269956613685], [174.534601354567, -36.9269680280569], [174.534647516885, -36.9269488093625], [174.53469267955, -36.9269194902723], [174.534769015605, -36.9268524428412]]}, "properties": {"OBJECTID": 12244, "TRACKNAME": "Cutty Grass Track", "CONDITIONSOFUSE": "Waitakere West Regional Park", "STATUS": "Open", "WEBLINK": "https://www.aucklandcouncil.govt.nz/en/parks-recreation/find-park-beach/park-detail/3451.html", "VALIDATIONSTATE": 3, "created_user": "AC_owner", "last_edited_user": "AC_owner", "last_edited_date": 1789875254325, "created_date": 1789875254325, "PARK_SAPSITEID": null, "TRACK_ID": null, "KAURIDIEBACK_TRACK": null, "KAURIDIEBACK_MITIGATED": null, "SegmentID": null, "GlobalID": "0310aebe-c22b-4ed3-8959-e44e86156cbe", "Shape__Length": 1965.0327976862538}}, {"type": "Feature", "id": 12265, "geometry": {"type": "LineString", "coordinates": [[174.534769015605, -36.9268524428412], [174.534925689922, -36.9268070984199], [174.535238811685, -36.9267974895219], [174.535443779972, -36.926750798997], [174.535502882552, -36.92672969106], [174.535555329053, -36.9266756432087], [174.535671660855, -36.926515994774], [174.535764596223, -36.9261348052553], [174.535786446631, -36.9260862546806], [174.535931001016, -36.9259640622162], [174.536182904746, -36.9258048321025], [174.53645828037, -36.9255190618601], [174.536625386787, -36.9254097006379], [174.537053249367, -36.9252137417226], [174.537114905342, -36.9251963135631], [174.537352713023, -36.9251655905322], [174.537411582268, -36.9251491627528], [174.537670625692, -36.9249717467305], [174.537722989252, -36.924927677099], [174.537809800441, -36.9247211683839], [174.537899888159, -36.9244330077409], [174.538202275181, -36.9239215068295], [174.538257484678, -36.9237414384574], [174.538259081566, -36.9236711745271], [174.538174250955, -36.9230586701277], [174.538167234147, -36.9227971582853], [174.538180214428, -36.9227481092252], [174.53836560331, -36.922598668532], [174.538692666405, -36.9221642107215], [174.538718110981, -36.9221304134298], [174.53876424423, -36.9220820163986], [174.538831244247, -36.9220541344194], [174.539369924162, -36.921885160367], [174.539421264089, -36.9218617985696], [174.539424767181, -36.9218294392811], [174.539377840679, -36.9217171968315], [174.539384457071, -36.9216582159794], [174.539419836251, -36.9215668999533], [174.539461648217, -36.9215163503268], [174.53954095417, -36.9214204898449], [174.539577268929, -36.9213896701774], [174.539689284957, -36.9213293860184], [174.539954124828, -36.921063745603], [174.5401311856, -36.9209549444925], [174.540386687424, -36.9207007092915], [174.541069361083, -36.9201082831942], [174.541307712959, -36.91987180009], [174.541485557059, -36.9196510284548], [174.541498191138, -36.9195932763559], [174.541498468702, -36.9194737970131], [174.541380298138, -36.9192097529582], [174.541368845232, -36.9191683667611], [174.541564519432, -36.9185435977438], [174.541557201543, -36.9185118836033], [174.541508841752, -36.9184355528559], [174.541489203327, -36.918228458034], [174.541453639907, -36.9181197193904], [174.541406260008, -36.9179353474248]]}, "properties": {"OBJECTID": 12265, "TRACKNAME": "Cutty Grass Track", "CONDITIONSOFUSE": "Waitakere West Regional Park", "STATUS": "Open", "WEBLINK": "https://www.aucklandcouncil.govt.nz/en/parks-recreation/find-park-beach/park-detail/3451.html", "VALIDATIONSTATE": 3, "created_user": "AC_owner", "last_edited_user": "AC_owner", "last_edited_date": 1789875254325, "created_date": 1789875254325, "PARK_SAPSITEID": null, "TRACK_ID": null, "KAURIDIEBACK_TRACK": null, "KAURIDIEBACK_MITIGATED": null, "SegmentID": null, "GlobalID": "00d26055-6a98-4bf4-9e9f-2309105a6753", "Shape__Length": 1283.5600284121467}}]}