{"type": "FeatureCollection", "features": [{"type": "Feature", "id": 5434, "geometry": {"type": "LineString", "coordinates": [[175.048376633887, -36.8085810683462], [175.048342810448, -36.8087930313532], [175.048236808917, -36.8089137160196], [175.048236804532, -36.8089137197004], [175.047882961006, -36.8091035998668], [175.047882956573, -36.8091036017458], [175.04756381228, -36.8092162359568], [175.047563810063, -36.8092162368963], [175.047340691472, -36.8092345755218], [175.047340685918, -36.8092345774201], [175.047180033268, -36.8093064672961], [175.046918978866, -36.8092358837071], [175.046918389768, -36.8092358181408], [175.046798727272, -36.8092405004572], [175.046797782126, -36.8092402814892], [175.046751152639, -36.8092141397343], [175.046747164895, -36.8092127663003], [175.046650559135, -36.809196646764], [175.046530944145, -36.809187619993], [175.046421954252, -36.8091812060509], [175.046313406717, -36.809190312135], [175.046223148959, -36.8092244733261], [175.046223141212, -36.8092244770647], [175.046091224667, -36.8092725584959], [175.046090469783, -36.8092728337698], [175.046072064993, -36.8092795435333], [175.0460720628, -36.8092795453737], [175.045936968141, -36.8093343158686], [175.045933303861, -36.8093357876787], [175.045933276163, -36.8093357998724], [175.045725526551, -36.8094328481145], [175.045635557911, -36.8094768822305], [175.045635549092, -36.8094768877901], [175.045580783174, -36.8095244909436], [175.045580778789, -36.8095244946243], [175.045528098889, -36.8095833462403], [175.045528096696, -36.8095833480807], [175.045484135658, -36.8096406192721], [175.045484133537, -36.8096406238151], [175.045466078165, -36.8096832968924], [175.045466078261, -36.809683300496], [175.045480761502, -36.8097055994817], [175.045480763791, -36.8097056012449], [175.045510992998, -36.8097191433019], [175.045510999888, -36.8097191494925], [175.045522381784, -36.8097485553144], [175.045522382, -36.8097485634225], [175.045507668616, -36.8097855295972], [175.045507666495, -36.8097855341403], [175.045485496199, -36.809812495214], [175.045482613449, -36.8098159995329], [175.045480549152, -36.809818500132], [175.04548054038, -36.8098185074934], [175.045388910674, -36.8098653902042], [175.045388908481, -36.8098653920446], [175.045297301615, -36.8099136848407], [175.045297298302, -36.8099136867003], [175.04520129141, -36.8099917063744], [175.045201285904, -36.8099917100743], [175.045134445746, -36.8100465906237], [175.045134439144, -36.8100465952438], [175.04502808879, -36.8101304529482], [175.04502808438, -36.8101304557279], [175.044959321499, -36.8101797288695], [175.044959312728, -36.8101797362309], [175.044894292265, -36.8102255461216], [175.044878912423, -36.8102363821342], [175.044833782969, -36.8102681796794], [175.044833775247, -36.8102681843188], [175.044747000437, -36.8102994363611], [175.044743002626, -36.8103008453728], [175.044742741464, -36.8103007615368], [175.044688963103, -36.8103194198051], [175.044688937573, -36.8103194292573], [175.044489653484, -36.8103878691497], [175.044489647954, -36.8103878719488], [175.044407463204, -36.8104147482647], [175.044407453145, -36.810414749339], [175.044289923349, -36.8104151103578], [175.044289919964, -36.8104151095147], [175.044086407092, -36.8104177141709], [175.044086399225, -36.8104177134048], [175.044064098234, -36.8104168999389], [175.044064090416, -36.8104169009747], [175.044051911993, -36.8104208336902], [175.044045968777, -36.8104277416654], [175.044044758685, -36.8104388873251], [175.044044758853, -36.8104388936314], [175.044049758283, -36.8104523858799], [175.044049759499, -36.8104523894642], [175.044071219238, -36.810503251742], [175.044116122283, -36.8105938290402], [175.044116124692, -36.8105938353079], [175.044154623702, -36.8106758872732], [175.04415462487, -36.8106758890557], [175.044187201826, -36.8107654732314], [175.044187203042, -36.8107654768158], [175.04422334274, -36.8108457189395], [175.044229385197, -36.8108684595952], [175.044229386558, -36.8108684685849], [175.044228896961, -36.8109042995111], [175.044228897152, -36.8109043067183], [175.04423185477, -36.8109530472917], [175.04423529268, -36.8110444142007], [175.044235294016, -36.8110444222895], [175.044244169077, -36.8111115811871], [175.044244169196, -36.8111115856916], [175.044243959987, -36.811133262153]]}, "properties": {"OBJECTID": 5434, "TRACKNAME": "Dead Dog Bay track", "CONDITIONSOFUSE": "Okoka Bay Dead Dog Walkway", "STATUS": "Open", "WEBLINK": "https://www.aucklandcouncil.govt.nz/en/parks-recreation/find-park-beach/park-detail/1234.html", "VALIDATIONSTATE": 3, "created_user": "AC_owner", "last_edited_user": "AC_owner", "last_edited_date": 1789875254325, "created_date": 1789875254325, "PARK_SAPSITEID": null, "TRACK_ID": null, "KAURIDIEBACK_TRACK": null, "KAURIDIEBACK_MITIGATED": null, "SegmentID": null, "GlobalID": "e48d38d9-90cc-45ac-ba30-4d04afc8b3b3", "Shape__Length": 571.4891445790352}}]}