{"type": "FeatureCollection", "features": [{"type": "Feature", "id": 11990, "geometry": {"type": "LineString", "coordinates": [[174.996224568898, -36.7776491638059], [174.996047667392, -36.7775840898971], [174.995792889357, -36.7776612703738], [174.995633987332, -36.7778243253489], [174.995461562234, -36.7780483596536], [174.995324681633, -36.7783617121439], [174.995130860516, -36.7784597389441], [174.994933449345, -36.778419308907], [174.994599960914, -36.7781405787575], [174.994359450764, -36.7777193406664], [174.994297168093, -36.7775308356303], [174.994530234716, -36.7770822141403], [174.994545013853, -36.7768365230636], [174.994370498372, -36.7763971673116], [174.994283866554, -36.7759684881626]]}, "properties": {"OBJECTID": 11990, "TRACKNAME": "Delamore Drive Roadside", "CONDITIONSOFUSE": null, "STATUS": "Open", "WEBLINK": null, "VALIDATIONSTATE": 3, "created_user": "AC_owner", "last_edited_user": "AC_owner", "last_edited_date": 1789875254325, "created_date": 1789875254325, "PARK_SAPSITEID": null, "TRACK_ID": null, "KAURIDIEBACK_TRACK": null, "KAURIDIEBACK_MITIGATED": null, "SegmentID": null, "GlobalID": "af15c702-86d9-498c-a257-2cd72b8171b8", "Shape__Length": 466.0318899036929}}]}