{"type": "FeatureCollection", "features": [{"type": "Feature", "id": 6434, "geometry": {"type": "MultiLineString", "coordinates": [[[174.990907986335, -36.777315132087], [174.990921690206, -36.7772935539572], [174.99092262386, -36.7772924837798], [174.99098593832, -36.7772368505358], [174.990985997445, -36.7772367972692], [174.991078232549, -36.7771547433406], [174.991078236959, -36.7771547405628], [174.991118368118, -36.7771231397795], [174.991170945482, -36.7770913801545], [174.991244654329, -36.7770534288072], [174.991244660979, -36.7770534259919], [174.991688981458, -36.7768812830481], [174.991688984794, -36.7768812820909], [174.991910515998, -36.7767795303393], [174.991910523767, -36.7767795275052], [174.991979322026, -36.776749057811], [174.991979325339, -36.7767490559529], [174.992049875208, -36.7767269995539], [174.992049884121, -36.7767269976019], [174.992113971235, -36.7767151541391], [174.992236440027, -36.7767015033665], [174.992236445626, -36.7767015032727], [174.992391388958, -36.7766886701838], [174.993380572213, -36.776630323871], [174.993560552955, -36.7766231778165], [174.993562159078, -36.7766232851879], [174.993751685649, -36.7766566518285], [174.993753207361, -36.7766571770228], [174.993834503111, -36.7767014298588], [174.993836660123, -36.7767026041673]], [[174.993836660123, -36.7767026041673], [174.993922498505, -36.7766689453992], [174.993922703428, -36.7766685949546], [174.993900166063, -36.7765918459023], [174.993900164779, -36.7765918396145], [174.993897574673, -36.7765674202891], [174.993897575699, -36.7765674166666], [174.993912365452, -36.7765324344767], [174.993965891249, -36.7764770602442], [174.993965892299, -36.7764770575227], [174.99396891756, -36.7764043720383], [174.99396891749, -36.7764043693355], [174.993957990379, -36.7763539235513], [174.993957299621, -36.7763386802749], [174.993957302818, -36.776338673912], [174.993970285851, -36.7763290112748], [174.99397029362, -36.7763290084406], [174.993988941675, -36.7763282153513], [174.993988947298, -36.7763282161584], [174.994042112307, -36.7763467030892], [174.994110752128, -36.7763483038337], [174.994110754368, -36.7763483037961], [174.994157719876, -36.7763427860983], [174.994157725522, -36.7763427878062], [174.99425811912, -36.776393966719], [174.994258310631, -36.7763940067707], [174.994293740913, -36.7763925374146], [174.994296113241, -36.7763915142886], [174.994311573162, -36.7763740560118], [174.994312723796, -36.7763731894733], [174.994326646201, -36.7763669180373]]]}, "properties": {"OBJECTID": 6434, "TRACKNAME": "Delamore Dr to woolshed", "CONDITIONSOFUSE": "Owhanake Matiatia Walkway", "STATUS": "Open", "WEBLINK": "https://www.aucklandcouncil.govt.nz/en/parks-recreation/find-park-beach/park-detail/1039.html", "VALIDATIONSTATE": 3, "created_user": "AC_owner", "last_edited_user": "AC_owner", "last_edited_date": 1789875254325, "created_date": 1789875254325, "PARK_SAPSITEID": null, "TRACK_ID": null, "KAURIDIEBACK_TRACK": null, "KAURIDIEBACK_MITIGATED": null, "SegmentID": null, "GlobalID": "2dc73569-e07d-49ad-9d83-7278a7f60b4f", "Shape__Length": 368.9368937718218}}]}