{"type": "FeatureCollection", "features": [{"type": "Feature", "id": 936, "geometry": {"type": "LineString", "coordinates": [[174.535868554032, -37.0247132900032], [174.535872850099, -37.0247238198357], [174.535876959077, -37.0247341024161], [174.535880882089, -37.0247441377301], [174.535884618029, -37.0247539266932], [174.535888168002, -37.0247634683899], [174.535891532028, -37.0247727637212], [174.535894708963, -37.0247818118006], [174.535897701073, -37.0247906135002], [174.535900504969, -37.0247991679625], [174.53590312404, -37.024807476045], [174.53590555602, -37.0248155368757], [174.535907802034, -37.02482335044], [174.535909860974, -37.0248309176537], [174.535911733948, -37.024838237601], [174.535913420972, -37.0248453111832], [174.53591492203, -37.024852137499], [174.535916236014, -37.0248587174643], [174.53591736403, -37.0248650501632], [174.535918304956, -37.0248711356104], [174.535919061056, -37.0248769746779], [174.53591962894, -37.0248825665083], [174.535920044139, -37.0248879448928], [174.535920482303, -37.0248932914327], [174.535920972129, -37.0248986355012], [174.535921513579, -37.0249039752959], [174.535922105568, -37.0249093126336], [174.535922750323, -37.0249146465842], [174.535923445598, -37.0249199771767], [174.535924192533, -37.0249253052977], [174.535924991095, -37.0249306291449], [174.535925841317, -37.0249359505207], [174.535926742059, -37.0249412685383], [174.535927695586, -37.0249465840699], [174.535928699615, -37.0249518953423], [174.535929755304, -37.0249572041431], [174.535930861514, -37.0249625095859], [174.535932020508, -37.0249678125426], [174.535933230004, -37.0249731112401], [174.535934491162, -37.0249784074661], [174.535935803962, -37.0249837003194], [174.535937168406, -37.0249889898], [174.535938584512, -37.0249942768092], [174.535940051137, -37.0249995604602], [174.535941490209, -37.0250048156248], [174.535942831631, -37.0250100224793], [174.535944075385, -37.0250151801226], [174.535945222613, -37.0250202894413], [174.535946272173, -37.0250253495489], [174.535947224065, -37.0250303604453], [174.53594807943, -37.0250353230171], [174.535948838234, -37.0250402354622], [174.535949498281, -37.0250451005129], [174.535950061766, -37.0250499154367], [174.535950528725, -37.025054682036], [174.535950898034, -37.0250594003253], [174.535951169656, -37.0250640685023], [174.535951343628, -37.0250686883693], [174.535951421074, -37.0250732599117], [174.535951401975, -37.0250777822285], [174.535951284085, -37.0250822553487], [174.53595106965, -37.0250866792431], [174.535950758688, -37.0250910548131], [174.535950350058, -37.0250953811719], [174.53594984376, -37.0250996583195], [174.535949243401, -37.0251038979269], [174.535948564679, -37.0251081538716], [174.535947809953, -37.0251124315314], [174.535946978115, -37.0251167318219], [174.535946069167, -37.025121054743], [174.535945084231, -37.0251254002802], [174.535944022165, -37.025129767547], [174.535942884131, -37.025134158331], [174.535941668985, -37.0251385717457], [174.535940377835, -37.0251430068753], [174.535939009591, -37.0251474655368], [174.535937564217, -37.0251519459277], [174.535936042875, -37.0251564498359], [174.535934445527, -37.0251609754591], [174.535932771085, -37.025165524614], [174.535931019515, -37.0251700954985], [174.535929191957, -37.0251746889991], [174.535927288411, -37.0251793051157], [174.535925306631, -37.0251839438775], [174.535923249987, -37.0251886052409], [174.535921115107, -37.0251932892494], [174.535918905364, -37.0251979958595], [174.535916724515, -37.0252026858711], [174.535914650685, -37.0252073312325], [174.535912684981, -37.025211931028], [174.53591082742, -37.0252164861586], [174.535909078003, -37.0252209966245], [174.535907436711, -37.0252254615244], [174.53590590244, -37.0252298817741], [174.535904477417, -37.0252342564433], [174.535903159414, -37.0252385864623], [174.535901949556, -37.0252428718164], [174.535900847822, -37.0252471116048], [174.535899853091, -37.0252513058417], [174.535898967645, -37.0252554563004], [174.535898189201, -37.0252595612078], [174.535897518882, -37.0252636205493], [174.535896956708, -37.025267635226], [174.535896502677, -37.025271605238], [174.535896156772, -37.025275529684], [174.535895917887, -37.0252794094799], [174.535895788252, -37.0252832436953], [174.535895765636, -37.0252870332605], [174.535895835885, -37.0252908008924], [174.535895938038, -37.0252946456274], [174.535896063304, -37.025298577494], [174.535896212845, -37.0253025982799], [174.535896385481, -37.0253067052964], [174.53589658239, -37.0253109012323], [174.535896803537, -37.0253151842852], [174.535897047816, -37.0253195553709], [174.535897316333, -37.0253240135737], [174.535897609123, -37.0253285606958], [174.535897925027, -37.0253331949496], [174.535898265168, -37.0253379163205], [174.535898629565, -37.0253427257096], [174.535899017094, -37.0253476231315], [174.535899428879, -37.0253526085716], [174.535899864901, -37.0253576811287], [174.535900324054, -37.0253628417187], [174.535900807464, -37.0253680903269], [174.535901313987, -37.0253734260667], [174.535901844784, -37.0253788507258], [174.535902399801, -37.0253843616009], [174.535902977931, -37.0253899596077], [174.535903515329, -37.0253954887379], [174.535903970626, -37.0254008485759], [174.535904343788, -37.0254060373195], [174.535904633707, -37.0254110558844], [174.535904840401, -37.0254159051717], [174.535904966102, -37.0254205842511], [174.535905008541, -37.0254250922507], [174.535904968881, -37.0254294309582], [174.53590484596, -37.0254335985858], [174.535904640939, -37.0254375969213], [174.535904353799, -37.0254414250635], [174.535903983417, -37.0254450830269], [174.535903530917, -37.0254485707971], [174.535902996298, -37.0254518883741], [174.535902378437, -37.0254550357723], [174.535901678457, -37.0254580129772], [174.535900896358, -37.0254608199889], [174.535900031018, -37.0254634568218], [174.535899083558, -37.0254659234615], [174.53589805398, -37.0254682199079], [174.53589694116, -37.0254703461755], [174.535895785848, -37.0254723720421], [174.535894734878, -37.0254745551954], [174.535893799978, -37.02547691982], [174.535892984521, -37.0254794658722], [174.535892286239, -37.02548219248], [174.535891705151, -37.0254851005445], [174.535891241258, -37.0254881900657], [174.535890895665, -37.0254914601281], [174.535890667284, -37.0254949125482], [174.535890557203, -37.0254985455095], [174.535890564316, -37.0255023599275], [174.535890688606, -37.0255063549011], [174.535890931232, -37.0255105322179], [174.535891291034, -37.0255148900904], [174.535891769154, -37.0255194294051], [174.535892364469, -37.0255241501765], [174.53589307696, -37.0255290515035], [174.53589390777, -37.0255341342727], [174.535894855774, -37.0255393984986], [174.535895922096, -37.0255448441666], [174.535897105613, -37.0255504712914], [174.53589840404, -37.0255562780997], [174.535899709993, -37.0255621794523], [174.535900960677, -37.0255681274891], [174.535902153846, -37.0255741222393], [174.535903291748, -37.0255801636739], [174.535904374363, -37.0255862508915], [174.535905399463, -37.0255923848226], [174.535906369294, -37.0255985654379], [174.53590728384, -37.0256047918364], [174.535908140888, -37.0256110658494], [174.535908942633, -37.0256173847445], [174.535909688003, -37.0256237512395], [174.535910378088, -37.0256301635177], [174.535911010656, -37.0256366225093], [174.535911589063, -37.0256431272696], [174.535912109972, -37.0256496796443], [174.535912575595, -37.0256562778022], [174.535912984808, -37.0256629217579], [174.535913337647, -37.0256696133135], [174.5359136352, -37.0256763506523], [174.535913876343, -37.0256831337888], [174.535914061113, -37.0256899645253], [174.535914290203, -37.0256968190244], [174.535914892744, -37.0257036290295], [174.535915893334, -37.0257103879127], [174.535917291973, -37.0257170956738], [174.535919088662, -37.025723752313], [174.535921282293, -37.0257303587459], [174.535923873975, -37.0257369140567], [174.535926863706, -37.0257434182455], [174.535930251504, -37.0257498722133], [174.535934037352, -37.025756275059], [174.53593822125, -37.0257626267826], [174.535942802092, -37.0257689282996], [174.535947780985, -37.0257751786943], [174.535953157927, -37.0257813779667], [174.535958932937, -37.0257875270179], [174.535965105979, -37.0257936240456], [174.53597167709, -37.0257996708519], [174.53597864627, -37.0258056674367], [174.535986012376, -37.0258116129135], [174.535993776532, -37.0258175072676], [174.536001938739, -37.0258233504989], [174.536010488918, -37.0258291445405], [174.536019017418, -37.0258349226379], [174.536027318916, -37.025840704575], [174.536035393392, -37.0258464894507], [174.536043238581, -37.0258522763931], [174.536050856767, -37.0258580671754], [174.536058245683, -37.0258638609255], [174.536065408703, -37.0258696575999], [174.536072342435, -37.0258754563412], [174.53607904804, -37.025881258937], [174.536085526623, -37.0258870644718], [174.536091777043, -37.0258928720591], [174.536097800459, -37.0258986834864], [174.536103594606, -37.0259044978819], [174.536109161713, -37.0259103143154], [174.536114500693, -37.0259161346037], [174.536119611527, -37.0259219578457], [174.536124494215, -37.0259277840414], [174.536129149864, -37.0259336122753], [174.536133577384, -37.025939444364], [174.536137776759, -37.0259452794066], [174.536141747969, -37.025951116502], [174.536145520273, -37.0259569570739], [174.536149173446, -37.0259627991882], [174.536152711967, -37.0259686418856], [174.536156136995, -37.0259744869537], [174.536159448512, -37.0259803334915], [174.536162645394, -37.0259861815134], [174.536165728747, -37.0259920301039], [174.536168697483, -37.0259978810797], [174.536171553833, -37.0260037335107], [174.536174294405, -37.0260095865393], [174.536176922609, -37.0260154419242], [174.536179436178, -37.0260212987933], [174.536181835111, -37.0260271571467], [174.536184120516, -37.0260330160687], [174.536186292427, -37.0260388773615], [174.536188350828, -37.026044740124], [174.536190294575, -37.0260506034697], [174.536192123705, -37.0260564692009], [174.536193840448, -37.0260623363872], [174.536195441414, -37.0260682041713], [174.53619693001, -37.0260740743116], [174.536198297246, -37.0260799469248], [174.53619936624, -37.0260858585523], [174.536200057485, -37.0260918246452], [174.536200369876, -37.0260978461192], [174.536200304537, -37.0261039229598], [174.536199861449, -37.0261100542658], [174.536199038366, -37.0261162400663], [174.536197838676, -37.0261224812189], [174.536196260132, -37.0261287777525], [174.536194302715, -37.0261351287661], [174.536191967549, -37.0261415342451], [174.536189253547, -37.0261479960062], [174.536186161778, -37.0261545113316], [174.536182692278, -37.0261610820234], [174.536178843923, -37.0261677080962], [174.536174617836, -37.0261743895353], [174.536170012858, -37.0261811245531], [174.536165029043, -37.0261879158528], [174.536159667479, -37.0261947616177], [174.536153928165, -37.0262016618476], [174.536147809995, -37.0262086174583], [174.536141314075, -37.0262156275339], [174.536134587524, -37.0262226847614], [174.536128001965, -37.0262297654008], [174.536121575361, -37.0262368683182], [174.536115308856, -37.0262439944001], [174.536109202448, -37.0262511436465], [174.536103255014, -37.0262583160721], [174.536097467661, -37.0262655107611], [174.536091840387, -37.0262727277137], [174.536086370981, -37.0262799687611], [174.536081062779, -37.0262872320575], [174.536075913533, -37.0262945176321], [174.536070923262, -37.0263018263859], [174.536066093089, -37.0263091583044], [174.536061423014, -37.0263165133877], [174.536056911895, -37.0263238907492], [174.536052560856, -37.0263312903743], [174.53604836881, -37.0263387140799], [174.536044336844, -37.0263461600492], [174.536040463835, -37.0263536282968], [174.536036750924, -37.0263611197092], [174.536033196988, -37.026368634301], [174.536029788486, -37.0263761695435], [174.536026225503, -37.0263836815482], [174.536022389669, -37.0263911538206], [174.536018280983, -37.0263985863607], [174.536013899429, -37.0264059782674], [174.536009245005, -37.0264133295406], [174.536004317748, -37.0264206419825], [174.535999117603, -37.0264279128898], [174.5359936435, -37.0264351449802], [174.535987897652, -37.0264423364225], [174.535981878935, -37.0264494872313], [174.535975586259, -37.026456599223], [174.535969020696, -37.02646366968], [174.535962183423, -37.0264707012909], [174.535955072156, -37.0264776922825], [174.535947688019, -37.0264846426402], [174.535940031029, -37.0264915532651], [174.535932101188, -37.0264984241572], [174.535923898476, -37.0265052544153], [174.535915422912, -37.0265120449405], [174.535906674496, -37.0265187957326], [174.535897653209, -37.0265255058905], [174.535888440569, -37.0265321482198], [174.535879218589, -37.0265386617763], [174.535869993994, -37.0265450455717], [174.535860766749, -37.0265512978038], [174.535851535729, -37.026557418487], [174.535842303218, -37.0265634093945], [174.535833068056, -37.0265692687387], [174.535823830262, -37.0265749974206], [174.535814589835, -37.0265805954403], [174.535805346758, -37.0265860618966], [174.535796101067, -37.0265913985918], [174.535786852724, -37.0265966037236], [174.53577760175, -37.0266016781931], [174.535768348125, -37.0266066210992], [174.535759091886, -37.0266114342442], [174.535749832997, -37.0266161158258], [174.535740571457, -37.0266206658441], [174.53573130618, -37.0266250861158], [174.535722039376, -37.0266293748095], [174.53571276994, -37.0266335328409], [174.535703497872, -37.0266375602101], [174.535694214381, -37.0266414669456], [174.535684766331, -37.0266454082591], [174.53567510313, -37.0266494397876], [174.535665224778, -37.0266535615311], [174.535655130133, -37.0266577726029], [174.535644819231, -37.0266620748053], [174.535634292036, -37.026666466336], [174.53562354969, -37.0266709480815], [174.535612591068, -37.0266755200562], [174.535601417296, -37.0266801822456], [174.535590026105, -37.0266849337776], [174.535578419782, -37.0266897764252], [174.535566598288, -37.0266947083862], [174.535554560519, -37.0266997305762], [174.535542306474, -37.026704842995], [174.535529836153, -37.0267100456427], [174.535517150662, -37.0267153376035], [174.535504250038, -37.0267207206796], [174.535491131995, -37.0267261930977], [174.5354777988, -37.0267317557299], [174.535464249328, -37.0267374085905], [174.535450484704, -37.026743151665], [174.53543662821, -37.0267489103485], [174.535422926499, -37.026754539937], [174.53540938512, -37.0267600367533], [174.535396005178, -37.0267653998818], [174.535382784461, -37.0267706311539], [174.535369725182, -37.0267757287384], [174.535356826234, -37.0267806935509], [174.535344087599, -37.0267855246903], [174.535331510438, -37.0267902239444], [174.535319093591, -37.0267947895257], [174.535306837076, -37.0267992223351], [174.535294740875, -37.0268035214718], [174.535282806148, -37.0268076887233], [174.535271030611, -37.0268117223167], [174.53525941653, -37.0268156231239], [174.535247963906, -37.026819391145], [174.535236670472, -37.0268230255081], [174.535225538494, -37.0268265270852], [174.535214566849, -37.0268298958909], [174.535203755536, -37.0268331319252], [174.535193105663, -37.0268362342726], [174.53518261295, -37.0268392138046], [174.535172240601, -37.0268421971862], [174.535161979262, -37.0268452223953], [174.535151826687, -37.0268482894609], [174.535141783999, -37.0268513983685], [174.535131851216, -37.0268545500192], [174.535122028338, -37.0268577444132], [174.535112314223, -37.0268609806637], [174.535102711119, -37.0268642587418], [174.535093216796, -37.0268675795777], [174.53508383236, -37.0268709422558], [174.535074557812, -37.0268743467761], [174.535065392044, -37.0268777940543], [174.535056337305, -37.0268812840612], [174.535047391311, -37.0268848150239], [174.535038556347, -37.0268883887155], [174.535029830163, -37.026892005165], [174.535021213866, -37.0268956634568], [174.535012706333, -37.0268993636056], [174.535004309828, -37.0269031064833], [174.534996022105, -37.0269068921191], [174.534987844251, -37.0269107186962], [174.534979673085, -37.0269146542495], [174.53497132654, -37.0269188129019], [174.534962804633, -37.0269231955544], [174.534954105153, -37.0269278040383], [174.534945229186, -37.0269326365369], [174.534936176734, -37.02693769305], [174.534926946707, -37.0269429753945], [174.534917540195, -37.0269484817535], [174.534907957214, -37.0269542130281], [174.53489819664, -37.0269601692328], [174.534888259598, -37.026966350353], [174.53487814607, -37.0269727554875], [174.534867854967, -37.0269793864531], [174.5348573885, -37.0269862414184], [174.534846743317, -37.0269933213281], [174.53483592277, -37.0270006252375], [174.534824924648, -37.0270081549778], [174.534813750039, -37.0270159087321], [174.534802398959, -37.0270238874016], [174.534790870286, -37.0270320910007], [174.534779165125, -37.0270405186138], [174.534767283512, -37.027049172043], [174.534755235653, -37.027058055663], [174.534743022725, -37.0270671721625], [174.53473064694, -37.0270765197102], [174.534718104944, -37.0270860992508], [174.534705399003, -37.0270959116562], [174.534692529081, -37.0271059551243], [174.534679495213, -37.0271162314571], [174.53466629624, -37.0271267388669], [174.534652933321, -37.0271374791413], [174.534639405296, -37.0271484504927], [174.534625713325, -37.0271596547086], [174.534611856266, -37.0271710909025], [174.534597835223, -37.0271827581585], [174.534583650235, -37.027194658279], [174.534569300157, -37.0272067903772], [174.534554786114, -37.0272191544385], [174.534540108087, -37.0272317495619], [174.534525264989, -37.0272445775639], [174.534510257925, -37.027257637529], [174.534495085771, -37.0272709294715], [174.534479749651, -37.0272844533769], [174.534464462723, -37.0272980757925], [174.534449548052, -37.027311594243], [174.534435010099, -37.0273250068682], [174.534420848863, -37.0273383136683], [174.534407063203, -37.0273515137567], [174.534393653137, -37.0273646080348], [174.534380619807, -37.0273775973892], [174.534367963159, -37.0273904791167], [174.534355682124, -37.0274032559353], [174.534343777808, -37.0274159269294], [174.534332249069, -37.0274284912127], [174.534321095944, -37.0274409505873], [174.53431031952, -37.0274533032368], [174.534299919816, -37.0274655500621], [174.53428989569, -37.027477690177], [174.534280248302, -37.0274897253692], [174.534270976493, -37.027501653851], [174.534262081422, -37.0275134774102], [174.534253561931, -37.0275251942593], [174.53424541916, -37.0275368052849], [174.534237651969, -37.0275483096005], [174.534230252454, -37.0275597055056], [174.534223136776, -37.0275709607346], [174.534216284577, -37.0275820692414], [174.534209696965, -37.0275930301103], [174.534203372814, -37.027603843356], [174.534197313268, -37.0276145098651], [174.534191518309, -37.0276250287364], [174.53418598683, -37.0276354008857], [174.534180719919, -37.0276456244962], [174.534175716507, -37.0276557022859], [174.534170978788, -37.0276656315224], [174.534166503427, -37.0276754140514], [174.534162293776, -37.0276850489285], [174.534158346483, -37.0276945370982], [174.534154664901, -37.0277038776158], [174.534151246783, -37.0277130705106], [174.534148093271, -37.0277221166691], [174.534145203222, -37.0277310152047], [174.534142577761, -37.0277397661028], [174.534140216906, -37.0277483702647], [174.534138119516, -37.0277568268038], [174.534136286713, -37.0277651357055], [174.534134489494, -37.0277734252187], [174.534132425493, -37.0277818651016], [174.534130092444, -37.0277904544822], [174.534127490382, -37.0277991951626], [174.534124621537, -37.0278080862126], [174.534121482556, -37.0278171285769], [174.53411807565, -37.0278263204244], [174.534114399714, -37.0278356626704], [174.534110455888, -37.0278451562017], [174.534106244155, -37.0278548001171], [174.534101762267, -37.0278645944455], [174.534097012472, -37.027874539158], [174.534091994787, -37.0278846351556], [174.53408670807, -37.0278948815517], [174.534081153428, -37.0279052774306], [174.534075329771, -37.027915824609], [174.534069237101, -37.0279265230869], [174.534062876504, -37.0279373710476], [174.534056246893, -37.0279483703077], [174.534049349356, -37.0279595190503], [174.534042182804, -37.0279708190924], [174.534034794187, -37.0279822572077], [174.534027535615, -37.0279937333004], [174.534020479797, -37.0280052293048], [174.534013625574, -37.028016743433], [174.534006974104, -37.028028277473], [174.534000525353, -37.0280398296225], [174.533994279337, -37.0280514007826], [174.533988234953, -37.028062991869], [174.533982393287, -37.028074601065], [174.533976754357, -37.0280862292717], [174.533971318147, -37.028097875588], [174.533966084691, -37.0281095418163], [174.533961052847, -37.0281212270698], [174.533956223723, -37.0281329304331], [174.53395159623, -37.0281446537228], [174.53394717258, -37.0281563951078], [174.533942950544, -37.0281681555182], [174.533938931244, -37.0281799349395], [174.533935114682, -37.0281917333717], [174.533931499734, -37.0282035508294], [174.533928088647, -37.0282153872835], [174.533924879174, -37.0282272427631], [174.533922021012, -37.0282391261489], [174.5339196898, -37.028251050493], [174.533917883254, -37.0282630140221], [174.533916601391, -37.0282750176376], [174.533915846461, -37.0282870613102], [174.533915616216, -37.028299145069], [174.533915911761, -37.0283112679985], [174.533916732009, -37.0283234319153], [174.533918078049, -37.0283356350027], [174.533919949916, -37.0283478790629], [174.533922347575, -37.0283601622936], [174.53392526992, -37.0283724856104], [174.533928718057, -37.0283848480977], [174.533932692023, -37.0283972515577], [174.533937190676, -37.0284096951036], [174.533942215121, -37.0284221778197], [174.533947765378, -37.0284347006072], [174.533953840323, -37.0284472634804], [174.53396044108, -37.0284598664247], [174.533967567648, -37.0284725094401], [174.533975218906, -37.028485192541], [174.533983218741, -37.0284980468973], [174.533990409577, -37.0285119284351], [174.533996586516, -37.0285269903294], [174.534001748414, -37.0285432316935], [174.534005895291, -37.0285606534289], [174.534009028252, -37.0285792546199], [174.534011146189, -37.0285990361823], [174.534012250227, -37.0286199981016], [174.534012339222, -37.0286421394913], [174.534011413174, -37.0286654603514], [174.534009473224, -37.0286899615683], [174.534006519371, -37.0287156431422], [174.534002549365, -37.028742505102], [174.533997565418, -37.0287705456163], [174.533991567582, -37.0287997673883], [174.533984553572, -37.0288301686448], [174.533976525633, -37.0288617493565], [174.533967483802, -37.0288945113254], [174.533957426898, -37.0289284518627], [174.533946354972, -37.0289635736712], [174.533934269112, -37.0289998749341], [174.533921168192, -37.0290373556655], [174.533777385231, -37.0292230772057], [174.533651117099, -37.0294884677263], [174.533629007311, -37.0295180527944], [174.533574031778, -37.0295616018715], [174.5332354621, -37.029787604371], [174.533126999981, -37.0298867934227], [174.533094912906, -37.0298992374823], [174.533061473758, -37.029891344743], [174.533042966062, -37.0298759319811], [174.533031604852, -37.0298455203588], [174.533030162511, -37.0298185111465], [174.533030210071, -37.0298040438807], [174.53303037134, -37.0297900880131], [174.533030646336, -37.0297766444448], [174.53303103506, -37.0297637131759], [174.533031537493, -37.029751293305], [174.533032153653, -37.0297393857335], [174.533032882398, -37.0297279895747], [174.533033724888, -37.0297171066163], [174.533034682211, -37.0297067350416], [174.533035752137, -37.0296968757807], [174.533036935772, -37.029687527918], [174.533038233134, -37.0296786923546], [174.533039644222, -37.0296703690906], [174.533041167914, -37.0296625581403], [174.533042806438, -37.0296552585737], [174.533044557566, -37.0296484713209], [174.533046423526, -37.0296421954518], [174.533048402107, -37.0296364327976], [174.533050494397, -37.0296311815416], [174.533052700413, -37.0296264425848], [174.533055016604, -37.0296222069598], [174.533057290935, -37.0296181260063], [174.533059440855, -37.0296140079024], [174.533061466363, -37.0296098526482], [174.533063366335, -37.0296056602582], [174.533065141896, -37.0296014307179], [174.533066793064, -37.0295971649283], [174.533068318678, -37.0295928611018], [174.533069719899, -37.029588521026], [174.53307099669, -37.0295841428989], [174.533072149088, -37.0295797285225], [174.533073175951, -37.0295752770104], [174.533074078403, -37.0295707883479], [174.533074856443, -37.0295662625352], [174.533075510072, -37.0295616995721], [174.533076038184, -37.0295571003743], [174.533076441866, -37.0295524631251], [174.533076721156, -37.0295477896268], [174.533076876034, -37.0295430789781], [174.533076905377, -37.0295383311937], [174.533076810309, -37.0295335462589], [174.533076601815, -37.029528711413], [174.533076429653, -37.02952367059], [174.53307634003, -37.0295183736186], [174.533076331823, -37.0295128205134], [174.533076407299, -37.0295070121463], [174.53307656419, -37.0295009476453], [174.533076802497, -37.0294946270105], [174.533077124486, -37.0294880511139], [174.533077527891, -37.0294812190834], [174.53307801273, -37.0294741318201], [174.533078581232, -37.0294667883939], [174.533079231168, -37.0294591897349], [174.533079963644, -37.0294513349276], [174.533080777536, -37.0294432239863], [174.533081673985, -37.0294348577977], [174.533082652974, -37.0294262354608], [174.533083714502, -37.0294173569754], [174.533084857464, -37.0294082232572], [174.533086082984, -37.0293988342917], [174.533087391025, -37.0293891882767], [174.533088780499, -37.0293792870289], [174.533090229562, -37.0293692182615], [174.533091598078, -37.0293595047651], [174.533092861971, -37.029350235183], [174.533094021224, -37.0293414086142], [174.533095078103, -37.0293330259307], [174.533096029235, -37.029325087176], [174.533096877994, -37.0293175923067], [174.533097620988, -37.0293105404652], [174.53309826159, -37.0293039316078], [174.533098797589, -37.0292977675659], [174.533099228947, -37.0292920465373], [174.533099556807, -37.0292867694085], [174.533099781151, -37.0292819352785], [174.533099900874, -37.0292775450628], [174.533099915975, -37.0292735987616], [174.533099827559, -37.029270095459], [174.533099635646, -37.0292670360563], [174.533099339093, -37.0292644196669], [174.53309893906, -37.0292622480784], [174.533098434387, -37.0292605195032], [174.533097826199, -37.0292592339267], [174.533097127167, -37.0292582947409], [174.533096376959, -37.0292573823555], [174.533095581831, -37.0292564723532], [174.533094739553, -37.0292555656643], [174.533093851248, -37.0292546622743], [174.533092915756, -37.0292537603953], [174.533091934238, -37.0292528618152], [174.533090905551, -37.0292519656473], [174.533089831961, -37.0292510727637], [174.533088710079, -37.0292501823069], [174.533087543277, -37.0292492942332], [174.533086329305, -37.0292484085718], [174.533085069307, -37.0292475262092], [174.533083762159, -37.0292466471599], [174.533082408948, -37.0292457696072], [174.53308100971, -37.0292448953533], [174.533079563304, -37.0292440235116], [174.533078070871, -37.0292431549688], [174.53307653127, -37.0292422888381], [174.533074945623, -37.0292414251051], [174.533073313951, -37.029240564671], [174.533071594848, -37.0292397170841], [174.533069711125, -37.0292389013691], [174.533067663908, -37.0292381175112], [174.533065452089, -37.0292373664263], [174.533063074546, -37.0292366481287], [174.533060532383, -37.0292359617029], [174.533057825602, -37.0292353071488], [174.533054954237, -37.0292346862686], [174.533051918235, -37.029234096359], [174.533048716527, -37.0292335401378], [174.533045350199, -37.0292330157884], [174.533041820376, -37.029232523296], [174.533038124828, -37.029232063591], [174.533034263556, -37.0292316366732], [174.533030238788, -37.0292312416125], [174.533026048277, -37.029230878438], [174.533021693165, -37.0292305480361], [174.533017173452, -37.0292302504069], [174.53301248912, -37.0292299846492], [174.533007640186, -37.0292297516642], [174.533002626652, -37.0292295514518], [174.532997590367, -37.0292293938966], [174.532992676589, -37.0292292906419], [174.532987884212, -37.0292292426031], [174.532983213236, -37.0292292497805], [174.532978663625, -37.0292293103718], [174.532974235415, -37.0292294261791], [174.53296992973, -37.0292295971881], [174.532965745428, -37.0292298225121], [174.532961681385, -37.0292301021657], [174.532957740972, -37.0292304361053], [174.532953920837, -37.0292308252756], [174.532950222085, -37.029231268761], [174.53294664584, -37.0292317665469], [174.532943190996, -37.0292323195491], [174.532939857535, -37.0292329268664], [174.532936645475, -37.0292335893999], [174.532933555903, -37.0292343053329], [174.532930586627, -37.0292350773978], [174.53292773984, -37.0292359028623], [174.532925014453, -37.029236783543], [174.532922409308, -37.0292377176523], [174.532919877398, -37.0292386598287], [174.532917394597, -37.0292395842449], [174.532914958675, -37.0292404918311], [174.532912570738, -37.0292413816715], [174.532910230821, -37.0292422555685], [174.532907938871, -37.0292431108187], [174.532905694941, -37.0292439501254], [174.532903497872, -37.029244771701], [174.53290134993, -37.0292455764175], [174.532899248849, -37.0292463634028], [174.53289719577, -37.0292471335436], [174.532895190675, -37.0292478859387], [174.532893233602, -37.0292486223903], [174.532891324495, -37.0292493401952], [174.532889463409, -37.0292500420566], [174.532887650307, -37.0292507261723], [174.532885884084, -37.0292513934581], [174.532884165846, -37.0292520429981], [174.532882496735, -37.0292526756792], [174.532880874484, -37.029253290629], [174.532879293529, -37.0292538906237], [174.532877664244, -37.0292544912429], [174.532875958642, -37.0292550982561], [174.532874178987, -37.0292557125357], [174.532872322996, -37.0292563323082], [174.532870390704, -37.029256959376], [174.532868383219, -37.0292575928235], [174.532866300539, -37.0292582326506], [174.53286414154, -37.0292588788718], [174.532861907348, -37.0292595314727], [174.532859597979, -37.0292601913542], [174.532857212273, -37.0292608567288], [174.532854751392, -37.0292615293841], [174.532852214174, -37.0292622075324], [174.53284960178, -37.0292628929614], [174.532846914191, -37.02926358477], [174.532844150284, -37.0292642829727], [174.532841311183, -37.029264987555], [174.532838396906, -37.029265699418], [174.532835406292, -37.029266416774], [174.532832340501, -37.0292671414106], [174.532829190743, -37.0292678833563], [174.532825913399, -37.0292687098746], [174.532822499696, -37.0292696318948], [174.532818950757, -37.0292706494025], [174.53281526546, -37.0292717624123], [174.532811444927, -37.0292729709095], [174.532807488052, -37.0292742758097], [174.532803395943, -37.0292756761975], [174.532799167473, -37.0292771720871], [174.532794803751, -37.0292787625631], [174.532790303705, -37.0292804503432], [174.532785668406, -37.0292822327096], [174.532780896747, -37.0292841105779], [174.53277598987, -37.0292860848346], [174.532770946616, -37.0292881536921], [174.532765768145, -37.029290318938], [174.532760453313, -37.0292925796857], [174.532755002123, -37.0292949359353], [174.53274941682, -37.0292973876576], [174.532743694052, -37.0292999357972], [174.53273783603, -37.029302578523], [174.532731923242, -37.0293052931627], [174.532726217148, -37.0293079997235], [174.532720737868, -37.0293106925376], [174.532715485386, -37.0293133707038], [174.532710459719, -37.0293160351233], [174.532705660868, -37.029318685796], [174.532701089956, -37.0293213227076], [174.532696745842, -37.0293239449714], [174.532692628561, -37.0293265543896], [174.532688738059, -37.029329148259], [174.532685074391, -37.029331729283], [174.532681637539, -37.0293342965604], [174.532678427484, -37.0293368491901], [174.532675445368, -37.0293393880588], [174.53267269005, -37.0293419122798], [174.532670161566, -37.0293444236555], [174.53266785988, -37.0293469203835], [174.532665785009, -37.0293494033651], [174.532663936954, -37.0293518726003], [174.53266231682, -37.0293543271733], [174.532660923503, -37.0293567679999], [174.532659607138, -37.0293591780879], [174.53265809726, -37.0293615248773], [174.532656386001, -37.0293638084698], [174.532654473324, -37.0293660270632], [174.532652360409, -37.0293681833464], [174.532650046094, -37.0293702755315], [174.532647530379, -37.0293723036186], [174.532644814408, -37.0293742684943], [174.532641897055, -37.029376170173], [174.532638778303, -37.0293780077537], [174.532635459276, -37.0293797812217], [174.532631938867, -37.0293814914928], [174.532628217059, -37.0293831376657], [174.532624294994, -37.0293847206272], [174.532620171547, -37.0293862403915], [174.532615847826, -37.0293876960432], [174.532611322704, -37.0293890875967], [174.532606596202, -37.0293904159531], [174.532601669424, -37.0293916801967], [174.532596540141, -37.0293928812577], [174.532591211706, -37.0293940181913], [174.532585771731, -37.0293951430454], [174.532580312304, -37.0293963069085], [174.532574832301, -37.0293975097953], [174.532569333969, -37.0293987516765], [174.532563813919, -37.0294000316947], [174.532558275559, -37.0294013516085], [174.532552716605, -37.0294027096448], [174.532547137075, -37.0294041067047], [174.532541538092, -37.0294055427735], [174.532535919657, -37.0294070178514], [174.53253028177, -37.0294085319384], [174.532524623307, -37.0294100850489], [174.532518945373, -37.0294116762672], [174.532513246881, -37.0294133074103], [174.532507528919, -37.0294149766612], [174.532501791505, -37.0294166849212], [174.532496033514, -37.0294184322047], [174.532490256071, -37.0294202184972], [174.532484458052, -37.0294220438132], [174.53247864058, -37.0294239081382], [174.532472805868, -37.029425809641], [174.532467056793, -37.0294276649699], [174.532461450947, -37.0294294310174], [174.532455988295, -37.0294311059814], [174.532450667749, -37.0294326916788], [174.532445490398, -37.0294341862926], [174.532440456276, -37.0294355916253], [174.532435564224, -37.029436905889], [174.532430815402, -37.0294381308716], [174.53242620865, -37.0294392647853], [174.532421745129, -37.0294403094179], [174.532417424801, -37.0294412629671], [174.53241324658, -37.0294421272497], [174.532409211552, -37.029442900449], [174.532405319755, -37.0294435843672], [174.532401570028, -37.0294441772166], [174.532397963513, -37.0294446798838], [174.532394500229, -37.02944509327], [174.532391179014, -37.0294454155875], [174.53238800103, -37.029445648624], [174.532384966241, -37.0294457905772], [174.532382059091, -37.0294458506615], [174.532379099587, -37.0294459348572], [174.532376031043, -37.0294460754434], [174.532372853477, -37.0294462733215], [174.53236956687, -37.0294465275901], [174.532366171223, -37.0294468382494], [174.532362666535, -37.0294472052993], [174.532359052825, -37.029447629641], [174.53235532895, -37.0294481103877], [174.532351497159, -37.0294486475105], [174.532347556327, -37.0294492410239], [174.532343506473, -37.029449891829], [174.532339347578, -37.0294505990247], [174.532335078519, -37.0294513626254], [174.532330701543, -37.0294521826021], [174.532326215545, -37.0294530598705], [174.532321620506, -37.0294539935293], [174.532316915302, -37.0294549835932], [174.532312102182, -37.0294560300331], [174.532307180039, -37.0294571337645], [174.532302148856, -37.0294582938864], [174.532297021865, -37.029459497609], [174.532291887389, -37.0294606644726], [174.53228675866, -37.0294617816877], [174.53228163566, -37.0294628483529], [174.532276518426, -37.0294638662707], [174.532271408064, -37.0294648345252], [174.532266302308, -37.0294657522445], [174.532261203423, -37.0294666203006], [174.532256109161, -37.0294674387226], [174.532251021771, -37.0294682074814], [174.532245940129, -37.0294689265916], [174.532240864235, -37.0294695960531], [174.532235794088, -37.0294702158659], [174.532230730795, -37.0294707851145], [174.532225672143, -37.0294713056301], [174.532220620346, -37.0294717755813], [174.532215573171, -37.0294721958985], [174.532210532869, -37.0294725665524], [174.532205498314, -37.0294728875578], [174.53220046949, -37.0294731580133], [174.53219544643, -37.0294733797213], [174.532190399063, -37.0294735665905], [174.53218522944, -37.0294737676572], [174.532179928644, -37.0294739866421], [174.532174497816, -37.0294742244318], [174.532168935814, -37.0294744801395], [174.53216324378, -37.029474754652], [174.532157421696, -37.0294750470681], [174.532151468439, -37.0294753574022], [174.532145385149, -37.029475686541], [174.532139170686, -37.0294760335978], [174.532132826173, -37.0294763985581], [174.532126351628, -37.029476782323], [174.532119745909, -37.0294771840058], [174.532113010158, -37.0294776044932], [174.532106143234, -37.0294780428985], [174.532099146259, -37.0294784992073], [174.532092019253, -37.0294789743204], [174.532084761072, -37.0294794673515], [174.532077372842, -37.0294799782858], [174.53206985458, -37.0294805080246], [174.532062205161, -37.0294810565823], [174.532054484936, -37.0294816060539], [174.532046802398, -37.0294821288991], [174.532039162009, -37.0294826232578], [174.53203156152, -37.0294830891588], [174.532024000949, -37.0294835275035], [174.532016482526, -37.0294839373615], [174.532009004021, -37.0294843196631], [174.532001566522, -37.0294846725915], [174.531994170084, -37.0294849988501], [174.531986814652, -37.0294852957356], [174.531979499138, -37.0294855650646], [174.531972224666, -37.0294858068227], [174.5319649912, -37.0294860192078], [174.531957798776, -37.0294862040218], [174.531950646271, -37.0294863612796], [174.53194353479, -37.0294864900653], [174.531936464334, -37.029486590379], [174.531929434919, -37.0294866631219], [174.531922445387, -37.0294867065062], [174.531915496915, -37.0294867232207], [174.531908589449, -37.0294867105622], [174.531901787887, -37.029486653271], [174.531895157056, -37.0294865324831], [174.531888696973, -37.0294863490997], [174.531882407639, -37.0294861031207], [174.531876289035, -37.0294857936452], [174.531870342303, -37.0294854215596], [174.531864566302, -37.0294849859775], [174.531858959925, -37.0294844878145], [174.531853525421, -37.0294839270415], [174.53184826277, -37.0294833027576], [174.531843169745, -37.0294826158928], [174.531838247449, -37.0294818655316], [174.531833497045, -37.0294810534617], [174.531828916228, -37.0294801770087], [174.531824507303, -37.0294792388471], [174.531820269107, -37.0294782371892], [174.531816201642, -37.0294771720349], [174.53181230605, -37.0294760442708], [174.531808580082, -37.0294748539261], [174.531805025968, -37.0294736000706], [174.531801639232, -37.0294722836635], [174.531798311974, -37.0294709060978], [174.531794983486, -37.0294694672562], [174.531791652662, -37.0294679680543], [174.531788321749, -37.0294664084631], [174.531784989605, -37.0294647875959], [174.531781656249, -37.0294631063539], [174.531778320538, -37.0294613638504], [174.531774984738, -37.0294595609576], [174.531771647708, -37.0294576967888], [174.531768309484, -37.0294557731464], [174.531764968887, -37.0294537873413], [174.531761628219, -37.029451742048], [174.531758286321, -37.0294496354788], [174.53175494321, -37.0294474685348], [174.531751597745, -37.0294452403292], [174.531748252191, -37.0294429517344], [174.531744905407, -37.0294406018636], [174.53174155741, -37.029438191618], [174.531738207077, -37.029435721012], [174.531734856637, -37.0294331891156], [174.531731506253, -37.0294306040387], [174.531728177985, -37.0294280565329], [174.531724879154, -37.0294255753467], [174.531721608619, -37.0294231595936], [174.531718367504, -37.0294208092591], [174.531715154703, -37.0294185252587], [174.531711971339, -37.0294163075781], [174.531708816271, -37.0294141553305], [174.53170569064, -37.0294120694026], [174.531702593306, -37.0294100489078], [174.531699524266, -37.029408093846], [174.531696485789, -37.0294062050895], [174.531693474501, -37.0294043826817], [174.531690493757, -37.0294026256779], [174.531687540203, -37.0294009350229], [174.531684616068, -37.0293993097864], [174.531681721353, -37.0293977499686], [174.531678854969, -37.0293962573861], [174.531676017987, -37.029394829321], [174.531673209319, -37.0293934675902], [174.531670430088, -37.0293921721791], [174.531667682488, -37.0293909403553], [174.531664989959, -37.0293897637042], [174.531662354694, -37.0293886394932], [174.531659776694, -37.0293875677225], [174.5316572571, -37.0293865492787], [174.531654793646, -37.0293855832896], [174.531652389722, -37.0293846706128], [174.531650041939, -37.0293838103908], [174.531647752562, -37.0293830034956], [174.531645520431, -37.0293822481396], [174.531643346724, -37.0293815470115], [174.531641230264, -37.0293808974226], [174.531639171086, -37.0293803011751], [174.53163716919, -37.0293797582689], [174.531635225682, -37.0293792677885], [174.531633339439, -37.0293788297484], [174.531631511601, -37.0293784450352], [174.531629739904, -37.0293781127767], [174.531628027719, -37.0293778329295], [174.531626371693, -37.0293776064382], [174.531624774072, -37.0293774332738], [174.531623205346, -37.0293772993957], [174.531621575928, -37.0293771663012], [174.53161987786, -37.0293770295861], [174.531618111142, -37.0293768892506], [174.531616276916, -37.0293767461812], [174.531614372915, -37.0293765995058], [174.531612401407, -37.0293764500965], [174.531610361249, -37.0293762970668], [174.531608252459, -37.0293761413176], [174.531606075018, -37.029375981948], [174.531603830052, -37.0293758189433], [174.531601516453, -37.0293756532192], [174.531599134205, -37.0293754838746], [174.531596683324, -37.0293753118106], [174.531594163794, -37.0293751361261], [174.531591576755, -37.0293749577076], [174.531588921066, -37.0293747756686], [174.531586196746, -37.0293745909102], [174.531583403775, -37.0293744025313], [174.531580542154, -37.0293742105318], [174.531577613025, -37.0293740157983], [174.531574602938, -37.0293738203073], [174.531571491733, -37.0293736279242], [174.53156827941, -37.0293734386492], [174.531564964865, -37.0293732533978], [174.531561548078, -37.029373071269], [174.531558030192, -37.0293728931492], [174.531554410065, -37.029372718152], [174.531550687715, -37.0293725471783], [174.531546864248, -37.0293723793126], [174.531542938539, -37.0293722145693], [174.531538910608, -37.0293720538497], [174.531534781559, -37.0293718962379], [174.531530550287, -37.0293717426498], [174.531526217897, -37.0293715921695], [174.531521782161, -37.0293714457272], [174.531517246431, -37.0293713023784], [174.531512607336, -37.0293711621664], [174.531507867142, -37.0293710259634], [174.531503025831, -37.0293708928683], [174.531498081172, -37.0293707638111], [174.531493035397, -37.0293706378618], [174.531488013658, -37.0293705332344], [174.531483140022, -37.0293704699596], [174.531478415577, -37.0293704462208], [174.531473840341, -37.029370462919], [174.531469414332, -37.0293705209555], [174.53146513639, -37.0293706185426], [174.531461007657, -37.0293707565667], [174.531457028115, -37.0293709341269], [174.531453196676, -37.0293711530399], [174.531449515552, -37.0293714114745], [174.531445982531, -37.0293717112619], [174.531442597577, -37.0293720505999], [174.531439362955, -37.0293724303606], [174.531436276419, -37.029372850573], [174.531433339091, -37.0293733112227], [174.531430550973, -37.0293738123097], [174.531427910921, -37.0293743529473], [174.531425420096, -37.0293749349234], [174.531423078462, -37.0293755564356], [174.531420886037, -37.0293762183851], [174.531418841734, -37.0293769225887], [174.531416906031, -37.0293777164266], [174.531415058116, -37.029378627208], [174.531413297991, -37.0293796549329], [174.531411626779, -37.0293807995868], [174.531410042232, -37.0293820611988], [174.531408546598, -37.0293834397397], [174.531407138753, -37.0293849352241], [174.531405818696, -37.0293865476521], [174.531404586429, -37.0293882770236], [174.531403441951, -37.0293901233386], [174.531402386385, -37.0293920865826], [174.531401417466, -37.0293941658836], [174.531400537479, -37.0293963630147], [174.531399744156, -37.0293986771038], [174.531399039747, -37.029401108122], [174.531398423126, -37.0294036560836], [174.531397894295, -37.0294063209889], [174.531397454376, -37.0294091028231], [174.531397101104, -37.0294120007143], [174.531396836764, -37.0294150164356], [174.531396653324, -37.0294181419786], [174.531396474651, -37.0294212809803], [174.531396275458, -37.0294244058252], [174.531396056832, -37.0294275146968], [174.531395817686, -37.0294306094116], [174.531395559126, -37.0294336890541], [174.531395280028, -37.0294367536388], [174.531394981496, -37.02943980225], [174.531394663569, -37.02944283669], [174.531394323979, -37.0294458560867], [174.531393966099, -37.0294488603965], [174.53139358768, -37.0294518496486], [174.531393188723, -37.0294548238428], [174.531392770352, -37.0294577829646], [174.53139233146, -37.0294607279298], [174.531391873136, -37.0294636569215], [174.531391395397, -37.0294665708409], [174.531390896014, -37.0294694706181], [174.531390378323, -37.0294723544073], [174.531389840111, -37.0294752240398], [174.531389281343, -37.0294780777134], [174.531388705155, -37.02948090367], [174.531388120106, -37.0294836242832], [174.53138752926, -37.0294862241903], [174.531386932672, -37.0294887060948], [174.531386328058, -37.0294910682235], [174.531385718789, -37.0294933105328], [174.531385102636, -37.0294954339529], [174.531384479599, -37.0294974384837], [174.531383850783, -37.0294993232097], [174.531383215083, -37.0295010890464], [174.531382573604, -37.0295027350783], [174.531381926365, -37.0295042622065], [174.531381271117, -37.0295056704599], [174.531380611216, -37.0295069588939], [174.531379944429, -37.0295081284387], [174.531379270741, -37.0295091781932], [174.531378591292, -37.0295101090439], [174.531377904959, -37.0295109210053], [174.531377212847, -37.029511613162], [174.531376513833, -37.0295121855282], [174.531375809058, -37.0295126389907], [174.531375079905, -37.0295129981263], [174.53137426499, -37.0295133412432], [174.531373359924, -37.0295136738062], [174.531372365852, -37.029513996702], [174.531371281647, -37.029514309945], [174.531370107293, -37.0295146126341], [174.53136884395, -37.029514906557], [174.531367490457, -37.0295151899261], [174.531366047938, -37.0295154627267], [174.531364515306, -37.0295157267757], [174.531362892524, -37.0295159802707], [174.531361180734, -37.0295162240985], [174.531359378813, -37.0295164582735], [174.531357486761, -37.0295166827957], [174.531355505683, -37.0295168967494], [174.531353434473, -37.0295171010503], [174.531351273132, -37.0295172956985], [174.531349022765, -37.0295174797782], [174.531346682284, -37.0295176551062], [174.531344252778, -37.0295178198657], [174.53134173314, -37.0295179749724], [174.531339154787, -37.0295181173167], [174.531336574984, -37.0295182434553], [174.531333994855, -37.0295183533739], [174.531331413258, -37.0295184461857], [174.53132883246, -37.0295185227628], [174.531326251336, -37.0295185831198], [174.531323669868, -37.0295186263556], [174.531321088074, -37.0295186533712], [174.531318505937, -37.0295186632655], [174.53131592235, -37.0295186569543], [174.531313339561, -37.0295186344084], [174.531310756429, -37.0295185947412], [174.53130817297, -37.0295185388539], [174.531305589186, -37.0295184667464], [174.531303005059, -37.0295183775177], [174.531300419481, -37.0295182720834], [174.531297834702, -37.0295181504144], [174.531295249579, -37.0295180116242], [174.531292664112, -37.0295178557127], [174.531290078338, -37.0295176844822], [174.53128749222, -37.0295174961304], [174.531284925772, -37.0295172795829], [174.531282400131, -37.0295170237506], [174.531279915315, -37.0295167295346], [174.531277470183, -37.0295163960483], [174.531275065841, -37.0295160223761], [174.531272702324, -37.0295156103203], [174.531270379614, -37.0295151589797], [174.531268097711, -37.0295146683543], [174.531265855511, -37.0295141393598], [174.531263654099, -37.0295135701793], [174.531261493513, -37.0295129626153], [174.531259372592, -37.0295123148798], [174.531257292497, -37.0295116287607], [174.531255253209, -37.0295109033569], [174.531253254729, -37.0295101386683], [174.531251297056, -37.0295093346949], [174.531249379067, -37.0295084914513], [174.531247501903, -37.029507609824], [174.531245665528, -37.0295066880109], [174.531243868855, -37.0295057278287], [174.531242114095, -37.029504727446], [174.531240401758, -37.0295036562106], [174.531238735994, -37.0295024969432], [174.531237114574, -37.0295012505738], [174.531235537481, -37.0294999162014], [174.531234006979, -37.0294984946981], [174.531232521928, -37.0294969851773], [174.531231081202, -37.0294953876535], [174.531229685945, -37.0294937030133], [174.531228336156, -37.0294919312567], [174.531227031799, -37.0294900705815], [174.531225771786, -37.0294881228043], [174.531224558365, -37.0294860878963], [174.531223389271, -37.0294839649853], [174.531222265626, -37.0294817540567], [174.531221186326, -37.0294794560263], [174.531220153599, -37.0294770699639], [174.531219165199, -37.0294745958985], [174.53121822339, -37.0294720347021], [174.531217325926, -37.0294693864039], [174.531216473894, -37.0294666491871], [174.531215661892, -37.0294638339376], [174.531214824636, -37.0294610487585], [174.531213943689, -37.0294583272378], [174.531213017964, -37.0294556711922], [174.531212048549, -37.0294530788049], [174.531211034319, -37.0294505500905], [174.531209974187, -37.0294480868656], [174.531208871488, -37.0294456872846], [174.531207722851, -37.0294433513909], [174.53120653056, -37.0294410809578], [174.531205293454, -37.0294388741976], [174.531204011533, -37.0294367311102], [174.531202685958, -37.0294346534833], [174.531201314445, -37.0294326395438], [174.531199900365, -37.0294306892481], [174.531198440383, -37.029428804442], [174.531196935586, -37.0294269833087], [174.531195387099, -37.0294252258337], [174.531193793833, -37.0294235338338], [174.531192156877, -37.0294219054922], [174.531190474001, -37.0294203417391], [174.531188750806, -37.0294188416008], [174.531187011003, -37.0294174101793], [174.531185256804, -37.0294160456435], [174.531183489351, -37.0294147488799], [174.531181708644, -37.0294135198885], [174.531179913559, -37.0294123586839], [174.53117810522, -37.0294112652515], [174.531176282502, -37.0294102396058], [174.531174447655, -37.0294092817178], [174.53117259843, -37.0294083916166], [174.531170734809, -37.029407568401], [174.531168859075, -37.0294068138442], [174.531166968964, -37.0294061270742], [174.531165064456, -37.0294055071898], [174.531163147818, -37.0294049550631], [174.531161216821, -37.0294044716243], [174.531159271427, -37.029404055071], [174.531157313903, -37.0294037062755], [174.531155342001, -37.0294034252667], [174.531153356845, -37.0294032120301], [174.531151357311, -37.0294030665803], [174.531149339973, -37.0294029862573], [174.531147291162, -37.0294029622242], [174.531145208614, -37.0294029936088], [174.531143092327, -37.0294030804111], [174.531140943444, -37.0294032235176], [174.531138760823, -37.0294034220419], [174.531136544464, -37.0294036759839], [174.53113429549, -37.029403985329], [174.531132012797, -37.029404350993], [174.531129697489, -37.0294047720601], [174.531127348443, -37.029405248545], [174.531124965659, -37.0294057804475], [174.531122550278, -37.0294063686543], [174.53112010116, -37.0294070122788], [174.531117618303, -37.0294077113209], [174.53111510285, -37.0294084666674], [174.531112553641, -37.0294092765304], [174.531109971836, -37.0294101426977], [174.53110735631, -37.0294110651838], [174.531104707028, -37.0294120421864], [174.531102024026, -37.0294130755078], [174.531099328477, -37.0294141558613], [174.531096651599, -37.029415270225], [174.531093996727, -37.0294164167532], [174.531091363878, -37.029417596347], [174.53108875193, -37.029418809021], [174.531086160882, -37.0294200547751], [174.531083591839, -37.0294213326937], [174.531081043697, -37.0294226436925], [174.531078516454, -37.0294239877714], [174.531076011236, -37.029425364916], [174.531073526899, -37.0294267742395], [174.531071063462, -37.0294282166432], [174.53106862205, -37.0294296921126], [174.531066201537, -37.0294312006621], [174.53106380303, -37.0294327413761], [174.531061425423, -37.0294343151703], [174.531059068716, -37.0294359220446], [174.531056734033, -37.0294375619846], [174.531054420232, -37.0294392341037], [174.531052128455, -37.0294409392883], [174.531049857578, -37.0294426775531], [174.531047594729, -37.0294444797101], [174.531045327, -37.029446374769], [174.531043053302, -37.0294483645466], [174.531040775866, -37.0294504481126], [174.531038493569, -37.0294526254817], [174.531036205284, -37.0294548966683], [174.531033912138, -37.029457261658], [174.531031614129, -37.0294597204507], [174.531029311277, -37.0294622739475], [174.531027003543, -37.0294649203462], [174.531024690966, -37.0294676614491], [174.531022373527, -37.029470496355], [174.531020050101, -37.0294734250785], [174.531017722937, -37.0294764475904], [174.531015389786, -37.0294795639199], [174.531013051791, -37.0294827749536], [174.531010708916, -37.0294860788891], [174.531008361197, -37.0294894775288], [174.531006008615, -37.0294929699715], [174.531003650047, -37.0294965562318], [174.531001288811, -37.0295002335627], [174.53099896896, -37.0295039004446], [174.530996717473, -37.0295075006458], [174.530994532064, -37.029511032393], [174.530992415036, -37.0295144983606], [174.530990366352, -37.0295178967463], [174.530988383766, -37.0295212275791], [174.530986469543, -37.0295244917312], [174.53098462254, -37.0295276883159], [174.530982843901, -37.0295308182199], [174.530981131358, -37.0295338805711], [174.530979487178, -37.0295368762415], [174.53097791022, -37.0295398043446], [174.530976401624, -37.029542665767], [174.530974959125, -37.0295454596365], [174.530973584971, -37.0295481859242], [174.530972278074, -37.0295508464467], [174.530971039504, -37.0295534384864], [174.530969868192, -37.0295559647609], [174.530968762958, -37.0295584225815], [174.530967727211, -37.0295608137069], [174.53096675205, -37.0295631427587], [174.530965765578, -37.029565468351], [174.530964744553, -37.0295678088108], [174.530963690099, -37.0295701641236], [174.530962601112, -37.029572535205], [174.530961477553, -37.0295749202527], [174.530960320584, -37.0295773210545], [174.530959129063, -37.0295797367238], [174.530957902989, -37.0295821672605], [174.530956642362, -37.0295846126647], [174.530955348326, -37.0295870738229], [174.530954019718, -37.0295895489475], [174.5309526577, -37.0295920398262], [174.530951260006, -37.0295945455868], [174.530949828883, -37.0295970662004], [174.530948364331, -37.029599601667], [174.530946864121, -37.0296021529166], [174.530945330483, -37.0296047190191], [174.530943762274, -37.029607299088], [174.530942160654, -37.029609894911], [174.5309405245, -37.0296125065025], [174.530938856876, -37.0296151185002], [174.53093717749, -37.0296176486267], [174.530935489461, -37.0296200842232], [174.53093379277, -37.0296224243883], [174.530932087419, -37.0296246691222], [174.530930373406, -37.0296268184248], [174.530928651856, -37.0296288722816], [174.53092692052, -37.0296308307217], [174.530925180542, -37.0296326946316], [174.530923431902, -37.0296344631102], [174.530921674583, -37.0296361352564], [174.530919909745, -37.0296377128579], [174.530918135122, -37.0296391950427], [174.530916351856, -37.0296405826973], [174.530914561034, -37.029641874005], [174.530912760428, -37.0296430698959], [174.530910951178, -37.0296441712566], [174.530909134391, -37.0296451771716], [174.530907307819, -37.0296460876698], [174.530905472586, -37.0296469027367], [174.530903629815, -37.0296476223578], [174.530901784383, -37.0296482653986], [174.530899956572, -37.0296488901849], [174.530898149845, -37.029649501179], [174.530896364237, -37.0296501001829], [174.53089459857, -37.0296506845078], [174.530892852899, -37.0296512568572], [174.530891127169, -37.0296518145277], [174.530889422559, -37.029652360208], [174.530887736784, -37.0296528921251], [174.530886073216, -37.0296534102353], [174.530884428502, -37.0296539154833], [174.53088280489, -37.0296544078401], [174.530881201236, -37.0296548864191], [174.530879618685, -37.0296553521069], [174.530878054968, -37.0296558040314], [174.530876513478, -37.0296562430502], [174.530874990822, -37.0296566683056], [174.530873489268, -37.0296570806699], [174.530872007674, -37.0296574792563], [174.530870546057, -37.0296578649661], [174.530869104417, -37.0296582377991], [174.530867677009, -37.0296585915202], [174.530866249058, -37.0296589182078], [174.530864820564, -37.0296592178618], [174.530863390368, -37.0296594886947], [174.530861960753, -37.0296597324796], [174.530860530595, -37.0296599492309], [174.530859099876, -37.0296601380477], [174.530857668597, -37.0296602989298], [174.530856235651, -37.029660432793], [174.530854803268, -37.0296605387071], [174.530853370324, -37.0296606166865], [174.530851936838, -37.0296606676325], [174.530850502791, -37.0296606906438], [174.530849067059, -37.0296606857351], [174.530847631909, -37.0296606537783], [174.530846196198, -37.0296605938869], [174.530844759944, -37.0296605069621], [174.530843323129, -37.0296603921026], [174.53084188463, -37.0296602493231], [174.530840446712, -37.0296600794955], [174.530839008233, -37.0296598817333], [174.530837559023, -37.0296596534637], [174.530836087808, -37.0296593930294], [174.530834595693, -37.029659099515], [174.530833081554, -37.0296587729347], [174.530831546515, -37.0296584132742], [174.530829990593, -37.0296580214346], [174.530828412648, -37.0296575965292], [174.530826813803, -37.0296571385435], [174.530825194058, -37.0296566474776], [174.530823552307, -37.029656124247], [174.530821889655, -37.0296555679362], [174.53082020498, -37.0296549785596], [174.530818500529, -37.0296543560882], [174.530816772948, -37.0296537014668], [174.530815025591, -37.0296530137505], [174.530813256209, -37.0296522929684], [174.530811464804, -37.0296515391207], [174.530809652517, -37.0296507530937], [174.530807819312, -37.0296499330854], [174.530805965225, -37.0296490808979], [174.53080408915, -37.0296481974469], [174.530802215667, -37.029647331088], [174.530800357663, -37.0296465077942], [174.530798512927, -37.0296457293965], [174.530796683689, -37.029644994965], [174.530794868823, -37.0296443045141], [174.530793069438, -37.0296436571283], [174.53079128332, -37.0296430546386], [174.530789512699, -37.0296424961151], [174.530787756452, -37.0296419815722], [174.530786015685, -37.0296415100943], [174.530784288185, -37.0296410835126], [174.530782576182, -37.0296407008971], [174.530780878553, -37.0296403622622], [174.530779196404, -37.0296400666923], [174.530777527522, -37.0296398160186], [174.530775874137, -37.0296396093111], [174.530774235126, -37.0296394465842], [174.530772611613, -37.0296393278234], [174.530771001331, -37.0296392521566], [174.530769406564, -37.0296392213571], [174.530767825065, -37.0296392354539], [174.530766236947, -37.0296393118291], [174.530764636644, -37.0296394532586], [174.530763023086, -37.0296396624604], [174.530761397362, -37.0296399376176], [174.530759759471, -37.0296402787303], [174.530758109431, -37.0296406866996], [174.5307564461, -37.0296411606388], [174.530754771745, -37.0296417014201], [174.530753084099, -37.0296423081714], [174.53075138318, -37.0296429817938], [174.530749671218, -37.0296437213571], [174.530747945984, -37.0296445277914], [174.530746208601, -37.0296454010824], [174.530744459033, -37.0296463394277], [174.53074269621, -37.0296473455452], [174.530740921221, -37.0296484176181], [174.530739134065, -37.0296495556466], [174.53073733476, -37.0296507605315], [174.530735522164, -37.0296520313865], [174.530733698544, -37.0296533690835], [174.530731846006, -37.0296547783602], [174.530729880835, -37.0296562891399], [174.530727786262, -37.0296579061457], [174.530725563428, -37.0296596302642], [174.530723211193, -37.0296614606089], [174.53072073068, -37.0296633971652], [174.530718121906, -37.0296654408341], [174.530715383731, -37.0296675907292], [174.530712517295, -37.0296698477369], [174.530709521458, -37.0296722109707], [174.530706397342, -37.0296746804161], [174.530703144966, -37.0296772569741], [174.530699763187, -37.0296799397582], [174.530696253131, -37.0296827287538], [174.530692614814, -37.029685624862], [174.530688847095, -37.0296886271963], [174.530684951115, -37.0296917366431], [174.530680925733, -37.0296949523159], [174.530676772091, -37.0296982751013], [174.530672489029, -37.0297017032115], [174.530668078848, -37.0297052393209], [174.530663573545, -37.0297088532721], [174.530659086044, -37.02971245798], [174.530654627422, -37.0297160451895], [174.530650194324, -37.0297196158452], [174.530645790122, -37.0297231699036], [174.530641411427, -37.0297267065072], [174.530637061628, -37.0297302265135], [174.530632737353, -37.029733729966], [174.530628441957, -37.0297372159201], [174.530624173209, -37.029740685306], [174.530619931092, -37.0297441372225], [174.530615716746, -37.0297475725563], [174.53061152905, -37.0297509913218], [174.530607369108, -37.0297543926035], [174.530603235814, -37.0297577773169], [174.530599130274, -37.0297611445465], [174.530595051383, -37.0297644952078], [174.530591000265, -37.0297678292864], [174.530586975795, -37.0297711467968], [174.530582979061, -37.0297744459222], [174.530579008994, -37.0297777293805], [174.530575038472, -37.0297810461945], [174.530571014285, -37.0297844898896], [174.530566937593, -37.0297880622535], [174.530562805042, -37.0297917642309], [174.530558618862, -37.0297955948916], [174.530554379053, -37.0297995542357], [174.530550085615, -37.0298036422631], [174.530545737424, -37.0298078589883], [174.530541334499, -37.0298122053125], [174.530536877944, -37.0298166803199], [174.53053236776, -37.0298212840107], [174.530527802841, -37.0298260173003], [174.530523184275, -37.0298308783722], [174.530518512097, -37.0298358690285], [174.530513785185, -37.0298409892836], [174.530509004625, -37.029846237321], [174.53050416933, -37.0298516149572], [174.530499280405, -37.0298571212766], [174.530494336728, -37.0298627562939], [174.53048933942, -37.0298685199944], [174.530484288502, -37.0298744132792], [174.530385512597, -37.0299761347803], [174.530328798664, -37.0300542300784], [174.530195812386, -37.0303511697782], [174.530187925793, -37.0305946024414], [174.530196497719, -37.030945924317], [174.530229275096, -37.0310904727295], [174.530290629014, -37.031206296975], [174.530283401927, -37.0312322138504], [174.530246579104, -37.0312878829409]]}, "properties": {"OBJECTID": 936, "TRACKNAME": "Destruction Gully Track", "CONDITIONSOFUSE": "Waitakere South Regional Park", "STATUS": "Temp Closed", "WEBLINK": "https://www.aucklandcouncil.govt.nz/en/parks-recreation/find-park-beach/park-detail/212.html", "VALIDATIONSTATE": 3, "created_user": "AC_owner", "last_edited_user": "AC_owner", "last_edited_date": 1789875254325, "created_date": 1789875254325, "PARK_SAPSITEID": null, "TRACK_ID": null, "KAURIDIEBACK_TRACK": null, "KAURIDIEBACK_MITIGATED": null, "SegmentID": null, "GlobalID": "cf3b2636-1810-4746-a405-32559b1470e7", "Shape__Length": 1235.5172498229977}}, {"type": "Feature", "id": 3094, "geometry": {"type": "LineString", "coordinates": [[174.535236392589, -37.0230899012311], [174.535461953662, -37.0232648969791], [174.535559700808, -37.0233695819529], [174.535614548806, -37.0234858654343], [174.535625510075, -37.0235826808321], [174.535639905133, -37.0236270419116], [174.535696957811, -37.0236918423716], [174.535956862268, -37.0239410477634], [174.536079181373, -37.0242114102855], [174.536086728351, -37.0242706096472], [174.535938840858, -37.0245808984526], [174.535864607415, -37.0247118520647]]}, "properties": {"OBJECTID": 3094, "TRACKNAME": "Destruction Gully Track", "CONDITIONSOFUSE": "Waitakere South Regional Park", "STATUS": "Temp Closed", "WEBLINK": "https://www.aucklandcouncil.govt.nz/en/parks-recreation/find-park-beach/park-detail/212.html", "VALIDATIONSTATE": 3, "created_user": "AC_owner", "last_edited_user": "AC_owner", "last_edited_date": 1789875254325, "created_date": 1789875254325, "PARK_SAPSITEID": null, "TRACK_ID": null, "KAURIDIEBACK_TRACK": null, "KAURIDIEBACK_MITIGATED": null, "SegmentID": null, "GlobalID": "867b79db-5bd7-4d22-885e-dd318c2e6290", "Shape__Length": 208.28334855092703}}]}