{"type": "FeatureCollection", "features": [{"type": "Feature", "id": 1737, "geometry": {"type": "LineString", "coordinates": [[174.530579984689, -37.0028043221212], [174.530380020679, -37.0024695967289], [174.530178518756, -37.0022598904597], [174.530126525678, -37.0022321592382], [174.529897456795, -37.0021771646663], [174.529723868741, -37.002095693795], [174.529670246996, -37.0020528496428], [174.529449803886, -37.001799553433], [174.529391247525, -37.0017712214428], [174.5292780464, -37.001745441414]]}, "properties": {"OBJECTID": 1737, "TRACKNAME": "Don McLean Track", "CONDITIONSOFUSE": "Waitakere South Regional Park", "STATUS": "Temp Closed", "WEBLINK": "https://www.aucklandcouncil.govt.nz/en/parks-recreation/find-park-beach/park-detail/212.html", "VALIDATIONSTATE": 3, "created_user": "AC_owner", "last_edited_user": "AC_owner", "last_edited_date": 1789875254325, "created_date": 1789875254325, "PARK_SAPSITEID": null, "TRACK_ID": null, "KAURIDIEBACK_TRACK": null, "KAURIDIEBACK_MITIGATED": null, "SegmentID": null, "GlobalID": "340bb49a-f094-4143-bb8c-dceacdcb1550", "Shape__Length": 172.86528327836044}}]}