{"type": "FeatureCollection", "features": [{"type": "Feature", "id": 78, "geometry": {"type": "LineString", "coordinates": [[174.535863075069, -37.0052862355367], [174.535676012414, -37.005145631768], [174.535607396456, -37.0051027428567], [174.535404205358, -37.0050815448788], [174.535218475332, -37.0050755788418], [174.534717110535, -37.004957554964], [174.534607077602, -37.0049195221954], [174.534543628248, -37.0048869467178], [174.534416760215, -37.0047878692607], [174.534226312404, -37.0046839694366], [174.534045572075, -37.004603903557], [174.533880208179, -37.0045471341955], [174.533855096863, -37.0045242065948], [174.533818800652, -37.0044476272392], [174.533759174056, -37.0044162169441], [174.533652839988, -37.004391224006], [174.533402769443, -37.0043727457175], [174.533349305203, -37.0043741783862], [174.533225211267, -37.0043951275434], [174.533053953989, -37.0043860408034], [174.532968433589, -37.0043726726017], [174.532854325855, -37.0043403891772], [174.532784745215, -37.0042859476128], [174.532543594762, -37.004035095337], [174.532442696198, -37.0039856792588], [174.532403867637, -37.0039566388459], [174.532339225552, -37.003886395617], [174.53225457434, -37.003774984544], [174.532071072193, -37.0035870070551], [174.531805775136, -37.003360403984], [174.531741938219, -37.0033276562137], [174.53163769591, -37.0032956814064], [174.531583910427, -37.0032857171071], [174.53140402008, -37.0032758371248], [174.531251355152, -37.0032163448205], [174.530758988913, -37.0029684065599], [174.530632573159, -37.002871190319], [174.530579985777, -37.0028043203045]]}, "properties": {"OBJECTID": 78, "TRACKNAME": "Donald McLean Track", "CONDITIONSOFUSE": "Waitakere South Regional Park", "STATUS": "Open", "WEBLINK": "https://www.aucklandcouncil.govt.nz/en/parks-recreation/find-park-beach/park-detail/212.html", "VALIDATIONSTATE": 3, "created_user": "AC_owner", "last_edited_user": "AC_owner", "last_edited_date": 1789875254325, "created_date": 1789875254325, "PARK_SAPSITEID": null, "TRACK_ID": null, "KAURIDIEBACK_TRACK": null, "KAURIDIEBACK_MITIGATED": null, "SegmentID": null, "GlobalID": "b033c07e-ad92-464e-9882-f45084bdd093", "Shape__Length": 573.7343872448886}}, {"type": "Feature", "id": 1560, "geometry": {"type": "LineString", "coordinates": [[174.537177483608, -37.0141536540596], [174.537054961843, -37.014072650514], [174.536998182465, -37.0140100544177], [174.536963602056, -37.0139561662255], [174.536949239767, -37.0139157689453], [174.536944590902, -37.0138491950038], [174.53696257598, -37.0136963606466], [174.537000691685, -37.0135537996091], [174.537068595857, -37.0134362761796], [174.537102504458, -37.0133937167947], [174.53714855026, -37.0133619497758], [174.537226455078, -37.0133261555794], [174.537491365577, -37.0132387642286], [174.537789452939, -37.0131113216415], [174.537851279855, -37.0130583519583], [174.537974922902, -37.0129153076296], [174.538109838048, -37.0127098219978], [174.538220777752, -37.012452347046], [174.538275524127, -37.0122724289415], [174.538312651956, -37.011954006903], [174.538457714564, -37.0113613122702], [174.53864629307, -37.0109073659728], [174.53878153329, -37.0106430658017], [174.53881474203, -37.0105612791961], [174.538823455689, -37.0104837347312], [174.538821358499, -37.0102125147499], [174.53874565966, -37.0100231274677], [174.538649757224, -37.0099089296273], [174.538326534837, -37.0096797641929], [174.538177722261, -37.0095606517862], [174.538055597697, -37.0094886611227], [174.537917174586, -37.0094275085048], [174.537762995388, -37.0093282020069], [174.537652640196, -37.0091674068821], [174.537376581771, -37.0088212676254], [174.537346103746, -37.0088009737788], [174.537254384296, -37.0087732358771], [174.537182716417, -37.0087339352002], [174.537144266464, -37.0087039829359], [174.537048302981, -37.0085996083573], [174.536959609656, -37.0085245551371], [174.536917287249, -37.0084990290162], [174.536803852341, -37.0084547807425], [174.536764139479, -37.0084285717957], [174.536714921807, -37.0083748477841], [174.536592538224, -37.0081405038634], [174.536508572401, -37.0080174092224], [174.536229862167, -37.0078289551061], [174.536076062951, -37.0077415554842], [174.536038631696, -37.0077011916665], [174.536020659632, -37.0076622786012], [174.536015288147, -37.0076245093853], [174.536054325637, -37.0075084138054], [174.53603215266, -37.007400430451], [174.536000442687, -37.0071441927062], [174.536027404293, -37.0070001997667], [174.536036343085, -37.0068660314032], [174.536002907892, -37.0067392275676], [174.535998539673, -37.0066968006919]]}, "properties": {"OBJECTID": 1560, "TRACKNAME": "Donald McLean Track", "CONDITIONSOFUSE": "Waitakere South Regional Park", "STATUS": "Open", "WEBLINK": "https://www.aucklandcouncil.govt.nz/en/parks-recreation/find-park-beach/park-detail/212.html", "VALIDATIONSTATE": 3, "created_user": "AC_owner", "last_edited_user": "AC_owner", "last_edited_date": 1789875254325, "created_date": 1789875254325, "PARK_SAPSITEID": null, "TRACK_ID": null, "KAURIDIEBACK_TRACK": null, "KAURIDIEBACK_MITIGATED": null, "SegmentID": null, "GlobalID": "ef399b09-ad92-4035-b389-f1c09f05fa2a", "Shape__Length": 998.7817842809326}}, {"type": "Feature", "id": 2013, "geometry": {"type": "LineString", "coordinates": [[174.538110124402, -37.0143212251118], [174.537963059481, -37.0143372222391], [174.537795755056, -37.0143271927057], [174.537405889669, -37.0142458314726], [174.537284634755, -37.0142109347711], [174.537226574868, -37.0141861102556], [174.537177483608, -37.0141536540596]]}, "properties": {"OBJECTID": 2013, "TRACKNAME": "Donald McLean Track", "CONDITIONSOFUSE": "Waitakere South Regional Park", "STATUS": "Open", "WEBLINK": "https://www.aucklandcouncil.govt.nz/en/parks-recreation/find-park-beach/park-detail/212.html", "VALIDATIONSTATE": 3, "created_user": "AC_owner", "last_edited_user": "AC_owner", "last_edited_date": 1789875254325, "created_date": 1789875254325, "PARK_SAPSITEID": null, "TRACK_ID": null, "KAURIDIEBACK_TRACK": null, "KAURIDIEBACK_MITIGATED": null, "SegmentID": null, "GlobalID": "f74fb62f-f031-4108-a8e7-43917342ec11", "Shape__Length": 86.95851958789659}}, {"type": "Feature", "id": 3222, "geometry": {"type": "LineString", "coordinates": [[174.535863075069, -37.0052862355367], [174.535904500114, -37.005317372882], [174.535946983467, -37.0053570350224], [174.535968260505, -37.005406742296], [174.536061080976, -37.0057406626015], [174.536135644395, -37.006100185902], [174.536106755413, -37.0063437824904], [174.536035655508, -37.0065080242301], [174.535993936708, -37.0066520910258], [174.535998539673, -37.0066968006919]]}, "properties": {"OBJECTID": 3222, "TRACKNAME": "Donald McLean Track", "CONDITIONSOFUSE": "Waitakere South Regional Park", "STATUS": "Open", "WEBLINK": "https://www.aucklandcouncil.govt.nz/en/parks-recreation/find-park-beach/park-detail/212.html", "VALIDATIONSTATE": 3, "created_user": "AC_owner", "last_edited_user": "AC_owner", "last_edited_date": 1789875254325, "created_date": 1789875254325, "PARK_SAPSITEID": null, "TRACK_ID": null, "KAURIDIEBACK_TRACK": null, "KAURIDIEBACK_MITIGATED": null, "SegmentID": null, "GlobalID": "721c0dd0-fab5-4180-8e45-68c0eb67465d", "Shape__Length": 162.91808521977208}}]}