{"type": "FeatureCollection", "features": [{"type": "Feature", "id": 1318, "geometry": {"type": "LineString", "coordinates": [[174.56061541125, -36.919223591858], [174.560560213596, -36.9195348000768], [174.560543991235, -36.9195920423646], [174.560522364028, -36.9196270019081], [174.560490415835, -36.9196529392286], [174.560457432772, -36.9196672084958], [174.560306634596, -36.9196936887493], [174.560214853235, -36.919740638606], [174.560139431039, -36.9197381501523], [174.560119008382, -36.9197584106247], [174.560117434576, -36.919857472878], [174.560102000757, -36.9199055018493], [174.560198783707, -36.9200274104883], [174.560246877886, -36.9201095777118], [174.560252976021, -36.9201576212746], [174.560226475443, -36.9202129164016], [174.560229943031, -36.920240398419], [174.560343270523, -36.9203246830867], [174.560387813368, -36.9203680842914], [174.560428308505, -36.9204287997277], [174.560473421494, -36.9205271584107], [174.560511439618, -36.9205770449601], [174.560571816216, -36.9206294860055], [174.560644194231, -36.9206731432857], [174.560732560626, -36.9207025922719], [174.56083714745, -36.9206917715305], [174.560899590419, -36.9207051382861], [174.56096569741, -36.9207462458123], [174.561080767563, -36.9208487503959], [174.561140303336, -36.9208896557613], [174.561193082715, -36.9209135781343], [174.56130035384, -36.9209429945057], [174.56138476832, -36.9209751539675], [174.561626739838, -36.9211078977361], [174.561665803138, -36.9211115573828], [174.561694954759, -36.9211026111226], [174.561760576709, -36.9210406539527], [174.561787358849, -36.9210250687585], [174.561815649784, -36.9210234618518], [174.561845426713, -36.921035815504], [174.561908550184, -36.9211006765362], [174.561960765439, -36.9211943262466], [174.561971306538, -36.9212449342275], [174.561970888087, -36.9213751953893], [174.561990965474, -36.9214970386822], [174.562021478352, -36.9215839702159], [174.562070147432, -36.9216468489816], [174.562105402021, -36.9216690544994], [174.562149683394, -36.9216830470522], [174.562320239299, -36.9216794875188], [174.562458692071, -36.9217058336102], [174.562505506296, -36.9217212619245], [174.562587602581, -36.9217767331599], [174.5627506649, -36.9219202835302], [174.562909594298, -36.9220197303984], [174.563054138653, -36.9221629471602], [174.563111767793, -36.9221933937769], [174.56330170779, -36.9222616144285], [174.563375010853, -36.922305888776], [174.563413968609, -36.9223477759296], [174.563451342697, -36.9224088648702], [174.563530828805, -36.9226052614549], [174.563542984249, -36.9226991223357], [174.563519813344, -36.9228035886056], [174.563521272198, -36.9228387404847], [174.563539652733, -36.9228773561471], [174.563600684025, -36.922934176599], [174.563616164708, -36.922968224476], [174.563606127094, -36.9230033474439], [174.563559856468, -36.9230514132626], [174.563550845429, -36.9231087682855], [174.563558164393, -36.9231345680115], [174.563634496011, -36.9232303330835]]}, "properties": {"OBJECTID": 1318, "TRACKNAME": "Dreamlands Track", "CONDITIONSOFUSE": "Waitakere North Regional Park", "STATUS": "Temp Closed", "WEBLINK": "https://www.aucklandcouncil.govt.nz/en/parks-recreation/find-park-beach/park-detail/3407.html", "VALIDATIONSTATE": 3, "created_user": "AC_owner", "last_edited_user": "AC_owner", "last_edited_date": 1789875254325, "created_date": 1789875254325, "PARK_SAPSITEID": null, "TRACK_ID": null, "KAURIDIEBACK_TRACK": null, "KAURIDIEBACK_MITIGATED": null, "SegmentID": null, "GlobalID": "ddeb736c-5695-41eb-9030-fd3577d8cfae", "Shape__Length": 660.2358361970269}}]}