{"type": "FeatureCollection", "features": [{"type": "Feature", "id": 591, "geometry": {"type": "LineString", "coordinates": [[175.079544264167, -36.9034231551244], [175.07941528021, -36.9032279858913], [175.079400992253, -36.9032192501936], [175.07939217899, -36.9032058941584], [175.079380695134, -36.9031971003481], [175.079369211279, -36.9031883065366], [175.079357727428, -36.9031795127238], [175.07933502672, -36.903170933327], [175.079320727565, -36.9031621978152], [175.079306572878, -36.9031579572129], [175.07928133507, -36.9031584441456], [175.079267580854, -36.9031677158874], [175.079248218449, -36.9031771038407], [175.079231526645, -36.9031819295685], [175.079217638932, -36.9031866971884], [175.079200813882, -36.9031870278042], [175.079186659196, -36.9031827871875], [175.079175175366, -36.9031739933564], [175.079163691538, -36.9031651995241], [175.079149536858, -36.9031609589027], [175.079126836177, -36.9031523794651], [175.079109732712, -36.9031436930219], [175.079095444804, -36.9031349572857], [175.079081290133, -36.9031307166559], [175.079064197895, -36.9031220300094], [175.079050043473, -36.9031177983844], [175.079033084717, -36.9031136158503], [175.079013455101, -36.903113986523], [175.079008247341, -36.9031276150759], [175.07901158533, -36.9031455734436], [175.079011985753, -36.9031590857948], [175.078998365221, -36.9031728706322], [175.07897873559, -36.9031732412997], [175.078950693434, -36.9031737772537], [175.07894268132, -36.9031874548948], [175.078946019541, -36.9032054222732], [175.078943749085, -36.9032234878328], [175.078927324189, -36.9032373217533], [175.078913570159, -36.9032466024644], [175.078897011785, -36.9032559322636], [175.078883257748, -36.9032652129713], [175.078869503463, -36.903274484669], [175.078852945077, -36.9032838144624], [175.078841995127, -36.9032930370684], [175.078825436979, -36.9033023758667], [175.078808867364, -36.9033117058506], [175.078780958615, -36.9033167458838], [175.078769474808, -36.9033079520129], [175.078757857544, -36.9032946540229], [175.078743569401, -36.9032859092355], [175.078729681881, -36.9032906858084], [175.078715794114, -36.9032954533711], [175.078685214722, -36.9033050555936], [175.078674398204, -36.9033187823029], [175.07867479857, -36.9033322946567], [175.078672394836, -36.9033458651036], [175.078658773965, -36.9033596408959], [175.078631399244, -36.9033827063755], [175.078620449253, -36.9033919289622], [175.078609632712, -36.903405655666], [175.07860162027, -36.9034193242776], [175.078568236465, -36.9034289755546], [175.078545936352, -36.9034339173701], [175.078523491327, -36.9034343462508], [175.07850666597, -36.9034346677614], [175.078225162594, -36.903498637748], [175.078194716482, -36.9035127439676], [175.078180828639, -36.9035175114698], [175.078164270114, -36.903526841171], [175.078139299015, -36.9035363361036], [175.078122473632, -36.9035366575604], [175.078088956288, -36.9035418045865], [175.07806091398, -36.9035423403347], [175.078044088595, -36.9035426617805], [175.078029934145, -36.9035384300348], [175.078012697291, -36.9035252393131], [175.078012297039, -36.9035117269538], [175.078017505246, -36.9034981074478], [175.078011496536, -36.9034847022351], [175.077980516481, -36.9034807829128], [175.077966628874, -36.9034855593988], [175.077950203741, -36.9034993931908], [175.07792803673, -36.9035088300034], [175.07791414887, -36.9035135974749], [175.077897456901, -36.9035184230198], [175.077880898583, -36.9035277616912], [175.077869948479, -36.9035369842119], [175.077848048262, -36.9035554292506], [175.077834293795, -36.9035647008334], [175.07781773546, -36.9035740394964], [175.077806785341, -36.9035832620117], [175.07779583522, -36.9035924845261], [175.077776605677, -36.9036063673594], [175.077754427395, -36.9036158043373], [175.077734931281, -36.9036206879319], [175.077721043632, -36.9036254643904], [175.077704218225, -36.9036257857886], [175.077687526217, -36.903630611305], [175.077668163247, -36.9036399900009], [175.077640387688, -36.9036495338925], [175.07762369567, -36.9036543594003], [175.07760166221, -36.9036683092838], [175.077596453918, -36.9036819287739], [175.077599658214, -36.9036953830685], [175.07759725428, -36.9037089534991], [175.077580695639, -36.9037182831221], [175.07755559101, -36.9037232738149], [175.077541703086, -36.9037280412446], [175.077533690663, -36.9037417187991], [175.077528482355, -36.9037553382865], [175.077520469683, -36.9037690068315], [175.07751526137, -36.9037826263185], [175.077510053301, -36.9037962548139], [175.077504844985, -36.9038098743005], [175.077496832303, -36.903823542844], [175.07748307799, -36.9038328233972], [175.077472261181, -36.9038465500048], [175.077464248734, -36.903860227555], [175.077459040406, -36.9038738470398], [175.077456636199, -36.9038874084595], [175.077454232235, -36.9039009788878], [175.077449023903, -36.9039145983722], [175.077429661076, -36.9039239860406], [175.077412968984, -36.9039288115208], [175.077387864029, -36.9039337931719], [175.077376913807, -36.9039430156502], [175.077360355089, -36.9039523452446], [175.077332568159, -36.9039618892646], [175.07731280517, -36.9039577645502], [175.077287700443, -36.9039627551892], [175.07727407921, -36.9039765308325], [175.0772517786, -36.9039814634033], [175.07722667386, -36.9039864540297], [175.077204373243, -36.9039913865919], [175.077190485248, -36.9039961539825], [175.077171122367, -36.9040055416102], [175.07715750135, -36.9040193262495], [175.077146551088, -36.9040285487077], [175.077135600823, -36.904037771165], [175.077124650556, -36.9040469936213], [175.077113700286, -36.9040562160766], [175.077099945883, -36.9040654965878], [175.077074974225, -36.9040749822967], [175.07703049506, -36.9040893516804], [175.07701393651, -36.9040986902371], [175.076997644433, -36.9041170280277], [175.076986694138, -36.904126250472], [175.076975743839, -36.9041354729154], [175.076964793539, -36.9041446953579], [175.076953843235, -36.9041539177994], [175.076940088796, -36.904163198293], [175.07691525044, -36.9041771880923], [175.076901495992, -36.9041864685817], [175.076890545675, -36.9041956910177], [175.07687692433, -36.9042094666184], [175.076865974251, -36.904218698061], [175.076855023925, -36.904227920494], [175.076841535919, -36.9042462002136], [175.076830718937, -36.9042599267672], [175.076833923373, -36.9042733900932], [175.076820302249, -36.9042871746967], [175.076792659693, -36.9043012225222], [175.076781842695, -36.9043149490718], [175.076779438357, -36.904328510481], [175.076768621597, -36.9043422460381], [175.076752196064, -36.9043560796749], [175.076738441319, -36.9043653511381], [175.076722015775, -36.904379184771], [175.076705456881, -36.9043885142788], [175.076497789211, -36.9044477190967], [175.076379415149, -36.9044727356583], [175.07624169393, -36.9044866169103], [175.076137081753, -36.9044922762537], [175.076048096158, -36.904547368537], [175.075919576412, -36.9045496151304], [175.075731461643, -36.904461115742], [175.075569625849, -36.9044639442607], [175.075432411227, -36.9044969411188], [175.075337011684, -36.9044909563092], [175.075292100448, -36.90441525756], [175.075210359543, -36.9043860870924], [175.075138856313, -36.9043835150426], [175.075064771426, -36.904461293104], [175.074966365055, -36.9045203796804], [175.07489383344, -36.9046555066967], [175.074758895907, -36.9047725895208], [175.074704582789, -36.9048767993051], [175.074602132824, -36.9049627245762]]}, "properties": {"OBJECTID": 591, "TRACKNAME": "Duder Coastal Walk", "CONDITIONSOFUSE": "Duder Regional Park", "STATUS": "Open", "WEBLINK": "https://www.aucklandcouncil.govt.nz/en/parks-recreation/find-park-beach/park-detail/211.html", "VALIDATIONSTATE": 3, "created_user": "AC_owner", "last_edited_user": "AC_owner", "last_edited_date": 1789875254325, "created_date": 1789875254325, "PARK_SAPSITEID": null, "TRACK_ID": null, "KAURIDIEBACK_TRACK": null, "KAURIDIEBACK_MITIGATED": null, "SegmentID": null, "GlobalID": "6bb26c41-ccf5-4050-badb-9771b0531a99", "Shape__Length": 586.622991198093}}, {"type": "Feature", "id": 2077, "geometry": {"type": "LineString", "coordinates": [[175.074602132824, -36.9049627245762], [175.074522231935, -36.905023875942], [175.074354904035, -36.9051898693782], [175.074028380727, -36.9052457561814], [175.073669619493, -36.9052645670827], [175.073264691567, -36.9053092658154], [175.072828572804, -36.905266406345], [175.072342029391, -36.9051513664913], [175.072023562993, -36.9050757529642], [175.071624878614, -36.9049591772034], [175.071244059699, -36.9048528786784], [175.070671691308, -36.9047641052209]]}, "properties": {"OBJECTID": 2077, "TRACKNAME": "Duder Coastal Walk", "CONDITIONSOFUSE": "Umupuia Foreshore (Waimanu to Duders)", "STATUS": "Open", "WEBLINK": null, "VALIDATIONSTATE": 3, "created_user": "AC_owner", "last_edited_user": "AC_owner", "last_edited_date": 1789875254325, "created_date": 1789875254325, "PARK_SAPSITEID": null, "TRACK_ID": null, "KAURIDIEBACK_TRACK": null, "KAURIDIEBACK_MITIGATED": null, "SegmentID": null, "GlobalID": "a3e1f316-806b-4435-b426-67ff1d4b1679", "Shape__Length": 371.42287631590165}}]}