{"type": "FeatureCollection", "features": [{"type": "Feature", "id": 1893, "geometry": {"type": "LineString", "coordinates": [[174.54566819607, -36.8900255449476], [174.545672893968, -36.8900292425263], [174.545677469005, -36.8900329687443], [174.545681920818, -36.890036705579], [174.545686260808, -36.8900404618957], [174.545690488792, -36.8900442286833], [174.545694604953, -36.890048014953], [174.545698598072, -36.8900518208507], [174.545702468148, -36.8900556463766], [174.545706226218, -36.8900594823733], [174.545709872466, -36.8900633378522], [174.54571339567, -36.8900672129592], [174.545716807051, -36.8900711075483], [174.545720106427, -36.8900750126083], [174.54572328276, -36.8900789372966], [174.545726336051, -36.8900828816129], [174.545729277518, -36.8900868454115], [174.54573210698, -36.890090819681], [174.545734824618, -36.8900948134328], [174.545737419213, -36.8900988268127], [174.545739890766, -36.8901028598209], [174.545742250313, -36.8901069033], [174.545744498037, -36.8901109662614], [174.545746622536, -36.8901150398397], [174.545748635393, -36.8901191419116], [174.545750591248, -36.8901231996568], [174.545752534067, -36.8901271674348], [174.545754486106, -36.8901310359424], [174.545756436328, -36.890134814337], [174.545758373332, -36.890138493753], [174.545760319738, -36.89014208291], [174.545762264327, -36.8901455819539], [174.545764195698, -36.8901489820193], [174.545766136471, -36.8901522918257], [174.545768075245, -36.8901555025076], [174.545770000983, -36.8901586232224], [174.545771936123, -36.8901616536781], [174.545773869264, -36.8901645850094], [174.545773916678, -36.8901646546991]]}, "properties": {"OBJECTID": 1893, "TRACKNAME": "East Tunnel Mouth Track", "CONDITIONSOFUSE": "Waitakere North Regional Park", "STATUS": "Temp Closed", "WEBLINK": "https://www.aucklandcouncil.govt.nz/en/parks-recreation/find-park-beach/park-detail/3407.html", "VALIDATIONSTATE": 3, "created_user": "AC_owner", "last_edited_user": "AC_owner", "last_edited_date": 1789875254325, "created_date": 1789875254325, "PARK_SAPSITEID": null, "TRACK_ID": null, "KAURIDIEBACK_TRACK": null, "KAURIDIEBACK_MITIGATED": null, "SegmentID": null, "GlobalID": "40fccbcf-f3f9-4a4a-8857-23380c6dba16", "Shape__Length": 18.2542641408207}}, {"type": "Feature", "id": 1984, "geometry": {"type": "LineString", "coordinates": [[174.545773916805, -36.890164661007], [174.545775792698, -36.8901674245275], [174.545777718712, -36.8901701693684], [174.545779642835, -36.8901728204918], [174.545781563947, -36.8901753779121], [174.545783484273, -36.890177840699], [174.545785402709, -36.8901802097683], [174.545787318133, -36.8901824851345], [174.545789232789, -36.8901846667685], [174.545791145555, -36.8901867546849], [174.54579305531, -36.8901887488983], [174.545794964278, -36.8901906484783], [174.545796842987, -36.89019249437], [174.54579866191, -36.890194324815], [174.545800423308, -36.8901961406851], [174.545802124919, -36.8901979411086], [174.545803767902, -36.890199727873], [174.545805353325, -36.8902014982605], [174.545806878997, -36.8902032550034], [174.545808346004, -36.8902049962851], [174.545809754365, -36.8902067230066], [174.545811104062, -36.8902084342668], [174.54581239399, -36.8902101309815], [174.545813626393, -36.8902118131214], [174.545814800132, -36.8902134798], [174.545815914102, -36.8902151319331], [174.545816970548, -36.8902167694914], [174.545817967207, -36.890218391603], [174.54581890522, -36.8902199991545], [174.54581978569, -36.8902215912301], [174.54582060641, -36.8902231696613], [174.545821368447, -36.8902247317301], [174.545822071855, -36.8902262801398], [174.545822716599, -36.8902278130884], [174.545823301574, -36.8902293314913], [174.545823829007, -36.8902308344184], [174.545824405007, -36.8902323529382], [174.545825137876, -36.8902339153865], [174.545826027648, -36.8902355235656], [174.545827074306, -36.8902371765744], [174.545828276729, -36.8902388744275], [174.545829637159, -36.8902406170956], [174.545831153372, -36.8902424055092], [174.545832827574, -36.8902442378367], [174.545834657541, -36.8902461150085], [174.545836644412, -36.890248037911], [174.54583878815, -36.8902500047421], [174.545841088793, -36.8902520173039], [174.545843546323, -36.8902540746953], [174.545846159598, -36.8902561760298], [174.545848930899, -36.8902583230805], [174.545851857965, -36.8902605149753], [174.545854943039, -36.8902627516852], [174.545858183877, -36.8902650332392], [174.545861581619, -36.8902673605238], [174.54586513623, -36.8902697317369], [174.545868847726, -36.8902721477795], [174.545872716128, -36.8902746095528], [174.545876740275, -36.890277115269], [174.545880922449, -36.8902796667012], [174.545885201577, -36.8902822403072], [174.545889519953, -36.890284812501], [174.545893877614, -36.8902873850848], [174.54589827454, -36.8902899571574], [174.545902709592, -36.8902925278324], [174.545907183928, -36.8902950988974], [174.545911697531, -36.8902976694513], [174.545916249259, -36.8903002386075], [174.545920840272, -36.8903028081537], [174.54592547055, -36.8903053771888], [174.545930140077, -36.8903079448116], [174.545934847765, -36.8903105128389], [174.54593959472, -36.8903130803551], [174.545944380923, -36.890315646459], [174.545949205288, -36.8903182129675], [174.545954068919, -36.8903207789648], [174.545958971798, -36.8903233435498], [174.545963913961, -36.8903259085247], [174.545968894269, -36.8903284730031], [174.545973913824, -36.8903310360691], [174.545978972664, -36.8903335995251], [174.545984070769, -36.8903361624698], [174.545989207001, -36.8903387240168], [174.545994382517, -36.8903412859538], [174.54599955787, -36.8903438397803], [174.546004693648, -36.8903463787983], [174.546009790956, -36.8903489020922], [174.546014848689, -36.8903514105776], [174.546019866829, -36.8903539033534], [174.546024845395, -36.8903563813208], [174.546029785509, -36.8903588444651], [174.546034686048, -36.890361292801], [174.546039546995, -36.8903637254273], [174.546044368367, -36.8903661432452], [174.546049151268, -36.890368545339], [174.546053894595, -36.8903709326243], [174.546058598347, -36.8903733051012], [174.546063263629, -36.890375661854], [174.546067889336, -36.8903780037983], [174.546072475451, -36.8903803300332], [174.546077022009, -36.8903826423607], [174.546081530078, -36.890384938063], [174.546085998591, -36.8903872198581], [174.546090427511, -36.8903894859437], [174.546094817978, -36.8903917372062], [174.546099168853, -36.8903939727593], [174.546103480153, -36.890396193504], [174.546107751879, -36.8903983994403], [174.546112080421, -36.890400584807], [174.546116561048, -36.8904027438573], [174.546121192656, -36.890404877507], [174.546125976368, -36.8904069857413], [174.546130913286, -36.8904090676446], [174.546136001168, -36.8904111232461], [174.546141240031, -36.8904131534468], [174.546146632119, -36.8904151582176], [174.54615217517, -36.8904171366865], [174.546157870325, -36.8904190897399], [174.546163717583, -36.890421017378], [174.546169716926, -36.8904229186994], [174.546175868354, -36.8904247937043], [174.546182170763, -36.8904266433083], [174.546188625276, -36.8904284674968], [174.546195231874, -36.8904302653685], [174.546201990575, -36.8904320378248], [174.54620890138, -36.8904337848654], [174.546215963129, -36.8904355047027], [174.546223177, -36.8904372000256], [174.546230542957, -36.8904388690316], [174.546238061016, -36.8904405126219], [174.546245731161, -36.8904421298954], [174.546253552287, -36.8904437217677], [174.546261444001, -36.8904453082139], [174.54626932372, -36.8904469119417], [174.546277190304, -36.8904485320645], [174.546285044875, -36.8904501685677], [174.546292887432, -36.8904518214514], [174.546300717995, -36.8904534916167], [174.546308535405, -36.8904551772759], [174.546316341941, -36.8904568802021], [174.546324135343, -36.8904585995233], [174.546331916731, -36.8904603352251], [174.546339686106, -36.8904620873072], [174.546347442346, -36.8904638557844], [174.546355187696, -36.8904656406275], [174.546362919928, -36.8904674427668], [174.546370640147, -36.8904692612866], [174.546378348353, -36.8904710961868], [174.546386043424, -36.8904729474821], [174.546393727604, -36.8904748151433], [174.546401398649, -36.8904766991996], [174.546409057681, -36.8904785996363], [174.546416704718, -36.8904805173546], [174.546424339742, -36.8904824514535], [174.546431961631, -36.8904844019474], [174.546439571507, -36.8904863688218], [174.546447201827, -36.890488292164], [174.546454886186, -36.8904901129478], [174.546462622342, -36.8904918312023], [174.546470411415, -36.890493446913], [174.546478253406, -36.8904949600798], [174.546486148297, -36.8904963698017], [174.546494096106, -36.8904976769797], [174.546502096833, -36.8904988816138], [174.546510151581, -36.8904999827882], [174.546518258143, -36.8905009823345], [174.546526417605, -36.8905018784358], [174.546534629985, -36.8905026719931], [174.546542895264, -36.8905033621054], [174.546551213479, -36.8905039505748], [174.546559585715, -36.8905044355846], [174.546568009747, -36.890504818065], [174.546576486678, -36.8905050971003], [174.546585016545, -36.8905052744928], [174.546593599312, -36.8905053484401], [174.546602234995, -36.8905053198434], [174.5466109247, -36.890505187787], [174.546619666219, -36.8905049541023], [174.546628460637, -36.8905046169724], [174.546637307972, -36.8905041772984], [174.546646356827, -36.8905037142688], [174.546655758085, -36.8905033088449], [174.546665508363, -36.8905029601693], [174.546675609903, -36.8905026682126], [174.546686062725, -36.8905024338761], [174.546696866792, -36.8905022553572], [174.546708021019, -36.8905021344728], [174.546719525386, -36.8905020703216], [174.546731381036, -36.8905020637901], [174.546743587948, -36.8905021139769], [174.546756144983, -36.8905022199956], [174.546769053318, -36.8905023845347], [174.546782312899, -36.8905026048908], [174.546795922639, -36.8905028828806], [174.546809883624, -36.8905032166871], [174.546824194768, -36.890503608127], [174.546838857195, -36.8905040571857], [174.546853869744, -36.8905045620753], [174.546869233576, -36.8905051245833], [174.54688494867, -36.8905057438086], [174.546901013925, -36.8905064206666], [174.546917430425, -36.8905071533404], [174.546934198207, -36.8905079436321], [174.546951316131, -36.890508790655], [174.546976008059, -36.8905103268439], [174.54699988845, -36.8905118528641], [174.547022956165, -36.8905133678294], [174.547045212341, -36.8905148726268], [174.547066656963, -36.8905163663557], [174.547087290029, -36.8905178490165], [174.547107110436, -36.8905193215254], [174.547126118166, -36.8905207829817], [174.54714431434, -36.8905222333711], [174.547161698976, -36.8905236735951], [174.547178272076, -36.890525103654], [174.547194032479, -36.8905265217607], [174.547208980241, -36.8905279306188], [174.54722311643, -36.8905293275106], [174.54723644108, -36.8905307142387], [174.547248954175, -36.8905320899021], [174.547260654611, -36.890533455417], [174.547271542368, -36.8905348098824], [174.54728161971, -36.8905361541704], [174.547290884374, -36.8905374874093], [174.547299336378, -36.8905388105006], [174.547307169505, -36.8905401614818], [174.547314795077, -36.890541626034], [174.547322227717, -36.8905432057694], [174.54732946746, -36.8905449024904], [174.54733651427, -36.8905467143948], [174.547343367043, -36.8905486423982], [174.547350028024, -36.8905506864715], [174.547356494986, -36.8905528475451], [174.547362770119, -36.8905551228865], [174.547368851233, -36.8905575152282], [174.547374739433, -36.8905600236545], [174.5473804347, -36.8905626472644], [174.547385937071, -36.8905653878601], [174.547391245386, -36.8905682436541], [174.547396361909, -36.8905712155182], [174.547401285536, -36.8905743043681], [174.547406015107, -36.8905775084164], [174.547410551746, -36.8905808276484], [174.547414895489, -36.8905842638663], [174.547419046316, -36.8905878161692], [174.547423004211, -36.8905914836557], [174.547426794382, -36.8905952921374], [174.547430525573, -36.8905993474603], [174.547434212677, -36.8906036647538], [174.547437854537, -36.8906082422302], [174.54744145231, -36.8906130816771], [174.547445004839, -36.8906181813069], [174.547448513263, -36.8906235420061], [174.547451976479, -36.8906291646905], [174.547455396694, -36.8906350475286], [174.547458770562, -36.8906411914653], [174.547462100324, -36.8906475964715], [174.547465385983, -36.8906542625471], [174.547468626396, -36.8906611888056], [174.547471822724, -36.8906683770346], [174.547474973826, -36.8906758263478], [174.547478080805, -36.8906835358292], [174.547481143698, -36.8906915072813], [174.547484161347, -36.8906997389162], [174.54748713377, -36.8907082316352], [174.547490062088, -36.8907169854237], [174.547492946303, -36.8907260002816], [174.547495768893, -36.8907352421852], [174.547498338175, -36.8907443323532], [174.547500603779, -36.890753165982], [174.547502565703, -36.8907617430714], [174.547504222828, -36.8907700636361], [174.54750557517, -36.8907781285772], [174.547506622692, -36.8907859360926], [174.547507366536, -36.8907934870686], [174.547507805597, -36.8908007824212], [174.547507939839, -36.890807820348], [174.547507769298, -36.8908146026513], [174.547507295077, -36.8908211284154], [174.547506517177, -36.8908273976402], [174.547505433335, -36.8908334094539], [174.547504045832, -36.8908391656294], [174.547502353545, -36.8908446661814], [174.547500356439, -36.8908499093077], [174.547498055653, -36.8908548958946], [174.547495450065, -36.8908596259568], [174.547492539694, -36.8908641003955], [174.547489325625, -36.8908683173937], [174.547485814662, -36.8908722804682], [174.547482468257, -36.8908761125036], [174.547479547041, -36.8908798831157], [174.547477051013, -36.8908835923045], [174.547474982436, -36.8908872409418], [174.547473340168, -36.8908908281414], [174.547472124229, -36.8908943548041], [174.547471333479, -36.8908978200437], [174.547470969039, -36.8909012238454], [174.54747103205, -36.8909045670958], [174.547471520249, -36.8909078489229], [174.547472434777, -36.8909110702134], [174.547473775598, -36.8909142291648], [174.547475541644, -36.8909173284953], [174.547477735104, -36.8909203654721], [174.547480353772, -36.8909233419267], [174.547483399872, -36.8909262569288], [174.547486871179, -36.8909291114087], [174.547490768798, -36.8909319044505], [174.547495092745, -36.8909346369554], [174.547499843004, -36.8909373080222], [174.547505019573, -36.8909399176508], [174.547510562066, -36.8909424206582], [174.547516391925, -36.8909447612814], [174.547522510237, -36.8909469377035], [174.547528918123, -36.8909489499098], [174.547535613375, -36.8909507997319], [174.54754259708, -36.8909524853527], [174.547549869237, -36.8909540067723], [174.547557429883, -36.8909553657928], [174.547565278981, -36.890956560612], [174.54757341653, -36.8909575912297], [174.547581841447, -36.8909584594628], [174.547590555919, -36.8909591625786], [174.547599557757, -36.8909597033097], [174.547608849169, -36.8909600798245], [174.54761842793, -36.8909602930533], [174.54762829516, -36.8909603429814], [174.547638451964, -36.890960228693], [174.547648896115, -36.8909599511184], [174.547659628719, -36.8909595093418], [174.547670649792, -36.8909589042642], [174.547681958213, -36.8909581359002], [174.547693441216, -36.8909572327597], [174.547704793984, -36.8909562709233], [174.547715999759, -36.8909552542146], [174.547727059664, -36.8909541826192], [174.547737972596, -36.8909530570529], [174.547748739657, -36.8909518765998], [174.547759359744, -36.8909506421759], [174.547769833944, -36.8909493519643], [174.547780161169, -36.8909480077818], [174.547790342542, -36.890946609614], [174.547800376905, -36.8909451556731], [174.547810265416, -36.8909436477469], [174.547820006954, -36.8909420858501], [174.547829602602, -36.8909404681658], [174.547839051277, -36.8909387965109], [174.547848354082, -36.8909370699697], [174.547857509913, -36.890935289458], [174.547866519873, -36.89093345406], [174.547875382841, -36.8909315637904], [174.547884099939, -36.8909296186348], [174.547892670063, -36.8909276195087], [174.547901087859, -36.8909255791011], [174.547909312259, -36.8909235754648], [174.547917337873, -36.8909216194864], [174.547925165859, -36.8909197129535], [174.547932795059, -36.8909178540786], [174.54794022437, -36.8909160437775], [174.547947456016, -36.8909142811198], [174.547954488912, -36.8909125679225], [174.547961324144, -36.8909109023687], [174.547967959505, -36.8909092862899], [174.54797439608, -36.8909077178692], [174.54798063499, -36.8909061970922], [174.547986675152, -36.8909047257757], [174.547992515405, -36.8909033021321], [174.547998158031, -36.8909019279344], [174.548003602993, -36.8909006013805], [174.548008848065, -36.8908993234007], [174.54801389437, -36.8908980939803], [174.548018743011, -36.8908969122038], [174.548023391762, -36.8908957790015], [174.548027842886, -36.8908946952453], [174.548032106315, -36.8908936526934], [174.548036340515, -36.8908925519335], [174.548040602045, -36.8908913597791], [174.548044889765, -36.890890075344], [174.548049203695, -36.8908886995291], [174.548053544918, -36.8908872305177], [174.54805791349, -36.890885671013], [174.548062307113, -36.890884018341], [174.548066728066, -36.8908822742745], [174.548071176332, -36.8908804379126], [174.548075650806, -36.890878510171], [174.548080151471, -36.8908764901485], [174.548084679466, -36.8908743787316], [174.548089233634, -36.8908721741328], [174.548093815131, -36.8908698781395], [174.548098422838, -36.8908674907665], [174.548103057857, -36.890865011098], [174.548107717944, -36.8908624391632], [174.548112406483, -36.8908597758195], [174.548117120091, -36.8908570202094], [174.54812186101, -36.8908541723039], [174.548126628157, -36.8908512339197], [174.548131324904, -36.890848365858], [174.548135882866, -36.8908456825821], [174.548140302062, -36.8908431849932], [174.548144581351, -36.8908408722048], [174.548148722995, -36.8908387450889], [174.548152724714, -36.8908368018723], [174.54815658879, -36.8908350443282], [174.548160312958, -36.8908334715847], [174.548163899464, -36.8908320836124], [174.548167346082, -36.8908308813419], [174.548170655037, -36.8908298638428], [174.548173824086, -36.8908290311443], [174.548176854368, -36.8908283841328], [174.548179745867, -36.8908279219074], [174.548182499702, -36.8908276444534], [174.548185113632, -36.8908275518001], [174.548187588795, -36.8908276448339], [174.548189925156, -36.8908279217526], [174.548192122769, -36.8908283852597], [174.548194181579, -36.8908290326516], [174.548196101624, -36.8908298657308], [174.548197945805, -36.8908307764147], [174.548199816232, -36.8908315975213], [174.548201713971, -36.8908323263325], [174.548203636797, -36.8908329637787], [174.548205588039, -36.8908335080138], [174.548207564386, -36.8908339617849], [174.548209568028, -36.8908343223596], [174.548211599, -36.89083459154], [174.54821365618, -36.8908347693408], [174.548215739533, -36.8908348539596], [174.548217850235, -36.8908348480853], [174.548219987108, -36.8908347490292], [174.548222150191, -36.8908345585933], [174.548224340586, -36.8908342758621], [174.548226557189, -36.8908339017513], [174.548228801105, -36.890833435345], [174.548231071212, -36.890832876658], [174.54823336863, -36.8908322256755], [174.548235692257, -36.8908314833134], [174.548238042093, -36.8908306495717], [174.548240419241, -36.8908297235346], [174.54824287372, -36.8908287369994], [174.54824557377, -36.8908277968389], [174.548248530776, -36.8908269110171], [174.548251745839, -36.8908260786181], [174.548255218978, -36.8908253005432], [174.548258950176, -36.8908245758911], [174.548262938329, -36.8908239055776], [174.548267184539, -36.890823288687], [174.548271687704, -36.8908227261348], [174.548276448928, -36.8908222170054], [174.548281468228, -36.8908217621998], [174.548286745604, -36.890821361718], [174.548292279917, -36.8908210146735], [174.548298072287, -36.8908207210516], [174.548304122735, -36.8908204817534], [174.548310430118, -36.8908202958924], [174.548316995578, -36.890820164355], [174.548323819115, -36.8908200871412], [174.548330899588, -36.8908200633644], [174.548338238119, -36.8908200930099], [174.548345834746, -36.89082017788], [174.548353646926, -36.8908203230359], [174.548361376118, -36.8908205819437], [174.548368960802, -36.8908209644191], [174.548376403238, -36.8908214713338], [174.548383701183, -36.8908221027171], [174.548390855741, -36.8908228576534], [174.548397866929, -36.8908237370438], [174.548404734749, -36.8908247408882], [174.54841145806, -36.8908258683004], [174.548418039124, -36.890827120152], [174.548424475678, -36.8908284955713], [174.548430768864, -36.8908299954448], [174.548436918681, -36.8908316197725], [174.548442925111, -36.8908333676534], [174.548448788172, -36.8908352399885], [174.548454506742, -36.8908372367925], [174.548460083048, -36.8908393571351], [174.548465514844, -36.8908416010455], [174.548470804412, -36.8908439702967], [174.548475949471, -36.8908464631158], [174.548480951143, -36.8908490794882], [174.548485816141, -36.8908518184249], [174.548490711674, -36.890854624566], [174.548495708002, -36.8908574762641], [174.548500804002, -36.8908603735339], [174.54850600192, -36.8908633163461], [174.548511299492, -36.8908663038287], [174.548516697859, -36.8908693368684], [174.548522195899, -36.8908724154797], [174.548527795837, -36.8908755387322], [174.548533495449, -36.8908787075562], [174.548539294734, -36.8908819219519], [174.548545195935, -36.8908851818898], [174.548551196792, -36.8908884864981], [174.548557298443, -36.8908918366633], [174.548563500872, -36.8908952314843], [174.548569802991, -36.8908986727779], [174.54857620701, -36.8909021587125], [174.548582710701, -36.8909056902187], [174.548589314048, -36.8909092663951], [174.548596019312, -36.8909128881136], [174.548602824249, -36.8909165554036], [174.548609729982, -36.8909202682504], [174.548616562355, -36.8909239604202], [174.548623169872, -36.8909275762004], [174.54862955027, -36.8909311147193], [174.548635705792, -36.8909345759477], [174.548641634196, -36.8909379599147], [174.548647336602, -36.8909412666059], [174.548652814152, -36.8909444969077], [174.548658064564, -36.8909476490472], [174.548663088998, -36.890950724812], [174.548667888537, -36.8909537223853], [174.548672460976, -36.8909566435987], [174.548676807417, -36.8909594875363], [174.548680928983, -36.8909622541837], [174.548684823429, -36.89096494357], [174.548688491878, -36.8909675556807], [174.548691934329, -36.8909700905158], [174.548695150801, -36.8909725489765], [174.548698142379, -36.8909749292458], [174.548700906856, -36.8909772331553], [174.548703445317, -36.8909794588882], [174.548705757799, -36.8909816082467], [174.548707904114, -36.8909837534618], [174.54871000045, -36.8909860354348], [174.548712050263, -36.8909884586274], [174.548714052415, -36.8909910221532], [174.548716008043, -36.8909937268986], [174.548717916009, -36.8909965719772], [174.548719777453, -36.8909995582754], [174.548721591253, -36.891002685808], [174.548723358512, -36.8910059536591], [174.548725079249, -36.8910093627298], [174.548726752323, -36.8910129121337], [174.548728378875, -36.8910166027573], [174.548729957783, -36.8910204346152], [174.54873149015, -36.8910244067916], [174.548732974873, -36.8910285202023], [174.548734413055, -36.8910327739316], [174.548735803593, -36.8910371688952], [174.548737147591, -36.8910417041773], [174.548738443944, -36.8910463806938], [174.548739694879, -36.8910511975141], [174.548740897047, -36.8910561555834], [174.548742096622, -36.8910612074287], [174.548743468123, -36.8910661596849], [174.548745029137, -36.8910709940956], [174.548746780766, -36.891075709745], [174.548748721871, -36.8910803057465], [174.548750853611, -36.8910847838878], [174.548753175967, -36.8910891432677], [174.548755687816, -36.8910933839009], [174.548758390282, -36.8910975057728], [174.548761283364, -36.8911015088832], [174.548764365959, -36.8911053941479], [174.548767639151, -36.8911091597501], [174.548771101838, -36.8911128066055], [174.548774755158, -36.8911163356005], [174.548778599077, -36.8911197449329], [174.548782632509, -36.8911230364196], [174.548786856538, -36.8911262082437], [174.548791271202, -36.8911292622073], [174.54879587536, -36.891132197424], [174.548800669012, -36.8911350138937], [174.548805654385, -36.8911377106861], [174.548810809257, -36.8911402989072], [174.548815950085, -36.8911428584675], [174.548821029064, -36.8911454116229], [174.548826047279, -36.8911479565566], [174.548831003644, -36.8911504950855], [174.548835900386, -36.8911530262793], [174.548840735279, -36.8911555510683], [174.548845509407, -36.8911580676356], [174.548850221687, -36.8911605777982], [174.548854873203, -36.8911630797391], [174.548859463991, -36.8911655752607], [174.548863992912, -36.8911680634763], [174.548868462209, -36.8911705443569], [174.548872869657, -36.8911730188327], [174.548877215219, -36.8911754851015], [174.548881500054, -36.891177944951], [174.548885724143, -36.8911803974801], [174.548889887487, -36.8911828426886], [174.548893988963, -36.8911852805914], [174.548898030815, -36.8911877111591], [174.548902009696, -36.8911901353367], [174.548905930111, -36.8911925539669], [174.548909825496, -36.8911950666654], [174.548913718184, -36.8911977236177], [174.548917607056, -36.8912005248382], [174.548921490988, -36.8912034703417], [174.548925371103, -36.8912065601135], [174.548929248504, -36.8912097932378], [174.548933119863, -36.8912131715609], [174.548936988526, -36.8912166941376], [174.548940853372, -36.8912203609826], [174.548944713279, -36.8912241721105], [174.548948569369, -36.8912281275068], [174.548952421623, -36.8912322262702], [174.548956270078, -36.8912364702031], [174.548960113595, -36.8912408584188], [174.548963954416, -36.8912453908883], [174.548967790299, -36.8912500676407], [174.548971622346, -36.8912548877603], [174.548975450594, -36.8912598530492], [174.548979273903, -36.8912649626212], [174.548983094518, -36.8912702164468], [174.548986910175, -36.8912756136542], [174.548990546367, -36.8912810150042], [174.548993805746, -36.8912862617254], [174.548996688276, -36.8912913520155], [174.548999192872, -36.8912962876914], [174.549001320636, -36.8913010678376], [174.549003071569, -36.8913056924538], [174.549004444549, -36.8913101615548], [174.549005440698, -36.891314475126], [174.549006058912, -36.8913186340832], [174.549006301416, -36.891322637496], [174.549006164845, -36.8913264854082], [174.549005652565, -36.891330177776], [174.549004762349, -36.8913337155297], [174.54900349418, -36.8913370977683], [174.5490018503, -36.8913403244624], [174.548999827346, -36.891343395656], [174.548997428681, -36.8913463113051], [174.548994652081, -36.89134907234], [174.548991498631, -36.891351676944], [174.548987967245, -36.8913541269337], [174.548984059027, -36.8913564213935], [174.548979933695, -36.8913586339557], [174.548975967266, -36.8913609354838], [174.548972177891, -36.8913633356563], [174.54896856445, -36.8913658344878], [174.548965128026, -36.8913684301615], [174.548961867517, -36.8913711235932], [174.548958784063, -36.8913739156692], [174.548955877627, -36.8913768045875], [174.548953147124, -36.8913797921649], [174.548950593657, -36.8913828774856], [174.548948216104, -36.8913860605643], [174.548946015588, -36.8913893413864], [174.548943992108, -36.8913927199519], [174.548942144562, -36.8913961971765], [174.548940474033, -36.8913997712434], [174.548938979437, -36.8914034439695], [174.54893766186, -36.8914072135379], [174.548936520216, -36.8914110817654], [174.548935555608, -36.8914150477364], [174.548934766915, -36.8914191114654], [174.548934155276, -36.891423273839], [174.548933768843, -36.8914275297225], [174.548933848531, -36.8914318615529], [174.548934429082, -36.8914362670746], [174.548935509374, -36.8914407463021], [174.548937090529, -36.8914452992208], [174.548939171427, -36.8914499258452], [174.548941753169, -36.8914546252597], [174.548944834671, -36.8914593992811], [174.548948417037, -36.8914642469935], [174.548952499127, -36.8914691675104], [174.548957082081, -36.8914741617183], [174.548962164795, -36.8914792305328], [174.548967747234, -36.8914843721517], [174.548973831658, -36.8914895874467], [174.548980414703, -36.8914948764616], [174.548987498594, -36.891500238266], [174.548995083369, -36.891505674662], [174.549003167886, -36.8915111847631], [174.549011753249, -36.8915167676533], [174.549020838356, -36.8915224242483], [174.549030423225, -36.8915281554492], [174.549040469237, -36.8915339383237], [174.549050445846, -36.8915395075771], [174.549060193098, -36.8915447778625], [174.549069708804, -36.8915497519127], [174.549078994049, -36.8915544279107], [174.549088049974, -36.8915588067431], [174.549096874315, -36.8915628875382], [174.549105468214, -36.8915666711824], [174.549113832791, -36.8915701576613], [174.549121965785, -36.8915733461029], [174.549129868335, -36.8915762373939], [174.549137541545, -36.8915788306185], [174.549144983209, -36.8915811276083], [174.549152194391, -36.8915831256453], [174.549159175149, -36.891584827433], [174.549165925444, -36.8915862311691], [174.549172446399, -36.891587336839], [174.549178735805, -36.8915881462744], [174.54918479475, -36.8915886576583], [174.549190623232, -36.8915888709909], [174.549196221288, -36.8915887880743], [174.549201591161, -36.8915884088794], [174.549206965671, -36.8915879259666], [174.54921248869, -36.8915874618483], [174.549218162444, -36.8915870155941], [174.54922398581, -36.8915865872187], [174.549229958789, -36.891586176722], [174.549236082521, -36.8915857849905], [174.549242356969, -36.8915854102219], [174.549248779927, -36.8915850542476], [174.549255353618, -36.8915847161374], [174.549262076941, -36.8915843968069], [174.549268950998, -36.8915840953403], [174.54927597465, -36.8915838108511], [174.549283147932, -36.8915835451416], [174.549290471968, -36.891583298197], [174.549297945598, -36.8915830682297], [174.549305568859, -36.8915828570421], [174.549313342854, -36.8915826637181], [174.549321266462, -36.8915824882726], [174.549329339701, -36.8915823316065], [174.549337563657, -36.8915821919029], [174.549345937243, -36.8915820709788], [174.549354400578, -36.8915820597517], [174.54936286988, -36.8915822882096], [174.549371344028, -36.8915827563673], [174.549379823057, -36.8915834660269], [174.549388306933, -36.8915844153862], [174.549396794533, -36.8915856044599], [174.549405288118, -36.8915870341197], [174.549413786568, -36.8915887043804], [174.549422289882, -36.8915906152418], [174.549430798042, -36.891592765803], [174.549439311067, -36.891595156965], [174.549447828956, -36.8915977887277], [174.549456350587, -36.8916006611059], [174.549464878188, -36.8916037731692], [174.549473410634, -36.8916071249321], [174.549481947964, -36.8916107181969], [174.549490490141, -36.8916145511614], [174.549499037182, -36.8916186247267], [174.549507589089, -36.8916229388928], [174.549516144721, -36.8916274927731], [174.54952470634, -36.8916322872396], [174.549533121459, -36.891637328788], [174.549540947222, -36.8916426376166], [174.549548154477, -36.8916482150072], [174.549554744346, -36.8916540609451], [174.549560715689, -36.891660174544], [174.549566068542, -36.8916665576063], [174.549570804009, -36.8916732092162], [174.54957492095, -36.8916801284874], [174.549578420504, -36.8916873163065], [174.549581300446, -36.8916947736038], [174.549583564105, -36.8917024985332], [174.549585208133, -36.8917104920399], [174.549586234775, -36.8917187540946], [174.549586644029, -36.8917272846973], [174.549586434774, -36.8917360838626], [174.549585607009, -36.8917451515906], [174.549584161857, -36.8917544878666], [174.549582098176, -36.8917640918041], [174.549579416003, -36.8917739652054], [174.549576116424, -36.8917841062534], [174.549572198352, -36.8917945167651], [174.549567783775, -36.8918051248426], [174.54956365038, -36.8918154867847], [174.549559933453, -36.8918255224079], [174.549556632996, -36.8918352317123], [174.549553751269, -36.8918446155697], [174.549551287134, -36.8918536730936], [174.549549239486, -36.8918624051999], [174.549547609431, -36.8918708109729], [174.549546396966, -36.8918788904124], [174.549545602112, -36.8918866444197], [174.549545223728, -36.8918940721083], [174.549545264076, -36.8919011743501], [174.549545720894, -36.8919079502731], [174.549546595305, -36.8919143998627], [174.549547887326, -36.8919205240201], [174.54954959694, -36.8919263218442], [174.549551723043, -36.8919317942505], [174.549554266738, -36.8919369403235], [174.549557228026, -36.891941760063], [174.549560606925, -36.8919462543701], [174.549564403417, -36.8919504223437], [174.549568596495, -36.891954279581], [174.549572790185, -36.8919581115718], [174.549576836266, -36.8919620248082], [174.549580734775, -36.8919660210923], [174.549584484552, -36.8919700986365], [174.549588086739, -36.8919742583275], [174.549591541335, -36.891978500165], [174.549594847218, -36.8919828241639], [174.54959800551, -36.8919872303094], [174.549601016211, -36.8919917186017], [174.549603878181, -36.8919962881542], [174.549606592579, -36.8920009407545], [174.549609158245, -36.8920056746151], [174.549611577461, -36.8920104915089], [174.549613846824, -36.8920153896776], [174.549615969717, -36.8920203699785], [174.549617943898, -36.8920254324407], [174.549619770487, -36.8920305770498], [174.549621449486, -36.8920358038056], [174.549622979753, -36.8920411118217], [174.549624361325, -36.8920465029004], [174.549625597532, -36.8920519751955], [174.549626946624, -36.8920573694018], [174.54962861478, -36.8920625593429], [174.549630604224, -36.8920675440883], [174.549632912731, -36.8920723245683], [174.549635542546, -36.8920769007537], [174.549638491424, -36.8920812726737], [174.549641761608, -36.892085440299], [174.549645350838, -36.8920894027578], [174.549649260254, -36.8920931609365], [174.549653489854, -36.892096714835], [174.549658039622, -36.8921000635522], [174.549662909593, -36.8921032088903], [174.549668099731, -36.8921061490471], [174.549673610037, -36.8921088840225], [174.549679440545, -36.8921114156187], [174.549685590099, -36.892113742048], [174.54969206096, -36.8921158641822], [174.549698850885, -36.8921177820506], [174.549705960994, -36.8921194956385], [174.549713392392, -36.89212100403], [174.549721142854, -36.8921223081555], [174.54972909828, -36.8921234816127], [174.549737057018, -36.892124652322], [174.549745016896, -36.8921258239173], [174.549752975634, -36.8921269946256], [174.549760935494, -36.8921281653187], [174.549768894232, -36.8921293360259], [174.549776854111, -36.892130507619], [174.54978481285, -36.8921316783251], [174.549792771589, -36.8921328490307], [174.549800731469, -36.8921340206223], [174.549808690209, -36.8921351913268], [174.54981665007, -36.8921363620161], [174.54982460881, -36.8921375327195], [174.549832568691, -36.8921387043088], [174.549840527431, -36.8921398750112], [174.549848486172, -36.892141045713], [174.549856446053, -36.8921422173008], [174.549864404795, -36.8921433880015], [174.549872364658, -36.892144558687], [174.549880323399, -36.8921457293866], [174.549888283281, -36.8921469009723], [174.549896212297, -36.892148100001], [174.549904004876, -36.8921494333101], [174.549911649926, -36.8921509073539], [174.549919149728, -36.8921525239054], [174.549926502039, -36.8921542829938], [174.549933706857, -36.8921561846192], [174.54994076527, -36.8921582269648], [174.54994767733, -36.8921604127339], [174.549954441881, -36.892162740139], [174.549961061183, -36.8921652100519], [174.549967531854, -36.8921678216154], [174.549973857277, -36.8921705756868], [174.549980035191, -36.8921734713943], [174.549986066734, -36.8921765096242], [174.549991950768, -36.8921796894904], [174.54999768845, -36.8921830127802], [174.550003279726, -36.8921864767904], [174.55000872351, -36.8921900833379], [174.550014020925, -36.892193832408], [174.55001917197, -36.8921977240008], [174.550024175487, -36.8922017563287], [174.550029074775, -36.8922059062925], [174.550034217847, -36.8922099584319], [174.550039682324, -36.8922138666657], [174.550045467086, -36.8922176310084], [174.550051574357, -36.8922212505296], [174.550058003016, -36.8922247252439], [174.550064751941, -36.8922280551659], [174.550071822271, -36.892231241182], [174.55007921513, -36.8922342832774], [174.550086928254, -36.8922371805805], [174.550094962766, -36.8922399330763], [174.550103318684, -36.892242541666], [174.55011199599, -36.8922450054483], [174.550120994701, -36.8922473253244], [174.5501303148, -36.892249500393], [174.550139956305, -36.8922515315553], [174.550149918057, -36.8922534170234], [174.550160202356, -36.8922551594714], [174.55017080692, -36.8922567571262], [174.550181733993, -36.8922582099586], [174.550192981331, -36.8922595179976], [174.550204547886, -36.8922606848624], [174.550216356291, -36.8922617692499], [174.550228370142, -36.8922628022815], [174.550240590507, -36.8922637812391], [174.5502530163, -36.8922647079395], [174.550265647521, -36.8922655823827], [174.550278485274, -36.8922664036529], [174.550291529558, -36.89226717175], [174.550304779271, -36.8922678875896], [174.550318234394, -36.8922685502706], [174.550331896066, -36.8922691606795], [174.550345763149, -36.8922697179295], [174.550359835641, -36.8922702220208], [174.550374114683, -36.8922706738397], [174.550388600274, -36.892271073386], [174.550403291258, -36.8922714188722], [174.550418187687, -36.8922717130015], [174.55043329063, -36.8922719530559], [174.550448599018, -36.8922721417532], [174.55046411392, -36.8922722763755], [174.55047983425, -36.8922723587394], [174.550495760007, -36.8922723888449]]}, "properties": {"OBJECTID": 1984, "TRACKNAME": "East Tunnel Mouth Track", "CONDITIONSOFUSE": "Waitakere North Regional Park", "STATUS": "Temp Closed", "WEBLINK": "https://www.aucklandcouncil.govt.nz/en/parks-recreation/find-park-beach/park-detail/3407.html", "VALIDATIONSTATE": 3, "created_user": "AC_owner", "last_edited_user": "AC_owner", "last_edited_date": 1789875254325, "created_date": 1789875254325, "PARK_SAPSITEID": null, "TRACK_ID": null, "KAURIDIEBACK_TRACK": null, "KAURIDIEBACK_MITIGATED": null, "SegmentID": null, "GlobalID": "817a34ff-aa06-4b42-b7cd-627df9725942", "Shape__Length": 578.9080773051905}}]}