{"type": "FeatureCollection", "features": [{"type": "Feature", "id": 295, "geometry": {"type": "LineString", "coordinates": [[174.845332292912, -36.3738696516927], [174.845310542699, -36.373822001839], [174.845309973832, -36.3738007556616], [174.845335393516, -36.3737684443821], [174.845367523536, -36.3737413296308], [174.845412630971, -36.3737086780647], [174.845438209628, -36.373681682556], [174.845470475912, -36.3736598658928], [174.845502879155, -36.3736433743673], [174.845521724906, -36.3736111736498], [174.84553401934, -36.3735790921967], [174.845532903993, -36.373536608512], [174.845506494967, -36.3735317614632], [174.845467529327, -36.3735483724241], [174.845441814176, -36.3735700608132], [174.845403132734, -36.3735972858317], [174.845357729989, -36.3736193234873], [174.845318605236, -36.37363061861], [174.845259383302, -36.3736263416076], [174.845232984976, -36.3736214763052], [174.845173330755, -36.3736012602057], [174.845126517476, -36.3735702001739], [174.845092988141, -36.373544217086], [174.845046049551, -36.3735078497222], [174.845019230369, -36.3734870541536], [174.844978706626, -36.373445260396], [174.844971586566, -36.373424133449], [174.844971018225, -36.3734029052873], [174.845009426272, -36.3733650481322], [174.845048266549, -36.3733431300217], [174.845080817422, -36.3733319455653], [174.845120203969, -36.3733312649476], [174.845153323427, -36.3733413176424], [174.845232812825, -36.373366500469], [174.845279193916, -36.3733816304194], [174.845318864914, -36.373391572825], [174.845384239689, -36.3733798180078], [174.845403517558, -36.37336354735], [174.845442642165, -36.3733522522032], [174.845488591353, -36.3733514610408], [174.84553497248, -36.3733665908907], [174.845581353838, -36.3733817297327], [174.845647707188, -36.3734071423211], [174.845707372513, -36.3734273580126], [174.845753469235, -36.3734318646883], [174.84581255468, -36.373430843336], [174.845871788052, -36.3734351379168], [174.845911333496, -36.373439763816], [174.845970418941, -36.3734387423855], [174.846003242878, -36.3734381719271], [174.846055765888, -36.3734372699188], [174.846101737181, -36.373436469164], [174.846160970354, -36.37344075459], [174.846213914299, -36.3734557737079], [174.846247307566, -36.37347645836], [174.846287262859, -36.3734970055006], [174.846353901094, -36.3735330407695], [174.84637402116, -36.3735486303694], [174.846407414082, -36.3735692969527], [174.846427386412, -36.3735795795934], [174.846460221542, -36.3735790088355], [174.846506318597, -36.3735835242272], [174.846565119742, -36.3735718884288], [174.846597670473, -36.3735607035628], [174.846656345885, -36.3735437514161], [174.84671502127, -36.3735267992413], [174.84674057691, -36.3734997948012], [174.84682537711, -36.373477084289], [174.84687063155, -36.3734497391407], [174.846923154328, -36.3734488277402], [174.846949415822, -36.3734483765367], [174.847002359909, -36.3734633953005], [174.84704903718, -36.3734891474578], [174.847095965514, -36.3735255141802], [174.847123069708, -36.373556923333], [174.847143747933, -36.3735937501156], [174.847157726859, -36.3736253802922], [174.847171705797, -36.3736570104667], [174.847211524961, -36.3736722591791], [174.847251480809, -36.373692814997], [174.84731085089, -36.373702406964], [174.847356537808, -36.3736909916564], [174.847382514877, -36.3736799262901], [174.847408639548, -36.3736741588539], [174.847441315731, -36.3736682810513], [174.847506701507, -36.3736565249025], [174.847585485958, -36.3736551618731], [174.847664555157, -36.373664421866], [174.847763186354, -36.3736680248429], [174.847841981947, -36.3736666614716], [174.84794046529, -36.3736649573569], [174.848005987698, -36.3736585080539], [174.848084350593, -36.3736412145069], [174.848156287744, -36.3736293476093], [174.848247513326, -36.3736012093955], [174.848279767831, -36.3735794011793], [174.848318185879, -36.3735415608532], [174.848363302849, -36.3735088990266], [174.848401709467, -36.3734710498371], [174.848433553627, -36.3734333202342], [174.848472244819, -36.3734060850826], [174.848550333619, -36.3733781679975], [174.848576036675, -36.3733564791372], [174.848620868977, -36.3733132121709], [174.848652290895, -36.3732595343082], [174.848690002067, -36.3731951406176], [174.848708572848, -36.373152325205], [174.848720581004, -36.3731096203924], [174.84871973769, -36.3730777600248], [174.848685922751, -36.373041163914], [174.848665392086, -36.3730096533656], [174.848631007449, -36.3729518110986], [174.848616765476, -36.3729095576903], [174.848602501236, -36.3728673046245], [174.848581264159, -36.3728092408028], [174.848553863873, -36.3727672180996], [174.848513486576, -36.3727307325241], [174.848459973242, -36.3726944772917], [174.84842645437, -36.3726684949849], [174.8484061974, -36.3726475986173], [174.848352969009, -36.3726219664049], [174.848306018174, -36.3725855915068], [174.848279198696, -36.372564805694], [174.848245520922, -36.3725335165603], [174.84819915096, -36.3725183875898], [174.848172741715, -36.3725135231035], [174.848093947299, -36.3725148866599], [174.848047998886, -36.372515687821], [174.847975493381, -36.3725063174886], [174.84792297127, -36.3725072293337], [174.847830619122, -36.3724928838086], [174.847777812472, -36.3724831815249], [174.84774428277, -36.372457199189], [174.847664656668, -36.372426701898], [174.847618423562, -36.3724168798158], [174.847552059119, -36.3723914594747], [174.847492268834, -36.3723659464114], [174.847458728134, -36.372339964163], [174.847418636053, -36.3723140922612], [174.847398379442, -36.3722931957112], [174.847371275814, -36.3722617956158], [174.847344160854, -36.3722303866752], [174.847310494736, -36.3721990970889], [174.847276544174, -36.3721571934235], [174.847249019088, -36.3721098540863], [174.847208221613, -36.3720574468485], [174.847187532441, -36.372020611219], [174.847153297571, -36.3719680934436], [174.847118378846, -36.3718890130185], [174.847096984012, -36.3718256330972], [174.847075737218, -36.3717675691303], [174.847061075237, -36.3717093943059], [174.847060095992, -36.3716722267781], [174.847051416091, -36.3715926954519], [174.847049867771, -36.3715342907702], [174.847042462706, -36.3715025408694], [174.847067175217, -36.3714436849761], [174.84708546166, -36.3713902376979], [174.847104055443, -36.3713474311758], [174.847103212626, -36.3713155617578], [174.847095375335, -36.3712678908383], [174.847061277311, -36.3712206711303], [174.847047173607, -36.3711837426332], [174.847013781145, -36.3711630581753], [174.846986814721, -36.3711369650937], [174.846906758075, -36.3710905462209], [174.84685310977, -36.3710489740718], [174.846792762672, -36.371002214276], [174.846758676093, -36.3709549942987], [174.846697896769, -36.3708923044144], [174.846670509337, -36.3708502810456], [174.84662639494, -36.3708013231441]]}, "properties": {"OBJECTID": 295, "TRACKNAME": "Ecology Trail", "CONDITIONSOFUSE": "Tawharanui Regional Park", "STATUS": "Open", "WEBLINK": "https://www.aucklandcouncil.govt.nz/en/parks-recreation/find-park-beach/park-detail/228.html", "VALIDATIONSTATE": 3, "created_user": "AC_owner", "last_edited_user": "AC_owner", "last_edited_date": 1789875254325, "created_date": 1789875254325, "PARK_SAPSITEID": null, "TRACK_ID": null, "KAURIDIEBACK_TRACK": null, "KAURIDIEBACK_MITIGATED": null, "SegmentID": null, "GlobalID": "ff8a90ea-7950-4e53-b367-6994ba36cb06", "Shape__Length": 860.7113458915078}}, {"type": "Feature", "id": 771, "geometry": {"type": "LineString", "coordinates": [[174.837831148282, -36.3707058314039], [174.837845249171, -36.3708664691808], [174.837845341537, -36.3708689736504], [174.837845652107, -36.370874593605], [174.837846062743, -36.3708802030056], [174.837846618225, -36.3708858101773], [174.837847273775, -36.3708914067951], [174.837848051887, -36.3708970015268], [174.837848104088, -36.3708973252274], [174.837848440212, -36.3708992941202], [174.837848798621, -36.37090126267], [174.83784922367, -36.3709032211803], [174.837849671004, -36.3709051793478], [174.837850173623, -36.3709071186364], [174.837850698739, -36.3709090665929], [174.837851290283, -36.3709109954992], [174.837851904112, -36.3709129240625], [174.837852573438, -36.3709148427577], [174.83785617071, -36.3709246667411], [174.837861392302, -36.3709381524528], [174.837865355356, -36.370947889681], [174.837871052245, -36.3709612058261], [174.837871204936, -36.3709615369943], [174.837872062407, -36.3709633987101], [174.837872941738, -36.3709652420617], [174.837873876567, -36.3709670755451], [174.83787484461, -36.3709688995034], [174.83787585701, -36.3709707137652], [174.837876902412, -36.3709725094911], [174.837877991746, -36.3709742774989], [174.837879103365, -36.3709760451637], [174.837880281412, -36.3709777937784], [174.83788178225, -36.3709799971395], [174.837885218562, -36.3709848749149], [174.837888765023, -36.3709896969111], [174.837892432987, -36.3709944719675], [174.837896177886, -36.3709992007698], [174.837900032934, -36.3710038737929], [174.83797172111, -36.3710809309297], [174.838164008191, -36.3712312996385], [174.838170467302, -36.371237690302], [174.838179603433, -36.3712470053669], [174.838188530623, -36.3712564408289], [174.838197260014, -36.3712659965166], [174.838205769534, -36.3712756817836], [174.838214081255, -36.3712854872764], [174.838222161538, -36.3712954044986], [174.838224815313, -36.3712987619289], [174.838250090293, -36.3713388277127], [174.838256035293, -36.3713508420033], [174.838267375094, -36.3713746987722], [174.838278206181, -36.3713987256219], [174.838283475338, -36.3714109125655], [174.838293531788, -36.3714351766867], [174.838303056814, -36.3714595932107], [174.838304461505, -36.3714633935231], [174.838315220846, -36.3715075767653], [174.838316249705, -36.3715157726778], [174.838317520656, -36.3715276245458], [174.838318535339, -36.3715394803583], [174.838319294176, -36.3715513581369], [174.838319796956, -36.3715632488708], [174.838320032325, -36.3715751437208], [174.838320022354, -36.3715870333331]]}, "properties": {"OBJECTID": 771, "TRACKNAME": "Ecology Trail", "CONDITIONSOFUSE": "Tawharanui Regional Park", "STATUS": "Open", "WEBLINK": "https://www.aucklandcouncil.govt.nz/en/parks-recreation/find-park-beach/park-detail/228.html", "VALIDATIONSTATE": 3, "created_user": "AC_owner", "last_edited_user": "AC_owner", "last_edited_date": 1789875254325, "created_date": 1789875254325, "PARK_SAPSITEID": null, "TRACK_ID": null, "KAURIDIEBACK_TRACK": null, "KAURIDIEBACK_MITIGATED": null, "SegmentID": null, "GlobalID": "a59da6ef-17c3-44d3-aaae-a99546cdf274", "Shape__Length": 111.5638129257262}}, {"type": "Feature", "id": 1440, "geometry": {"type": "LineString", "coordinates": [[174.835358811468, -36.3693394927745], [174.835627480264, -36.3694053124111], [174.835860122029, -36.3694624278526], [174.835884971666, -36.3694688244022], [174.835922291624, -36.3694789323153], [174.83592378387, -36.3694793510625], [174.835934153082, -36.3694823465663], [174.835944458833, -36.3694854872687], [174.835954689979, -36.3694887733411], [174.836000982194, -36.3695040886072], [174.836047210117, -36.3695195130114], [174.836048681775, -36.3695200041855], [174.836058806594, -36.3695235082194], [174.83606885681, -36.3695271576234], [174.836078820857, -36.3695309345472], [174.836102266521, -36.3695401920449], [174.836137367943, -36.369554543535], [174.836224591, -36.369586581392], [174.836244304802, -36.369593552597], [174.836270022305, -36.3696022523201], [174.836337296307, -36.3696244200015], [174.836404625421, -36.369646559755], [174.836424627585, -36.3696529946699], [174.836450730558, -36.3696610213904], [174.836540873902, -36.3696873623307], [174.83689642604, -36.3697929378397], [174.836938547529, -36.369806914305], [174.836940074695, -36.3698073956002], [174.836956575237, -36.3698128026018], [174.836983167888, -36.3698217411005], [174.837009760333, -36.3698306705824], [174.837011276994, -36.3698311790802], [174.837027627492, -36.3698368407716], [174.83706247428, -36.3698493570457], [174.837123255451, -36.3698668485313], [174.837184167171, -36.3698909794914], [174.837200217678, -36.3698976282993], [174.837216286112, -36.3699045652773], [174.837262880634, -36.369925130557], [174.837309375327, -36.3699457153819], [174.837325102408, -36.3699528288622], [174.837340791493, -36.3699602223587], [174.837342640388, -36.3699611133431], [174.837400509628, -36.3699895185613], [174.837519493674, -36.3700501081231], [174.837521130876, -36.3700510023617], [174.837529296513, -36.3700555549936], [174.837537364417, -36.3700602172966], [174.83754532387, -36.3700650074636], [174.837553185378, -36.370069898291], [174.83756092687, -36.3700748991324], [174.837568581983, -36.3700800184843], [174.837569216318, -36.3700804504103], [174.837594843584, -36.3701014102686], [174.83759747906, -36.370103992792], [174.837611667247, -36.3701181788574], [174.837625570413, -36.3701325676143], [174.837627971062, -36.3701351176942], [174.837641603317, -36.3701498351215], [174.837654906193, -36.3701647649371], [174.837655318115, -36.3701652183129], [174.837673767975, -36.3701909398121], [174.837674546497, -36.3701922889468], [174.837678676148, -36.3701996349103], [174.837682639943, -36.3702070375096], [174.837686448811, -36.3702144875627], [174.83769009161, -36.3702219852409], [174.837693579694, -36.3702295393836], [174.837696890779, -36.3702371503336], [174.837762433559, -36.3703785088776], [174.837763275215, -36.37038017253], [174.837769047632, -36.3703919641542], [174.837774565693, -36.3704038408181], [174.837779817832, -36.3704157846715], [174.837780845274, -36.3704182386967], [174.837782337146, -36.3704219565488], [174.837783740095, -36.3704256847833], [174.837785065685, -36.3704294412501], [174.837786313494, -36.3704332079277], [174.837787472803, -36.3704370030092], [174.837796162595, -36.3704671473075], [174.837804441201, -36.3704973430023], [174.83780511422, -36.3704998926209], [174.837806028831, -36.3705037094956], [174.837806877226, -36.3705075544311], [174.837807625555, -36.3705114099205], [174.837808307033, -36.3705152664385], [174.837808899798, -36.3705191423497], [174.837809142543, -36.3705209323996], [174.83781074318, -36.3705335363785], [174.837812076833, -36.3705461624937], [174.837813154644, -36.3705588105737], [174.837830231071, -36.3706952721002]]}, "properties": {"OBJECTID": 1440, "TRACKNAME": "Ecology Trail", "CONDITIONSOFUSE": "Tawharanui Regional Park", "STATUS": "Open", "WEBLINK": "https://www.aucklandcouncil.govt.nz/en/parks-recreation/find-park-beach/park-detail/228.html", "VALIDATIONSTATE": 3, "created_user": "AC_owner", "last_edited_user": "AC_owner", "last_edited_date": 1789875254325, "created_date": 1789875254325, "PARK_SAPSITEID": null, "TRACK_ID": null, "KAURIDIEBACK_TRACK": null, "KAURIDIEBACK_MITIGATED": null, "SegmentID": null, "GlobalID": "ae6979c5-6ac3-4955-a6fc-60cee84156eb", "Shape__Length": 289.1794801128791}}, {"type": "Feature", "id": 1480, "geometry": {"type": "LineString", "coordinates": [[174.838320052666, -36.3715831117789], [174.838323069135, -36.37169138652], [174.838323127406, -36.3716967038798], [174.838323410217, -36.3717082464535], [174.838323938367, -36.3717197942648], [174.838324733718, -36.3717313289491], [174.838324782626, -36.3717319862179], [174.838325123938, -36.3717355955759], [174.838325543246, -36.3717392037335], [174.838326028983, -36.3717427928405], [174.838326603857, -36.3717463805755], [174.838327256726, -36.3717499671099], [174.838327987167, -36.3717535344223], [174.83833480597, -36.3717842032398], [174.838342137319, -36.3718148641672], [174.838342285447, -36.3718154748387], [174.838343227378, -36.3718190298815], [174.838344235739, -36.3718225658738], [174.838345322095, -36.3718261006656], [174.838346486022, -36.3718296162353], [174.838347727309, -36.3718331035722], [174.838349046379, -36.3718365806978], [174.838351026525, -36.3718416250966], [174.838355565137, -36.3718526063915], [174.83836032511, -36.3718635211809], [174.838365328515, -36.371874360111], [174.838440428358, -36.3720716832136], [174.838509106472, -36.3722438298781], [174.838518792259, -36.3722589685058]]}, "properties": {"OBJECTID": 1480, "TRACKNAME": "Ecology Trail", "CONDITIONSOFUSE": "Tawharanui Regional Park", "STATUS": "Open", "WEBLINK": "https://www.aucklandcouncil.govt.nz/en/parks-recreation/find-park-beach/park-detail/228.html", "VALIDATIONSTATE": 3, "created_user": "AC_owner", "last_edited_user": "AC_owner", "last_edited_date": 1789875254325, "created_date": 1789875254325, "PARK_SAPSITEID": null, "TRACK_ID": null, "KAURIDIEBACK_TRACK": null, "KAURIDIEBACK_MITIGATED": null, "SegmentID": null, "GlobalID": "1d7df7a1-24b1-40f7-97d6-e2a6210da0d8", "Shape__Length": 77.6567308730591}}, {"type": "Feature", "id": 1928, "geometry": {"type": "LineString", "coordinates": [[174.838612587814, -36.3723858477624], [174.838615241096, -36.3723906023592], [174.838615894871, -36.3723913855257], [174.838624362122, -36.3724011615496], [174.838633016037, -36.3724108175172], [174.838641878899, -36.3724203530855], [174.83864344442, -36.3724219875585], [174.838646264863, -36.3724248466425], [174.838649140382, -36.3724276778366], [174.838652081482, -36.372430453937], [174.838655088587, -36.3724331929652], [174.838658139413, -36.3724358952642], [174.838682325104, -36.3724566517113], [174.83870679584, -36.372477205457], [174.838708580179, -36.3724786652943], [174.838711784243, -36.3724812480508], [174.83871506503, -36.3724837755419], [174.838718389114, -36.3724862482824], [174.838721756919, -36.3724886842938], [174.838725190517, -36.3724910742221], [174.838726085606, -36.3724916914208], [174.838737444595, -36.3724993046266], [174.838748978044, -36.3725067528934], [174.838809799267, -36.3725501292479], [174.83884527061, -36.3725682781198], [174.838848274666, -36.3725694667832], [174.83886351673, -36.3725753616139], [174.838878876271, -36.372581038298], [174.838894364218, -36.3725864876532], [174.838897443088, -36.3725875399534], [174.838913058805, -36.372592734947], [174.838928791997, -36.3725977117938], [174.838944631098, -36.372602452644], [174.838951710259, -36.3726043988299], [174.838985393791, -36.3726105234803], [174.838991226619, -36.3726111367563], [174.838999816686, -36.372611923911], [174.839008437423, -36.3726125934109], [174.839017066543, -36.3726131455991], [174.839025692694, -36.3726135716366], [174.839034338371, -36.3726138801909], [174.83904299222, -36.3726140624228], [174.839051643098, -36.372614118504], [174.839182156093, -36.3725980468641], [174.839185841968, -36.3725974222205], [174.839199434305, -36.3725952658768], [174.839213075878, -36.3725933070812], [174.839226766264, -36.372591527812], [174.839230490232, -36.3725911008883], [174.839234759961, -36.3725906565455], [174.83923904253, -36.3725902841168], [174.839243315441, -36.3725899749347], [174.839247600556, -36.3725897106344], [174.839251898511, -36.3725895182481], [174.83928714859, -36.3725883263682], [174.839322395377, -36.3725874680462], [174.839326161684, -36.3725874190551], [174.839330464094, -36.3725874158912], [174.83933476799, -36.3725874758022], [174.839339062228, -36.3725875989598], [174.83934335774, -36.3725877761815], [174.839347643595, -36.3725880166497], [174.83935139462, -36.3725882653549], [174.839365195777, -36.3725892967293], [174.839378990249, -36.3725905174989], [174.839392733466, -36.3725919283502], [174.839510258836, -36.3726046397495], [174.839514105579, -36.3726051664089], [174.839527248071, -36.3726071002949], [174.839540327741, -36.3726092064128], [174.839553389585, -36.3726115020978], [174.839557050942, -36.3726122028771], [174.839561071823, -36.3726130243145], [174.839565071694, -36.3726139001593], [174.839569061908, -36.3726148392507], [174.839573019756, -36.3726158239104], [174.839576957018, -36.372616880999], [174.839609281873, -36.3726258928497], [174.839641513882, -36.3726352216114], [174.83964503888, -36.3726362850481], [174.83964890218, -36.3726375145395], [174.839652733327, -36.3726387986099], [174.83965654325, -36.3726401280771], [174.839660332375, -36.3726415209625], [174.839664078203, -36.3726429685986], [174.839667566062, -36.3726443480965], [174.839679506682, -36.3726492029842], [174.839691340125, -36.3726542398015], [174.839703054825, -36.3726594406986], [174.839711975461, -36.3726643240756], [174.839721388694, -36.3726692990176], [174.839730921311, -36.37267413691], [174.839740539883, -36.3726788382676], [174.839750266695, -36.3726834027472], [174.839751821525, -36.3726841089288], [174.839755212078, -36.3726856161189], [174.839758645713, -36.3726870595472], [174.83976208943, -36.3726884577502], [174.839765565725, -36.3726898193953], [174.839769085316, -36.3726911262894], [174.839772625918, -36.3726923787757], [174.839776187532, -36.3726935768543], [174.839779770581, -36.3726947385466], [174.839792604296, -36.3726987053077], [174.839821127451, -36.3727072077838], [174.839834088934, -36.3727109201803], [174.839862865504, -36.372718823819], [174.839864570172, -36.372719266285], [174.83986825934, -36.3727202009901], [174.839871958377, -36.372721081459], [174.83987570071, -36.3727219071769], [174.839879441769, -36.3727226788303], [174.839883192697, -36.3727233962476], [174.839886964848, -36.3727240682679], [174.839890757798, -36.3727246768698], [174.839894560617, -36.3727252312355], [174.839905194098, -36.3727266448654], [174.839916315932, -36.3727279698449], [174.839927467159, -36.3727291231047], [174.839938648418, -36.3727301316769], [174.83994983721, -36.3727309868941], [174.839952021951, -36.3727309892912], [174.839962959349, -36.3727311092331], [174.839973889213, -36.3727313825278], [174.839984822898, -36.3727318180146], [174.839995748625, -36.3727323888328], [174.840006644959, -36.3727331313686], [174.840017522616, -36.3727340274291], [174.840028381386, -36.3727350680034], [174.840034908449, -36.3727358147559], [174.840076232245, -36.3727440388239], [174.840094219679, -36.3727491250074], [174.840115198992, -36.3727553549369], [174.840136018179, -36.3727618847915], [174.840153665626, -36.3727676792956], [174.840174241284, -36.3727747537352], [174.840194667747, -36.3727821189178], [174.840200606512, -36.3727843890762], [174.840237095082, -36.3728021703086], [174.840238835838, -36.3728031981225], [174.840247599367, -36.3728085075371], [174.840256254021, -36.3728139267964], [174.840264788871, -36.3728194650831], [174.840273192986, -36.3728251315795], [174.84028148844, -36.3728309169315], [174.840289652735, -36.3728368124719], [174.840297674728, -36.3728428183723], [174.840402267857, -36.3729206829708], [174.840547958806, -36.3730231803187], [174.84055124933, -36.3730256445102], [174.840562274411, -36.3730337404257], [174.840573462807, -36.3730416715714], [174.840584837015, -36.3730494466145], [174.840596352254, -36.3730570572312], [174.840598230976, -36.3730582631932], [174.840602111623, -36.3730607002603], [174.840606057638, -36.373063073222], [174.840610058303, -36.3730654002712], [174.840614090909, -36.3730676637302], [174.840618189095, -36.3730698720943], [174.840622319647, -36.3730720348895], [174.840626504212, -36.3730741247403], [174.840630992169, -36.3730763180828], [174.840669796045, -36.3730949017962], [174.84067433823, -36.3730970312034], [174.840713584523, -36.3731149951322], [174.840715679512, -36.3731159183254], [174.840720014978, -36.3731177895112], [174.840724393527, -36.3731195969349], [174.840728826302, -36.3731213404247], [174.840733280087, -36.3731230295067], [174.840737776956, -36.3731246548265], [174.840742305553, -36.3731262075451], [174.84074686609, -36.3731276966734], [174.84075103261, -36.3731290206087], [174.840764954472, -36.3731332769672], [174.840778972156, -36.3731373425533], [174.840793063167, -36.3731412086998], [174.840807249787, -36.3731448750632], [174.840927634417, -36.3731748117818], [174.840932119823, -36.3731759505155], [174.840943885687, -36.3731790592542], [174.840955588734, -36.3731823402259], [174.840967228962, -36.3731857934306], [174.840967408302, -36.373185835736], [174.84097101325, -36.3731869790264], [174.840974585408, -36.3731881498641], [174.840978136768, -36.3731893841202], [174.840981666906, -36.3731906637733], [174.840985164891, -36.3731919980058], [174.840988630299, -36.3731933687964], [174.841017659363, -36.3732053515966], [174.841046539451, -36.3732176341478], [174.841046685789, -36.3732176949898], [174.841050087318, -36.3732191929591], [174.841053468049, -36.3732207543469], [174.841056793706, -36.3732223436255], [174.841060098353, -36.3732239873119], [174.841063359705, -36.3732256857495], [174.841066588479, -36.3732274207452], [174.841070450785, -36.3732295516038], [174.841080607116, -36.3732353082117], [174.841090655423, -36.3732412107077], [174.841100550924, -36.3732472507684], [174.841109104342, -36.3732526264549], [174.841110802461, -36.373253736039], [174.841113418195, -36.3732554714701], [174.84111969409, -36.3732597465039], [174.841125969986, -36.3732640215374], [174.841127646459, -36.3732651584969], [174.841130185896, -36.3732669672157], [174.841138216166, -36.3732728467344], [174.84128063235, -36.3733715897432], [174.841477911877, -36.373518558783], [174.841483037902, -36.373522283646], [174.841495394099, -36.3735310440106], [174.841507946614, -36.3735396210671], [174.84152067316, -36.3735480151589], [174.84152110337, -36.3735482969728], [174.841525165536, -36.3735508664199], [174.841529282351, -36.3735533899542], [174.841533442249, -36.3735558497261], [174.841537656372, -36.3735582455639], [174.84154192472, -36.3735605774674], [174.841546247506, -36.3735628544474], [174.841583298342, -36.3735817623495], [174.841620517065, -36.3736002259655], [174.841621091915, -36.3736004965346], [174.841625488665, -36.3736026011054], [174.84162993964, -36.3736046417419], [174.841634422343, -36.3736066097771], [174.841638948129, -36.3736085140499], [174.841643517209, -36.3736103635709], [174.84164812916, -36.3736121403188], [174.841654449208, -36.3736145036774], [174.841669368002, -36.3736199073591], [174.841684404053, -36.3736250838811], [174.841699557786, -36.3736300512646], [174.841880506274, -36.3736837874047], [174.841930579969, -36.3736981225655], [174.841963651489, -36.3737056800137], [174.841989469572, -36.3737024910791], [174.842002963516, -36.3736967727037], [174.842018384033, -36.3736860642151], [174.842041770789, -36.3736664171751], [174.842057034274, -36.3736490984434], [174.84206891862, -36.373632934241], [174.842088627363, -36.3736017708656], [174.84210160048, -36.3735740186123], [174.842114717605, -36.3735523251407], [174.842130597999, -36.3735322413087], [174.84215930449, -36.3735070010394], [174.842190643222, -36.3734778630757], [174.842220711275, -36.3734526017894], [174.842270910199, -36.3734140317929], [174.842340348381, -36.3733631520442], [174.842490466127, -36.3732463405143], [174.842491645483, -36.3732453037392], [174.842493252376, -36.3732439629065], [174.842494870836, -36.3732426399233], [174.842496523361, -36.3732413434566], [174.842498198809, -36.3732400736781], [174.842499908108, -36.3732388214053], [174.842501640331, -36.3732375958208], [174.842503395475, -36.3732363969246], [174.842505042597, -36.3732353439187], [174.842512839986, -36.3732313476078], [174.842513866235, -36.3732309081176], [174.842517852066, -36.3732292962189], [174.8425218726, -36.3732277378687], [174.842525916694, -36.3732262332387], [174.842526977858, -36.3732258563076], [174.842531079363, -36.3732244229036], [174.842535193499, -36.3732230524026], [174.84253935348, -36.373221735278], [174.842541324066, -36.3732211640364], [174.842550288832, -36.373219403209], [174.842552023002, -36.3732192051882], [174.842554313439, -36.3732189625291], [174.842556593797, -36.3732187650955], [174.842558885722, -36.3732185855113], [174.842561189853, -36.3732184508087], [174.842563483266, -36.3732183342993], [174.842565777743, -36.3732182628435], [174.842568084211, -36.3732182272585], [174.842727846214, -36.3732121026098], [174.842876083603, -36.3731989263672], [174.843014377424, -36.3731720128399], [174.84301557527, -36.373171759991], [174.843018814378, -36.3731710970538], [174.843022076834, -36.3731704788261], [174.843025351708, -36.3731699144905], [174.843028638788, -36.3731693950364], [174.84303193786, -36.3731689114532], [174.843035249563, -36.3731684907728], [174.843038562117, -36.3731681061351], [174.843041875734, -36.3731677665509], [174.843046037657, -36.3731674769731], [174.843059899083, -36.3731677498132], [174.843064300651, -36.3731681686413], [174.843070424521, -36.3731688313093], [174.843076516878, -36.3731695755892], [174.843082600219, -36.3731704101478], [174.843086962747, -36.3731710639412], [174.843093004921, -36.3731720433583], [174.843099015794, -36.373173113398], [174.843105017439, -36.3731742647057], [174.843109051226, -36.3731751579352], [174.843121889852, -36.3731793225665], [174.843122993073, -36.3731797832817], [174.843125954132, -36.3731810355976], [174.843128894182, -36.3731823423215], [174.843131801443, -36.3731836765933], [174.843134665199, -36.3731850566064], [174.843137519087, -36.3731864908556], [174.843140328832, -36.373187943814], [174.843143106426, -36.3731894513524], [174.843145862585, -36.3731909952775], [174.843250896546, -36.3732458378244], [174.843280882034, -36.3732614920274], [174.843493675441, -36.3733747042495], [174.843493720648, -36.3733747305936], [174.843497490187, -36.3733771782941], [174.843501325091, -36.3733795618876], [174.843505214856, -36.3733819085782], [174.84350914749, -36.373384182495], [174.843513134773, -36.3733864104982], [174.843513913806, -36.3733868311441], [174.843515302184, -36.3733875668873], [174.843516711997, -36.3733882662438], [174.843518132952, -36.3733889654282], [174.843519564411, -36.3733896374085], [174.84352101773, -36.3733902910234], [174.843522492695, -36.3733909172621], [174.843523967448, -36.3733915344902], [174.843525452492, -36.3733921155034], [174.843531369109, -36.3733943858359], [174.84354306353, -36.3733987123071], [174.843549066309, -36.3734008551129], [174.843560865563, -36.3734049005306], [174.8435617419, -36.3734051934782], [174.84356328053, -36.373405683524], [174.843564829665, -36.3734061463655], [174.843566389728, -36.3734066000244], [174.843567960297, -36.3734070264792], [174.843569541156, -36.3734074167191], [174.843571132946, -36.3734077977763], [174.84357272431, -36.373408160812], [174.843574325966, -36.373408487633], [174.843574404388, -36.3734085044503], [174.84357909623, -36.3734094145475], [174.843583808656, -36.3734102522148], [174.843588541877, -36.373411026463], [174.843593296107, -36.3734117463028], [174.843598070708, -36.373412384702], [174.84365532824, -36.3734198657805], [174.843676091328, -36.3734225829613], [174.843704077073, -36.3734262342582], [174.843824071595, -36.3734452491069], [174.843847444192, -36.3734489625778], [174.843976236079, -36.3734718706994], [174.844019128828, -36.3734780590469], [174.844019529529, -36.3734780348319], [174.844022290714, -36.3734779020579], [174.844025041395, -36.3734777964878], [174.844027804282, -36.3734777357992], [174.844030579163, -36.3734777109812], [174.844033343752, -36.3734777223781], [174.844036109405, -36.3734777788283], [174.844038864554, -36.3734778624827], [174.844040438184, -36.3734779463525], [174.844051060685, -36.37347935978], [174.844055541895, -36.3734803181805], [174.844061010655, -36.3734815587936], [174.844066447691, -36.3734828720081], [174.844070910871, -36.3734840109661], [174.844076250817, -36.3734854608891], [174.844081558825, -36.3734869744029], [174.844083074324, -36.3734874287431], [174.844092606179, -36.3734912747551], [174.844092978346, -36.3734914583021], [174.844095313755, -36.3734926481423], [174.844097616163, -36.3734938565201], [174.844099886208, -36.3734951104674], [174.844102145749, -36.3734963916189], [174.844104361571, -36.3734977095013], [174.844106555534, -36.3734990457492], [174.844108728276, -36.3735004273946], [174.844250532569, -36.373550897356], [174.844353898862, -36.3735869885393], [174.844430017955, -36.3736171906531], [174.844469449774, -36.3736354118706], [174.844511439139, -36.3736514843022], [174.844537791552, -36.3736657340295], [174.844574919945, -36.3736945010909], [174.844614412564, -36.373714821578], [174.844635572647, -36.3737291514814], [174.844646067488, -36.3737331808819], [174.844677441061, -36.3737410432338], [174.844732239757, -36.3737505899159], [174.844781774646, -36.3737581356528], [174.844841655408, -36.3737634032661], [174.844883424256, -36.3737710779401], [174.844922525258, -36.373776702569], [174.844953849278, -36.3737824653554], [174.844969646634, -36.3737906043129], [174.845011625037, -36.3738066767351], [174.845038148668, -36.3738272244775], [174.845051410382, -36.3738374938409], [174.845064721911, -36.3738498717049], [174.845085821583, -36.3738621112163], [174.845104225873, -36.3738701918514], [174.845127750447, -36.3738760841043], [174.845140780351, -36.3738779560085], [174.84520061162, -36.3738811239471], [174.84524213779, -36.3738804102273], [174.8453374991, -36.3738738357629], [174.8453511405, -36.3738700275001]]}, "properties": {"OBJECTID": 1928, "TRACKNAME": "Ecology Trail", "CONDITIONSOFUSE": "Tawharanui Regional Park", "STATUS": "Open", "WEBLINK": "https://www.aucklandcouncil.govt.nz/en/parks-recreation/find-park-beach/park-detail/228.html", "VALIDATIONSTATE": 3, "created_user": "AC_owner", "last_edited_user": "AC_owner", "last_edited_date": 1789875254325, "created_date": 1789875254325, "PARK_SAPSITEID": null, "TRACK_ID": null, "KAURIDIEBACK_TRACK": null, "KAURIDIEBACK_MITIGATED": null, "SegmentID": null, "GlobalID": "0d85f5c5-e364-4d0b-9abc-c830be13f4a0", "Shape__Length": 695.6599966714284}}, {"type": "Feature", "id": 2973, "geometry": {"type": "LineString", "coordinates": [[174.845968527358, -36.3667266536772], [174.84589152773, -36.3668375521069], [174.845812865012, -36.3668781192973], [174.845586238102, -36.3669591327834], [174.845496441449, -36.3669652896433], [174.845309252786, -36.3669681819071], [174.84523384739, -36.3670218164541], [174.845081159207, -36.3671744277403], [174.844936543209, -36.3673567252119], [174.844831188172, -36.367515760316], [174.844728442959, -36.3676604444081], [174.844694756335, -36.3677325132584], [174.844693779833, -36.3678160023963], [174.844732064008, -36.3678762275699], [174.844781115753, -36.367955365425], [174.844846945028, -36.3680580942183], [174.844923598388, -36.3681821207822], [174.844982338276, -36.3682968836098], [174.845172138493, -36.3686540792384], [174.845295197741, -36.3689324102443], [174.845424210456, -36.3692130342104], [174.84552407407, -36.3693832084645], [174.845637457042, -36.3695639048554], [174.84571238566, -36.3696772254501], [174.845743893866, -36.3697625967304], [174.845785522343, -36.3698394646438], [174.845846086216, -36.3699064994885], [174.845904294746, -36.3699986133579], [174.845924348765, -36.3700984713162], [174.845912407208, -36.3701547021388], [174.845876289997, -36.370186264859], [174.845765027547, -36.3702201814848], [174.845669959969, -36.3701906461778], [174.845534682857, -36.3700818357833], [174.845378234089, -36.3699506966087], [174.845245792177, -36.3698370718625], [174.845074632976, -36.3697073511994], [174.844929921908, -36.3695736440738], [174.844607219829, -36.3693415381701], [174.844427514355, -36.3692486075257], [174.844325651759, -36.369257358413], [174.844288086626, -36.3694206382937], [174.844289421377, -36.3696024595741], [174.84432538012, -36.3696844507854], [174.84459164025, -36.3701851869624], [174.844745755285, -36.3704471949266], [174.844958061571, -36.3706676281352], [174.84513301503, -36.3708096800255], [174.845315796192, -36.3709073475294], [174.845524432089, -36.3709723145098]]}, "properties": {"OBJECTID": 2973, "TRACKNAME": "Ecology Trail", "CONDITIONSOFUSE": "Tawharanui Regional Park", "STATUS": "Open", "WEBLINK": "https://www.aucklandcouncil.govt.nz/en/parks-recreation/find-park-beach/park-detail/228.html", "VALIDATIONSTATE": 3, "created_user": "AC_owner", "last_edited_user": "AC_owner", "last_edited_date": 1789875254325, "created_date": 1789875254325, "PARK_SAPSITEID": null, "TRACK_ID": null, "KAURIDIEBACK_TRACK": null, "KAURIDIEBACK_MITIGATED": null, "SegmentID": null, "GlobalID": "3c9ef6c7-1c25-4c5e-a8db-9ddc86077984", "Shape__Length": 885.3667395506632}}]}