{"type": "FeatureCollection", "features": [{"type": "Feature", "id": 248, "geometry": {"type": "LineString", "coordinates": [[174.435875776127, -36.8291126239626], [174.435765456614, -36.8290479504374], [174.435707753181, -36.8290126386756], [174.435626980931, -36.8289895380609], [174.435436896037, -36.8290163512433], [174.435208214151, -36.8291162820359], [174.435018798359, -36.8291753381615], [174.434850983444, -36.8293067040678], [174.434603779883, -36.8294794911626], [174.434556014536, -36.8295930836937], [174.434448385059, -36.8297236145635], [174.434319846748, -36.829814114558], [174.434221580219, -36.829912253527], [174.434184193159, -36.830041837525], [174.434196614517, -36.8301546046193], [174.434159723725, -36.8303083758887], [174.434021496766, -36.8304151363212], [174.433852662057, -36.8304981085678], [174.433793997005, -36.8305715131485], [174.433617343027, -36.8307594649518], [174.433409227701, -36.8308833195372], [174.433341047301, -36.8309810499307], [174.433373718242, -36.8311016043149], [174.433345832515, -36.8312068531675], [174.433338186179, -36.831319889349], [174.433229710479, -36.8314101102159], [174.433050505026, -36.8314770985611], [174.432803959177, -36.8316821257103], [174.432629513682, -36.8319749259961], [174.432605395192, -36.8322575856261]]}, "properties": {"OBJECTID": 248, "TRACKNAME": "Edwin Mitchelson Track", "CONDITIONSOFUSE": "Muriwai Regional Park", "STATUS": "Closed Dieback", "WEBLINK": "https://www.aucklandcouncil.govt.nz/en/parks-recreation/find-park-beach/park-detail/220.html", "VALIDATIONSTATE": 3, "created_user": "AC_owner", "last_edited_user": "AC_owner", "last_edited_date": 1789875254325, "created_date": 1789875254325, "PARK_SAPSITEID": null, "TRACK_ID": null, "KAURIDIEBACK_TRACK": null, "KAURIDIEBACK_MITIGATED": null, "SegmentID": null, "GlobalID": "a8cf3b04-73e6-4f2b-9b40-b355278949ee", "Shape__Length": 514.4692916548294}}, {"type": "Feature", "id": 1679, "geometry": {"type": "LineString", "coordinates": [[174.432625786472, -36.8323961537047], [174.432566571619, -36.8326326164654], [174.432525035505, -36.8329650352769], [174.432618449825, -36.8330050308519], [174.432665736059, -36.8330458527176], [174.432734358185, -36.8331195524471], [174.432833125127, -36.8331555262411], [174.43295680238, -36.8331496907396], [174.433111509523, -36.8331475733246], [174.433190080507, -36.8332045492699], [174.433197163315, -36.833295675356], [174.433131794784, -36.8333753529619], [174.432937502925, -36.8334567920185], [174.432783768907, -36.8335044987175], [174.432651613978, -36.8335975283552], [174.432550754423, -36.833706712166], [174.432444206513, -36.8337910951359], [174.43234762957, -36.833858763308], [174.432261720401, -36.8339428703858], [174.432237251942, -36.8340053970462], [174.432213314504, -36.8340927956197], [174.432230444668, -36.8341713435198], [174.432254314026, -36.8343244451637], [174.432236230556, -36.8344449442913], [174.432156871159, -36.8345952965214], [174.432091666267, -36.8346832643594], [174.432015550131, -36.8347423569359], [174.431928312013, -36.8347642749834], [174.431845268816, -36.834740532194], [174.431792559466, -36.8346873451959], [174.431733819715, -36.8345927849745], [174.43171651298, -36.8345059463586]]}, "properties": {"OBJECTID": 1679, "TRACKNAME": "Edwin Mitchelson Track", "CONDITIONSOFUSE": "Muriwai Regional Park", "STATUS": "Open", "WEBLINK": "https://www.aucklandcouncil.govt.nz/en/parks-recreation/find-park-beach/park-detail/220.html", "VALIDATIONSTATE": 3, "created_user": "AC_owner", "last_edited_user": "AC_owner", "last_edited_date": 1789875254325, "created_date": 1789875254325, "PARK_SAPSITEID": null, "TRACK_ID": null, "KAURIDIEBACK_TRACK": null, "KAURIDIEBACK_MITIGATED": null, "SegmentID": null, "GlobalID": "731722f9-f588-4842-9a04-b424029f5780", "Shape__Length": 396.7870365197635}}]}