{"type": "FeatureCollection", "features": [{"type": "Feature", "id": 3623, "geometry": {"type": "LineString", "coordinates": [[174.65625254555, -36.9511219008335], [174.656248578205, -36.9511033542215], [174.656240860406, -36.9510762755196], [174.656253227513, -36.9510710951201], [174.6562966068, -36.9510983919859], [174.656347270234, -36.9511327420888], [174.656388100347, -36.9511657980251], [174.656415981798, -36.9512183522313], [174.656385450574, -36.951334290962], [174.656355807931, -36.9514306968591], [174.656366077805, -36.9514540615572], [174.656501105314, -36.951463371447], [174.65682325875, -36.9515600529843]]}, "properties": {"OBJECTID": 3623, "TRACKNAME": "Eric Leigh Hunt Track", "CONDITIONSOFUSE": "TINOPAI RESERVE", "STATUS": "Closed upgrade", "WEBLINK": "https://www.aucklandcouncil.govt.nz/en/parks-recreation/find-park-beach/park-detail/2706.html", "VALIDATIONSTATE": 3, "created_user": "AC_owner", "last_edited_user": "AC_owner", "last_edited_date": 1789875254325, "created_date": 1789875254325, "PARK_SAPSITEID": null, "TRACK_ID": null, "KAURIDIEBACK_TRACK": null, "KAURIDIEBACK_MITIGATED": null, "SegmentID": null, "GlobalID": "69d390c6-67c0-44f9-8f93-9affced6cb63", "Shape__Length": 98.34706859593328}}, {"type": "Feature", "id": 11368, "geometry": {"type": "LineString", "coordinates": [[174.65682325875, -36.9515600529843], [174.656957797256, -36.9516234435577], [174.657063991816, -36.9516941717449], [174.657086080119, -36.9517206577249], [174.657084526456, -36.951752095784], [174.657062310639, -36.9519037191215], [174.657063793532, -36.951924057099]]}, "properties": {"OBJECTID": 11368, "TRACKNAME": "Eric Leigh Hunt Track", "CONDITIONSOFUSE": "TINOPAI RESERVE", "STATUS": "Closed upgrade", "WEBLINK": "https://www.aucklandcouncil.govt.nz/en/parks-recreation/find-park-beach/park-detail/2706.html", "VALIDATIONSTATE": 3, "created_user": "AC_owner", "last_edited_user": "AC_owner", "last_edited_date": 1789875254325, "created_date": 1789875254325, "PARK_SAPSITEID": null, "TRACK_ID": null, "KAURIDIEBACK_TRACK": null, "KAURIDIEBACK_MITIGATED": null, "SegmentID": null, "GlobalID": "3534547b-d53c-425f-83ad-05e75ce8e18d", "Shape__Length": 52.4118646925013}}]}