{"type": "FeatureCollection", "features": [{"type": "Feature", "id": 252, "geometry": {"type": "LineString", "coordinates": [[175.182525920068, -37.0609411994781], [175.181208475491, -37.0598007201115], [175.18058779547, -37.0593457411667], [175.180096669731, -37.05944812401], [175.17973629677, -37.0596511830516], [175.178891998542, -37.0600109096961], [175.178040041483, -37.0601257706044], [175.177319370465, -37.0605319622431], [175.176598596954, -37.0609380631373], [175.176178716794, -37.0611913114356], [175.175694683139, -37.0613478790909], [175.1752596135, -37.0611116721237], [175.174644392223, -37.0609769828273], [175.173787857898, -37.0609451135812], [175.173120690106, -37.0611052984556], [175.172574085184, -37.0612140728878], [175.172140514988, -37.0610268442863], [175.17121387998, -37.0607024008048], [175.169673445373, -37.0602923161854], [175.168632300684, -37.0602150385281], [175.167786358441, -37.0605256092235], [175.1669954522, -37.0606392729871], [175.166329751894, -37.0608483221277], [175.165607433208, -37.0612055461268], [175.165068421518, -37.0615589699665], [175.16434460307, -37.0618671944699], [175.163258860477, -37.0623294350043], [175.162293871416, -37.0627403560139], [175.1618663347, -37.0627487829235], [175.161064838318, -37.0625198329033], [175.160451108821, -37.0624339717317], [175.159725780469, -37.0626931782985], [175.159713748884, -37.0623017022674], [175.160013019529, -37.0620998164546], [175.160495613738, -37.0618944094104], [175.161097297886, -37.0615887029059], [175.161459214761, -37.0614346009056], [175.161329469106, -37.0611923253052], [175.161080720104, -37.0610502536561], [175.161036693073, -37.0610411440644], [175.160650138838, -37.0609608748802], [175.160097500172, -37.0608738984417], [175.159553930113, -37.0610805045221], [175.1591338973, -37.0613336959518], [175.158645384037, -37.0613433116001], [175.158094222427, -37.0613052281835], [175.157659202131, -37.0610689530855], [175.157233245636, -37.0611263537758], [175.15695868614, -37.0614510480792], [175.156938407546, -37.0614750263079], [175.156582490635, -37.0618248991799], [175.156223609431, -37.0620767879448], [175.155750059771, -37.0625758538552], [175.155450775475, -37.0627777293098], [175.155042817005, -37.0634223842611], [175.154749436201, -37.0638199524602], [175.154549899025, -37.0639323386312], [175.154208783622, -37.0641244282393], [175.153900853248, -37.0644208889086], [175.153793335974, -37.0645244840304], [175.15388598908, -37.0655510166005], [175.154207914459, -37.0660833790035], [175.154187897847, -37.0661002320825], [175.153969597676, -37.0662839628758], [175.153981601745, -37.0666755320911], [175.153992130044, -37.0670181087202], [175.154130820307, -37.0675540702537], [175.154023711825, -37.0680459304768], [175.153721351312, -37.0681498207179], [175.153106109862, -37.0680151104013], [175.152553423898, -37.0679280101623], [175.15238112236, -37.0686268591772], [175.151961795857, -37.0688318912433], [175.151718803695, -37.0689153867244], [175.151266752081, -37.0691210643471], [175.150799543707, -37.0693663911571], [175.150361047378, -37.0694799633287], [175.150200658625, -37.0695880669538], [175.149996814018, -37.0698806797139], [175.149695215996, -37.0701883220872], [175.149536025197, -37.0703357520099], [175.149483459441, -37.0705641283066]]}, "properties": {"OBJECTID": 252, "TRACKNAME": "Ernies Track", "CONDITIONSOFUSE": "Hunua Ranges Regional Park", "STATUS": "Open", "WEBLINK": "https://www.aucklandcouncil.govt.nz/en/parks-recreation/find-park-beach/park-detail/213.html", "VALIDATIONSTATE": 3, "created_user": "AC_owner", "last_edited_user": "AC_owner", "last_edited_date": 1789875254325, "created_date": 1789875254325, "PARK_SAPSITEID": null, "TRACK_ID": null, "KAURIDIEBACK_TRACK": null, "KAURIDIEBACK_MITIGATED": null, "SegmentID": null, "GlobalID": "e7db2637-a5b2-4696-abe1-0e9572621b67", "Shape__Length": 4397.527306878972}}, {"type": "Feature", "id": 2515, "geometry": {"type": "LineString", "coordinates": [[175.184040849779, -37.0703393861302], [175.184028099473, -37.0699306239617], [175.184025607301, -37.0698500258631], [175.184069936955, -37.0693103688205], [175.184059277108, -37.0689678010857], [175.184473088123, -37.068518744219], [175.184763241076, -37.0680232159693], [175.1848075789, -37.0674836485706], [175.184178542029, -37.0669085503975], [175.183677756879, -37.0665267124827], [175.184154131433, -37.0661254334174], [175.184874813429, -37.0657192902006], [175.185285613326, -37.0651723379997], [175.185078051642, -37.06439286705], [175.184987974271, -37.063464173251], [175.184785006186, -37.0628315750795], [175.183972783601, -37.0622601205665], [175.183533097627, -37.0618771559145], [175.183155994005, -37.0615418761683], [175.18262290915, -37.0610251062076], [175.182525916722, -37.060941200441]]}, "properties": {"OBJECTID": 2515, "TRACKNAME": "Ernies Track", "CONDITIONSOFUSE": "Hunua Ranges Regional Park", "STATUS": "Open", "WEBLINK": "https://www.aucklandcouncil.govt.nz/en/parks-recreation/find-park-beach/park-detail/213.html", "VALIDATIONSTATE": 3, "created_user": "AC_owner", "last_edited_user": "AC_owner", "last_edited_date": 1789875254325, "created_date": 1789875254325, "PARK_SAPSITEID": null, "TRACK_ID": null, "KAURIDIEBACK_TRACK": null, "KAURIDIEBACK_MITIGATED": null, "SegmentID": null, "GlobalID": "8919225d-61fe-4f5a-ae25-0fcce021bd88", "Shape__Length": 1247.5755134945703}}]}