{"type": "FeatureCollection", "features": [{"type": "Feature", "id": 3000, "geometry": {"type": "LineString", "coordinates": [[175.064310315558, -36.8155518074537], [175.064549652401, -36.8153988994358], [175.064776754503, -36.8149721708004], [175.06484641439, -36.8146656257728], [175.064888977547, -36.8144378387337], [175.064931960968, -36.8142257000381], [175.065031276217, -36.8137542237053], [175.065148343845, -36.8133998698654], [175.065272709196, -36.8132094896866], [175.065324669529, -36.8131537515178], [175.065418580276, -36.8130568879443]]}, "properties": {"OBJECTID": 3000, "TRACKNAME": "Eve's to Tawa Link", "CONDITIONSOFUSE": "Whakanewha Regional Park", "STATUS": "Open", "WEBLINK": "https://www.aucklandcouncil.govt.nz/en/parks-recreation/find-park-beach/park-detail/3422.html", "VALIDATIONSTATE": 3, "created_user": "AC_owner", "last_edited_user": "AC_owner", "last_edited_date": 1789875254325, "created_date": 1789875254325, "PARK_SAPSITEID": null, "TRACK_ID": null, "KAURIDIEBACK_TRACK": null, "KAURIDIEBACK_MITIGATED": null, "SegmentID": null, "GlobalID": "44227b9e-1454-4b57-8ac0-960c33500493", "Shape__Length": 301.76557405665574}}]}