{"type": "FeatureCollection", "features": [{"type": "Feature", "id": 2192, "geometry": {"type": "LineString", "coordinates": [[174.627631046292, -36.9428498428037], [174.627696807432, -36.9426735206267], [174.627712638901, -36.9425968574166], [174.627700912294, -36.942353247213], [174.627726775301, -36.9421987645427], [174.627875729001, -36.9418059557472], [174.627909465979, -36.9417410529979], [174.628172481497, -36.9415044558387], [174.628335390513, -36.9414299317679], [174.62856368207, -36.9412570468557], [174.628605495884, -36.9412162776404], [174.628703751135, -36.9410812921776], [174.62892752402, -36.940904691902], [174.629097081914, -36.9408131851895], [174.629533747949, -36.9405547693019], [174.629685858592, -36.9404351447349], [174.629733499188, -36.940427373793], [174.629882420444, -36.9404357339558], [174.629943895356, -36.9404225470016], [174.630082067411, -36.9403641463728], [174.630208141057, -36.9402991515671], [174.630324653292, -36.9401964384313], [174.630362594575, -36.9401449001721], [174.630389040048, -36.940060447423], [174.630396586886, -36.940009173266], [174.630381968001, -36.9398565753701], [174.63054299276, -36.9393380494041], [174.630574111758, -36.9392719578253], [174.630701630846, -36.9390752662524], [174.630815878311, -36.9389395366511], [174.631052715541, -36.938684643813], [174.631212444784, -36.9385405978509], [174.631411687141, -36.9383067688438], [174.631494433339, -36.9381394257073], [174.631656682707, -36.937888287589], [174.631668969906, -36.9378472596496], [174.631682324353, -36.9377211169859], [174.631752475672, -36.9376251263493], [174.632792399559, -36.9367342465474], [174.632950891626, -36.936680361106], [174.633054498983, -36.93665693068], [174.633697822285, -36.9365816491146], [174.633784544595, -36.9365782277841], [174.633856013869, -36.9366007119514], [174.633952883776, -36.9366453208079], [174.63409045046, -36.9367630864276], [174.634231668529, -36.936851860187], [174.634740416598, -36.9369571699017], [174.634815416593, -36.9369670878314], [174.634845089243, -36.9369616407531], [174.634900959107, -36.9369362322207], [174.635474342178, -36.9366285517655], [174.635773752962, -36.9365617070707], [174.635835302502, -36.9365672262876], [174.636029637836, -36.9366479543654], [174.636078165364, -36.9366592772943], [174.636126529093, -36.9366479208994], [174.636312332426, -36.936575120221], [174.63670418388, -36.9365328788263], [174.636827375221, -36.9365320072618], [174.636889992417, -36.9365428706378], [174.637008944802, -36.9365805097901], [174.637163248915, -36.9366556271507], [174.637212066695, -36.9366663912823], [174.637830938828, -36.9366062525793], [174.638020791762, -36.9365816624469], [174.638084185099, -36.9365801506747], [174.638276688028, -36.9365946421369], [174.638526224767, -36.9366590670107], [174.638973680465, -36.9366502173713], [174.639019951854, -36.9366686854842], [174.639149533878, -36.9367526421054], [174.63920787417, -36.9367722874509], [174.639583884992, -36.9368290836548], [174.639890084778, -36.9369386352351], [174.639991559362, -36.9369461255705], [174.640214847543, -36.9369397253521], [174.640419351452, -36.9370041246958], [174.64080120898, -36.9370140724594], [174.641040890673, -36.9369346863673], [174.641113449126, -36.9369205707384], [174.641164307602, -36.9369317439881], [174.64137681549, -36.9370091060135], [174.64148223088, -36.9370140564794], [174.641845256407, -36.9369930348862], [174.642138680651, -36.9369603198257], [174.642213103556, -36.9369477551021], [174.642351627092, -36.9369044772169], [174.642413214423, -36.9369002164619], [174.642697949987, -36.9369357243111], [174.642990757246, -36.9370062363321], [174.643768423341, -36.9371279635134], [174.644211304983, -36.9372209412959]]}, "properties": {"OBJECTID": 2192, "TRACKNAME": "Exhibition Drive", "CONDITIONSOFUSE": null, "STATUS": "Open", "WEBLINK": null, "VALIDATIONSTATE": 3, "created_user": "AC_owner", "last_edited_user": "AC_owner", "last_edited_date": 1789875254325, "created_date": 1789875254325, "PARK_SAPSITEID": null, "TRACK_ID": null, "KAURIDIEBACK_TRACK": null, "KAURIDIEBACK_MITIGATED": null, "SegmentID": null, "GlobalID": "415caa7a-16b4-4e33-8eb5-cc3ec0e6ade8", "Shape__Length": 1936.3391013647313}}, {"type": "Feature", "id": 12760, "geometry": {"type": "LineString", "coordinates": [[174.621162449043, -36.950505552182], [174.621192174743, -36.9502486510503], [174.621237346642, -36.9500828240614], [174.62124459187, -36.9499400739367], [174.621173343629, -36.9495350663436], [174.621176006024, -36.9493661504129], [174.621135945887, -36.9488157960721], [174.62118731083, -36.9486533168516], [174.621283057595, -36.9484950988513], [174.621329748747, -36.948398608113], [174.621395154713, -36.9481355618409], [174.621403079094, -36.9479616661649], [174.621400623447, -36.9478751755229], [174.62137555191, -36.9477829240369], [174.621255985504, -36.9475060441758], [174.621257619669, -36.9473437752675], [174.621300388844, -36.9471916103215], [174.621408983936, -36.9470822826427], [174.621428928531, -36.9470528389814], [174.621489253514, -36.946530310158], [174.621620848659, -36.9462933912406], [174.621666194851, -36.9462583340135], [174.621807113235, -36.9461932362964], [174.622344014264, -36.9460036077357], [174.6228247044, -36.9459480033563], [174.623012946314, -36.9459002952045], [174.623054295992, -36.9458650748594], [174.623169839066, -36.9456564164926], [174.623208239547, -36.9456176472374], [174.623500736868, -36.9455068615389], [174.623740653797, -36.9454536378445], [174.624035906667, -36.9453015998325], [174.624203231, -36.94528588992], [174.624243021114, -36.9452764772191], [174.624368233936, -36.9452017972748], [174.62447608346, -36.9451175570911], [174.624606140638, -36.9449118733277], [174.624630914257, -36.9448627523928], [174.624637917603, -36.9448291515872], [174.624591954976, -36.9444674946168], [174.624538658139, -36.944262531287], [174.624502840797, -36.9440468037072], [174.624510392772, -36.9438752203438], [174.624548867561, -36.9436941345854], [174.624569822594, -36.9435148190184], [174.624575611848, -36.9430908745157], [174.624630882439, -36.9429921964897], [174.624755793402, -36.9428418988103], [174.624879186741, -36.9427268609549], [174.625039009381, -36.9426304140915], [174.625201505859, -36.9425633820324], [174.625379207048, -36.9425307309251], [174.625602606302, -36.9425014441858], [174.625782797308, -36.9425145803219], [174.626403860282, -36.9426726938183], [174.626448252238, -36.9426955271464], [174.626534069251, -36.9427579264943], [174.626580255918, -36.9427800817075], [174.627383604213, -36.9430627397601], [174.627423242229, -36.9430697398671], [174.62745138671, -36.943064954615], [174.627544437986, -36.9430083957688], [174.6275718305, -36.9429719626881], [174.627631046292, -36.9428498428037]]}, "properties": {"OBJECTID": 12760, "TRACKNAME": "Exhibition Drive", "CONDITIONSOFUSE": null, "STATUS": "Open", "WEBLINK": null, "VALIDATIONSTATE": 3, "created_user": "AC_owner", "last_edited_user": "AC_owner", "last_edited_date": 1789875254325, "created_date": 1789875254325, "PARK_SAPSITEID": null, "TRACK_ID": null, "KAURIDIEBACK_TRACK": null, "KAURIDIEBACK_MITIGATED": null, "SegmentID": null, "GlobalID": "49b7d0b1-531f-44eb-9998-d7084ef1e62b", "Shape__Length": 1335.7416638356758}}]}