{"type": "FeatureCollection", "features": [{"type": "Feature", "id": 12262, "geometry": {"type": "LineString", "coordinates": [[175.147456930587, -37.1101004821089], [175.147599526838, -37.109997624871], [175.147907554696, -37.1098581706938], [175.148049645251, -37.1097386489193], [175.148193776457, -37.1096857826693], [175.148358198124, -37.1096158482309], [175.148499771292, -37.1094796531246], [175.14866114098, -37.1093097255729], [175.148758531287, -37.1090910194085], [175.148854406971, -37.1088223301297], [175.148930978854, -37.1086040373362], [175.14904970113, -37.1084015902754], [175.149085692592, -37.1082174606666], [175.149140963554, -37.1079829078516], [175.149134826396, -37.1077829230587], [175.149129721174, -37.1076162568783], [175.149125121065, -37.1074662637189], [175.149204776971, -37.1073479808839], [175.149306763862, -37.1072792674847], [175.149449868525, -37.1071930720339], [175.149593994186, -37.1071402132514], [175.149758925272, -37.1070869408659], [175.149882233387, -37.1070344863744], [175.150027368438, -37.1070149551029], [175.150342047147, -37.1070921343243], [175.150446098521, -37.1070900932053], [175.150591233244, -37.1070705522365], [175.150820129996, -37.1070660470484], [175.151046960535, -37.1069948772355], [175.151168740537, -37.1068924296488], [175.151332647801, -37.1068058183265], [175.151519404508, -37.1067854666307], [175.151601099567, -37.1067338288691], [175.151725439247, -37.1067147090981], [175.151889345466, -37.1066280970355], [175.151989284931, -37.1064927348864], [175.152047095802, -37.1063415095218], [175.15208411235, -37.1061906977661], [175.152226178271, -37.1060711715446], [175.152306849603, -37.1059861965523], [175.152449948321, -37.1058999976457], [175.152550919185, -37.1057979536233], [175.152610773662, -37.1057134015649], [175.152649328254, -37.1056125902151], [175.15264574413, -37.1054959341349], [175.152663470703, -37.1053955281082], [175.152722830183, -37.1052943028054], [175.152741590251, -37.1052272243284], [175.152820720893, -37.1050922574789], [175.15285978052, -37.1050081100533], [175.152877517974, -37.1049077037952], [175.152957154184, -37.104789418865], [175.153016501585, -37.1046881936374], [175.15309410281, -37.1045032258763], [175.153132644972, -37.1044024145944], [175.153210751308, -37.1042341107489], [175.153287318071, -37.1040158243312], [175.153366963756, -37.1038975299469], [175.153466907914, -37.1037621484711], [175.153523185619, -37.103560930745], [175.153540921949, -37.1034605244035]]}, "properties": {"OBJECTID": 12262, "TRACKNAME": "Experts Downhill", "CONDITIONSOFUSE": "Hunua Ranges Regional Park", "STATUS": "Temp Closed", "WEBLINK": "https://www.aucklandcouncil.govt.nz/en/parks-recreation/find-park-beach/park-detail/213.html", "VALIDATIONSTATE": 3, "created_user": "AC_owner", "last_edited_user": "AC_owner", "last_edited_date": 1789875254325, "created_date": 1789875254325, "PARK_SAPSITEID": null, "TRACK_ID": null, "KAURIDIEBACK_TRACK": null, "KAURIDIEBACK_MITIGATED": null, "SegmentID": null, "GlobalID": "6a85f60a-e594-4a94-8a56-4025acd7e890", "Shape__Length": 1021.0586846765464}}]}