{"type": "FeatureCollection", "features": [{"type": "Feature", "id": 414, "geometry": {"type": "LineString", "coordinates": [[175.089084226444, -37.0673542889488], [175.089457414787, -37.0674783066644], [175.089539676717, -37.0675988795582], [175.089542941535, -37.0677178433847], [175.089579866584, -37.0678301845202], [175.089653982364, -37.0679960994388]]}, "properties": {"OBJECTID": 414, "TRACKNAME": "Falls Path", "CONDITIONSOFUSE": "Hunua Ranges Regional Park", "STATUS": "Open", "WEBLINK": "https://www.aucklandcouncil.govt.nz/en/parks-recreation/find-park-beach/park-detail/213.html", "VALIDATIONSTATE": 3, "created_user": "AC_owner", "last_edited_user": "AC_owner", "last_edited_date": 1789875254325, "created_date": 1789875254325, "PARK_SAPSITEID": null, "TRACK_ID": null, "KAURIDIEBACK_TRACK": null, "KAURIDIEBACK_MITIGATED": null, "SegmentID": null, "GlobalID": "49ab3dc0-25dd-4c54-a1a7-7276d0df801d", "Shape__Length": 96.83784433315806}}]}