{"type": "FeatureCollection", "features": [{"type": "Feature", "id": 2031, "geometry": {"type": "LineString", "coordinates": [[174.5451703366, -36.9155017708286], [174.5451657099, -36.9155022366344], [174.545160970431, -36.9155026768663], [174.545156095746, -36.9155030918161], [174.545151108109, -36.9155034721806], [174.54514600752, -36.9155038179598], [174.545140771716, -36.915504138457], [174.545135423142, -36.9155044333801], [174.545129950211, -36.9155046848526], [174.545124353288, -36.915504910897], [174.545118632372, -36.9155051115133], [174.545112798503, -36.9155052775442], [174.545106840461, -36.9155054091357], [174.545100769648, -36.915505515153], [174.545094653217, -36.9155055857089], [174.545088749832, -36.9155056444793], [174.545083070533, -36.915505682307], [174.545077615501, -36.9155057082034], [174.545072373151, -36.9155057042918], [174.545067355069, -36.9155056884488], [174.545062560891, -36.915505642652], [174.54505797994, -36.9155055940812], [174.545053622892, -36.9155055155565], [174.545049489931, -36.9155054160894], [174.545045570015, -36.915505304837], [174.545041874184, -36.9155051726422], [174.54503840244, -36.9155050195049], [174.545035143559, -36.9155048455712], [174.545032108945, -36.9155046597064], [174.545029298418, -36.9155044528992], [174.545026711976, -36.9155042251496], [174.545024338398, -36.9155039766036], [174.545022188906, -36.9155037071152], [174.545020252459, -36.9155034258419], [174.545018551138, -36.9155031144689], [174.54501705164, -36.9155027914569], [174.545015787633, -36.9155024563678], [174.545014736307, -36.9155020914712], [174.545013797569, -36.9155017431372], [174.545012870599, -36.9155014216911], [174.545011966801, -36.915501135998], [174.545011086176, -36.9155008860581], [174.545010217318, -36.915500663006], [174.545009382856, -36.915500475561], [174.545008560161, -36.9155003150038], [174.545007760638, -36.9155001901998], [174.545006984105, -36.9155000921376], [174.545006219523, -36.9155000299744], [174.545005489335, -36.9155000034184], [174.545004770915, -36.9155000037503], [174.545004075667, -36.9155000398352], [174.545003392187, -36.915500102808], [174.545002743101, -36.9155002013879], [174.545002105965, -36.9155003358669], [174.54500149182, -36.9155004970877], [174.545000900665, -36.9155006850504], [174.545000332864, -36.9155009177775], [174.544999776649, -36.9155011683811], [174.544999255011, -36.9155014636031], [174.54499874514, -36.915501785713], [174.544998247038, -36.9155021347107], [174.544997772107, -36.9155025194615], [174.54499727455, -36.915502895493], [174.544996720335, -36.9155032452206], [174.544996132271, -36.9155035863749], [174.544995510357, -36.9155039189558], [174.544994843008, -36.9155042250869], [174.544994130588, -36.9155045227907], [174.544993384136, -36.9155048029098], [174.544992592431, -36.9155050655904], [174.544991766695, -36.9155053106863], [174.544990895705, -36.9155055383437], [174.544989990866, -36.9155057574277], [174.544989029552, -36.9155059592191], [174.544988045428, -36.9155061432799], [174.544987004829, -36.9155063100481], [174.544985941602, -36.9155064680969], [174.5449848219, -36.9155066088532], [174.544983668167, -36.9155067320248], [174.544982480403, -36.9155068376118], [174.544981247385, -36.9155069257602], [174.544979969295, -36.9155070054813], [174.544978645952, -36.9155070677637], [174.544977299801, -36.9155071123155], [174.544975897173, -36.9155071395747], [174.544974449656, -36.9155071674178], [174.544972946208, -36.9155072050021], [174.544971387011, -36.9155072613388], [174.544969760843, -36.915507336574], [174.544968078926, -36.9155074305615], [174.544966341079, -36.9155075342903], [174.544964536442, -36.9155076659287], [174.544962675874, -36.9155078073083], [174.544960748336, -36.9155079675862], [174.544958764866, -36.9155081376054], [174.54495672583, -36.9155083353882], [174.544954619641, -36.9155085430581], [174.544952457703, -36.9155087694805], [174.544950240016, -36.9155090146553], [174.544947955176, -36.9155092697172], [174.544945614769, -36.9155095525427], [174.544943207209, -36.9155098452554], [174.5449407439, -36.9155101567204], [174.544938224843, -36.9155104869379], [174.544935638632, -36.9155108270425], [174.544932996854, -36.9155111949107], [174.544930299146, -36.91551157252], [174.544927534466, -36.9155119690277], [174.544924714038, -36.9155123842877], [174.544921817597, -36.9155129267274], [174.544918834831, -36.9155136415489], [174.544915765921, -36.9155145377637], [174.544912622089, -36.9155156152257], [174.544909380709, -36.9155168652156], [174.544906064408, -36.9155182964527], [174.544902673185, -36.9155199089369], [174.544899184596, -36.9155217029603], [174.544895620903, -36.9155236692197], [174.544891971066, -36.9155258168721], [174.544888234903, -36.9155281369065], [174.544884423819, -36.915530638188], [174.54488052659, -36.9155333208626], [174.544876543217, -36.9155361849304], [174.544872473518, -36.91553922138], [174.544868317674, -36.9155424392227], [174.544864086727, -36.9155458293013], [174.544859769636, -36.9155494007729], [174.5448553664, -36.9155531536376], [174.544850877019, -36.9155570878954], [174.544846312535, -36.915561194389], [174.544841661906, -36.9155654822757], [174.544836925133, -36.9155699515554], [174.544832123387, -36.9155745388573], [174.544827363804, -36.9155789904061], [174.544822645475, -36.9155832611453], [174.544817990844, -36.9155873507831], [174.544813377649, -36.9155912686227], [174.54480881693, -36.9155950055067], [174.544804297646, -36.9155985705926], [174.544799842062, -36.9156019545771], [174.544795427731, -36.915605157752], [174.544791066059, -36.9156081889828], [174.544786745458, -36.9156110303929], [174.54478248892, -36.915613708724], [174.544778273455, -36.9156161972345], [174.544774110648, -36.9156185138008], [174.544770000317, -36.9156206494117], [174.544765942645, -36.9156226130784], [174.544761926226, -36.9156243959357], [174.544757973508, -36.9156259976916], [174.544754062043, -36.9156274186381], [174.544750203237, -36.9156286676405], [174.544746385866, -36.9156297448447], [174.544742620791, -36.9156306320822], [174.544738919597, -36.9156313472296], [174.544735248435, -36.9156318817137], [174.544731631931, -36.9156323433776], [174.544728050367, -36.9156328676824], [174.544724503561, -36.9156334456168], [174.544720991876, -36.9156340952035], [174.544717515314, -36.9156348164424], [174.544714073509, -36.915635591311], [174.544710666644, -36.9156364288204], [174.544707294901, -36.9156373379821], [174.544703946875, -36.9156383099307], [174.544700644829, -36.915639335363], [174.544697377906, -36.9156404324476], [174.544694146103, -36.9156416011844], [174.544690937837, -36.9156428236968], [174.544687775732, -36.9156441087042], [174.544684648749, -36.9156454653638], [174.544681556706, -36.9156468846644], [174.54467848838, -36.9156483667519], [174.544675466217, -36.9156499113345], [174.54467246777, -36.9156515187039], [174.544669515486, -36.9156531885684], [174.544666587101, -36.9156549302312], [174.544663704697, -36.9156567253776], [174.544660846191, -36.9156585923222], [174.544658033848, -36.9156605217619], [174.544655187837, -36.9156624516394], [174.544652307795, -36.9156643639322], [174.544649382681, -36.9156662677974], [174.544646423354, -36.9156681450666], [174.544643418955, -36.9156700139082], [174.544640369484, -36.9156718743223], [174.5446372858, -36.9156737081404], [174.544634157044, -36.9156755335309], [174.544630994258, -36.9156773413367], [174.544627786217, -36.9156791317036], [174.544624544145, -36.9156809044857], [174.54462125682, -36.9156826598291], [174.544617924422, -36.9156844067448], [174.544614557994, -36.9156861360758], [174.544611157534, -36.9156878478219], [174.544607700598, -36.9156895422752], [174.544604209813, -36.915691228155], [174.544600684996, -36.9156928964499], [174.544597114744, -36.9156945382948], [174.544593499602, -36.9156961807233], [174.544589850247, -36.9156977965557], [174.54458615582, -36.9156994039605], [174.544582427179, -36.9157009847693], [174.544578653831, -36.915702575173], [174.544574813874, -36.9157042024973], [174.544570918532, -36.9157058665963], [174.544566956945, -36.9157075856386], [174.544562940154, -36.9157093504668], [174.544558856937, -36.9157111612269], [174.544554718515, -36.9157130177729], [174.544550513668, -36.9157149202509], [174.544546253616, -36.9157168685147], [174.544541927138, -36.9157188627105], [174.544537545274, -36.9157208936809], [174.544533108387, -36.9157229794486], [174.544528593852, -36.915725111294], [174.544524035335, -36.9157272887793], [174.544519410392, -36.9157295121966], [174.544514719022, -36.9157317815457], [174.544509972266, -36.9157340876693], [174.544505159266, -36.9157364487361], [174.544500291061, -36.9157388555888], [174.54449535643, -36.9157413083732], [174.544490366594, -36.9157438069435], [174.544485321373, -36.9157463422885], [174.544480209906, -36.9157489325764], [174.544475032013, -36.9157515687962], [174.544466843487, -36.9157529822564], [174.544458800126, -36.9157543577737], [174.544450913152, -36.9157556952024], [174.544443182385, -36.9157569855311], [174.544435608006, -36.9157582377711], [174.54442817861, -36.9157594430572], [174.544420905421, -36.9157606012434], [174.544413777398, -36.9157617214869], [174.544406805762, -36.9157628036419], [174.544399990332, -36.9157638386972], [174.544393331291, -36.9157648356639], [174.544386817234, -36.9157657856768], [174.544380459383, -36.91576668859], [174.54437425792, -36.9157675534148], [174.544368201622, -36.9157683802971], [174.544362301531, -36.9157691600797], [174.544356557829, -36.9157699017741], [174.54435095911, -36.9157705965147], [174.54434552782, -36.9157712440098], [174.544340230473, -36.9157718537085], [174.544335100738, -36.9157724251731], [174.544330115986, -36.915772949684], [174.54432528744, -36.9157734270954], [174.544320604061, -36.9157738665645], [174.544316088292, -36.9157742677996], [174.544311717507, -36.9157746220811], [174.544307491888, -36.9157749384204], [174.544303333422, -36.9157752448727], [174.544299219846, -36.9157755507412], [174.544295162383, -36.91577585588], [174.544291138588, -36.9157761605808], [174.544287171086, -36.9157764735632], [174.544283237071, -36.9157767770965], [174.544279359349, -36.9157770889113], [174.544275515296, -36.9157774002882], [174.544271727354, -36.9157777109354], [174.544267984303, -36.9157780209988], [174.54426427492, -36.9157783306243], [174.54426062183, -36.9157786485315], [174.544257013449, -36.9157789568436], [174.54425345014, -36.9157792735831], [174.544249920498, -36.9157795898848], [174.544246446787, -36.9157798964456], [174.54424301833, -36.9157802204452], [174.544239634581, -36.9157805348497], [174.544236295722, -36.9157808486705], [174.544233012975, -36.9157811617616], [174.544229764078, -36.9157814834261], [174.544226560071, -36.9157818045069], [174.544223400954, -36.915782125004], [174.544220297949, -36.9157824447714], [174.544217228612, -36.915782764101], [174.544214204165, -36.9157830828469], [174.544211224608, -36.9157834010091], [174.544208256092, -36.915783710014], [174.544205287394, -36.9157840100075], [174.544202329737, -36.9157843008438], [174.54419938312, -36.9157845825228], [174.544196447545, -36.9157848550446], [174.544193522828, -36.9157851093978], [174.544190598112, -36.915785363751], [174.544187695477, -36.9157855997897], [174.54418479266, -36.9157858268171], [174.544181889843, -36.9157860538444], [174.544179009108, -36.9157862625572], [174.544176139414, -36.9157864621128], [174.544173269538, -36.9157866526571], [174.544170410521, -36.9157868250328], [174.544167551504, -36.9157869974085], [174.54416471475, -36.915787160481], [174.544161877633, -36.9157873055309], [174.544159062961, -36.9157874502889], [174.544156247926, -36.9157875770243], [174.544153443931, -36.9157876946025], [174.544150639936, -36.9157878121806], [174.5441478468, -36.9157879115901], [174.544145075928, -36.9157880016965], [174.544142304692, -36.9157880737803], [174.544139544679, -36.9157881457181], [174.544136784484, -36.9157882086446], [174.544133979581, -36.9157882811659], [174.544131074583, -36.9157884000567], [174.544128069128, -36.9157885472943], [174.544124952357, -36.9157887410473], [174.544121735491, -36.9157889811698], [174.544118418167, -36.915789249639], [174.544114989527, -36.9157895646236], [174.544111460792, -36.9157899259777], [174.5441078316, -36.9157903156785], [174.544104091092, -36.9157907518946], [174.544100250307, -36.9157912254689], [174.544096298024, -36.9157917365471], [174.544092256869, -36.9157922938488], [174.544088092811, -36.915792879789], [174.544083840064, -36.915793520964], [174.544079475636, -36.9157941906317], [174.544075011114, -36.9157949066687], [174.544070446316, -36.9157956600637], [174.54406577002, -36.9157964509626], [174.544060993447, -36.9157972792195], [174.544056105558, -36.9157981539915], [174.544051117392, -36.9157990661216], [174.544046028951, -36.9158000156096], [174.544040840415, -36.9158010114668], [174.54403554038, -36.9158020448279], [174.54403014007, -36.9158031155469], [174.544024639483, -36.9158042236238], [174.544019250758, -36.915805312219], [174.544014018422, -36.9158063627263], [174.544008942656, -36.915807384157], [174.544004023096, -36.9158083584887], [174.543999260106, -36.9158093037438], [174.543994653505, -36.9158102109112], [174.543990203293, -36.9158110799908], [174.543985909469, -36.9158119109827], [174.543981783437, -36.9158127127522], [174.543977802572, -36.91581347658], [174.543973989317, -36.9158142021741], [174.543970332451, -36.9158148896806], [174.543966820751, -36.9158155392453], [174.543963476844, -36.9158161595877], [174.543960289326, -36.9158167418425], [174.543957258196, -36.9158172860097], [174.543954383454, -36.9158177920892], [174.543951676324, -36.9158182599353], [174.543949114541, -36.915818698851], [174.543946720188, -36.9158190905219], [174.543944471183, -36.9158194532624], [174.54394238997, -36.9158197867807], [174.543940453742, -36.9158200733461], [174.543938685125, -36.9158203216781], [174.543937073078, -36.9158205409338], [174.54393561742, -36.915820722102], [174.543934251179, -36.9158208840805], [174.54393273959, -36.9158210749893], [174.543931071612, -36.9158213039856], [174.543929235842, -36.9158215622041], [174.543927243682, -36.9158218585099], [174.543925095135, -36.9158221929033], [174.543922778975, -36.91582256553], [174.543920306246, -36.9158229672328], [174.543917677128, -36.9158234070231], [174.543914880217, -36.9158238760355], [174.543911927099, -36.9158243921465], [174.543908817411, -36.9158249373336], [174.543905539929, -36.9158255117427], [174.543902117464, -36.9158261331047], [174.543898515982, -36.9158267838344], [174.543894769335, -36.9158274725057], [174.543890854894, -36.9158281903988], [174.543886784065, -36.9158289463793], [174.543882545625, -36.915829740593], [174.543878150614, -36.9158305638827], [174.543873599214, -36.9158314252596], [174.543868891426, -36.9158323247238], [174.543864016026, -36.9158332624211], [174.543862257063, -36.9158335998615], [174.543804683434, -36.9158584119441], [174.543652015715, -36.9158875841036], [174.543497046697, -36.9158910286018], [174.543427391591, -36.9158833483084], [174.543383826418, -36.9158438488118]]}, "properties": {"OBJECTID": 2031, "TRACKNAME": "Fariy Falls Walk", "CONDITIONSOFUSE": "Waitakere North Regional Park", "STATUS": "Temp Closed", "WEBLINK": "https://www.aucklandcouncil.govt.nz/en/parks-recreation/find-park-beach/park-detail/3407.html", "VALIDATIONSTATE": 3, "created_user": "AC_owner", "last_edited_user": "AC_owner", "last_edited_date": 1789875254325, "created_date": 1789875254325, "PARK_SAPSITEID": null, "TRACK_ID": null, "KAURIDIEBACK_TRACK": null, "KAURIDIEBACK_MITIGATED": null, "SegmentID": null, "GlobalID": "6022b038-0f97-44be-9d51-c72cdf31835c", "Shape__Length": 172.11287860107788}}]}