{"type": "FeatureCollection", "features": [{"type": "Feature", "id": 477, "geometry": {"type": "LineString", "coordinates": [[174.581176952254, -36.9934214627675], [174.581333094581, -36.9934235249144], [174.581408481089, -36.993392318005], [174.581512156396, -36.9933346986211], [174.581523257254, -36.9933007906848], [174.581496343242, -36.9932014674258], [174.581525391767, -36.9931480963571], [174.581733506277, -36.9929246177099], [174.581920664235, -36.9927783237959], [174.582077404005, -36.9926847060923], [174.582101347358, -36.9926512515339], [174.582057066082, -36.9918766524281], [174.582061808772, -36.9918334119072], [174.582103248596, -36.991737380533], [174.58210387099, -36.9917115044345], [174.582065775403, -36.9916935391423], [174.581870325216, -36.9916521361198], [174.581830953865, -36.9916274745115], [174.58166743042, -36.9912868223996], [174.581663363317, -36.991235307743], [174.581675390182, -36.9910260805373], [174.581643628675, -36.9909101712596], [174.581626316445, -36.9908919306397], [174.581599787818, -36.9908795904862], [174.581411913415, -36.9908258742465], [174.581365102174, -36.990805025168], [174.581248738957, -36.9906934599449], [174.581238212309, -36.9906707582171], [174.581237142545, -36.9906284811854], [174.581254052775, -36.9904706460301], [174.581265416533, -36.9904307253106], [174.581301149043, -36.9904040668339], [174.581439892817, -36.9903502057911], [174.581485271404, -36.990313714802], [174.581601929672, -36.9901611554377], [174.581717374591, -36.9899227460368], [174.581753141376, -36.9898693340345], [174.581866785571, -36.9897541836036], [174.582071041522, -36.9896107513904], [174.582301573003, -36.9894268792265], [174.582344361641, -36.98937676791], [174.582471176527, -36.9889580599028], [174.582479139979, -36.9889073222498], [174.582457924243, -36.988872471456], [174.582347459539, -36.9887786554938], [174.582289242624, -36.9887169790018], [174.582243561176, -36.9886604181665], [174.582234773292, -36.9886307998226], [174.582249049103, -36.9885908987706], [174.582372299069, -36.988363508211], [174.582406963326, -36.9882508109616], [174.582423110346, -36.9882356657264], [174.582448861975, -36.9882287109766], [174.582642704644, -36.9882097604354], [174.582697453666, -36.9881748547937], [174.582839762769, -36.9880179068953], [174.582948026106, -36.9878777588855], [174.583001343978, -36.9877210215305], [174.583098238578, -36.9875465844753], [174.583418818009, -36.9873160233288], [174.583530012974, -36.9872161385999], [174.583582155985, -36.9871589400106], [174.583628123491, -36.9870413649149], [174.583648031468, -36.9870159624558], [174.583704103628, -36.9870068371122], [174.583999133663, -36.9870096401929], [174.584237546565, -36.9869787694736], [174.584288001497, -36.986978024766], [174.584325951329, -36.9870012957605], [174.584428022365, -36.9871177412636], [174.584571917424, -36.9872033862229], [174.584631819771, -36.987222956022], [174.584855678544, -36.9872546481118], [174.584886714311, -36.9872745176222], [174.584981474607, -36.9873728971786], [174.585017255402, -36.9873790154026], [174.585080098833, -36.987370559716], [174.585207282561, -36.9873442965864], [174.585316429016, -36.9872886315989], [174.585530878028, -36.9870307501046], [174.585548517789, -36.9869814161787], [174.585542800886, -36.9867100847135], [174.585545866825, -36.9866883654143], [174.585557569636, -36.9866793064496], [174.58560674979, -36.9866990000733], [174.586094393897, -36.9869586236508], [174.586273953109, -36.9870224108199], [174.586311521767, -36.9870734451021], [174.586437588267, -36.9873204899093], [174.586490707137, -36.9874830339216], [174.586512575612, -36.9876285365296], [174.586508016431, -36.9876679323263], [174.586466161889, -36.9877324902651], [174.586439898742, -36.9877995564441], [174.586442638476, -36.9878324100305], [174.586473422129, -36.9879285509949], [174.586474799645, -36.9879866984042], [174.586430791568, -36.9881491391161], [174.586263845655, -36.9885259421568], [174.586250581428, -36.9885761983619], [174.586277482578, -36.9886825386379], [174.586379853654, -36.9888929078848], [174.586416161211, -36.9889510669988], [174.586436256384, -36.9889627178164], [174.58649724666, -36.9889691755145], [174.586534990719, -36.9889839208715], [174.58680907552, -36.9891545989916], [174.58686468551, -36.9891734120094], [174.586925557599, -36.989161680955], [174.587256871341, -36.9890641122762], [174.587455710843, -36.9889755038488], [174.587492391619, -36.9889720072139], [174.587532593474, -36.9890152515547], [174.587623611118, -36.9891541206713], [174.587662748015, -36.9894424810215], [174.587676244562, -36.9894828358998], [174.587727540772, -36.9895263175269], [174.58786638172, -36.9896155069929], [174.587921432831, -36.9896405931572], [174.587926204587, -36.9896499826511], [174.587904328802, -36.9899699591744], [174.587840880529, -36.9901741720264], [174.587839715917, -36.9902036535769], [174.587852646144, -36.9902220014803], [174.58797077738, -36.9902786993719], [174.587997840029, -36.99028209949], [174.588022965941, -36.9902725506122], [174.588083186343, -36.9902222076205], [174.588231700836, -36.9900557133976], [174.588376362375, -36.9899118844781], [174.588413011576, -36.9898859975912], [174.588438719737, -36.9898844087503], [174.588644087067, -36.9899689716806], [174.588693263404, -36.9899996298348], [174.588709268956, -36.9900380058901], [174.588743194361, -36.9902373977089], [174.588796919218, -36.9903515462726], [174.588829250146, -36.9903926736967], [174.588874688917, -36.9904082842297], [174.588969369431, -36.9904199275255], [174.589139288638, -36.9903864270124], [174.589176974046, -36.9903918163076], [174.589190437472, -36.9904359318642], [174.589217563619, -36.9906739616067], [174.589211181876, -36.9907155631434], [174.589167503135, -36.9907846504609], [174.589160486439, -36.9908178256842], [174.589191728385, -36.9911624856284], [174.589204351941, -36.9912099708448], [174.589224169824, -36.9912239061996], [174.589274315165, -36.9912346646854], [174.589549159758, -36.9912703573897], [174.589751305597, -36.9912864022744], [174.589773422674, -36.9912957540304], [174.589783644403, -36.9913219265404], [174.589778181282, -36.9914415373483], [174.589753398826, -36.9914979259349], [174.589592523401, -36.9916915595115], [174.589336471506, -36.9918696636892], [174.589330337234, -36.9918876312801], [174.58935381896, -36.9919215130393], [174.589508442122, -36.9920761694234], [174.589555946907, -36.9921119485033], [174.589782313778, -36.992185014427], [174.589974178332, -36.9922235635678], [174.590003171775, -36.9922219240569], [174.59003538022, -36.992204212802], [174.590229028227, -36.9920221815105], [174.590266135614, -36.9919996643637], [174.590284755119, -36.9920348125825], [174.590371431911, -36.9923775205435], [174.590413119888, -36.9924156107609], [174.59060749068, -36.9925343019326], [174.590645026871, -36.9925494642543], [174.59068668629, -36.9925522426691], [174.591147265498, -36.9925166096848], [174.591219057737, -36.9925351612893], [174.59138449628, -36.9926025008535], [174.591401264331, -36.992627712925], [174.591397070516, -36.9926780048505], [174.591354889439, -36.9928973653038], [174.59126065285, -36.9932518596647], [174.591255297742, -36.993321812916], [174.591277807445, -36.9936913960293], [174.591383148673, -36.993980353375], [174.591431472844, -36.9940493623641], [174.591575032394, -36.9941968777873], [174.591851647679, -36.9943568307103], [174.591907778645, -36.9943806638241], [174.591970372738, -36.9943825958123], [174.59218575018, -36.9943633614049], [174.592369397798, -36.9942858269033], [174.592420723723, -36.9942729556022], [174.592724150407, -36.9942666213602], [174.592786102077, -36.9942742292097], [174.592822280008, -36.9943021099332], [174.592963074387, -36.9944574574011], [174.593208153253, -36.9945972544764], [174.593552321437, -36.9948255442177], [174.593582027215, -36.994874952844], [174.593594259172, -36.9950670791859]]}, "properties": {"OBJECTID": 477, "TRACKNAME": "Farley Track", "CONDITIONSOFUSE": "Waitakere South Regional Park", "STATUS": "Temp Closed", "WEBLINK": "https://www.aucklandcouncil.govt.nz/en/parks-recreation/find-park-beach/park-detail/212.html", "VALIDATIONSTATE": 3, "created_user": "AC_owner", "last_edited_user": "AC_owner", "last_edited_date": 1789875254325, "created_date": 1789875254325, "PARK_SAPSITEID": null, "TRACK_ID": null, "KAURIDIEBACK_TRACK": null, "KAURIDIEBACK_MITIGATED": null, "SegmentID": null, "GlobalID": "6a940039-edd7-4a27-977c-a2bfbb06f976", "Shape__Length": 2775.4049628782473}}, {"type": "Feature", "id": 2539, "geometry": {"type": "LineString", "coordinates": [[174.569343604485, -36.993921046031], [174.569724001682, -36.9938016528088], [174.569992147236, -36.9936939151542], [174.570040099524, -36.99365877711], [174.57025422365, -36.993445283405], [174.570583889098, -36.9932528255819], [174.570680198785, -36.993216284765], [174.570761012844, -36.9932010486598], [174.570840783391, -36.9932111235919], [174.570896677314, -36.993237879425], [174.571074694958, -36.9933535384332], [174.571120579462, -36.9933717277397], [174.571241971091, -36.9933710823602], [174.571387174466, -36.9933305658442], [174.571425584623, -36.9933038874705], [174.571479603701, -36.9932325947064], [174.571545781425, -36.99302603131], [174.571596065507, -36.9929584708668], [174.571650755463, -36.9929206119157], [174.571784180653, -36.9929054319037], [174.571831657663, -36.9928887563747], [174.571888382571, -36.9928488846901], [174.571946445805, -36.9927670410336], [174.571991310185, -36.9927378126999], [174.572020131053, -36.9927339264915], [174.572046272662, -36.9927407180012], [174.572077705367, -36.9927795346723], [174.572097528073, -36.9928466128153], [174.572109675072, -36.9930026053093], [174.572126135198, -36.9930403439931], [174.572248914668, -36.9931161893564], [174.572351345911, -36.9931630148321], [174.572397772651, -36.9931768600666], [174.572443928224, -36.9931665680324], [174.572506006867, -36.9931307659191], [174.572744749422, -36.9929384576959], [174.572793444253, -36.992921288831], [174.572953771813, -36.9928895050517], [174.572989868232, -36.9928749150968], [174.573017798993, -36.9928403107366], [174.573115978781, -36.9926411054738], [174.573147839315, -36.9925955588882], [174.573505237722, -36.9923442909244], [174.5735568392, -36.9922988340183], [174.574086452942, -36.9915395588373], [174.574103537019, -36.9914918617697], [174.574102162783, -36.9914545749428], [174.574079322315, -36.9914298825613], [174.573999144241, -36.9913753227786], [174.573981205599, -36.9913523942044], [174.573993319928, -36.9913258014621], [174.574078699329, -36.9912544350227], [174.574094559931, -36.9912252291441], [174.574095470523, -36.9911363394925], [174.574065306752, -36.9909626312708], [174.574065320171, -36.9909220694593], [174.574085007165, -36.9908965372078], [174.574185094543, -36.9908336754423], [174.574209678741, -36.9908080547781], [174.574252556746, -36.9906088691282], [174.574267768692, -36.9905700093616], [174.574287799563, -36.9905550065884], [174.574370757977, -36.990526284261], [174.574395318115, -36.9905019023323], [174.574475577187, -36.9903092286959], [174.574522824381, -36.9901533849652], [174.574537149967, -36.9901287692341], [174.574561423496, -36.990165266427], [174.574575285249, -36.9902165775263], [174.574609229531, -36.9904532731591], [174.574621511104, -36.9906073419429], [174.574605478896, -36.9906549124619], [174.574507624968, -36.9907804031645], [174.574475795794, -36.9908727405551], [174.574467069487, -36.9909585205851], [174.574481165264, -36.9910337125438], [174.57449692324, -36.9910585069235], [174.574532203299, -36.9910670514595], [174.574757442741, -36.9910822936718], [174.574923522398, -36.9911116037302], [174.574981426914, -36.9911486288843], [174.575172222675, -36.9913000228508], [174.575249571063, -36.9914395625595], [174.575281520076, -36.9914480140778], [174.575418086706, -36.9914311848092], [174.57545520338, -36.9914346237806], [174.575482655518, -36.9914570166216], [174.575538133484, -36.9915324928238], [174.575557223712, -36.9915442787108], [174.575579164343, -36.991540037717], [174.575682913831, -36.9914813957714], [174.575801220617, -36.9914306752959], [174.575841638007, -36.9914265710934], [174.575955195017, -36.9914393964673], [174.576110831812, -36.9914041509779], [174.576528530695, -36.9911666813508], [174.576564124566, -36.9911517698054], [174.576595938275, -36.9911503466832], [174.576620812521, -36.9911654239034], [174.576641258941, -36.9911949463769], [174.576709176686, -36.9913539623623], [174.576702391536, -36.991385664626], [174.576635988855, -36.9914941120084], [174.576617371254, -36.9915433233327], [174.576595240505, -36.9917083794591], [174.576602835404, -36.9917402232807], [174.576626796869, -36.9917665389262], [174.576651172811, -36.9917805465454], [174.576681646194, -36.9917863042259], [174.576827978021, -36.991785218159], [174.577040362091, -36.9917513888112], [174.577300368333, -36.9917938617258], [174.577374093653, -36.9918307367147], [174.577701030258, -36.992059444611], [174.577710325916, -36.9920801467037], [174.577705627845, -36.9921035856463], [174.577628471172, -36.9922788114551], [174.577641057652, -36.9924047365505], [174.5777024982, -36.9925070701513], [174.577713194162, -36.992539527046], [174.577635531985, -36.9928745723399], [174.577621149687, -36.9929075131408], [174.577595909155, -36.992935551628], [174.577334735236, -36.9931442080346], [174.57730296293, -36.9931784651504], [174.577293329497, -36.9932190952979], [174.577288818261, -36.9933596809545], [174.5773001561, -36.993408254483], [174.57735337649, -36.9934094237421], [174.57781548439, -36.9933322194493], [174.578198033332, -36.9933097476086], [174.578270958727, -36.9933186466718], [174.578457932458, -36.9933820846275], [174.578682341674, -36.9933895255662], [174.578743868554, -36.9933757601243], [174.579002164929, -36.9932732294824], [174.579047647786, -36.9932625084858], [174.579067679156, -36.9932715060197], [174.579082609574, -36.9932913434402], [174.579164757945, -36.9934488904338], [174.579176154775, -36.9934506505424], [174.579196489441, -36.9934397539576], [174.579331763691, -36.9933228795473], [174.579355131808, -36.993314189629], [174.579371172861, -36.993317093918], [174.579445557727, -36.9933646028336], [174.5794950704, -36.9934103389858], [174.579523951214, -36.9935532591119], [174.579544680813, -36.9935870956479], [174.579665239666, -36.9936250574862], [174.579780761082, -36.9936359133029], [174.579848617598, -36.9936237737897], [174.580011401589, -36.9935184869811], [174.580268577095, -36.9934651839495], [174.580604153519, -36.9934576864915], [174.580654829045, -36.9934693429028], [174.580758024671, -36.9935121696205], [174.58079692366, -36.9935186504547], [174.581176952254, -36.9934214627675]]}, "properties": {"OBJECTID": 2539, "TRACKNAME": "Farley Track", "CONDITIONSOFUSE": "Waitakere South Regional Park", "STATUS": "Temp Closed", "WEBLINK": "https://www.aucklandcouncil.govt.nz/en/parks-recreation/find-park-beach/park-detail/212.html", "VALIDATIONSTATE": 3, "created_user": "AC_owner", "last_edited_user": "AC_owner", "last_edited_date": 1789875254325, "created_date": 1789875254325, "PARK_SAPSITEID": null, "TRACK_ID": null, "KAURIDIEBACK_TRACK": null, "KAURIDIEBACK_MITIGATED": null, "SegmentID": null, "GlobalID": "6de31bab-82dc-4dd2-8492-8a3122c3b470", "Shape__Length": 1875.9963351397867}}]}