{"type": "FeatureCollection", "features": [{"type": "Feature", "id": 472, "geometry": {"type": "LineString", "coordinates": [[175.262030404561, -36.9793898979929], [175.261986360734, -36.979449542367], [175.261912318863, -36.9795540991625], [175.2617976467, -36.9796759331681], [175.261722627507, -36.9797475019882], [175.261636840098, -36.9798027723058], [175.261509812974, -36.9798547035186], [175.261438590146, -36.9798808155476], [175.261341179765, -36.9798909238037], [175.26128011445, -36.9799127171417], [175.261234467457, -36.9799342157323], [175.261214762671, -36.9799634717985], [175.261200930209, -36.980017371503], [175.261213163181, -36.9800831513729], [175.261251216393, -36.9801525651246], [175.26135448739, -36.9803403841867], [175.261462776717, -36.9805239824831], [175.261545855541, -36.9807245639518], [175.261632853651, -36.9808838123183], [175.261694275829, -36.981047674025], [175.261737103587, -36.9811046197249], [175.261896303494, -36.9812707434776], [175.262007659265, -36.981384143878], [175.262060034507, -36.9814161519117], [175.262128072727, -36.9814561122654], [175.262195866756, -36.9814878262906], [175.26225277138, -36.9814991191744], [175.262304169633, -36.9814981392462], [175.262452246087, -36.981462309508], [175.262564467279, -36.9814312891953], [175.262681827183, -36.9814001707886], [175.262779239245, -36.9813900613748], [175.262871877887, -36.9813924206783], [175.262960109682, -36.981419618583], [175.263028270564, -36.9814637028965], [175.263144400489, -36.9815646333802], [175.263282190302, -36.9817022829995], [175.263341172646, -36.9817836736849], [175.263399666306, -36.981848570876]]}, "properties": {"OBJECTID": 472, "TRACKNAME": "Farm Walk", "CONDITIONSOFUSE": "Tapapakanga Regional Park", "STATUS": "Open", "WEBLINK": "https://www.aucklandcouncil.govt.nz/en/parks-recreation/find-park-beach/park-detail/227.html", "VALIDATIONSTATE": 3, "created_user": "AC_owner", "last_edited_user": "AC_owner", "last_edited_date": 1789875254325, "created_date": 1789875254325, "PARK_SAPSITEID": null, "TRACK_ID": null, "KAURIDIEBACK_TRACK": null, "KAURIDIEBACK_MITIGATED": null, "SegmentID": null, "GlobalID": "9714c04d-7f75-47eb-b6b9-78c6c806b117", "Shape__Length": 429.4636761663438}}, {"type": "Feature", "id": 494, "geometry": {"type": "LineString", "coordinates": [[175.265391466478, -36.983907704641], [175.26546322289, -36.9837976349813], [175.265470240499, -36.9836740569026], [175.265477258096, -36.9835504788218], [175.265429352285, -36.9834280394933], [175.265393857187, -36.9833494252692], [175.265338377262, -36.9833329371588], [175.265261504536, -36.9833345219167], [175.26516463605, -36.9833982509573], [175.265066926874, -36.983435535291], [175.264946973475, -36.9834644659839], [175.264835730203, -36.9834226895227], [175.264701948052, -36.9833637507522], [175.264611836273, -36.9832950740241], [175.264499730906, -36.9832268620248], [175.264365960306, -36.9831679136316], [175.264156441181, -36.9831458025725], [175.2640147999, -36.9831839964274], [175.263934262705, -36.9832260902065], [175.263777934854, -36.9832967241827], [175.263712015367, -36.9832789059554], [175.263669295329, -36.9832415674569], [175.263650199769, -36.9831990097423], [175.263654163508, -36.9831321668567], [175.263681044043, -36.9830362712031], [175.263717688589, -36.9828686525852], [175.263743163733, -36.9825247904893], [175.263682345526, -36.9822779557075], [175.263636659279, -36.9821405233053], [175.263536261042, -36.9820912223416], [175.263591931356, -36.9819231903332]]}, "properties": {"OBJECTID": 494, "TRACKNAME": "Farm Walk", "CONDITIONSOFUSE": "Tapapakanga Regional Park", "STATUS": "Open", "WEBLINK": "https://www.aucklandcouncil.govt.nz/en/parks-recreation/find-park-beach/park-detail/227.html", "VALIDATIONSTATE": 3, "created_user": "AC_owner", "last_edited_user": "AC_owner", "last_edited_date": 1789875254325, "created_date": 1789875254325, "PARK_SAPSITEID": null, "TRACK_ID": null, "KAURIDIEBACK_TRACK": null, "KAURIDIEBACK_MITIGATED": null, "SegmentID": null, "GlobalID": "864f463e-f9b1-4768-b7c5-53f0a9924ac6", "Shape__Length": 392.9783921341643}}, {"type": "Feature", "id": 1533, "geometry": {"type": "LineString", "coordinates": [[175.259830344613, -36.9767987010783], [175.260124072252, -36.976819748886], [175.260329773835, -36.9768199558705], [175.260664330021, -36.9768300864524], [175.260736526672, -36.9768369628719], [175.260824996537, -36.9768724097892], [175.261148772452, -36.9770395250659], [175.261249351936, -36.9771366279933], [175.26160395441, -36.9776075807896], [175.261765179619, -36.9778186990975], [175.261887579046, -36.9780110812256], [175.261976307224, -36.9782169298606], [175.262030319651, -36.978482535187], [175.262034698261, -36.9788128320824], [175.262060290903, -36.9791675774364], [175.262052331643, -36.9792461190146], [175.26205440773, -36.9793162183409], [175.262035803635, -36.9793825859697], [175.262030404561, -36.9793898979929]]}, "properties": {"OBJECTID": 1533, "TRACKNAME": "Farm Walk", "CONDITIONSOFUSE": "Tapapakanga Regional Park", "STATUS": "Open", "WEBLINK": "https://www.aucklandcouncil.govt.nz/en/parks-recreation/find-park-beach/park-detail/227.html", "VALIDATIONSTATE": 3, "created_user": "AC_owner", "last_edited_user": "AC_owner", "last_edited_date": 1789875254325, "created_date": 1789875254325, "PARK_SAPSITEID": null, "TRACK_ID": null, "KAURIDIEBACK_TRACK": null, "KAURIDIEBACK_MITIGATED": null, "SegmentID": null, "GlobalID": "419e51f8-10b1-4b97-8ad2-7ff596132ca7", "Shape__Length": 405.6497053302706}}]}