{"type": "FeatureCollection", "features": [{"type": "Feature", "id": 2673, "geometry": {"type": "LineString", "coordinates": [[174.545417257477, -36.8969654127216], [174.545422491011, -36.8969639294912], [174.545427599855, -36.8969623847871], [174.545432583827, -36.8969607695979], [174.545437432072, -36.8969591020924], [174.545442155627, -36.8969573731132], [174.545446754675, -36.8969555916716], [174.54545122885, -36.8969537397451], [174.545455567117, -36.8969518264909], [174.545459780693, -36.8969498517632], [174.545463869762, -36.8969478245731], [174.545467833959, -36.8969457268981], [174.545471662429, -36.8969435769068], [174.545475366027, -36.8969413564307], [174.545478945117, -36.8969390834923], [174.545482388298, -36.8969367492264], [174.545485718009, -36.8969343533409], [174.54548891181, -36.8969318961279], [174.545491969702, -36.8969293775874], [174.545494914124, -36.8969267974274], [174.545497722637, -36.8969241559399], [174.545500451702, -36.8969214704176], [174.545503214245, -36.8969187754461], [174.545506032886, -36.8969160797446], [174.545508907626, -36.8969133833132], [174.545511827245, -36.8969106862979], [174.545514814363, -36.896907997418], [174.545517846179, -36.8969052989428], [174.545520934093, -36.8969025997377], [174.545524078106, -36.8968998998027], [174.545527278218, -36.8968971991376], [174.545530534609, -36.896894506754], [174.545533835698, -36.8968918047751], [174.545537192885, -36.8968891020662], [174.54554061739, -36.8968863984814], [174.545544086956, -36.8968837033239], [174.545547601218, -36.8968809985711], [174.545551182799, -36.8968782929423], [174.545554809259, -36.8968755867296], [174.545558503037, -36.8968728796409], [174.545562241875, -36.8968701809794], [174.545566025229, -36.8968674637114], [174.545569772015, -36.8968646027004], [174.545573447665, -36.8968615533279], [174.54557705218, -36.8968583155939], [174.545580574158, -36.8968548806331], [174.545584025, -36.8968512573107], [174.545587404707, -36.8968474456269], [174.545590713097, -36.8968434365704], [174.54559395035, -36.8968392391523], [174.545597105067, -36.8968348445075], [174.545600188648, -36.8968302615012], [174.545603201093, -36.8968254901334], [174.545606142403, -36.8968205304043], [174.545609001176, -36.8968153734483], [174.545611800032, -36.8968100279849], [174.545614516352, -36.8968044852948], [174.545617161536, -36.8967987542433], [174.545619735584, -36.8967928348303], [174.545622227095, -36.8967867181906], [174.54562465869, -36.8967804130434], [174.54562700793, -36.8967739196809], [174.545629344313, -36.8967673453626], [174.545631737886, -36.8967608243821], [174.545634188647, -36.8967543567395], [174.545636696779, -36.896747951446], [174.545639273501, -36.8967416083556], [174.545641907412, -36.8967353186031], [174.545644598512, -36.8967290821884], [174.545647346982, -36.8967229081227], [174.545650152822, -36.8967167964063], [174.545653015852, -36.8967107380276], [174.545655947289, -36.8967047328407], [174.545658936098, -36.8966987900029], [174.545661982095, -36.8966929005029], [174.545665085462, -36.896687073352], [174.5456682462, -36.8966813085501], [174.545671464126, -36.8966755970861], [174.545674750461, -36.8966699388139], [174.545678094167, -36.8966643428907], [174.545681483841, -36.8966588004512], [174.545684942105, -36.8966533202149], [174.545688458285, -36.8966479293615], [174.545692023888, -36.8966427632065], [174.545695628057, -36.8966378399184], [174.54569927061, -36.8966331504861], [174.545702963132, -36.896628712786], [174.545706694219, -36.8966245179529], [174.545710474911, -36.8966205568295], [174.545714294352, -36.8966168475843], [174.545718163396, -36.8966133720488], [174.545722071189, -36.8966101483916], [174.545726028587, -36.896607158444], [174.54573002455, -36.8966044113633], [174.545734059263, -36.8966019161609], [174.54573814358, -36.8965996546681], [174.545742277683, -36.8965976358963], [174.545746450353, -36.8965958599913], [174.545750661589, -36.8965943269533], [174.545754922431, -36.8965930276249], [174.545759222021, -36.8965919801747], [174.545763560177, -36.8965911755914], [174.545767947757, -36.8965905957064], [174.545772334065, -36.8965899527422], [174.545776682714, -36.8965891119673], [174.545780993886, -36.8965880823929], [174.54578527862, -36.8965868548619], [174.545789536916, -36.8965854293741], [174.545793757553, -36.8965838060756], [174.545797951933, -36.8965819938317], [174.545802108655, -36.8965799837772], [174.545806238938, -36.8965777757659], [174.545810342964, -36.8965753788092], [174.54581440915, -36.8965727750306], [174.545818437859, -36.8965699824526], [174.545822451531, -36.8965670007832], [174.545826427362, -36.8965638122918], [174.545830365717, -36.8965604350011], [174.545834277632, -36.8965568597537], [174.545838163291, -36.8965530955609], [174.545842011109, -36.8965491245462], [174.54584583267, -36.8965449645861], [174.545849616754, -36.8965406158267], [174.545853308535, -36.896536142077], [174.545856776467, -36.8965316982811], [174.54586003177, -36.8965272842931], [174.545863074262, -36.8965228911017], [174.545865892723, -36.8965185188528], [174.545868509775, -36.8965141762659], [174.545870891577, -36.8965098547675], [174.545873071788, -36.8965055539198], [174.54587502815, -36.896501283026], [174.545876771702, -36.8964970329289], [174.545878291405, -36.8964928127858], [174.545879609517, -36.8964886132932], [174.545880692561, -36.8964844439007], [174.545881574014, -36.8964802951589], [174.545882231437, -36.8964761673597], [174.545882676231, -36.8964720693685], [174.545882908215, -36.896467992174], [174.54588292757, -36.8964639447874], [174.545882722896, -36.8964599183436], [174.545882294373, -36.8964559218537], [174.545881709138, -36.8964519454305], [174.545881214387, -36.8964480038844], [174.545880866584, -36.8964441145081], [174.545880643105, -36.8964402685822], [174.54588055499, -36.8964364569494], [174.54588061364, -36.8964326884751], [174.545880796615, -36.8964289634511], [174.545881126173, -36.8964252725743], [174.545881591458, -36.8964216340133], [174.545882180887, -36.8964180298914], [174.545882917262, -36.8964144779392], [174.545883789, -36.8964109602801], [174.545884796101, -36.8964074769141], [174.545885938928, -36.8964040458639], [174.545887217301, -36.8964006581181], [174.545888631037, -36.8963973046654], [174.545890191537, -36.8963939943711], [174.545891876363, -36.8963907275272], [174.545893696733, -36.8963875039877], [174.545895663868, -36.8963843236066], [174.545897755146, -36.8963811776646], [174.545899824167, -36.8963780410258], [174.545901780445, -36.8963748788132], [174.545903635201, -36.8963716908808], [174.545905377578, -36.896368495397], [174.545907018251, -36.8963652651822], [174.545908546545, -36.896362027416], [174.545909962097, -36.8963587640761], [174.545911264907, -36.8963554751623], [174.545912466376, -36.8963521695399], [174.545913555285, -36.896348847355], [174.545914542854, -36.8963455084616], [174.545915417498, -36.8963421349831], [174.545916179764, -36.8963387539533], [174.545916829288, -36.8963353473497], [174.545917377471, -36.8963319240376], [174.545917812913, -36.8963284751517], [174.545918147014, -36.8963250095572], [174.545918368372, -36.8963215183889], [174.545918477171, -36.8963180106581], [174.545918484629, -36.8963144862188], [174.545918435989, -36.8963109625095], [174.54591847856, -36.8963075097225], [174.545918600941, -36.8963041189926], [174.545918802951, -36.8963007813083], [174.545919085135, -36.8962975237037], [174.545919446947, -36.8962943191449], [174.54591989997, -36.8962911855083], [174.545920432803, -36.8962881139288], [174.545921045447, -36.8962851044063], [174.54592174912, -36.8962821567948], [174.545922521565, -36.8962792803976], [174.545923385041, -36.8962764659114], [174.545924328326, -36.8962737134823], [174.54592536264, -36.8962710229642], [174.545926476947, -36.8962684035144], [174.545927671064, -36.8962658461216], [174.54592894499, -36.8962633507858], [174.545930298727, -36.896260917507], [174.545931743675, -36.8962585551505], [174.545933268433, -36.8962562548511], [174.545934850562, -36.8962540169006], [174.54593641207, -36.8962518693551], [174.545937919115, -36.8962498036413], [174.54593937188, -36.8962478287705], [174.545940770182, -36.8962459357315], [174.545942125606, -36.8962441424007], [174.545943415166, -36.8962424220363], [174.545944661847, -36.8962408013803], [174.545945854065, -36.896239262556], [174.545946992004, -36.8962378145746], [174.545948086882, -36.8962364572903], [174.545949116078, -36.8962351819837], [174.545950102213, -36.8962339973741], [174.545951033886, -36.8962328945963], [174.545951911279, -36.8962318826614], [174.545952734391, -36.8962309615696], [174.545953503042, -36.8962301223095], [174.545954228813, -36.8962293827577], [174.545954888721, -36.8962287161723], [174.54595550575, -36.8962281492953], [174.545956068135, -36.8962276552386], [174.545956569877, -36.8962269366297], [174.545957017288, -36.8962257500172], [174.54595738829, -36.896224113716], [174.545957705143, -36.8962220184227], [174.545957956626, -36.8962194642832], [174.545958142921, -36.896216460309], [174.545958263846, -36.8962129974886], [174.545958330622, -36.8962090756761], [174.54595832099, -36.8962047041748], [174.545958257207, -36.8961998736813], [174.545958128056, -36.8961945843418], [174.545957933716, -36.8961888451674], [174.545957673825, -36.8961826381356], [174.545957360148, -36.8961759901343], [174.545956969699, -36.8961688744216], [174.545956525283, -36.896161308728], [174.545956015497, -36.8961532841883], [174.545955440341, -36.8961448008025], [174.545954811218, -36.8961358674357], [174.545954105506, -36.8961264753689], [174.545953427817, -36.8961168035138], [174.545952954627, -36.8961072551887], [174.5459526977, -36.8960978572814], [174.545952668257, -36.8960886096459], [174.545952855077, -36.8960795124283], [174.54595325816, -36.8960705656286], [174.545953888726, -36.8960617691007], [174.545954724335, -36.8960531231366], [174.545955798465, -36.8960446182871], [174.54595707782, -36.8960362730128], [174.545958584476, -36.8960280689989], [174.545960307395, -36.896020015403], [174.545962257796, -36.8960121120788], [174.545964413241, -36.8960043593185], [174.545966807387, -36.8959967566839], [174.545969406577, -36.8959893046132], [174.545972233248, -36.8959820028142], [174.545975276182, -36.895974851433], [174.545978535197, -36.8959678414583], [174.545982021694, -36.8959609817552], [174.545985702014, -36.895954272762], [174.545989428303, -36.8959476172524], [174.5459931555, -36.8959410067991], [174.545996883606, -36.8959344414022], [174.546000612619, -36.8959279210617], [174.546004331322, -36.8959214459236], [174.546008062152, -36.8959150156959], [174.54601179371, -36.8959086215132], [174.546015526175, -36.8959022723869], [174.546019259549, -36.895895968317], [174.546022993831, -36.8958897093035], [174.546026729022, -36.8958834953464], [174.546030464939, -36.8958773174343], [174.546034201765, -36.8958711845786], [174.546037939499, -36.8958650967793], [174.546041678141, -36.8958590540364], [174.546045417692, -36.8958530563498], [174.546049158152, -36.8958471037196], [174.546052888118, -36.8958411872806], [174.546056630394, -36.8958353247632], [174.546060373397, -36.8958294982908], [174.546064151695, -36.895823752482], [174.546067988271, -36.8958181140785], [174.546071894709, -36.895812600957], [174.546075848026, -36.8958071863755], [174.546079882424, -36.8958018969299], [174.546083963699, -36.8957967060244], [174.546088114837, -36.8957916404007], [174.546092324072, -36.8957866731711], [174.54609659195, -36.8957818313694], [174.546100929326, -36.895777096827], [174.546105324982, -36.8957724696899], [174.546109779098, -36.8957679589694], [174.546114302895, -36.8957635645195], [174.546118884971, -36.8957592774748], [174.546123525326, -36.8957550978354], [174.546128224141, -36.8957510346126], [174.546132992638, -36.8957470876603], [174.546137830633, -36.8957432479672], [174.546142715687, -36.8957395158254], [174.546147670604, -36.8957359089654], [174.546152649232, -36.8957323648923], [174.546157537195, -36.8957287769306], [174.546162334491, -36.8957251450805], [174.546167040939, -36.8957214603307], [174.546171656539, -36.8957177226812], [174.546176181473, -36.8957139411432], [174.54618060434, -36.8957101068516], [174.546184936359, -36.8957062196603], [174.546189177529, -36.8957022795693], [174.546193316633, -36.8956982867246], [174.54619737629, -36.8956942498456], [174.546201333879, -36.8956901602129], [174.546205200621, -36.8956860176806], [174.546208965477, -36.895681831406], [174.546212650705, -36.8956775920857], [174.546216233865, -36.8956733000118], [174.546219726178, -36.8956689550383], [174.546223127643, -36.8956645571652], [174.546226438441, -36.8956601154038], [174.546229647173, -36.8956556208889], [174.546232776458, -36.8956510823396], [174.546235927454, -36.895646507453], [174.546239145586, -36.8956419226788], [174.546242419451, -36.8956373191518], [174.546245749051, -36.8956326968719], [174.546249134384, -36.8956280558391], [174.54625258667, -36.8956233959074], [174.54625609469, -36.8956187172229], [174.546259669663, -36.8956140196394], [174.54626328915, -36.8956093034491], [174.54626698681, -36.8956045682138], [174.546270728984, -36.8955998143716], [174.546274538112, -36.8955950416306], [174.546278402973, -36.8955902501366], [174.546282323749, -36.895585448901], [174.546286311297, -36.8955806197551], [174.546290354579, -36.8955757718564], [174.546294453775, -36.895570914216], [174.546298619744, -36.8955660286653], [174.546302841627, -36.895561133373], [174.546307119244, -36.8955562193277], [174.546311507601, -36.8955512317315], [174.546316062251, -36.8955461428203], [174.546320771792, -36.8955409437287], [174.546325636042, -36.8955356254455], [174.546330666584, -36.8955302058471], [174.546335863055, -36.8955246669111], [174.546341203197, -36.8955190179407], [174.546346720851, -36.895513267509], [174.546352393214, -36.8955073978856], [174.546358220467, -36.8955014180818], [174.54636421383, -36.8954953279514], [174.546370362084, -36.8954891276405], [174.546376676448, -36.895482817003], [174.546383145703, -36.8954763961849], [174.546389780885, -36.895469856029], [174.546396571139, -36.8954632147037], [174.546403527504, -36.8954564630517], [174.546410638576, -36.8954495922077], [174.54641791594, -36.8954426200484], [174.546425348012, -36.895435528697], [174.546432913262, -36.8954283635021], [174.54644048973, -36.8954211981608], [174.546448066743, -36.8954140598528], [174.546455644299, -36.8954069485783], [174.546463222218, -36.895399855326], [174.546470789279, -36.8953927802418], [174.546478368105, -36.895385732045], [174.546485947292, -36.8953787018703], [174.546493526842, -36.8953716897178], [174.546501106936, -36.8953647045987], [174.546508676355, -36.8953577466591], [174.546516257174, -36.8953507975842], [174.546523838537, -36.8953438755428], [174.546531420444, -36.8953369805349], [174.546539002713, -36.895330103549], [174.546546585527, -36.8953232535966], [174.546554157302, -36.8953164128011], [174.546561741022, -36.8953096079042], [174.546569324923, -36.8953028120182], [174.546576909368, -36.8952960431656], [174.546584483319, -36.8952893105038], [174.546591883032, -36.8952828415062], [174.546599043006, -36.8952767271622], [174.546605974281, -36.8952709583145], [174.546612665818, -36.8952655441205], [174.546619117436, -36.895260475569], [174.546625329317, -36.8952557616712], [174.54663131268, -36.8952514022811], [174.546637056125, -36.8952473885336], [174.546642559833, -36.8952437294399], [174.546647823805, -36.8952404250002], [174.546652859077, -36.895237466057], [174.546657654613, -36.8952348617677], [174.546662210231, -36.8952326031212], [174.546666537332, -36.8952306989826], [174.546670624697, -36.895229149498], [174.546674472143, -36.8952279456562], [174.546678079854, -36.8952270964685], [174.546681458866, -36.8952265927775], [174.546684598143, -36.8952264437406], [174.546687497683, -36.8952266493578], [174.546690388914, -36.8952269993018], [174.546693580526, -36.8952272191435], [174.546697061116, -36.8952273000177], [174.546700830684, -36.8952272419243], [174.546704900633, -36.8952270537285], [174.546709270962, -36.8952267354303], [174.54671393027, -36.8952262781645], [174.546718889958, -36.8952256907962], [174.546724138625, -36.8952249644602], [174.546729676451, -36.8952241081677], [174.546735525696, -36.8952231126153], [174.546741664101, -36.8952219871063], [174.546748091484, -36.8952207226294], [174.546754819248, -36.8952193280498], [174.546761847209, -36.8952177943562], [174.54676916433, -36.8952161307058], [174.54677677043, -36.8952143280873], [174.546784688128, -36.8952123952198], [174.546792883586, -36.8952103235302], [174.546801390642, -36.8952081215915], [174.546810097466, -36.895205808887], [174.546818613558, -36.8952034986654], [174.54682688282, -36.8952011916572], [174.546834905618, -36.895198905885], [174.546842692987, -36.8951966321915], [174.546850222489, -36.8951943708689], [174.546857527783, -36.895192121479], [174.54686457521, -36.89518988446], [174.546871376172, -36.8951876686773], [174.546877941524, -36.8951854559623], [174.546884260411, -36.8951832644835], [174.546890332469, -36.8951810762185], [174.54689616928, -36.8951789090438], [174.546901748226, -36.8951767542404], [174.546907091743, -36.895174611516], [174.546912188795, -36.8951724900282], [174.546917050238, -36.8951703716082], [174.546921665034, -36.8951682654135], [174.546926022145, -36.8951661806014], [174.546930155048, -36.8951641077225], [174.546934029903, -36.8951620382038], [174.546937804691, -36.8951600150562], [174.546941524292, -36.8951580376956], [174.546945188522, -36.8951560971105], [174.546948808966, -36.8951542111775], [174.546952363002, -36.8951523711774], [174.54695587307, -36.8951505768182], [174.546959338987, -36.8951488190884], [174.546962738678, -36.8951471163029], [174.546966094401, -36.8951454591582], [174.546969394754, -36.8951438387891], [174.546972640101, -36.8951422732182], [174.54697583026, -36.8951407534342], [174.54697897645, -36.895139279291], [174.546982067271, -36.8951378419234], [174.546985114304, -36.8951364592079], [174.546988094931, -36.8951351224255], [174.546991031589, -36.8951338312839], [174.546993912877, -36.8951325769179], [174.546996739158, -36.8951313773501], [174.546999521472, -36.8951302234232], [174.547002330408, -36.8951292764637], [174.547005350936, -36.8951288044729], [174.547008560981, -36.8951288257656], [174.54701197158, -36.8951293311841], [174.547015582915, -36.89513032974], [174.547019394623, -36.8951318034106], [174.547023395847, -36.8951337703645], [174.547027608846, -36.8951362212982], [174.54703201118, -36.8951391565039], [174.547036625289, -36.8951425756894], [174.547041428914, -36.8951464881581], [174.547046433095, -36.8951508847527], [174.547051626611, -36.8951557656191], [174.547057031903, -36.8951611304652], [174.547062626712, -36.8951669885944], [174.547068433114, -36.8951733216918], [174.547074429035, -36.8951801480724], [174.547080625693, -36.8951874675898], [174.547087022726, -36.8951952622215], [174.547093620497, -36.8952035499901], [174.547100382619, -36.8952121961644], [174.547107116119, -36.8952205362465], [174.547113773207, -36.8952284266402], [174.547120376867, -36.8952358940871], [174.547126926737, -36.8952429205647], [174.547133400559, -36.8952495153765], [174.547139820771, -36.8952556782303], [174.547146164753, -36.8952614004071], [174.547152455307, -36.8952666996371], [174.547158680851, -36.895271558044], [174.547164852602, -36.8952759754817], [174.547170948487, -36.895279970265], [174.547176990579, -36.895283524079], [174.547182956441, -36.895286637216], [174.547188868874, -36.8952893274065], [174.547194727515, -36.8952915766278], [174.547200510106, -36.8952933941834], [174.547206227868, -36.8952947799273], [174.547211891836, -36.895295724702], [174.547217491157, -36.8952962466763], [174.547223025465, -36.8952963278276], [174.547228749231, -36.8952963434154], [174.547234800728, -36.8952964719121], [174.547241191721, -36.8952967402052], [174.547247899407, -36.8952971305645], [174.547254935006, -36.8952976428437], [174.5472622987, -36.8952982860541], [174.547269979087, -36.8952990513304], [174.547277998789, -36.8952999473916], [174.547286346403, -36.8953009653726], [174.547295022113, -36.8953021142845], [174.547304025735, -36.8953033851159], [174.547313357453, -36.895304786878], [174.547323005865, -36.8953063107057], [174.547332993591, -36.8953079653179], [174.54734330923, -36.8953097418492], [174.547353941746, -36.8953116494572], [174.547364913394, -36.8953136788381], [174.547376213138, -36.8953158391492], [174.547387829576, -36.8953181215253], [174.547399785147, -36.895320525674], [174.547411764614, -36.8953230016196], [174.547423170794, -36.8953254309496], [174.547433980886, -36.895327795934], [174.547444195071, -36.8953301055842], [174.547453813349, -36.8953323599004], [174.547462824318, -36.8953345500176], [174.5474712506, -36.8953366846549], [174.547479069755, -36.8953387641047], [174.547486293002, -36.895340788221], [174.54749293138, -36.8953427478466], [174.547498962813, -36.8953446612962], [174.547504397974, -36.8953465013902], [174.54750923741, -36.8953482951623], [174.547513469718, -36.8953500337474], [174.547517117157, -36.8953517078423], [174.547520168688, -36.8953533266042], [174.547522613091, -36.8953548901794], [174.547524461405, -36.8953563894105], [174.547525725213, -36.8953578421739], [174.547526381711, -36.8953592307394], [174.547526520838, -36.895360562949], [174.547526783743, -36.8953619115735], [174.547527282623, -36.8953632751514], [174.547528028877, -36.8953646625476], [174.547529011105, -36.8953660648971], [174.547530251746, -36.8953674819077], [174.547531728543, -36.8953689228827], [174.547533452533, -36.8953703786649], [174.547535412496, -36.8953718494004], [174.547537631055, -36.895373343808], [174.547540085769, -36.8953748621802], [174.547542776275, -36.8953763864943], [174.547545725558, -36.8953779434919], [174.547548910633, -36.8953795064314], [174.547552343083, -36.8953810931892], [174.547556011689, -36.8953827039113], [174.547559938708, -36.8953843292943], [174.547564101701, -36.8953859696304], [174.547568512069, -36.8953876337847], [174.547573158412, -36.895389312892], [174.547578051947, -36.8953910068062], [174.547583149072, -36.8953927791908], [174.547588405455, -36.8953946576645], [174.547593832132, -36.8953966330697], [174.547599418248, -36.8953987235752], [174.547605174841, -36.8954009200234], [174.547611090692, -36.8954032225605], [174.5476171658, -36.8954056311866], [174.547623411384, -36.8954081457553], [174.547629827446, -36.8954107662666], [174.547636402948, -36.8954135018781], [174.547643137524, -36.8954163345671], [174.547650042578, -36.8954192731986], [174.547657118291, -36.895422326784], [174.54766435308, -36.8954254774468], [174.547671747309, -36.8954287432095], [174.547679312015, -36.8954321149147], [174.547687047016, -36.895435583551], [174.547694941457, -36.8954391672871], [174.547702995156, -36.8954428571118], [174.547711219333, -36.8954466528788], [174.547719679484, -36.8954504635981], [174.547728561793, -36.8954540615024], [174.547737888515, -36.895457437288], [174.547747648431, -36.8954605911009], [174.54775784136, -36.8954635139298], [174.547768467483, -36.8954662147858], [174.547779537837, -36.8954686845114], [174.547791030166, -36.89547093241], [174.547802966909, -36.8954729581892], [174.547815336664, -36.8954747529838], [174.547828151014, -36.8954763346699], [174.547841398193, -36.8954776763599], [174.547855067529, -36.8954788052335], [174.547869192316, -36.8954797028296], [174.547883739077, -36.8954803785977], [174.547898730068, -36.8954808232342], [174.547914143033, -36.8954810460424], [174.547930000411, -36.8954810467299], [174.547946302201, -36.8954808252965], [174.547963025782, -36.895480373023], [174.547980148898, -36.8954796992131], [174.547997179162, -36.8954788733784], [174.548014004198, -36.8954778879697], [174.548030635771, -36.8954767698747], [174.548047051078, -36.8954755013634], [174.548063261338, -36.8954740822897], [174.548079266733, -36.8954725216649], [174.548095055862, -36.895470810624], [174.548110651346, -36.895468957886], [174.548126041783, -36.895466954586], [174.548141216135, -36.8954648098813], [174.548156196659, -36.8954625144685], [174.548170961099, -36.8954600776514], [174.548185520492, -36.8954574902725], [174.548199875019, -36.8954547613431], [174.548214024682, -36.8954518908634], [174.548227969114, -36.8954488608109], [174.548241697644, -36.8954456983656], [174.548255232164, -36.8954423762015], [174.54826855078, -36.8954389216448], [174.548281675387, -36.8954353073693], [174.548294337989, -36.8954315999635], [174.548306325781, -36.8954278202288], [174.548317649981, -36.8954239680188], [174.548328299553, -36.8954200524914], [174.548338274496, -36.8954160736468], [174.548347574628, -36.8954120224738], [174.54835621117, -36.8954078988263], [174.548364173083, -36.8954037118621], [174.548371460368, -36.8953994615811], [174.548378072843, -36.8953951389725], [174.548384010508, -36.895390744036], [174.548389284764, -36.8953862856371], [174.548393873173, -36.8953817640681], [174.548397797992, -36.8953771700255], [174.548401048184, -36.8953725126668], [174.548403634785, -36.8953677828345], [174.548405546577, -36.8953629806749], [174.548406772704, -36.8953581243568], [174.54840733506, -36.8953531865541], [174.548407222789, -36.8953481854353], [174.548406637842, -36.8953431183683], [174.548406151867, -36.895337950861], [174.548405843402, -36.8953326818896], [174.548405690372, -36.8953273297694], [174.548405703631, -36.8953218763313], [174.54840587196, -36.8953163217217], [174.548406206943, -36.895310683817], [174.548406696996, -36.8953049447407], [174.548407353339, -36.8952991043466], [174.548408176336, -36.8952931806574], [174.548409165622, -36.8952871556504], [174.548410298758, -36.8952810296181], [174.548411609768, -36.8952748201443], [174.548413075847, -36.895268509499], [174.548414708216, -36.8952620975359], [174.548416507238, -36.8952556022776], [174.54841845011, -36.895249005994], [174.548420570491, -36.8952423082463], [174.548422846124, -36.8952355183384], [174.548425288228, -36.8952286361239], [174.548427896985, -36.8952216706141], [174.548430708785, -36.8952147565397], [174.548433736122, -36.8952079568334], [174.548436978449, -36.8952012444613], [174.548440447532, -36.895194646311], [174.54844412075, -36.8951881536638], [174.54844802036, -36.8951817572157], [174.548452146544, -36.8951754659782], [174.548456476681, -36.8951692712322], [174.548461033573, -36.895163190708], [174.548465805638, -36.8951572065292], [174.548470793057, -36.895151327707], [174.548475995831, -36.8951455542414], [174.548481424996, -36.8951398769749], [174.548487058477, -36.8951343142224], [174.548492918351, -36.8951288476689], [174.548498993396, -36.8951234774606], [174.548505295197, -36.8951182214738], [174.54851181217, -36.8951130618321], [174.54851854468, -36.8951080165581], [174.548525492179, -36.8951030586179], [174.548532533621, -36.8950983067669], [174.548539524974, -36.8950938530192], [174.548546477639, -36.89508970624], [174.548553368995, -36.8950858577104], [174.548560221482, -36.8950823071379], [174.548567024062, -36.8950790636801], [174.548573776554, -36.8950761183257], [174.548580490358, -36.8950734799398], [174.548587154074, -36.8950711396572], [174.5485937677, -36.895069097478], [174.548600320202, -36.8950673625599], [174.548606845053, -36.8950659254526], [174.548613308779, -36.8950647956063], [174.548619733636, -36.8950639637172], [174.548626108587, -36.8950634389429], [174.54863243345, -36.895063212272], [174.548638708225, -36.8950632837045], [174.548644933094, -36.8950636622518], [174.548651119094, -36.8950643387563], [174.54865724397, -36.8950653225219], [174.548663316754, -36.8950665052667], [174.548669251445, -36.895067518552], [174.54867504695, -36.8950683083099], [174.548680703634, -36.8950688925631], [174.548686221131, -36.895069253289], [174.548691588404, -36.8950693996452], [174.548696827893, -36.8950693313392], [174.548701928378, -36.8950690485172], [174.548706878457, -36.8950685423143], [174.548711700933, -36.8950678304606], [174.548716373004, -36.8950668952259], [174.54872090607, -36.8950657454754], [174.548725311351, -36.8950643810628], [174.548729566409, -36.8950628022806], [174.548733682462, -36.8950610089826], [174.54873765951, -36.8950590011688], [174.548741497372, -36.8950567698279], [174.548745196412, -36.8950543329825], [174.548748756265, -36.8950516726101], [174.548752165894, -36.8950487978683], [174.548755458958, -36.8950457083181], [174.548758850993, -36.8950425183273], [174.548762421083, -36.8950392539057], [174.548766192029, -36.8950359327834], [174.548770140848, -36.895032528219], [174.548774279304, -36.8950290671002], [174.548778607033, -36.8950255314043], [174.548783124401, -36.8950219391538], [174.548787831041, -36.8950182723262], [174.548792726955, -36.8950145309215], [174.548797801287, -36.8950107331084], [174.548803076112, -36.8950068605719], [174.548808529172, -36.8950029226157], [174.548814182908, -36.8949989189473], [174.548820014697, -36.894994840848], [174.548826035941, -36.8949906971826], [174.54883224664, -36.8949864879511], [174.548838646794, -36.8949822131537], [174.548845236221, -36.8949778637788], [174.548852004066, -36.8949734579954], [174.548858972403, -36.8949689774883], [174.54886599629, -36.8949644692155], [174.548872875417, -36.8949600169116], [174.548879631857, -36.8949556022617], [174.548886254573, -36.8949512344232], [174.548892732347, -36.8949469135425], [174.548899087617, -36.8949426393271], [174.548905297944, -36.8949384120694], [174.548911385585, -36.8949342224657], [174.548917328283, -36.8949300798199], [174.548923137258, -36.8949259839856], [174.54892881251, -36.894921934963], [174.548934354038, -36.894917932752], [174.548939761844, -36.8949139773526], [174.548945035744, -36.8949100597536], [174.548950175921, -36.8949061889663], [174.548955182375, -36.8949023649907], [174.548960055106, -36.8948985878268], [174.548964782894, -36.8948948576209], [174.548969387997, -36.8948911650692], [174.548973848339, -36.8948875284868], [174.548978186543, -36.8948839565925], [174.548982417105, -36.8948806114431], [174.548986540208, -36.8948775020499], [174.548990567253, -36.894874637278], [174.548994487022, -36.8948720172736], [174.548998299332, -36.8948696330255], [174.549002015402, -36.8948674843873], [174.549005624196, -36.8948655805167], [174.549009125713, -36.8948639214137], [174.549012530991, -36.8948624979207], [174.549015828992, -36.8948613191953], [174.549019019535, -36.8948603762261], [174.54902211402, -36.8948596778783], [174.54902510123, -36.8948592242982], [174.54902798098, -36.8948590064743], [174.549030764492, -36.8948590242605], [174.549033440727, -36.8948592868143], [174.549036020905, -36.8948597939895], [174.549038482405, -36.8948605370673], [174.549040859068, -36.8948615246202], [174.549043116871, -36.8948627390644], [174.549045407057, -36.8948638899908], [174.549047771226, -36.8948648146108], [174.549050209741, -36.8948655309471], [174.549052722239, -36.8948660209771], [174.54905532012, -36.8948662935658], [174.549057980947, -36.8948663490058], [174.549060727157, -36.8948661870044], [174.549063558569, -36.8948657985505], [174.549066453108, -36.8948652019591], [174.549069432849, -36.894864378915], [174.549072486755, -36.8948633385759], [174.549075615006, -36.8948620899531], [174.54907881724, -36.8948606150239], [174.549082104675, -36.8948589136421], [174.549085466457, -36.8948570039764], [174.549088902403, -36.8948548770158], [174.54909242355, -36.8948525236024], [174.549096007642, -36.8948499530403], [174.549099677118, -36.8948471650367], [174.549103420757, -36.8948441597381], [174.549107251237, -36.8948410090883], [174.549111148487, -36.8948378305268], [174.549115134946, -36.8948346237608], [174.549119199576, -36.894831397948], [174.549123353596, -36.894828152942], [174.549127574387, -36.8948248800243], [174.549131884568, -36.8948215879133], [174.549136272738, -36.8948182677442], [174.549140739079, -36.8948149285283], [174.549145294811, -36.8948115701191], [174.549149928533, -36.8948081836517], [174.549154640425, -36.8948047781375], [174.549159430307, -36.894801344565], [174.549164309579, -36.8947978917994], [174.54916925562, -36.8947944111218], [174.549174291052, -36.894790911251], [174.549179415875, -36.8947873921869], [174.549184607468, -36.8947838452109], [174.54918988845, -36.8947802790416], [174.549195247422, -36.894776684814], [174.549200651453, -36.8947730990122], [174.549205912546, -36.8947696592929], [174.54921097515, -36.8947663934213], [174.549215861887, -36.8947633101164], [174.549220561354, -36.8947604005129], [174.549225073551, -36.8947576646111], [174.549229409882, -36.8947551112759], [174.549233547724, -36.8947527317886], [174.549237498296, -36.894750526003], [174.549241272819, -36.8947484937728], [174.549244849036, -36.8947466444018], [174.549248249203, -36.8947449685862], [174.549251462284, -36.8947434754836], [174.549254476694, -36.8947421472178], [174.549257315237, -36.8947410015187], [174.549259966693, -36.8947400385327], [174.549262441918, -36.8947392400909], [174.549264718836, -36.8947386245084], [174.549266808669, -36.894738191639], [174.549268722269, -36.8947379233138], [174.549270448783, -36.8947378377017], [174.549272074687, -36.894737771429], [174.549273688096, -36.8947376422237], [174.549275266572, -36.8947374503782], [174.549276810114, -36.8947371958927], [174.549278341161, -36.8947368784745], [174.549279837093, -36.894736489405], [174.549281298092, -36.8947360376954], [174.549282735194, -36.8947355141881], [174.549284137545, -36.8947349370521], [174.549285527219, -36.8947342879721], [174.54928687074, -36.8947335763984], [174.549288201766, -36.8947328018919], [174.549289497677, -36.8947319557342], [174.549290758837, -36.8947310559476], [174.5492919961, -36.8947300843634], [174.549293209649, -36.8947290499929], [174.549294388083, -36.894727943971], [174.549295542802, -36.8947267751628], [174.549296662771, -36.8947255527258], [174.54929775866, -36.8947242494798], [174.549298830836, -36.8947228834475], [174.549299867714, -36.8947214367526], [174.549300880149, -36.8947198912262], [174.549301857286, -36.8947182650371], [174.549302810162, -36.8947165490279], [174.549303727741, -36.894714752356], [174.549304632278, -36.8947128657176], [174.549305490116, -36.8947108895516], [174.549306335095, -36.8947088324304], [174.549307133375, -36.8947066857816], [174.549307918613, -36.8947044491662], [174.549308668554, -36.8947021318883], [174.549309394234, -36.8946997247901], [174.549310084616, -36.8946972370294], [174.549310750555, -36.8946946504371], [174.549311381196, -36.8946919831822], [174.549311987759, -36.8946892351184], [174.549312570061, -36.8946863972344], [174.549313116884, -36.8946834696766], [174.549313628226, -36.8946804524448], [174.549314138111, -36.8946773631227], [174.549314726167, -36.8946742547538], [174.549315426417, -36.8946711449217], [174.549316227642, -36.8946680337726], [174.54931714106, -36.8946649211603], [174.549318166673, -36.8946618070848], [174.54931929326, -36.8946586916924], [174.549320532041, -36.8946555748367], [174.549321883198, -36.8946524655291], [174.549323335147, -36.8946493458932], [174.549324899291, -36.8946462247941], [174.549326564408, -36.8946431023781], [174.549328352939, -36.8946399783524], [174.549330242444, -36.8946368530099], [174.549332232924, -36.8946337263504], [174.549334335598, -36.8946305982276], [174.549336550465, -36.8946274686415], [174.549338877526, -36.8946243375921], [174.549341305561, -36.8946212052258], [174.549343845972, -36.8946180804075], [174.549346487176, -36.8946149452609], [174.549349152093, -36.8946118729005], [174.549351763099, -36.8946089094072], [174.549354331414, -36.8946060546346], [174.549356834598, -36.8946033088753], [174.549359295091, -36.8946006718366], [174.549361690636, -36.8945981528226], [174.549364043307, -36.894595733518], [174.549366342067, -36.8945934230804], [174.549368598318, -36.8945912303748], [174.549370789256, -36.8945891376712], [174.549372937685, -36.8945871626997], [174.549375032203, -36.8945852965951], [174.549377061591, -36.8945835395039], [174.549379059507, -36.8945818909871], [174.549380992293, -36.8945803514837], [174.549382871168, -36.8945789208473], [174.549384707351, -36.8945775989316], [174.549386489624, -36.8945763858829], [174.549388217986, -36.8945752817013], [174.549389892437, -36.8945742863868], [174.549391523104, -36.8945733457252], [174.549393128782, -36.8945722791983], [174.54939469825, -36.8945710869524], [174.549396231328, -36.8945697599761], [174.549397739234, -36.8945682981233], [174.549399222332, -36.8945667194163], [174.549400668858, -36.8945649969678], [174.549402090394, -36.8945631486539], [174.549403486941, -36.8945611744747], [174.549404847096, -36.8945590655652], [174.549406182262, -36.8945568307903], [174.549407481219, -36.8945544702964], [174.549408754823, -36.8945519659146], [174.549410003619, -36.8945493446788], [174.549411215842, -36.8945465797013], [174.549412392038, -36.8945436980162], [174.549413554282, -36.894540681308], [174.549414680134, -36.8945375298696], [174.549415769778, -36.8945342527122], [174.549416834251, -36.8945308406782], [174.549417874098, -36.8945273208014], [174.549418904001, -36.8945238641499], [174.549419935908, -36.8945205066225], [174.549420970001, -36.8945172572306], [174.549422017682, -36.894514124839], [174.54942305633, -36.8945111007291], [174.549424096981, -36.8945081757434], [174.549425151221, -36.8945053677581], [174.549426196427, -36.8945026680545], [174.54942724382, -36.8945000764863], [174.549428293399, -36.8944975930536], [174.549429345164, -36.8944952177562], [174.549430410334, -36.8944929504479], [174.549431466472, -36.8944907914214], [174.549432524977, -36.8944887495416], [174.549433596707, -36.8944868066395], [174.549434659403, -36.8944849720193], [174.549435724467, -36.8944832545457], [174.549436791536, -36.8944816361962], [174.549437872192, -36.8944801348471], [174.549438943815, -36.8944787417798], [174.549440004037, -36.8944773398475], [174.549441039816, -36.8944758390837], [174.549442039568, -36.8944742216122], [174.549443014695, -36.8944724962979], [174.549443953978, -36.8944706632872], [174.549444868635, -36.8944687224338], [174.549445747448, -36.8944666738839], [174.549446612856, -36.894464517345], [174.549447431199, -36.8944622532559], [174.549448236137, -36.8944598811777], [174.549448994011, -36.8944574015495], [174.549449738479, -36.8944548139322], [174.549450446921, -36.8944521096071], [174.54945113092, -36.8944493064506], [174.549451778892, -36.8944463865864], [174.549452402421, -36.8944433678907], [174.549452989923, -36.8944402324873], [174.549453552983, -36.8944369982525], [174.549454091235, -36.8944336471636], [174.549454593643, -36.8944301883783], [174.549455072701, -36.8944266848292], [174.549455555403, -36.8944233615058], [174.549456042114, -36.8944202364307], [174.549456544051, -36.8944173094575], [174.549457038596, -36.8944145718677], [174.549457537148, -36.8944120325261], [174.549458039527, -36.8944096824215], [174.549458546096, -36.8944075395765], [174.549459056491, -36.8944055859685], [174.549459570894, -36.8944038306087], [174.549460100343, -36.8944022643396], [174.549460622763, -36.8944009054763], [174.549461149009, -36.8943997358501], [174.54946167908, -36.8943987554608], [174.549462213343, -36.8943979823312], [174.549462751431, -36.8943973984384], [174.549463293527, -36.894397012794], [174.54946383945, -36.8943968163866], [174.549464400782, -36.8943968270923], [174.549464954722, -36.8943970271814], [174.549465512487, -36.8943974165075], [174.549466182628, -36.8943978133815], [174.54946698649, -36.894398163443], [174.549467924256, -36.8943984757034], [174.549468995743, -36.8943987411513], [174.549470200952, -36.8943989597867], [174.549471539881, -36.8943991316096], [174.549473012533, -36.8943992566201], [174.549474630125, -36.8943993346717], [174.549476370401, -36.8943993750684], [174.549478244399, -36.8943993686527], [174.549480263337, -36.8943993152781], [174.549482404777, -36.8943992152373], [174.549484691158, -36.8943990682377], [174.549487111442, -36.8943988834368], [174.549489665448, -36.8943986518235], [174.549492341774, -36.8943983645325], [174.549495163222, -36.8943980392941], [174.549498118574, -36.8943976762543], [174.549501207465, -36.8943972573906], [174.549504430259, -36.8943968007257], [174.549507697202, -36.8943963074302], [174.549510874573, -36.8943958243166], [174.549513973408, -36.8943953422273], [174.549516993707, -36.8943948611623], [174.54951993547, -36.8943943811217], [174.549522787479, -36.8943939022516], [174.549525560953, -36.8943934244059], [174.54952825589, -36.8943929475846], [174.54953087211, -36.8943924627763], [174.549533398757, -36.89439198815], [174.549535846869, -36.8943915145479], [174.549538216445, -36.8943910419703], [174.549540507486, -36.894390570417], [174.549542708771, -36.8943901000344], [174.549544831522, -36.8943896306762], [174.549546875554, -36.8943891533311], [174.549548841233, -36.8943886860216], [174.549550717157, -36.8943882198828], [174.549552514546, -36.8943877547685], [174.549554233399, -36.8943872906785], [174.549555884754, -36.8943868184552], [174.549557534833, -36.894386283153], [174.549559172236, -36.8943856759068], [174.549560819764, -36.8943850144465], [174.549562454615, -36.8943842810423], [174.549564088191, -36.894383484559], [174.549565731711, -36.8943826248504], [174.549567362554, -36.8943816931978], [174.549569003341, -36.8943806983199], [174.549570631632, -36.8943796405093], [174.549572258649, -36.8943785196197], [174.549573895609, -36.8943773355047], [174.549575519892, -36.8943760794458], [174.5495771429, -36.8943747603079], [174.549578775851, -36.8943733779445], [174.549580396308, -36.8943719326486], [174.549582026526, -36.894370415116], [174.549583644249, -36.8943688346507], [174.549585260697, -36.8943671911064], [174.549586886907, -36.8943654753255], [174.549588500804, -36.8943637056231], [174.549590181288, -36.8943618989976], [174.54959193976, -36.8943600643137], [174.549593776404, -36.8943582105828], [174.549595702256, -36.8943563286472], [174.549597706279, -36.8943544276646], [174.549599777253, -36.8943525077812], [174.549601948655, -36.8943505595469], [174.549604187009, -36.8943485924119], [174.54960651457, -36.8943465970721], [174.549608920303, -36.8943445826854], [174.549611404206, -36.8943425492515], [174.549613966098, -36.8943404877593], [174.549616617381, -36.8943384070737], [174.549619346652, -36.8943362983297], [174.549622154093, -36.8943341705386], [174.549625039524, -36.8943320146892], [174.549628014345, -36.8943298396463], [174.549631067336, -36.8943276455563], [174.549634198316, -36.8943254234079], [174.549637407467, -36.8943231822124], [174.549640672897, -36.8943209492963], [174.549643939785, -36.8943187884704], [174.549647196546, -36.8943166818586], [174.549650465984, -36.8943146471905], [174.549653736697, -36.8943126756013], [174.549657008868, -36.8943107761024], [174.549660282132, -36.894308930671], [174.549663545634, -36.8943071574762], [174.549666821631, -36.894305447214], [174.549670098903, -36.8943038000306], [174.549673377633, -36.8943022249375], [174.549676646419, -36.8943007130696], [174.549679927699, -36.8942992641342], [174.549683210255, -36.8942978782777], [174.549686494269, -36.8942965645115], [174.549689779376, -36.8942953048128], [174.549693054721, -36.8942941173507], [174.549696342743, -36.8942930018325], [174.549699631859, -36.8942919403818], [174.549702922432, -36.8942909510213], [174.54970620215, -36.8942899798297], [174.549709466458, -36.8942888015248], [174.54971268115, -36.8942873895119], [174.549715879703, -36.8942857343405], [174.54971903986, -36.8942838453147], [174.549722172658, -36.894281713277], [174.54972526706, -36.8942793473848], [174.549728334103, -36.8942767384806], [174.54973136275, -36.894273895722], [174.549734363856, -36.8942708009401], [174.549737326748, -36.8942674813151], [174.5497402735, -36.8942639185318], [174.549743170455, -36.8942601130291], [174.549746051452, -36.8942560733794], [174.549748893871, -36.8942517908639], [174.549751697893, -36.8942472744942], [174.549754474557, -36.8942425151124], [174.549757223861, -36.8942375127186], [174.549759934769, -36.8942322764705], [174.5497626185, -36.8942268062216], [174.549765263653, -36.8942210931071], [174.549767854531, -36.8942154708372], [174.549770371429, -36.8942100748739], [174.549772803674, -36.8942049323974], [174.549775162122, -36.8942000252388], [174.549777446772, -36.8941953533982], [174.549779646587, -36.894190926033], [174.549781784006, -36.8941867428507], [174.549783836408, -36.8941827951327], [174.549785803976, -36.8941790918902], [174.549787708966, -36.8941756238193], [174.549789529121, -36.894172400224], [174.549791275478, -36.8941694119466], [174.549792948221, -36.8941666679984], [174.549794547166, -36.8941641593681], [174.549796061276, -36.8941618952134], [174.549797501772, -36.8941598753879], [174.54979886847, -36.8941580908804], [174.549800161553, -36.8941565507021], [174.549801369619, -36.8941552459881], [174.54980251529, -36.894154185457], [174.549803573575, -36.8941532432435], [174.549804595833, -36.8941521843224], [174.549805559626, -36.8941510089864], [174.549806476354, -36.8941497261004], [174.549807334435, -36.8941483177884], [174.549808145269, -36.8941467929151], [174.549808897637, -36.8941451516269], [174.549809602759, -36.8941433937775], [174.549810260635, -36.8941415193669], [174.549810859863, -36.8941395195302], [174.549811412027, -36.8941374121435], [174.549811916762, -36.8941351791843], [174.549812363214, -36.8941328388215], [174.549812762237, -36.8941303728862], [174.549813102977, -36.8941277995474], [174.549813396288, -36.894125100636], [174.549813631134, -36.8941222853098], [174.549813829953, -36.894119353276], [174.549813959087, -36.8941163049737], [174.549814052193, -36.8941131399638], [174.549814098236, -36.894109867404], [174.54981423458, -36.8941066207071], [174.549814461407, -36.8941034088844], [174.54981479012, -36.8941002408007], [174.549815209316, -36.8940971075913], [174.549815741434, -36.8940940089633], [174.549816364217, -36.8940909542208], [174.549817088703, -36.8940879342061], [174.549817915074, -36.8940849579306], [174.54981884333, -36.8940820253941], [174.549819861887, -36.8940791187205], [174.549820993549, -36.8940762556396], [174.549822215876, -36.8940734364442], [174.549823528686, -36.894070652123], [174.5498249546, -36.8940679113945], [174.549826470998, -36.8940652055402], [174.549828089098, -36.8940625344136], [174.549829809083, -36.8940599070261], [174.549831630771, -36.8940573143665], [174.549833554344, -36.8940547654459], [174.5498355684, -36.8940522513994], [174.549837538125, -36.8940497649722], [174.54983938462, -36.8940472891664], [174.549841096847, -36.8940448331395], [174.549842685845, -36.894042387734], [174.549844140393, -36.8940399530962], [174.549845460673, -36.8940375382374], [174.549846657723, -36.894035134], [174.549847720507, -36.8940327495415], [174.54984864884, -36.8940303758508], [174.549849453944, -36.8940280127815], [174.54985012478, -36.8940256694911], [174.549850672386, -36.8940233368222], [174.549851085725, -36.8940210239322], [174.549851364614, -36.89401872181], [174.549851520274, -36.8940164303091], [174.549851541666, -36.8940141585873], [174.549851428609, -36.8940118976332], [174.549851192322, -36.8940096473005], [174.549850821767, -36.8940074167468], [174.549850316946, -36.8940052059721], [174.549849812307, -36.8940030042087], [174.549849554857, -36.8940008172477], [174.549849567217, -36.8939986538077], [174.549849860423, -36.8939965047309], [174.54985042344, -36.8939943791751], [174.549851244865, -36.8939922682753], [174.549852347137, -36.8939901717388], [174.549853730438, -36.8939880985769], [174.549855372147, -36.8939860400709], [174.549857283666, -36.8939840050859], [174.549859476032, -36.8939819844641], [174.549861938207, -36.8939799873632], [174.549864658791, -36.8939780049183], [174.549867660222, -36.8939760368365], [174.549870942681, -36.8939740921292], [174.549874483548, -36.8939721620778], [174.549878294225, -36.8939702555472], [174.549882385749, -36.8939683633796], [174.549886735681, -36.8939664858679], [174.549891366642, -36.8939646317306], [174.549896255828, -36.8939627832377], [174.549901300262, -36.8939608425825], [174.549906477322, -36.8939588010464], [174.549911797864, -36.8939566404606], [174.549917239813, -36.8939543791402], [174.549922814024, -36.8939519989164], [174.549928531899, -36.893949508654], [174.549934370998, -36.8939469086457], [174.549940353761, -36.8939441985988], [174.549946468968, -36.8939413786597], [174.5499527054, -36.8939384489747], [174.549959085495, -36.893935409251], [174.549965598034, -36.893932259635], [174.549972242835, -36.8939289911153], [174.549979020261, -36.8939256217146], [174.549985930132, -36.8939221424215], [174.549992972264, -36.8939185442247], [174.550000147022, -36.8939148451468], [174.550007465261, -36.8939110270187], [174.550014904724, -36.8939070991446], [174.55002248785, -36.8939030612315], [174.550029981404, -36.8938990335004], [174.550037240809, -36.8938950809333], [174.550044266614, -36.893891230564], [174.550051036015, -36.8938874646628], [174.550057571632, -36.8938837919483], [174.550063862066, -36.8938802035556], [174.550069918716, -36.8938767083496], [174.550075730365, -36.8938733064768], [174.550081297011, -36.8938699979372], [174.550086618473, -36.8938667737195], [174.55009170597, -36.8938636336774], [174.550096537428, -36.8938605961263], [174.550101146141, -36.8938576426044], [174.55010549845, -36.893854773551], [174.550109617159, -36.8938520066958], [174.550113490685, -36.8938493241628], [174.550117119026, -36.8938467259518], [174.550120502548, -36.8938442300856], [174.550123652105, -36.8938418183952], [174.550126556478, -36.893839491027], [174.550129317006, -36.893837264686], [174.550132225571, -36.8938351445771], [174.550135304612, -36.8938331304077], [174.550138542911, -36.8938312223239], [174.550141940466, -36.893829420326], [174.550145508497, -36.8938277242673], [174.550149247005, -36.893826134148], [174.550153144769, -36.8938246501143], [174.550157201973, -36.8938232811777], [174.55016142947, -36.893822009169], [174.550165816225, -36.8938208432459], [174.550170373638, -36.8938197922734], [174.550175090307, -36.8938188473864], [174.550179977271, -36.8938179994274], [174.550185034894, -36.8938172664188], [174.550190240554, -36.8938166396422], [174.550195627909, -36.8938161186582], [174.55020116312, -36.893815694895], [174.550206880209, -36.8938153859356], [174.550212745518, -36.8938151922194], [174.550218769537, -36.8938150775548], [174.550224815266, -36.893814926552], [174.550230825514, -36.8938146858752], [174.550236800464, -36.8938143645358], [174.550242762371, -36.8938139532297], [174.550248677579, -36.8938134523961], [174.550254579926, -36.893812870607], [174.550260446611, -36.8938121901328], [174.550266278179, -36.8938114380072], [174.550272085304, -36.8938105870502], [174.550277868349, -36.8938096552841], [174.550283616096, -36.8938086428553], [174.550289339399, -36.8938075315951], [174.550295027404, -36.8938063396722], [174.550300691329, -36.8938050669404], [174.55030633081, -36.8938036953771], [174.550311934992, -36.8938022431511], [174.550317515096, -36.8938007101162], [174.550323059536, -36.8937990783962], [174.550328579896, -36.8937973658672], [174.550334076177, -36.8937955725293], [174.55033942442, -36.8937936729591], [174.550344535053, -36.8937916773394], [174.550349396492, -36.8937895677939], [174.550354020138, -36.8937873531876], [174.550358394956, -36.8937850426783], [174.550362520579, -36.8937826182434], [174.55036639719, -36.8937800888941], [174.55037002479, -36.8937774546306], [174.550373414598, -36.8937747153064], [174.550376555394, -36.893771871068], [174.550379458398, -36.8937689217688], [174.55038211239, -36.8937658675556], [174.550384505969, -36.8937626995632], [174.550386673157, -36.8937594353752], [174.550388580115, -36.8937560664193], [174.550390249098, -36.8937525833917], [174.550391669252, -36.8937490044612], [174.550392840212, -36.8937453116053], [174.55039377338, -36.8937415136888], [174.550394457719, -36.8937376198695], [174.550394949872, -36.8937336564491], [174.550395488725, -36.8937297825558], [174.550396074825, -36.8937260252235], [174.550396730429, -36.8937223751481], [174.550397432914, -36.8937188236111], [174.550398193865, -36.8937153884886], [174.550399001881, -36.8937120609158], [174.5503998794, -36.8937088405999], [174.550400803984, -36.8937057278337], [174.55040179807, -36.8937027223243], [174.550402839222, -36.8936998243646], [174.550403938839, -36.8936970428194], [174.550405085338, -36.8936943598127], [174.550406301341, -36.8936917840628], [174.55040756459, -36.8936893248738], [174.55040889716, -36.8936869639305], [174.550410276977, -36.8936847195481], [174.550411703676, -36.893682573704], [174.55041320006, -36.8936805441282], [174.550414754728, -36.8936786219555], [174.550416356278, -36.8936767983212], [174.550417991486, -36.8936749742477], [174.550419659441, -36.8936731046784], [174.550421348922, -36.8936711897599], [174.55042305993, -36.8936692294921], [174.550424803684, -36.8936672237285], [174.550426580366, -36.8936651814806], [174.550428378576, -36.8936630938834], [174.550430198312, -36.8936609609368], [174.550432039576, -36.893658782641], [174.550433913585, -36.8936565588495], [174.55043582034, -36.8936542895623], [174.550437737586, -36.8936519840835], [174.550439698797, -36.8936496329625], [174.550441670315, -36.8936472366386], [174.550443685799, -36.8936447946727], [174.55044571159, -36.8936423075039], [174.550447770128, -36.8936397748393], [174.550449850374, -36.8936372058367], [174.550451963367, -36.8936345913384], [174.550454097886, -36.8936319314908], [174.550456310029, -36.8936292255618], [174.55045865589, -36.8936264728191], [174.550461124434, -36.8936236824206], [174.550463737734, -36.8936208360509], [174.550466484936, -36.8936179518787], [174.550469365856, -36.893615020893], [174.550472380496, -36.8936120430937], [174.550475540257, -36.8936090273455], [174.550478822335, -36.893605955919], [174.550482238314, -36.89360284669], [174.550485799232, -36.8935996905009], [174.550489482649, -36.8935964876446], [174.550493311005, -36.8935932378282], [174.550497262042, -36.8935899503558], [174.550501357836, -36.8935866069119], [174.550505587531, -36.8935832256657], [174.550509939725, -36.8935797977521], [174.550514436857, -36.8935763228783], [174.550519067709, -36.8935728011908], [174.550523832279, -36.8935692326895], [174.550528697092, -36.893565626825], [174.550533504351, -36.8935619496022], [174.550538220579, -36.8935582104717], [174.550542856813, -36.8935544002758], [174.550547402199, -36.8935505371836], [174.550551878811, -36.8935466028795], [174.550556264392, -36.8935426066678], [174.550560570162, -36.8935385484021], [174.550564795939, -36.8935344190709], [174.550568930867, -36.8935302368435], [174.550572985801, -36.8935259835507], [174.550576960743, -36.8935216591926], [174.550580856055, -36.8935172817918], [174.550584660154, -36.8935128334721], [174.550588395661, -36.8935083229519], [174.550592040138, -36.8935037505242], [174.550595593402, -36.8934991071776], [174.550599078257, -36.8934944106419], [174.550602471898, -36.8934896431874], [174.550605785729, -36.8934848136789], [174.550609019748, -36.8934799221164], [174.550612243277, -36.8934750667454], [174.550615468811, -36.8934703104984], [174.550618707387, -36.8934656442177], [174.550621947786, -36.8934610680498], [174.550625212446, -36.8934565817017], [174.550628478929, -36.8934521854663], [174.550631769674, -36.8934478790507], [174.550635051022, -36.8934436628944], [174.550638356631, -36.8934395365579], [174.550641675283, -36.8934355001876], [174.550644995757, -36.8934315539302], [174.550648329274, -36.893427697639], [174.550651675833, -36.893423931314], [174.550655035434, -36.8934202549554], [174.550658396857, -36.8934166687094], [174.550661782543, -36.8934131722834], [174.550665170051, -36.89340976597], [174.550668559382, -36.8934064497693], [174.550671973157, -36.8934032323998], [174.550675399792, -36.8934000959853], [174.550678838192, -36.8933969864581], [174.550682308974, -36.8933938134124], [174.550685823174, -36.8933905676906], [174.55068936939, -36.8933872404279], [174.550692947987, -36.8933838496467], [174.550696558782, -36.8933803863358], [174.550700212996, -36.8933768503488], [174.550703899225, -36.8933732328208], [174.550707617836, -36.8933695517744], [174.550711368645, -36.8933657981982], [174.550715162872, -36.8933619719459], [174.550718978079, -36.8933580733103], [174.550722836703, -36.8933541019985], [174.550726738745, -36.8933500580106], [174.550730661766, -36.8933459416394], [174.550734628205, -36.893341752592], [174.550738626842, -36.8933374910149], [174.550742657678, -36.893333156908], [174.550746720712, -36.8933287502714], [174.550750827164, -36.8933242709586], [174.550754966179, -36.8933197371386], [174.550759139945, -36.8933152569468], [174.550763348827, -36.8933108484057], [174.550767603861, -36.8933065023577], [174.55077188261, -36.8933022190955], [174.550776207876, -36.8932980163489], [174.550780579295, -36.8932938760954], [174.550784974428, -36.8932897986277], [174.550789404859, -36.893285801822], [174.550793881261, -36.893281858498], [174.550798392961, -36.8932779958361], [174.550802939594, -36.8932741958135], [174.550807532381, -36.8932704582839], [174.550812149246, -36.8932668015628], [174.550816812081, -36.8932631983233], [174.550821510215, -36.8932596757458], [174.550826243282, -36.8932562158077], [174.550831022684, -36.8932528273739], [174.550835825801, -36.8932495017259], [174.550840675253, -36.8932462475821], [174.550845570858, -36.8932430559312], [174.550850478046, -36.8932398821563], [174.550855418344, -36.8932366809079], [174.550860391752, -36.893233452186], [174.550865387416, -36.8932302141598], [174.550870404788, -36.8932269397953], [174.550875455635, -36.89322365598], [174.550880539592, -36.8932203446912], [174.550885634404, -36.8932170152331], [174.550890762325, -36.8932136583016], [174.550895923356, -36.8932102738967], [174.550901106643, -36.8932068801873], [174.55090631182, -36.8932034591509], [174.550911550108, -36.893200010641], [174.550916810469, -36.8931965438155], [174.550922092903, -36.8931930586742], [174.550927408447, -36.8931895460594], [174.550932757283, -36.8931860149824], [174.550938128192, -36.8931824655897], [174.550943520992, -36.89317888887], [174.550948935683, -36.8931752848232], [174.550954327935, -36.8931716810692], [174.550959552264, -36.8931680975345], [174.550964620071, -36.8931645430842], [174.550969531174, -36.8931610087068], [174.550974274353, -36.8931574945489], [174.550978849792, -36.8931540096217], [174.550983268526, -36.8931505447677], [174.550987530739, -36.893147108998], [174.550991625028, -36.8931436934478], [174.550995551395, -36.8931402981172], [174.55099932124, -36.8931369318709], [174.551002934381, -36.8931335856979], [174.551006379781, -36.8931302687557], [174.551009657258, -36.8931269720331], [174.551012789251, -36.8931236952373], [174.551015742283, -36.8931204478188], [174.551018538795, -36.8931172294848], [174.55102117842, -36.8931140222127], [174.551023650304, -36.8931108441716], [174.551025965667, -36.8931076952151], [174.55102815762, -36.8931045478697], [174.551030504087, -36.8931012723156], [174.551033060617, -36.8930978407867], [174.551035827212, -36.8930942532828], [174.551038815271, -36.8930905186687], [174.551042013211, -36.8930866190684], [174.551045432617, -36.8930825723579], [174.551049050684, -36.8930783608076], [174.551052890216, -36.8930740021471], [174.55105695103, -36.8930694873651], [174.551061221907, -36.893064816608], [174.551065702848, -36.8930599898758], [174.551070393852, -36.8930550071685], [174.551075294918, -36.8930498684861], [174.551080417449, -36.8930445826933], [174.55108576108, -36.8930391317676], [174.551091303737, -36.8930335340244], [174.551097067493, -36.8930277711482], [174.551103041494, -36.8930218613081], [174.551109236776, -36.8930157953462], [174.551115630902, -36.8930095735554], [174.551121991005, -36.8930033341812], [174.551128139037, -36.8929971516577], [174.551134075363, -36.8929910440073], [174.551139788583, -36.8929850023655], [174.551145278877, -36.8929790357434], [174.551150568503, -36.8929731348369], [174.551155635022, -36.8929672999389], [174.551160489653, -36.892961530903], [174.551165121177, -36.8929558278758], [174.551169552216, -36.8929501995754], [174.551173760147, -36.8929446372837], [174.551177744972, -36.8929391410007], [174.551181517909, -36.8929337105799], [174.551185090361, -36.8929283548861], [174.551188428486, -36.8929230653476], [174.551191565944, -36.8929178415248], [174.551194480295, -36.8929126837108], [174.551197171723, -36.8929076009168], [174.551199662482, -36.8929025838387], [174.551201930135, -36.8928976327693], [174.551204098458, -36.8928927641199], [174.551206437802, -36.8928880284423], [174.551208981644, -36.8928834162856], [174.551211707546, -36.8928789279428], [174.551214626908, -36.8928745722787], [174.55121773973, -36.8928703492933], [174.551221045831, -36.8928662499754], [174.551224545211, -36.8928622743248], [174.551228238051, -36.8928584313529], [174.551232124351, -36.8928547210596], [174.551236192711, -36.8928511345801], [174.551240465568, -36.8928476716214], [174.551244920666, -36.8928443414878], [174.551249580262, -36.892841134875], [174.551254422099, -36.8928380610872], [174.551259457214, -36.8928351109666], [174.55126468579, -36.8928322935246], [174.551270107827, -36.8928296087609], [174.55127571174, -36.8928270387997], [174.551281520515, -36.8928246103816], [174.551287477145, -36.8928222791828], [174.551293230736, -36.8928198965531], [174.551298690441, -36.8928174095968], [174.551303833639, -36.8928148095958], [174.551308682951, -36.8928121052683], [174.551313238558, -36.8928093056257], [174.551317488879, -36.892806392792], [174.551321445313, -36.8928033756319], [174.551325085422, -36.8928002544385], [174.551328442865, -36.8927970287723], [174.551331495202, -36.8927936989264], [174.551334242434, -36.8927902649007], [174.55133669578, -36.8927867265488], [174.551338844021, -36.8927830840172], [174.551340698376, -36.8927793371594], [174.551342247444, -36.8927754771106], [174.551343491589, -36.8927715218935], [174.551344441666, -36.8927674533389], [174.551345098039, -36.8927632894695], [174.551345449125, -36.8927590124091], [174.551345495288, -36.8927546401804], [174.551345462553, -36.8927502509546], [174.551345544016, -36.8927459593879], [174.551345728092, -36.8927417476041], [174.551346037402, -36.8927376243215], [174.551346438107, -36.8927335809683], [174.551346964228, -36.8927296351277], [174.551347592781, -36.8927257600587], [174.551348335531, -36.8927219826487], [174.551349180894, -36.8927182850216], [174.551350140273, -36.8927146760422], [174.551351213484, -36.8927111466993], [174.551352389491, -36.8927077061506], [174.551353679512, -36.8927043542495], [174.551355083367, -36.8927010819849], [174.551356590017, -36.8926978985145], [174.551358210682, -36.8926948036918], [174.55135994518, -36.8926917885054], [174.551361782473, -36.8926888621133], [174.551363733782, -36.8926860243689], [174.551365798923, -36.8926832662608], [174.551368011736, -36.8926805963609], [174.551370517522, -36.8926779857306], [174.551373316282, -36.8926754343699], [174.551376419233, -36.8926729421324], [174.551379826377, -36.8926705090179], [174.551383526677, -36.8926681441843], [174.551387531169, -36.8926658384738], [174.551391828634, -36.8926635920327], [174.551396430474, -36.8926614137259], [174.551401325104, -36.8926592856772], [174.551406524109, -36.8926572257627], [174.551412016269, -36.8926552341289], [174.551417812439, -36.8926532926066], [174.551423912983, -36.8926514192184], [174.551430306501, -36.8926496050994], [174.551436992992, -36.8926478502496], [174.551443994893, -36.8926461543759], [174.551451278731, -36.8926445269291], [174.551458866762, -36.8926429586048], [174.551466758984, -36.892641449403], [174.551474921741, -36.8926399997631], [174.551482962182, -36.8926386058021], [174.551490756533, -36.8926372511091], [174.551498316194, -36.892635944549], [174.551505629947, -36.8926346862683], [174.551512697793, -36.8926334762671], [174.55151951973, -36.8926323145454], [174.551526106978, -36.8926312009567], [174.551532448135, -36.8926301266363], [174.551538543385, -36.8926291005956], [174.551544392726, -36.8926281228345], [174.551550007379, -36.8926271932066], [174.551555376123, -36.8926263118585], [174.551560498778, -36.8926254697788], [174.551565386925, -36.8926246848437], [174.551570028983, -36.8926239391771], [174.551574425132, -36.8926232417904], [174.551578575374, -36.8926225926836], [174.551582490744, -36.8926219826988], [174.551586160389, -36.8926214300053], [174.551589583944, -36.8926209165805], [174.551592984878, -36.8926203944373], [174.551596596968, -36.8926197703859], [174.551600431798, -36.8926190623023], [174.551604478148, -36.8926182703329], [174.551608735655, -36.8926173764552], [174.551613204681, -36.8926163986917], [174.551617896448, -36.8926153368958], [174.55162279937, -36.8926141731916], [174.551627925032, -36.892612925455], [174.551633250996, -36.892611593979], [174.551638799334, -36.892610160448], [174.551644570594, -36.8926086518958], [174.551650541791, -36.8926070415817], [174.551656735727, -36.892605347235], [174.551663152221, -36.8926035598444], [174.551669768833, -36.892601679703], [174.551676608184, -36.892599715529], [174.551683658874, -36.8925976584576], [174.551690932302, -36.8925955173534], [174.551698417069, -36.8925932833517], [174.551706057624, -36.8925909842191], [174.551713677019, -36.892588748458], [174.551721230193, -36.8925865676434], [174.55172873995, -36.8925844595046], [174.551736194888, -36.8925824151771], [174.55174359519, -36.8925804436721], [174.551750940674, -36.8925785359783], [174.551758242375, -36.8925766829379], [174.551765478404, -36.8925749118778], [174.55177267065, -36.8925731954712], [174.551779808261, -36.8925715518871], [174.55178689087, -36.892569963103], [174.551793930245, -36.8925684560062], [174.5518009034, -36.892567003856], [174.551807832956, -36.8925656153705], [174.551814707876, -36.8925642997076], [174.551821527977, -36.892563047856], [174.551828293442, -36.892561868827], [174.551835003906, -36.892560744598], [174.551841670954, -36.8925596930451], [174.551848271781, -36.8925586964389], [174.551854747739, -36.8925576293542], [174.551861041455, -36.8925564294448], [174.551867186767, -36.8925551052825], [174.551873161057, -36.892553648149], [174.551878975724, -36.8925520669092], [174.551884619369, -36.8925503526983], [174.551890092172, -36.8925485145276], [174.551895405171, -36.8925465432394], [174.551900558548, -36.8925444478449], [174.551905540901, -36.8925422194794], [174.551910363633, -36.8925398670076], [174.551915015341, -36.892537381565], [174.551919507428, -36.8925347720161], [174.551923828673, -36.8925320385076], [174.551927989931, -36.8925291628704], [174.551931980531, -36.8925261722848], [174.551935800108, -36.8925230487285], [174.551939471099, -36.8925197919081], [174.551942971249, -36.8925164111283], [174.551946300558, -36.8925129063889], [174.551949562005, -36.892509375495], [174.551952870883, -36.8925059701726], [174.551956249812, -36.8925026991399], [174.551959676171, -36.8924995536787], [174.551963161363, -36.8924965426538], [174.551966705387, -36.8924936660651], [174.551970307878, -36.8924909058901], [174.551973958164, -36.8924882893092], [174.551977678137, -36.8924857889953], [174.551981445906, -36.8924834322755], [174.551985272142, -36.8924811919694], [174.551989157393, -36.8924790951107], [174.551993089892, -36.8924771148123], [174.551997092625, -36.8924752778147], [174.552001142606, -36.8924735573774], [174.552005262638, -36.8924719712296], [174.552009430284, -36.8924705196646], [174.552013645361, -36.8924691936711], [174.552017930489, -36.8924680019671], [174.552022274267, -36.892466935688], [174.55202664249, -36.8924659682397], [174.552030975596, -36.8924649291407], [174.552035250964, -36.8924638096729], [174.552039479632, -36.8924626006785], [174.552043639342, -36.8924613114618], [174.552047752351, -36.8924599327186], [174.552051807439, -36.8924584645953], [174.55205580479, -36.8924569161033], [174.552059744221, -36.8924552782312], [174.552063625731, -36.8924535509791], [174.55206746054, -36.8924517342004], [174.552071226392, -36.8924498371996], [174.552074945725, -36.8924478596835], [174.552078606955, -36.892445783776], [174.552082210448, -36.8924436274999], [174.552085767421, -36.8924413907084], [174.552089255073, -36.8924390556723], [174.552092696388, -36.8924366491321], [174.5520960796, -36.8924341442008], [174.552099405075, -36.8924315589007], [174.552102672629, -36.8924288842207], [174.552106031395, -36.8924262804581], [174.552109516125, -36.892423801241], [174.552113138039, -36.8924214464227], [174.552116908538, -36.8924192248679], [174.552120805001, -36.8924171278585], [174.552124850049, -36.8924151641126], [174.55212903228, -36.8924133247654], [174.552133340658, -36.8924116189749], [174.552137797438, -36.8924100374365], [174.552142391585, -36.8924085893081], [174.552147122915, -36.8924072655784], [174.55215199161, -36.8924060752587], [174.552156997489, -36.8924050093377], [174.552162140734, -36.8924040768266], [174.552167432382, -36.8924032685676], [174.552172850177, -36.8924025938651], [174.552178405155, -36.8924020435611], [174.552184108535, -36.8924016175091], [174.552189938246, -36.8924013340249], [174.552195916176, -36.8924011657813], [174.552201986414, -36.8924011225226], [174.552208092681, -36.8924011959704], [174.552214223394, -36.8924013682488], [174.552220378736, -36.892401648369], [174.552226570107, -36.8924020451957], [174.552232797143, -36.8924025407063], [174.55223903777, -36.8924031532166], [174.552245314245, -36.8924038734221], [174.552251626567, -36.8924047013228], [174.552257963335, -36.892405628054], [174.552264336133, -36.8924066714917], [174.55227072234, -36.8924078229178], [174.552277155614, -36.8924090818925], [174.552283602298, -36.8924104488555], [174.552290085011, -36.892411932525], [174.552296603389, -36.8924135148783], [174.552303146396, -36.8924152050735], [174.552309714214, -36.8924170121216], [174.552316317697, -36.8924189178536], [174.552322945991, -36.8924209404386], [174.552329598184, -36.8924230348203], [174.552336225384, -36.8924250033369], [174.552342827225, -36.8924268279659], [174.552349392307, -36.8924284998427], [174.552355932031, -36.8924300278319], [174.552362446032, -36.8924313939109], [174.552368923273, -36.8924326072377], [174.552375363936, -36.8924336768236], [174.552381790095, -36.8924345843527], [174.552388168458, -36.8924353482875], [174.552394532499, -36.8924359591769], [174.552400859597, -36.8924364083028], [174.552407161337, -36.8924367135412], [174.552413426316, -36.8924368660273], [174.552419665937, -36.892436874626], [174.552425868616, -36.8924367214612], [174.552432045753, -36.8924364153975], [174.552438186313, -36.892435965593], [174.552444301149, -36.8924353538785], [174.552450390626, -36.8924345982764], [174.552456454561, -36.8924336897756], [174.552462494416, -36.8924327004662], [174.552468533176, -36.8924316570889], [174.552474582424, -36.8924305775195], [174.552480619722, -36.8924294620514], [174.552486667145, -36.8924282923687], [174.552492702435, -36.8924270777759], [174.552498748214, -36.8924258269911], [174.552504781862, -36.8924245312962], [174.552510814596, -36.8924231905447], [174.552516857636, -36.8924218045899], [174.552522888727, -36.8924203827362], [174.552528929942, -36.892418906668], [174.552534959207, -36.8924173947011], [174.552540998778, -36.8924158375308], [174.552547026218, -36.8924142354505], [174.552553063963, -36.8924125881668], [174.552559089576, -36.8924108959732], [174.552565114459, -36.8924091677341], [174.552571149648, -36.8924073942917], [174.552577172704, -36.8924055759393], [174.552583161739, -36.8924037400039], [174.552589016874, -36.8924019418728], [174.552594738476, -36.8924001995685], [174.55260031496, -36.8923984952152], [174.552605768947, -36.8923968375309], [174.552611089218, -36.8923952266623], [174.552616264554, -36.8923936627559], [174.552621317393, -36.8923921455187], [174.552626225114, -36.8923906662324], [174.552631010521, -36.8923892426265], [174.55263565081, -36.8923878569717], [174.552640157383, -36.8923865181326], [174.552644530241, -36.8923852261093], [174.552648769199, -36.8923839718905], [174.552652874625, -36.8923827734988], [174.552656846151, -36.8923816129116], [174.552660683962, -36.8923804991402], [174.552664388057, -36.8923794321846], [174.552667958436, -36.8923784120449], [174.552671383698, -36.8923774298563], [174.552674698047, -36.892376512213], [174.552678047879, -36.8923756842423], [174.552681433558, -36.892374963967], [174.552684888925, -36.8923743599584], [174.552688402577, -36.8923738633518], [174.55269196348, -36.8923734833051], [174.552695571449, -36.892373210807], [174.552699248923, -36.8923730455644], [174.552702973646, -36.8923729968816], [174.552706756655, -36.8923730556009], [174.552710597951, -36.8923732217221], [174.552714497532, -36.8923734952454], [174.552718444363, -36.8923738853285], [174.55272244948, -36.8923743828136], [174.552726513065, -36.892374996712], [174.552730623718, -36.8923757181589], [174.552734792656, -36.8923765470078], [174.552739019881, -36.8923774832587], [174.552743305574, -36.8923785359228], [174.552747638335, -36.8923796961354], [174.552752029564, -36.8923809727613], [174.552756618902, -36.8923820575107], [174.552761491903, -36.8923827419512], [174.552766659785, -36.8923830259362], [174.552772122731, -36.8923829184768], [174.552777880375, -36.8923824015505], [174.552783921682, -36.8923814843151], [174.552790258052, -36.8923801756353], [174.55279688912, -36.8923784574885], [174.552803804033, -36.8923763480437], [174.552811024863, -36.8923738289852], [174.552818529537, -36.8923709186286], [174.552826317689, -36.8923675989515], [174.552834412123, -36.8923638876829], [174.552842790036, -36.8923597670937], [174.552851463011, -36.8923552550595], [174.552860430866, -36.8923503425693], [174.552869682198, -36.892345020758], [174.552879239812, -36.8923393073551], [174.552889081085, -36.8923331936424], [174.552899206018, -36.89232667962], [174.552909484182, -36.8923199743068], [174.552919489171, -36.89231363311], [174.552929199278, -36.8923076923682], [174.552938614504, -36.8923021520814], [174.552947745885, -36.8922970030918], [174.552956582385, -36.8922922545573], [174.552965135223, -36.8922879063313], [174.55297339318, -36.8922839585606], [174.552981356074, -36.8922804022339], [174.552989035306, -36.892277246216], [174.552996408439, -36.8922744908001], [174.553003508947, -36.8922721265351], [174.553010303357, -36.8922701628723], [174.553016814105, -36.8922685995185], [174.553023041193, -36.8922674364735], [174.553028961999, -36.8922666650197], [174.553034610364, -36.8922662937282], [174.553039952631, -36.8922663230391], [174.553045011054, -36.8922667436478], [174.553049774598, -36.8922675647124], [174.553054265336, -36.892268767917], [174.553058704361, -36.8922701881252], [174.553063147039, -36.8922717885588], [174.553067593186, -36.8922735602064], [174.553072042802, -36.892275503068], [174.553076495889, -36.8922776171436], [174.553080952627, -36.8922799114445], [174.553085412836, -36.8922823769594], [174.553089876697, -36.8922850226996], [174.553094355064, -36.8922878304958], [174.553098825865, -36.892290818664], [174.553103300318, -36.8922939870575], [174.553107778058, -36.8922973176537], [174.553112259451, -36.8923008284752], [174.553116744314, -36.8923045105107], [174.553121232829, -36.8923083727715], [174.553125724815, -36.8923124062463], [174.55313022027, -36.892316610935], [174.553134719379, -36.8923209958491], [174.553139221775, -36.8923255429658], [174.553143728006, -36.8923302793191], [174.553148256128, -36.892334988345], [174.553152847547, -36.8923394982427], [174.553157480009, -36.8923438183168], [174.553162164548, -36.8923479394093], [174.553166901166, -36.8923518615202], [174.553171690044, -36.8923555936607], [174.553176519781, -36.8923591269664], [174.553181412816, -36.8923624611437], [174.553186346709, -36.8923655964862], [174.553191332864, -36.8923685418583], [174.553196359877, -36.8923712883954], [174.553201450187, -36.8923738358043], [174.553206592575, -36.8923761842315], [174.553211776004, -36.8923783428351], [174.553217011512, -36.892380302457], [174.553222299279, -36.8923820721085], [174.553227638942, -36.8923836337672], [174.553233019647, -36.8923850056021], [174.553238463648, -36.8923861783086], [174.55324394869, -36.8923871611914], [174.553249485079, -36.8923879090475], [174.553255037515, -36.8923883412154], [174.553260605814, -36.892388448684], [174.553266201196, -36.8923882313063], [174.553271823477, -36.8923876800713], [174.553277450586, -36.8923868132948], [174.553283104594, -36.8923856126609], [174.553288785685, -36.892384087181], [174.553294482456, -36.8923822279902], [174.553300206492, -36.8923800529647], [174.553305934989, -36.8923775443751], [174.553311701787, -36.8923747107927], [174.55331747323, -36.8923715526575], [174.553323271754, -36.8923680696762], [174.553329097177, -36.8923642528375], [174.553334938462, -36.8923601112993], [174.553340795611, -36.8923556450617], [174.55334667984, -36.892350853978], [174.553352579933, -36.8923457381948], [174.553358506924, -36.8923402885542], [174.553364427887, -36.8923345415413], [174.553370136418, -36.8923288333605], [174.553375545139, -36.8923232823319], [174.553380665269, -36.8923178883088], [174.553385485407, -36.8923126424268], [174.553390017137, -36.8923075625617], [174.553394260094, -36.8923026306909], [174.553398192205, -36.8922978651305], [174.553401835543, -36.8922932475646], [174.55340519029, -36.8922887870044], [174.553408245229, -36.8922844835966], [174.553411000358, -36.8922803373413], [174.553413466897, -36.8922763480918], [174.553415633627, -36.8922725159949], [174.553417511584, -36.8922688318925], [174.553419089916, -36.8922653139539], [174.553420379474, -36.89226194401], [174.553421369407, -36.8922587402298], [174.553422070566, -36.8922556844443], [174.553422471918, -36.8922527858113], [174.55342257346, -36.8922500443309], [174.55342259793, -36.8922473759676], [174.553422779102, -36.8922446875279], [174.553423116792, -36.8922419700006], [174.553423622402, -36.8922392322502], [174.553424295749, -36.8922364652654], [174.553425125797, -36.8922336782043], [174.553426112546, -36.8922308710668], [174.553427267033, -36.8922280346949], [174.553428589439, -36.8922251780999], [174.553430068547, -36.8922223014285], [174.553431704172, -36.8922193956694], [174.553433507535, -36.892216460676], [174.553435478818, -36.8922135054594], [174.553437595582, -36.8922105303131], [174.553439891303, -36.8922075257856], [174.553442343724, -36.8922045011818], [174.553444952847, -36.8922014565015], [174.553447729706, -36.8921983825867], [174.553450663083, -36.8921952795842], [174.553453764563, -36.8921921653698], [174.553456955247, -36.8921890229479], [174.553459955755, -36.8921859100536], [174.553462754686, -36.8921828178226], [174.553465318565, -36.8921797557061], [174.553467680867, -36.8921767142529], [174.553469819154, -36.8921736937563], [174.553471744828, -36.8921707030809], [174.553473457705, -36.8921677332154], [174.55347494675, -36.8921647933179], [174.553476223, -36.8921618742303], [174.553477286635, -36.892158984964], [174.553478126073, -36.8921561076431], [174.5534787643, -36.892153269008], [174.55347916711, -36.892150442465], [174.553479368708, -36.8921476546078], [174.553479346109, -36.8921448786961], [174.553479110896, -36.8921421326056], [174.553478651669, -36.8921394074719], [174.553477991047, -36.8921367120126], [174.553477095192, -36.8921340376568], [174.553476009161, -36.8921313928287], [174.553474879168, -36.8921287936439], [174.553473795147, -36.8921262479398], [174.553472756915, -36.8921237467052], [174.553471764838, -36.8921213079627], [174.553470807514, -36.8921189228478], [174.553469896162, -36.8921165912136], [174.553469019563, -36.8921143132068], [174.553468188936, -36.8921120886809], [174.55346740428, -36.8921099176358], [174.553466654378, -36.8921078002182], [174.553465950448, -36.8921057362815], [174.553465292489, -36.8921037258255], [174.553464680503, -36.8921017688502], [174.553464103452, -36.8920998745138], [174.553463560971, -36.8920980247936], [174.553463075681, -36.8920962284076], [174.553462625327, -36.8920944946602], [174.553462220762, -36.8920928053825], [174.55346185095, -36.8920911697322], [174.553461527293, -36.892089596574], [174.553461293205, -36.8920880132309], [174.553461214539, -36.8920863467325], [174.553461302149, -36.8920845789095], [174.553461545364, -36.8920827369424], [174.553461954854, -36.8920807936508], [174.553462519767, -36.8920787672038], [174.553463240102, -36.8920766576016], [174.553464126713, -36.8920744466747], [174.553465168746, -36.8920721525925], [174.55346637742, -36.8920697752083], [174.55346774115, -36.8920672966462], [174.553469260303, -36.8920647349287], [174.553470946097, -36.8920620899092], [174.55347278713, -36.892059352723], [174.553474783402, -36.8920565233703], [174.553476946133, -36.8920536017041], [174.553479275505, -36.8920505967359], [174.553481748897, -36.8920474997477], [174.553484399966, -36.8920443102994], [174.553487195238, -36.8920410378424], [174.553490123676, -36.8920376915347], [174.553493008151, -36.8920343908701], [174.553495826409, -36.8920311451534], [174.553498578447, -36.8920279543844], [174.553501275487, -36.8920248184166], [174.553503894907, -36.892021728532], [174.553506448291, -36.8920187026065], [174.553508935457, -36.8920157316289], [174.553511356404, -36.8920128155991], [174.553513722353, -36.8920099543705], [174.553516011047, -36.8920071572476], [174.55351823334, -36.8920044060614], [174.553520389415, -36.892001709823], [174.553522479272, -36.8919990685325], [174.55352451413, -36.8919964820431], [174.553526471733, -36.8919939596596], [174.553528362935, -36.8919914832126], [174.55353018792, -36.8919890617136], [174.553531958088, -36.8919867040269], [174.553533650636, -36.8919843924236], [174.553535276966, -36.8919821357682], [174.553536915976, -36.8919799510562], [174.553538567301, -36.8919778202651], [174.553540253744, -36.891975761124], [174.553541963904, -36.8919737647684], [174.553543708999, -36.8919718310515], [174.553545477993, -36.8919699691313], [174.553547281923, -36.8919681698499], [174.55354909835, -36.8919664335006], [174.553550960932, -36.8919647596433], [174.55355284723, -36.8919631485715], [174.553554757428, -36.8919616092964], [174.553556691341, -36.8919601328067], [174.553558660191, -36.8919587189558], [174.553560664158, -36.8919573767549], [174.553562691659, -36.8919560883281], [174.55356474306, -36.8919548716981], [174.553566818359, -36.8919537268647], [174.553568939631, -36.8919526355121], [174.553571073582, -36.8919516161029], [174.55357324247, -36.8919506593324], [174.553575445379, -36.8919497201443], [174.553577703104, -36.8919487171436], [174.553580015646, -36.8919476503304], [174.553582371602, -36.8919465108402], [174.553584793777, -36.8919453164019], [174.553587259365, -36.8919440492866], [174.55358977977, -36.8919427183588], [174.553592354809, -36.8919413146071], [174.553594984846, -36.8919398560542], [174.553597669517, -36.8919383246775], [174.553600397784, -36.8919367296349], [174.553603180686, -36.8919350617685], [174.553606018586, -36.8919333391008], [174.553608911119, -36.8919315436093], [174.553611858469, -36.8919296843052], [174.553614849416, -36.8919277613353], [174.553617906215, -36.8919257653948], [174.553621006611, -36.8919237057885], [174.553624161823, -36.8919215823695], [174.553627371852, -36.891919395138], [174.553630603404, -36.8919171625567], [174.55363371374, -36.8919150397244], [174.553636658348, -36.8919130452506], [174.553639448448, -36.8919111789887], [174.553642073004, -36.8919094500967], [174.553644543233, -36.8919078584277], [174.553646847735, -36.8919063951174], [174.55364898651, -36.8919050601656], [174.553650982178, -36.8919038622903], [174.5536528009, -36.8919027929202], [174.553654476515, -36.8919018606267], [174.553655975184, -36.8919010568384], [174.553657330747, -36.8919003901267], [174.553658520765, -36.8918998607848], [174.553659544873, -36.8918994507903], [174.553660414838, -36.8918991870303], [174.553661118893, -36.8918990426176], [174.553661668805, -36.8918990444394], [174.553662052808, -36.8918991656086], [174.553662282484, -36.891899424001], [174.553662357836, -36.8918998196166], [174.553662499222, -36.8919001512729], [174.553662861517, -36.8919003087806], [174.553663422101, -36.8919002834219], [174.553664203593, -36.8919000839145], [174.553665194774, -36.8918997104052], [174.553666406865, -36.8918991627473], [174.553667828462, -36.8918984320761], [174.553669459749, -36.8918975274031], [174.553671311762, -36.8918964395701], [174.553673373648, -36.8918951867464], [174.55367564504, -36.8918937509095], [174.553678125939, -36.8918921320593], [174.55368082793, -36.8918903480717], [174.553683739427, -36.8918883810709], [174.553686860614, -36.891886240068], [174.553690202526, -36.8918839159051], [174.553693754128, -36.8918814177401], [174.553697526638, -36.8918787454263], [174.553701497436, -36.891875890246], [174.553705689325, -36.891872869928], [174.553709991029, -36.8918697309961], [174.553714170054, -36.8918666297232], [174.553718204145, -36.891863575414], [174.553722115741, -36.891860567775], [174.553725882221, -36.8918575980884], [174.553729526388, -36.8918546840834], [174.553733025439, -36.8918518080309], [174.553736402177, -36.8918489876599], [174.553739633799, -36.8918462052414], [174.553742731525, -36.8918434606287], [174.553745695718, -36.8918407718443], [174.553748526197, -36.891838129877], [174.553751222779, -36.8918355257155], [174.553753785646, -36.8918329683711], [174.5537562148, -36.8918304578438], [174.55375849902, -36.8918279942803], [174.553760660562, -36.8918255683759], [174.553762688572, -36.8918231982999], [174.553764571467, -36.8918208661764], [174.553766331866, -36.8918185807234], [174.553767969588, -36.8918163329295], [174.553769617615, -36.8918140399325], [174.553771331494, -36.8918116739649], [174.553773100371, -36.891809253196], [174.553774912663, -36.8918067597499], [174.553776779588, -36.89180419348], [174.553778701512, -36.8918015724088], [174.553780678069, -36.8917988785137], [174.553782698223, -36.8917961209527], [174.553784784411, -36.8917932994324], [174.553786914014, -36.891790405235], [174.553789098616, -36.8917874562362], [174.55379133785, -36.8917844344135], [174.5537936319, -36.8917813487782], [174.553795969365, -36.8917781904658], [174.553798373046, -36.8917749772053], [174.553800820142, -36.8917716912676], [174.553803321871, -36.891768332506], [174.553805878599, -36.8917649189431], [174.553808489959, -36.8917614325563], [174.553811145099, -36.8917578915148], [174.553813790116, -36.8917544046877], [174.553816349217, -36.8917511082711], [174.553818833074, -36.8917479750844], [174.553821242052, -36.8917450231503], [174.553823575968, -36.8917422434575], [174.553825823604, -36.8917396361527], [174.55382799636, -36.8917372101004], [174.553830094055, -36.8917349562894], [174.553832116688, -36.8917328747196], [174.553834053223, -36.8917309745492], [174.553835914697, -36.8917292466201], [174.553837701109, -36.8917276909322], [174.55383941246, -36.8917263074857], [174.553841037712, -36.8917251054384], [174.553842599122, -36.8917240754857], [174.553844074434, -36.8917232269324], [174.553845463466, -36.891722550767], [174.553846788655, -36.8917220466963], [174.553848027564, -36.8917217150136], [174.553849191594, -36.8917215645835], [174.553850346597, -36.8917215224354], [174.553851713664, -36.8917214234315], [174.553853292612, -36.8917212585607], [174.553855083442, -36.8917210278228], [174.553857097371, -36.8917207310712], [174.55385931178, -36.8917203595881], [174.553861760507, -36.8917199219444], [174.553864409897, -36.8917194185804], [174.553867282204, -36.8917188401914], [174.553870366575, -36.8917182049465], [174.553873662645, -36.8917174948232], [174.553877181814, -36.8917167186862], [174.553880912681, -36.8917158676707], [174.553884855612, -36.8917149597993], [174.553889021461, -36.8917139769028], [174.55389339919, -36.891712928139], [174.553897988618, -36.8917118044968], [174.553902801328, -36.8917106238519], [174.553907825736, -36.8917093683284], [174.553913062025, -36.8917080469376], [174.553918498793, -36.891706650815], [174.553924078667, -36.8917051176154], [174.553929756406, -36.8917034299031], [174.55393554341, -36.8917015965428], [174.553941439314, -36.8916995995119], [174.553947433266, -36.8916974569796], [174.553953536118, -36.8916951507766], [174.553959737016, -36.8916926990723], [174.553966046998, -36.8916900927085], [174.553972466063, -36.8916873316853], [174.553978994211, -36.8916844160026], [174.553985620222, -36.8916813458072], [174.55399234428, -36.8916781301103], [174.553999188457, -36.8916747505959], [174.554006130681, -36.89167122558], [174.554013181805, -36.8916675368933], [174.554020330974, -36.8916637027051], [174.554027589227, -36.8916597138572], [174.554034956562, -36.8916555703498], [174.55404242176, -36.8916512723295], [174.554049996041, -36.8916468196496]]}, "properties": {"OBJECTID": 2673, "TRACKNAME": "Filter Track", "CONDITIONSOFUSE": "Waitakere North Regional Park", "STATUS": "Temp Closed", "WEBLINK": "https://www.aucklandcouncil.govt.nz/en/parks-recreation/find-park-beach/park-detail/3407.html", "VALIDATIONSTATE": 3, "created_user": "AC_owner", "last_edited_user": "AC_owner", "last_edited_date": 1789875254325, "created_date": 1789875254325, "PARK_SAPSITEID": null, "TRACK_ID": null, "KAURIDIEBACK_TRACK": null, "KAURIDIEBACK_MITIGATED": null, "SegmentID": null, "GlobalID": "286e9a48-dfbe-41a5-aa6d-b9a8d6ef4f85", "Shape__Length": 1136.5438350222612}}]}