{"type": "FeatureCollection", "features": [{"type": "Feature", "id": 9208, "geometry": {"type": "LineString", "coordinates": [[175.093636016436, -36.7955143049943], [175.093560474796, -36.7955436396237], [175.093560472605, -36.7955436414649], [175.093416668245, -36.7955967196191], [175.09341666603, -36.7955967205594], [175.092924030948, -36.7958006475939], [175.092924022085, -36.7958006513551], [175.092508252526, -36.7959745377688], [175.092508245878, -36.7959745405897], [175.092357920918, -36.7960358989491], [175.092357914295, -36.7960359026709], [175.092289582076, -36.7960684859028], [175.092289576573, -36.7960684896049], [175.092231733206, -36.7961131107798], [175.092231728824, -36.7961131144622], [175.092144101023, -36.7962358096316], [175.092144095642, -36.796235817838], [175.092014032226, -36.7964096361786], [175.092014028963, -36.7964096398413], [175.091908126828, -36.7965435603627], [175.09185821795, -36.7966274584198], [175.091858215783, -36.7966274611618], [175.0917171293, -36.7968286906767], [175.091633324093, -36.7969662708362], [175.091468536515, -36.7971665876202], [175.091468534348, -36.7971665903623], [175.091333066714, -36.7973296369421], [175.091333065643, -36.7973296387636], [175.091222907029, -36.7974908447948], [175.091222905957, -36.7974908466162], [175.091157795508, -36.7975750361156], [175.091157794437, -36.797575037937], [175.091108406303, -36.7976194954361], [175.091108397489, -36.7976195009989], [175.090811883004, -36.7977679726853], [175.090383595532, -36.7979760853345], [175.090383590004, -36.7979760881356], [175.090117323439, -36.7981185400356], [175.090117320127, -36.7981185418964], [175.089670927894, -36.7983433154392], [175.089537726266, -36.7984125026812], [175.089422563897, -36.7984623119855], [175.089422561681, -36.7984623129257], [175.089312611318, -36.7984603462123], [175.089312600091, -36.7984603455083], [175.08895837679, -36.7984304503988], [175.088958371189, -36.7984304504972], [175.088409703084, -36.798400221667], [175.088409697483, -36.7984002217654], [175.087957681414, -36.7983546274128], [175.087956159421, -36.7983545847426], [175.087894457088, -36.7983574178093]]}, "properties": {"OBJECTID": 9208, "TRACKNAME": "Fisher Road Track", "CONDITIONSOFUSE": "Fisher Road", "STATUS": "Closed", "WEBLINK": null, "VALIDATIONSTATE": 3, "created_user": "AC_owner", "last_edited_user": "AC_owner", "last_edited_date": 1789875254325, "created_date": 1789875254325, "PARK_SAPSITEID": null, "TRACK_ID": null, "KAURIDIEBACK_TRACK": null, "KAURIDIEBACK_MITIGATED": null, "SegmentID": null, "GlobalID": "0d98e6c9-6682-47a0-a5f6-87ac70eedda6", "Shape__Length": 651.6246378658045}}, {"type": "Feature", "id": 12563, "geometry": {"type": "LineString", "coordinates": [[175.097382721062, -36.7960486798839], [175.097356081314, -36.7960727702655], [175.097356076882, -36.7960727721463], [175.097283243916, -36.7960874836884], [175.097283239436, -36.7960874837674], [175.097173886506, -36.796066782893], [175.097173880881, -36.7960667820909], [175.097078641048, -36.796043906994], [175.097078633158, -36.7960439053306], [175.09697175867, -36.7960269613413], [175.09697175302, -36.7960269596383], [175.096879060229, -36.796009741091], [175.096879052314, -36.7960097385267], [175.096814129791, -36.795972974806], [175.096814125236, -36.7959729721824], [175.096760792403, -36.7959283772091], [175.096760790065, -36.7959283736451], [175.096720944409, -36.7958607044994], [175.096720943215, -36.7958607018166], [175.096672711592, -36.7957494683001], [175.096672710325, -36.7957494629147], [175.096621549214, -36.7956192752803], [175.096621548045, -36.7956192734983], [175.096576351342, -36.795530803777], [175.096576349028, -36.7955308011139], [175.09651525432, -36.7954635408574], [175.096515250862, -36.7954635373132], [175.096423431969, -36.7953968701717], [175.096423429704, -36.7953968693103], [175.096322963251, -36.7953569871503], [175.096322956481, -36.795356985467], [175.096184970295, -36.7953273266637], [175.096184966934, -36.795327326723], [175.096047207382, -36.7953052797656], [175.096047200637, -36.7953052789832], [175.095933347216, -36.7952922623774], [175.095807855995, -36.7952851849001], [175.095807850369, -36.795285184098], [175.095687193833, -36.7952818085382], [175.095687183752, -36.7952818087159], [175.095583300626, -36.7952857155315], [175.095583291689, -36.7952857165903], [175.095437340749, -36.7953056409419], [175.095437331837, -36.7953056429015], [175.095233833604, -36.7953780113761], [175.095233828053, -36.7953780132765], [175.095083829474, -36.7954208286035], [175.095083819466, -36.7954208314838], [175.094957159153, -36.7954536950962], [175.094957155817, -36.7954536960563], [175.09487447004, -36.7954552918358], [175.09487446668, -36.795455291895], [175.094731715889, -36.7954519711916], [175.094731712504, -36.7954519703499], [175.09468242495, -36.7954361844775], [175.0946824193, -36.7954361827744], [175.094577531542, -36.7954058911717], [175.094577487169, -36.795405866717], [175.094510132118, -36.7953435520839], [175.094509163483, -36.7953427570751], [175.094506644583, -36.7953409204329], [175.094501807906, -36.7953373896162], [175.09443709718, -36.7952901531104], [175.094437091481, -36.7952901496055], [175.094354987193, -36.7952577457597], [175.094354978183, -36.7952577441158], [175.094295881919, -36.795260245246], [175.094295877463, -36.7952602462258], [175.094232376437, -36.7952845814568], [175.094232369789, -36.7952845842778], [175.093887503246, -36.7954166615589], [175.093884697154, -36.7954177357607], [175.093636016436, -36.7955143049943]]}, "properties": {"OBJECTID": 12563, "TRACKNAME": "Fisher Road Track", "CONDITIONSOFUSE": "Fisher Road", "STATUS": "Open pending closure", "WEBLINK": null, "VALIDATIONSTATE": 3, "created_user": "AC_owner", "last_edited_user": "AC_owner", "last_edited_date": 1789875254325, "created_date": 1789875254325, "PARK_SAPSITEID": null, "TRACK_ID": null, "KAURIDIEBACK_TRACK": null, "KAURIDIEBACK_MITIGATED": null, "SegmentID": null, "GlobalID": "4777b23a-3ed5-478b-9f15-1f2723678147", "Shape__Length": 396.3118917608805}}]}