{"type": "FeatureCollection", "features": [{"type": "Feature", "id": 175, "geometry": {"type": "LineString", "coordinates": [[174.852850301332, -36.374533609622], [174.853021044745, -36.3747044261687], [174.853159512622, -36.3748538177178], [174.853653204695, -36.3754422107425], [174.853677217922, -36.3755064951948], [174.853658434389, -36.3755573001118], [174.853609104094, -36.3755843324869], [174.853559865384, -36.37572047207], [174.853560824157, -36.3757608676993], [174.85357643312, -36.3757868921297], [174.853618031524, -36.3757498769241], [174.853664911666, -36.3757249026051], [174.853686091218, -36.3757750872217], [174.853687817136, -36.3758477995287], [174.853676288386, -36.3758883889857], [174.853652749221, -36.3759493705688], [174.853641698727, -36.3760101574024]]}, "properties": {"OBJECTID": 175, "TRACKNAME": "Fishermans Track", "CONDITIONSOFUSE": "Tawharanui Regional Park", "STATUS": "Open", "WEBLINK": "https://www.aucklandcouncil.govt.nz/en/parks-recreation/find-park-beach/park-detail/228.html", "VALIDATIONSTATE": 3, "created_user": "AC_owner", "last_edited_user": "AC_owner", "last_edited_date": 1789875254325, "created_date": 1789875254325, "PARK_SAPSITEID": null, "TRACK_ID": null, "KAURIDIEBACK_TRACK": null, "KAURIDIEBACK_MITIGATED": null, "SegmentID": null, "GlobalID": "ed03e980-2b61-41b2-859d-991957d08092", "Shape__Length": 209.16596830429305}}, {"type": "Feature", "id": 2983, "geometry": {"type": "LineString", "coordinates": [[174.851445261898, -36.3749799220995], [174.8511527938, -36.3748384674151], [174.850797464655, -36.3747106201879], [174.850557985295, -36.3746213864242], [174.850321627834, -36.3745583714192], [174.850223453334, -36.3745275638366], [174.850097183961, -36.3744709246944], [174.849989354208, -36.3744544103165], [174.849839543336, -36.3744587518359], [174.849754527376, -36.3744560276946], [174.849693962233, -36.3744306990399], [174.849583348558, -36.3744021036166], [174.84950798819, -36.3743850859325], [174.849341200429, -36.3743494306268], [174.849234502689, -36.374327233651], [174.849145777033, -36.3743166828939], [174.849032529288, -36.3743291683662], [174.848952901416, -36.3743292086451], [174.848871235011, -36.3743054312552], [174.848738316488, -36.3742967568996], [174.848641112806, -36.3743018383404], [174.848588871958, -36.3742752201638], [174.848512989443, -36.3742465828017], [174.848455500975, -36.3742474726134]]}, "properties": {"OBJECTID": 2983, "TRACKNAME": "Fishermans Track", "CONDITIONSOFUSE": "Tawharanui Regional Park", "STATUS": "Open", "WEBLINK": "https://www.aucklandcouncil.govt.nz/en/parks-recreation/find-park-beach/park-detail/228.html", "VALIDATIONSTATE": 3, "created_user": "AC_owner", "last_edited_user": "AC_owner", "last_edited_date": 1789875254325, "created_date": 1789875254325, "PARK_SAPSITEID": null, "TRACK_ID": null, "KAURIDIEBACK_TRACK": null, "KAURIDIEBACK_MITIGATED": null, "SegmentID": null, "GlobalID": "6c0f7b1a-ee57-4a26-a668-3f7e5c12a86e", "Shape__Length": 285.8863249012168}}]}