{"type": "FeatureCollection", "features": [{"type": "Feature", "id": 478, "geometry": {"type": "LineString", "coordinates": [[174.53586307949, -37.005286231874], [174.536041687311, -37.0053081844329], [174.536223156714, -37.0053304782436], [174.536411658291, -37.0053118494786], [174.53676028092, -37.0053018098732], [174.537041792653, -37.0053428708858], [174.537409551722, -37.0054202830403], [174.537471680758, -37.0054209292589], [174.537580603797, -37.005392937081], [174.537646966833, -37.0053404387194], [174.537687678171, -37.0052737429335], [174.537740464893, -37.0050901565658], [174.537859560044, -37.004771634751], [174.537879676757, -37.004734247356], [174.537907175133, -37.0047129345452], [174.537977058788, -37.0046924154089], [174.538051062593, -37.0046806039704], [174.538257189786, -37.0046962746305], [174.53829371326, -37.0046906093833], [174.538460279777, -37.0045540043594], [174.538781451233, -37.0043381124682], [174.538848963484, -37.0043081413515], [174.539136309074, -37.0042089345127], [174.539177634779, -37.0042012237348], [174.539210770385, -37.0042047959399], [174.539466431198, -37.0042793112204], [174.539633131097, -37.0043829221135], [174.539790483837, -37.0043997637431], [174.539852540364, -37.0043935143222], [174.539981293421, -37.0043464063545], [174.540043608263, -37.0043340242899], [174.540280512622, -37.0043155003314], [174.54067372996, -37.0043046270557], [174.540897395781, -37.0043585080692], [174.541074082501, -37.0044412110775], [174.541208166791, -37.0045190229769], [174.541253194389, -37.0045337971866], [174.541317282017, -37.0045324059445], [174.541532371962, -37.004481569951], [174.541598909166, -37.0044812734251], [174.541667083157, -37.0044958008573], [174.541758679428, -37.0045337565238], [174.541888243692, -37.0046197655751], [174.542084270181, -37.0048497129156], [174.542222919635, -37.00503267907], [174.542258077028, -37.0050589742514], [174.54230389124, -37.0050620382911], [174.54244068961, -37.0050093158382], [174.542576748186, -37.0050000750227], [174.543037751663, -37.0050844237639], [174.543196245423, -37.0051537046579], [174.543369906917, -37.005271109503], [174.543414941559, -37.0052928592484], [174.543595879768, -37.0053221341364], [174.543787758191, -37.0053416490009], [174.543975263846, -37.005382780769], [174.543998407486, -37.0054051666459], [174.544035329483, -37.0055264317264], [174.544073432706, -37.0055844155875], [174.54428941686, -37.0056827095184], [174.544443177997, -37.0057212691676], [174.544637245951, -37.0057545087633], [174.544885651972, -37.0057765849507], [174.545367488402, -37.0057554927123], [174.545547069465, -37.0057814833325], [174.545885761862, -37.0057993979693], [174.545947223445, -37.0057870509593], [174.546502582166, -37.0055878627786], [174.546563828028, -37.0055793039361], [174.546645513951, -37.0055894520856], [174.546744306835, -37.0056279680429], [174.546799677942, -37.0056866633278], [174.546851707879, -37.005716910442], [174.547114590913, -37.0058310825382], [174.547243510701, -37.0058743610048], [174.547429562978, -37.0059495322139], [174.547725630938, -37.0060856417031], [174.548116190066, -37.0064337051407], [174.548177586651, -37.0064807568206], [174.548222124401, -37.0065045031829], [174.548500112505, -37.006609028912], [174.548722861987, -37.006622138902], [174.549125435232, -37.0066990601439], [174.549276392902, -37.0067498904115], [174.549370888759, -37.0067908488263], [174.549399903712, -37.0068133642727], [174.549437840422, -37.0068706634991], [174.549469476876, -37.0068905488083], [174.549754387213, -37.0069710773614], [174.550102948005, -37.0070252475239], [174.55047403513, -37.0070679545937], [174.550618326622, -37.0070987160473], [174.550771797245, -37.0071713602784], [174.5508469894, -37.0072174641077], [174.551229020783, -37.0075193261349], [174.551399953714, -37.0076061267974], [174.551440810684, -37.0076311729296], [174.55172985185, -37.0079229280977], [174.551842810711, -37.0080708496159], [174.551880592223, -37.0080988381581], [174.551943674516, -37.0081269104062], [174.552330889378, -37.0082383629307], [174.552489355572, -37.0082707483489], [174.552616513494, -37.0082745828463], [174.552970631303, -37.0082634320872], [174.55331625841, -37.0083293396376], [174.553492424074, -37.0083820247573], [174.553699563947, -37.0084832473309], [174.553778210085, -37.0085045349501], [174.554027603279, -37.0085220992274], [174.554087899213, -37.0085170461644], [174.554127284042, -37.0085028478497], [174.554145210606, -37.0084449086625], [174.554156359382, -37.0081369247336], [174.554145108574, -37.0081043350746], [174.554079511274, -37.0080030172232], [174.55400299839, -37.0078402981335], [174.554003421535, -37.0076612665279], [174.553987411953, -37.0076013922232], [174.553857789182, -37.0073505765799], [174.553781088243, -37.0073000147286], [174.553587558878, -37.0072058248495], [174.553559356147, -37.0071813168397], [174.553528462333, -37.0071355812137], [174.553410009191, -37.0069375731076], [174.553370813684, -37.006846734407], [174.553361084384, -37.0068049399892], [174.553363407343, -37.0067059233398], [174.553346396384, -37.0065680952773], [174.553335423816, -37.0065265064135], [174.55331173572, -37.0064885632082], [174.553131044025, -37.0062645993903], [174.55310016018, -37.0062436235926], [174.552982963214, -37.0061911846152], [174.552856640287, -37.0060840448384], [174.552819707246, -37.0060430390083], [174.552782513104, -37.005875396903], [174.552686401686, -37.0056495323531], [174.552664451238, -37.0055483636016], [174.552663563236, -37.0054715621646], [174.552705861715, -37.0053260806136], [174.55274621925, -37.0052884980279], [174.552982289913, -37.0051693689345], [174.553033255784, -37.0051361721957], [174.553151736984, -37.0050220428664], [174.55328775381, -37.0048705482591], [174.553330465098, -37.0048188736051], [174.553376056482, -37.0047425002944], [174.553403770833, -37.0047154485192], [174.554590197875, -37.0038098732808], [174.554940368815, -37.0035817324598], [174.555143124412, -37.00350693141], [174.555257891842, -37.0034364019106], [174.555279979679, -37.0034090448778], [174.555332792725, -37.0032818391789], [174.555407350706, -37.0031363845299], [174.555680226203, -37.0027249465973], [174.555793406296, -37.0026234850333], [174.555978962447, -37.0024984324634], [174.556065931296, -37.0024635275068], [174.556156113602, -37.0024611190865], [174.556392938296, -37.0024954102315], [174.556627083231, -37.0025547935848], [174.556749852422, -37.002608949608], [174.556836556455, -37.0027445649588], [174.556887619908, -37.0027873941759], [174.556956497423, -37.0028280877947], [174.557062409089, -37.0028645728655], [174.557177349312, -37.0029210935499]]}, "properties": {"OBJECTID": 478, "TRACKNAME": "Fletcher Track", "CONDITIONSOFUSE": "Waitakere South Regional Park", "STATUS": "Temp Closed", "WEBLINK": "https://www.aucklandcouncil.govt.nz/en/parks-recreation/find-park-beach/park-detail/212.html", "VALIDATIONSTATE": 3, "created_user": "AC_owner", "last_edited_user": "AC_owner", "last_edited_date": 1789875254325, "created_date": 1789875254325, "PARK_SAPSITEID": null, "TRACK_ID": null, "KAURIDIEBACK_TRACK": null, "KAURIDIEBACK_MITIGATED": null, "SegmentID": null, "GlobalID": "dceb9248-9f88-4d02-80d4-80fabc04b700", "Shape__Length": 2846.3799718274086}}]}