{"type": "FeatureCollection", "features": [{"type": "Feature", "id": 3036, "geometry": {"type": "LineString", "coordinates": [[174.505491294751, -36.9477676575579], [174.505326942221, -36.9474096131651], [174.505298533125, -36.9473718285196], [174.50524924634, -36.9473370243549], [174.505202139088, -36.9473153885064], [174.505161929776, -36.9473080383442], [174.505055713427, -36.947316003492], [174.504995861289, -36.9473279354621], [174.504960126738, -36.9473553788466], [174.504883259711, -36.9474587516631], [174.504866069546, -36.9474725008126], [174.504853588616, -36.9474733142905], [174.504710358648, -36.9473491323705], [174.504519848664, -36.9472548428096], [174.504450786393, -36.9472314189315], [174.504372649684, -36.9472367463213], [174.504331692461, -36.9472324744971], [174.504255145671, -36.9472017559488], [174.504072595344, -36.9470765093223], [174.503945786769, -36.9469518056587], [174.503917270228, -36.9469066849285], [174.503908720887, -36.9468420338109], [174.503920842779, -36.9468011449243], [174.504161879246, -36.9464366085895], [174.504143682648, -36.9464232717738], [174.504054586201, -36.9464104923721], [174.504018879994, -36.9463969374699], [174.503973873436, -36.9463479875145], [174.503863338074, -36.946190130943], [174.503722520832, -36.9461221524207], [174.503686357949, -36.946081700181], [174.50364216091, -36.9459718788255], [174.50362191482, -36.9458808333251], [174.503624908988, -36.9458383420519], [174.50366405605, -36.9456746434804], [174.503618327601, -36.9454864417322], [174.503599982309, -36.9453505175545], [174.503619673016, -36.945292371767], [174.50371848869, -36.9451052644484], [174.503856061977, -36.9450035328448], [174.503949127867, -36.9448779261413], [174.504097665194, -36.9445873763848], [174.504275994858, -36.9442817450492], [174.504308270865, -36.94420657247], [174.504358063526, -36.944041893299], [174.504354403621, -36.9439728455759], [174.504263040495, -36.9436647575307], [174.504111859834, -36.9432790742229], [174.504050567842, -36.943093730544], [174.503982332685, -36.9430369507793], [174.503929170474, -36.9430113899173], [174.503774591069, -36.9430310685238], [174.503526952893, -36.943035967558], [174.503461980496, -36.9430320499732], [174.503426792748, -36.9430165053021], [174.50334552249, -36.9429485041706], [174.503314448381, -36.9429046829489], [174.503291768752, -36.9428305939738], [174.503289032578, -36.942723580734], [174.50325507456, -36.9426301389185], [174.503227577854, -36.9425828066322], [174.503007924645, -36.9424034159709], [174.502757558949, -36.9422863391556], [174.502716493992, -36.9422823313056], [174.502631595026, -36.9422894719024], [174.502582582086, -36.9422989669808], [174.502561456933, -36.9423120408977], [174.502543734849, -36.9423497862725], [174.502466512368, -36.942633335912], [174.502433581509, -36.9426627603213], [174.502326389846, -36.9427029212491], [174.502297752215, -36.9427076560984], [174.502271910737, -36.9427020412461], [174.502169474544, -36.9426420020305], [174.501919095903, -36.9425271022085], [174.501880492451, -36.942526760334], [174.501795270637, -36.9425561428954], [174.501763131951, -36.9425555713938], [174.501734267573, -36.9425278165705], [174.501715112163, -36.9424902204326], [174.501723335667, -36.9423362281871], [174.501716292263, -36.9423152172127], [174.501686688958, -36.9422959220179], [174.501429680751, -36.9422101226268], [174.501366845922, -36.9421964682544], [174.501283468099, -36.942195691794], [174.501184100708, -36.9422327989931], [174.501124470219, -36.9422326226544], [174.500920834511, -36.9421692340644], [174.500858088499, -36.942139379866], [174.50080755402, -36.9420800787234], [174.500676661979, -36.941887894471], [174.500618870154, -36.9417862216483], [174.500614636793, -36.9417658457062], [174.500621611156, -36.9417557605242], [174.500708107759, -36.9417406096732]]}, "properties": {"OBJECTID": 3036, "TRACKNAME": "Forbes Track", "CONDITIONSOFUSE": "Waitakere West Regional Park", "STATUS": "Temp Closed", "WEBLINK": "https://www.aucklandcouncil.govt.nz/en/parks-recreation/find-park-beach/park-detail/3451.html", "VALIDATIONSTATE": 3, "created_user": "AC_owner", "last_edited_user": "AC_owner", "last_edited_date": 1789875254325, "created_date": 1789875254325, "PARK_SAPSITEID": null, "TRACK_ID": null, "KAURIDIEBACK_TRACK": null, "KAURIDIEBACK_MITIGATED": null, "SegmentID": null, "GlobalID": "9fe9541a-3830-4432-936d-31021ca85f8b", "Shape__Length": 1137.5425791843898}}]}