{"type": "FeatureCollection", "features": [{"type": "Feature", "id": 374, "geometry": {"type": "MultiLineString", "coordinates": [[[174.761097155738, -36.9437490415337], [174.76109074411, -36.943879280003], [174.76108676815, -36.9439455778854], [174.761072705665, -36.9440517561048], [174.761054170152, -36.9442021569339], [174.760980528086, -36.9443489585914], [174.760917186698, -36.9444647007467], [174.760892732529, -36.9445975232184], [174.760889772351, -36.9447079532735], [174.760902602459, -36.9447872424536], [174.760932329503, -36.9448839471299], [174.760950761657, -36.9449675607272], [174.760997701762, -36.9450949167551]], [[174.759784240035, -36.9420452600968], [174.759888782235, -36.9420867672158], [174.760016892099, -36.9421555146754], [174.76012940402, -36.9422642329834], [174.760265350764, -36.9424344171283], [174.760390895784, -36.9426312545083], [174.760544146365, -36.9428365049652], [174.760686905101, -36.9430639934416], [174.760891072471, -36.9433303107218], [174.761010205655, -36.9434875027377], [174.761051034557, -36.9435884502561], [174.761074967113, -36.9436719912804], [174.761097155738, -36.9437490415337]], [[174.762613234065, -36.9418854195502], [174.762725997089, -36.9418406707964], [174.762812959165, -36.9416859368697], [174.762830435009, -36.9416212862197], [174.762807903882, -36.9415420871794], [174.762811514215, -36.9414721713059], [174.762831697832, -36.9413656856698], [174.762822009249, -36.9412556416362], [174.76283800672, -36.9411258646264], [174.762835022711, -36.9409963694375], [174.762832565257, -36.9408897242184], [174.762830107816, -36.9407830789973], [174.762866666392, -36.9407215790854], [174.762988799604, -36.9406664247945], [174.763233779053, -36.9405865883136], [174.763582095829, -36.9404594918627], [174.763639028484, -36.9404586461996], [174.76379912325, -36.9404029271973], [174.764044276511, -36.9403307027351], [174.764287145668, -36.9401594552886], [174.764559533941, -36.9400334842283], [174.764671828573, -36.9399632419267], [174.764802576824, -36.9398698584323], [174.764857060053, -36.9397623669058], [174.764922433831, -36.9397156705746], [174.765026813015, -36.9397141189644], [174.765179880842, -36.939765184269], [174.7653619422, -36.9398386760747], [174.765516944267, -36.9399735360733], [174.765720449, -36.9401533901303], [174.766210925899, -36.9404280406793], [174.766721091122, -36.9407328702201], [174.766991381806, -36.9409269697463], [174.767144629174, -36.9409856460451], [174.767289084424, -36.9410749360539], [174.767548484686, -36.9412082393063], [174.767710866068, -36.9412515373614], [174.767833524657, -36.9412192370808], [174.767984660686, -36.9411865036149], [174.768153182174, -36.9410849287253], [174.768189912513, -36.9410310409182], [174.768350181094, -36.9409829384805], [174.768547883735, -36.9409114114539], [174.768708680113, -36.9408861584449], [174.768830292023, -36.9408081481822], [174.768921840848, -36.9406620033731], [174.769012508639, -36.9404777723323], [174.76906698627, -36.9403702790289], [174.769253781173, -36.9402379563076], [174.769440938842, -36.9401208603955], [174.76958187112, -36.9400578029642], [174.769743898818, -36.9400858710261], [174.770012431962, -36.9402037822406], [174.770165492623, -36.9402548411653], [174.770366364645, -36.940320428516], [174.770471460786, -36.9403493444469], [174.770699741542, -36.9403687979727], [174.770823642626, -36.9403898078768], [174.770977056872, -36.9404561019826], [174.771138733112, -36.940468931851]], [[174.762627044254, -36.9418787790168], [174.762593071953, -36.9418867608063], [174.762514862148, -36.9418921139316], [174.762452249233, -36.9418944404515], [174.762396402809, -36.9418882832065], [174.76232650742, -36.9418767453046], [174.762226740937, -36.9418530753312], [174.762102289812, -36.9418157991713], [174.762007582281, -36.9417850677028], [174.761974068334, -36.9417660025406], [174.761942166749, -36.9417413251802], [174.761893864029, -36.9416847541879], [174.761838215797, -36.9416115246868], [174.761777377959, -36.9415397701301], [174.761722437108, -36.9414765249503], [174.761638912781, -36.9413777614106], [174.761566499378, -36.9412542635359]], [[174.758967662571, -36.9414955866661], [174.759061741089, -36.9415250094477], [174.759101043854, -36.9415597503827], [174.759157253639, -36.9416119069279], [174.759247062836, -36.9416900467603], [174.759348685132, -36.9418033437205], [174.759471790242, -36.9418942485956], [174.759550103136, -36.9419504849135], [174.759661192709, -36.9419974113622], [174.759784240035, -36.9420452600968]], [[174.761566499378, -36.9412542635359], [174.761554158079, -36.9413242061725], [174.761416432781, -36.9431738953239], [174.761097155738, -36.9437490415337]], [[174.761566499378, -36.9412542635359], [174.761565616949, -36.9412527587841], [174.7614459899, -36.9412327943456], [174.761353737854, -36.9412254668689], [174.761141658768, -36.9411894814828], [174.760956853554, -36.9411617863623], [174.760733944916, -36.9411259608605], [174.760256583669, -36.9410580435852], [174.760175919205, -36.9410727855842], [174.760144829477, -36.94109868029], [174.760121234992, -36.9411442436227], [174.760104742476, -36.94119252915], [174.760074433712, -36.9412523222013], [174.760056413129, -36.9412684059253]], [[174.760056413129, -36.9412684059253], [174.760026138584, -36.9412954268996], [174.75998116633, -36.9413300034855], [174.75992909209, -36.9413618605496], [174.759881055639, -36.9414162649696], [174.759825331137, -36.941442523837], [174.759741191959, -36.9414579002097], [174.759614561912, -36.9414626035414], [174.759533681821, -36.9414666278525], [174.759445763603, -36.9414707564054], [174.759385935122, -36.9414716429763], [174.759315483378, -36.9414698612513], [174.759248485714, -36.9414652017252], [174.759192046374, -36.9414603866239], [174.759107777123, -36.9414701131192], [174.759030547068, -36.941479734366], [174.758981470614, -36.941488939375], [174.758939368444, -36.9414952153648], [174.758900981289, -36.9415099133404], [174.758845126454, -36.9415305214239], [174.758758052428, -36.9415713743899], [174.758698677341, -36.941592035452], [174.758649796706, -36.9416097144603], [174.758608019139, -36.9416301148199], [174.758548904842, -36.941662075561], [174.758503673081, -36.941685352724], [174.75845844017, -36.9417086298869], [174.758423377073, -36.9417148005414], [174.758363418514, -36.9417100371679], [174.758314017153, -36.9417051165185], [174.758267506484, -36.941692541284], [174.758211436813, -36.9416840283834], [174.758151608126, -36.9416849143368], [174.758084805089, -36.9416887292108], [174.758035989177, -36.94170923359], [174.758011872785, -36.9417321979112], [174.757977588656, -36.9417722677507], [174.757960899897, -36.9418120779603], [174.757919771182, -36.9418607270641], [174.757882162619, -36.9419093240358], [174.757845396785, -36.9419946459488], [174.757822967984, -36.9420910583034], [174.757807085805, -36.9422051678445], [174.757804838306, -36.942221317853], [174.757775501033, -36.9423234847357], [174.757721527705, -36.9424260163351], [174.757664293639, -36.9425398997978], [174.757623749641, -36.9426139730546], [174.75757606791, -36.942663149886], [174.757558438576, -36.9426827615715], [174.757445608671, -36.9428285530748], [174.75738818033, -36.942933961344], [174.757357672957, -36.9429852787202], [174.757331075196, -36.9430534940958], [174.757277749757, -36.9431842753944], [174.757231593319, -36.9433206010203], [174.757206358105, -36.9434481399552], [174.757195654837, -36.9435952453606], [174.757186394105, -36.9436519004947], [174.757163446067, -36.943725714072], [174.75713287336, -36.9437742066781], [174.757088872825, -36.9438511565853], [174.757047612732, -36.9438941559782], [174.756996507706, -36.9439683862133], [174.756966584777, -36.944045127747], [174.756912803887, -36.9441561340662], [174.756876296617, -36.944252754561], [174.756843307353, -36.9443493238887], [174.756826878119, -36.9444004328087], [174.756825175621, -36.9444795832993], [174.756823277347, -36.94455025875], [174.756821899256, -36.9446435337303], [174.756816223362, -36.9447029614637], [174.756793338444, -36.9447795997092], [174.756740854429, -36.9449471048239], [174.756697826056, -36.9450664289748], [174.756637847919, -36.9452142633773], [174.756625067386, -36.9452709705384], [174.756622651046, -36.9453190464191], [174.756623753947, -36.9453670702303], [174.756624921722, -36.9454179187591], [174.7566156604, -36.945474573849], [174.756609854567, -36.9455283521343], [174.756587034098, -36.9456078150598], [174.756570928849, -36.9456730493376], [174.756572356106, -36.9457351976381], [174.756575794535, -36.945884919401], [174.756614953921, -36.9460183447403], [174.756646688707, -36.9460590760132], [174.756697908368, -36.9461430956983], [174.756752518771, -36.9462214129307], [174.756799375849, -36.9462687597081], [174.756861284576, -36.9463582725023], [174.756948025398, -36.9464558948184], [174.757041091206, -36.9465223392105], [174.757187471463, -36.9466106016769], [174.757391527335, -36.9467573539653], [174.7576773128, -36.9469368067621], [174.757877072028, -36.9470497109745], [174.758215913837, -36.9472396804604], [174.758379634783, -36.9473163810036], [174.758766779781, -36.9474632447205], [174.759057921588, -36.947569141775], [174.759231812196, -36.9476287345844], [174.759378065961, -36.9477113448023], [174.759578089622, -36.9478355457696], [174.759744746411, -36.9478867679979]], [[174.760056413129, -36.9412684059253], [174.759999425091, -36.941396310674], [174.759951457, -36.9414632516471], [174.759926392674, -36.9415695928642], [174.759841660011, -36.9417121507466], [174.759810700122, -36.9418009132018], [174.759768841311, -36.9418942627318], [174.75976455934, -36.9419473065336], [174.759765777891, -36.942000277822], [174.759784240035, -36.9420452600968]], [[174.760060617933, -36.9412589688316], [174.760056413129, -36.9412684059253]], [[174.761854503324, -36.9399166488546], [174.761882472675, -36.9399120606475], [174.761902781746, -36.939890891623], [174.761879452241, -36.9398712056942], [174.76184844153, -36.9398791784683], [174.76183028812, -36.9399036531317], [174.761814615273, -36.9399906921454], [174.761831720349, -36.9401915941511], [174.76175866373, -36.9403153757089], [174.76171542527, -36.9404397143688], [174.761624579098, -36.9405886338773], [174.761571617891, -36.9407271405746], [174.761553302644, -36.9409059131213], [174.761580317545, -36.9411759463368], [174.761566499378, -36.9412542635359]]]}, "properties": {"OBJECTID": 374, "TRACKNAME": "Foreshore Walk", "CONDITIONSOFUSE": "Kiwi Esplanade (Open Foreshore)", "STATUS": "Open", "WEBLINK": null, "VALIDATIONSTATE": 3, "created_user": "AC_owner", "last_edited_user": "AC_owner", "last_edited_date": 1789875254325, "created_date": 1789875254325, "PARK_SAPSITEID": null, "TRACK_ID": null, "KAURIDIEBACK_TRACK": null, "KAURIDIEBACK_MITIGATED": null, "SegmentID": null, "GlobalID": "d223bf8d-dc8d-42d7-a72c-a4baf9a5f2f6", "Shape__Length": 3392.4340215850243}}]}