{"type": "FeatureCollection", "features": [{"type": "Feature", "id": 12769, "geometry": {"type": "LineString", "coordinates": [[175.128473226344, -37.0213686225136], [175.126029143826, -37.0238635357059], [175.125088814086, -37.0252341995149], [175.124758612892, -37.0257785634989], [175.124074212527, -37.0260062016703], [175.123566261108, -37.0263691342605], [175.123160188904, -37.0269456205989], [175.122621576886, -37.0275860151477], [175.122042030603, -37.0281348336626], [175.121030710831, -37.0283375336727], [175.119947374604, -37.0287107388076], [175.118905804185, -37.029206262462], [175.117758968993, -37.0300574943764], [175.117192997042, -37.0304060523998]]}, "properties": {"OBJECTID": 12769, "TRACKNAME": "Gibbon Road", "CONDITIONSOFUSE": "Hunua Ranges Regional Park", "STATUS": "Permanent", "WEBLINK": "https://www.aucklandcouncil.govt.nz/en/parks-recreation/find-park-beach/park-detail/213.html", "VALIDATIONSTATE": 3, "created_user": "AC_owner", "last_edited_user": "AC_owner", "last_edited_date": 1789875254325, "created_date": 1789875254325, "PARK_SAPSITEID": null, "TRACK_ID": null, "KAURIDIEBACK_TRACK": null, "KAURIDIEBACK_MITIGATED": null, "SegmentID": null, "GlobalID": "23298f5c-9899-4ce3-9eda-ad048efa23e9", "Shape__Length": 1466.3921736263378}}]}