{"type": "FeatureCollection", "features": [{"type": "Feature", "id": 12177, "geometry": {"type": "LineString", "coordinates": [[174.504471556219, -37.0394839470009], [174.504219228756, -37.0394011318625], [174.504159520367, -37.0394035925262], [174.504095766694, -37.0394294287105], [174.503853596717, -37.0395797545332], [174.503670823319, -37.0397305429048], [174.503486207983, -37.0398525669961], [174.503340875148, -37.0399338575744], [174.503046032721, -37.0400707260063], [174.502758747255, -37.0402678217967], [174.502714211644, -37.0403145423553], [174.502703104698, -37.0404546168946], [174.502692984896, -37.0404754770629], [174.50267067298, -37.0404879901318], [174.502524463657, -37.0405158470201], [174.502396424961, -37.0405039142026], [174.502311063117, -37.0405069647445], [174.502087241991, -37.0405485355628], [174.501897635284, -37.0405183452641], [174.50183674274, -37.0404878014669], [174.501807682488, -37.0404549609009], [174.501803061531, -37.0404315175749], [174.501820007947, -37.040371402842], [174.501849855826, -37.0403199210532], [174.50187642291, -37.0402963568796], [174.501920152179, -37.0402739139154], [174.502085973423, -37.0402143631028], [174.502122008134, -37.0401738165146], [174.502177971371, -37.0400804336361], [174.502183865191, -37.0400312389719], [174.502162270601, -37.0399216963168], [174.502107921721, -37.0398008490478], [174.502055816875, -37.0397108536262], [174.502052161365, -37.039681913361], [174.502096254515, -37.0396244896956], [174.502213926448, -37.0395539912694], [174.50225460933, -37.039513292939], [174.502310564248, -37.0393874542469], [174.502360063953, -37.0392240153933], [174.502362287595, -37.0391436083374], [174.502347998215, -37.0390842821005], [174.502324254561, -37.0390276624718], [174.502255942411, -37.0389194136063], [174.502206994426, -37.0387747131052], [174.502204201655, -37.0387411118441], [174.502217978387, -37.038649470059], [174.502209998392, -37.0385883945977], [174.502167633735, -37.0385124487058], [174.502118047903, -37.0384559291229], [174.502066879881, -37.0384103512262], [174.50195635039, -37.0383362363961], [174.50188370419, -37.0382947205371], [174.501813392616, -37.0382693768675], [174.501651155016, -37.0382450607406], [174.501610724905, -37.0382194576671], [174.50157189735, -37.038178800654], [174.501488540885, -37.0379477487303], [174.501367611514, -37.037511900273], [174.500958895335, -37.0371398070956], [174.500901365079, -37.0370749210956], [174.500878671547, -37.0370354604088], [174.500823640905, -37.0368198502605], [174.500836332886, -37.0364172703906], [174.500734324962, -37.0361326458], [174.500717838092, -37.0361126640868], [174.500692871601, -37.0361010225882], [174.500556979521, -37.0360738460398], [174.500508966673, -37.0360571753352], [174.500308536306, -37.0358853239933], [174.500270656959, -37.0357162010646], [174.500250897536, -37.035678340892], [174.500209950393, -37.0356582511118], [174.50013991581, -37.0356411755157], [174.49995306311, -37.0356403564446], [174.499903138217, -37.0356311160745], [174.4998652492, -37.0356046185553], [174.499845622628, -37.0355776152201], [174.49984514869, -37.0355455781487], [174.499856681696, -37.0355139039445], [174.499873460234, -37.0354953492972], [174.499915937638, -37.0354766454876], [174.500165178351, -37.0354157064465], [174.500645764799, -37.0353508203155], [174.500692046838, -37.0353305862797], [174.500718986168, -37.0353092079364], [174.50072286158, -37.0352889253628], [174.500704179949, -37.0352511633975], [174.500684793433, -37.0352315112955], [174.500649598558, -37.0352149146462], [174.500323034942, -37.0351318375396], [174.500195880473, -37.0350815691793], [174.500143946791, -37.0350517575142], [174.499984821347, -37.0348621349643], [174.499936682378, -37.0347937433238], [174.499858534236, -37.0345936406232], [174.499855725936, -37.0345613581478], [174.499873108092, -37.0345151441873], [174.499865656581, -37.0344976151603], [174.499655344262, -37.034375353764], [174.49948191247, -37.0342988642969], [174.499426718697, -37.0342590245072], [174.499202869181, -37.0340585490926], [174.499023247914, -37.0338506262486], [174.498886564806, -37.033785777593], [174.498843819276, -37.0337572337261], [174.498427379093, -37.0334082259823], [174.498387685542, -37.0333566399801], [174.498306029494, -37.033195835267], [174.498295548266, -37.0331560918066], [174.498307522453, -37.0331156708499], [174.49849259786, -37.0327835680218], [174.498571421922, -37.0326098921281], [174.498607666507, -37.0324192416812], [174.498617967741, -37.0323224847533], [174.498613129479, -37.0321154862483], [174.49852993723, -37.0317761160506], [174.498459027618, -37.0312511147675], [174.498257687633, -37.0307223895083], [174.498264660687, -37.0306805859332], [174.498358392352, -37.0304336410788], [174.49855058492, -37.0302975032694], [174.498617675244, -37.0302208610382], [174.498724657575, -37.0300651511032], [174.498761728827, -37.0299313916137], [174.498803301517, -37.0298410556061], [174.498956608779, -37.0296301382184], [174.499355280731, -37.0295172391167], [174.499428505377, -37.0295066268314], [174.499735885083, -37.0295834369552], [174.499979846649, -37.0296005781561], [174.500061027261, -37.0296279073866], [174.500241871374, -37.0297112743902], [174.500300322933, -37.0297299377385], [174.500605785772, -37.0297358108343], [174.500671491636, -37.0297537657153], [174.500772904708, -37.0298000824066], [174.500952645708, -37.029824658018], [174.501212002722, -37.0298366201179], [174.501341562401, -37.0298261708], [174.501412453658, -37.029812101288], [174.501449815411, -37.0297992078104], [174.501551102715, -37.0297394758784], [174.501781077749, -37.0296304081314], [174.501973029317, -37.0295711532636], [174.50218235647, -37.0295301549061], [174.502432194681, -37.0294543394766], [174.502485594078, -37.0294234048051], [174.502559916456, -37.0292529650752], [174.502609274193, -37.0290361415105], [174.502570735639, -37.0288378417016], [174.502480250808, -37.0287101284938], [174.50229407896, -37.0284824816209], [174.502212320941, -37.0283640615002], [174.502206471881, -37.0283128188452], [174.50221129271, -37.0280405294362], [174.502222986776, -37.0278752481233], [174.502233900469, -37.0278265044817], [174.502285756828, -37.0277875430641], [174.502700428237, -37.0275975556488], [174.502959565333, -37.0275062028296], [174.50314653594, -37.0274647361076], [174.50327484628, -37.0274166735728], [174.503645243212, -37.0271707831384], [174.503781141212, -37.0270007159351], [174.503907548638, -37.0268095744731], [174.503904884783, -37.0267697468154], [174.503861587199, -37.0266410299463], [174.503868082508, -37.026469408455], [174.504008733987, -37.0261268285001], [174.504053803905, -37.0258970070534], [174.504036556199, -37.0257269754667], [174.504040844258, -37.025586987868], [174.50412051081, -37.0252581341969], [174.504142822234, -37.0252179547489], [174.504196417828, -37.0251559958703], [174.504293102469, -37.0249699539044], [174.504325628426, -37.0249276393989], [174.504392016629, -37.0249010207199], [174.504589553006, -37.0248526702717], [174.504647481653, -37.0248298632928], [174.504679304783, -37.0248084635859], [174.504714853846, -37.024754323642], [174.504750843353, -37.024648776645], [174.504805082879, -37.0245438887008], [174.504834276491, -37.0245082457743], [174.504904159413, -37.0244545770491], [174.505047402836, -37.0243796440695], [174.505184842161, -37.024328929997], [174.505305171774, -37.0242726335449], [174.505444800867, -37.0241486880093], [174.505558979449, -37.0240691937139], [174.505799193215, -37.0239579738456], [174.505941741282, -37.0239154414449], [174.506081134222, -37.0238421334715], [174.506145421898, -37.023744170458], [174.506185408731, -37.0236172778241], [174.506203555187, -37.0233220183975], [174.506243988911, -37.0232548319983], [174.506294578972, -37.0232112636886], [174.506478912861, -37.0230896219872], [174.506581744846, -37.0230466484971], [174.507010993788, -37.0229222760993], [174.50706489632, -37.0229133179053], [174.507242047131, -37.0229040243743], [174.507434214425, -37.0228462317789], [174.507573621914, -37.0227767886905], [174.507753693231, -37.0225990629314], [174.507794262472, -37.0225822121478], [174.507875041565, -37.0225663862311], [174.508093990036, -37.0221652378452], [174.508113492581, -37.0221070843307], [174.507999058461, -37.021666832619], [174.507950354273, -37.0214243612289], [174.507956486759, -37.0211358493961], [174.507981736851, -37.0210348842866], [174.508025853119, -37.0209161462587], [174.508028715483, -37.0208838116905], [174.507998386227, -37.0208406519055], [174.507826532891, -37.0206777558944], [174.507770312031, -37.0206527105888], [174.507482492332, -37.020564199973], [174.507139967994, -37.0204330023241], [174.506768901379, -37.0202349603388], [174.506198769684, -37.0200309121858], [174.505897063945, -37.0199434897251], [174.505590435796, -37.0198090972238], [174.505516071531, -37.0197996094809], [174.504972126991, -37.0197818149894], [174.50463114173, -37.0197097922913], [174.504584448728, -37.0196915055614], [174.50453225892, -37.0196547476696], [174.504382304051, -37.019490672005], [174.504183178939, -37.0193632862808], [174.504133164691, -37.0193565770004], [174.503951007205, -37.0193635920677], [174.503700514801, -37.0193436850805], [174.503464485494, -37.019299796749], [174.502947028038, -37.0191672006627], [174.50260357256, -37.0190475433769], [174.502572835882, -37.0190283056451], [174.502504758599, -37.0189694512454]]}, "properties": {"OBJECTID": 12177, "TRACKNAME": "Gibbons Track", "CONDITIONSOFUSE": "Waitakere South Regional Park", "STATUS": "Open", "WEBLINK": "https://www.aucklandcouncil.govt.nz/en/parks-recreation/find-park-beach/park-detail/212.html", "VALIDATIONSTATE": 3, "created_user": "AC_owner", "last_edited_user": "AC_owner", "last_edited_date": 1789875254325, "created_date": 1789875254325, "PARK_SAPSITEID": null, "TRACK_ID": null, "KAURIDIEBACK_TRACK": null, "KAURIDIEBACK_MITIGATED": null, "SegmentID": null, "GlobalID": "b694ab46-e754-41da-8de9-b9cc9e371741", "Shape__Length": 3931.6902666339306}}]}