{"type": "FeatureCollection", "features": [{"type": "Feature", "id": 2544, "geometry": {"type": "LineString", "coordinates": [[174.480292678791, -36.9528916211037], [174.479628039511, -36.95275313287], [174.479448766019, -36.9527256127998], [174.479301024525, -36.952705397254], [174.479181154741, -36.9526896385678], [174.479113495126, -36.9526876782387], [174.479043414016, -36.9526847835747], [174.478951681844, -36.9526860704987], [174.478870971959, -36.9526939893193], [174.478753239997, -36.9527208291769], [174.478593848952, -36.9527753819477], [174.47842393359, -36.9528455870826], [174.477931361209, -36.9530685793489], [174.477469958356, -36.9532814289326], [174.477278343372, -36.9533723824164], [174.477035481907, -36.9534796343772], [174.477006064121, -36.953490440872], [174.476923193398, -36.9535109773448], [174.476828072928, -36.9535229679486], [174.476695596628, -36.9535383885972], [174.47646064531, -36.9535600860748], [174.47624384954, -36.9535844327042], [174.476042436533, -36.9535940396458], [174.475826490357, -36.9536018979753], [174.475697449848, -36.9536085585915], [174.475638434875, -36.9536151960404], [174.475590468204, -36.9536304033472], [174.475545020051, -36.9536504106585], [174.475498561371, -36.9536791647514], [174.475447293205, -36.9537089520704], [174.475410595157, -36.9537424071419], [174.475304277296, -36.9538504861293], [174.475160582821, -36.9540162571772], [174.475114751395, -36.9540740543664], [174.475007896339, -36.954213137755], [174.47489248546, -36.9543465405618], [174.474853589564, -36.9543906859298], [174.474808656701, -36.9544339508276], [174.474729132752, -36.9544970788362], [174.474667222701, -36.954537670185], [174.47459825346, -36.9545861099427], [174.474533663917, -36.9546141424143], [174.474468969791, -36.9546373358124], [174.474403838385, -36.9546401817532]]}, "properties": {"OBJECTID": 2544, "TRACKNAME": "Glen Esk Road", "CONDITIONSOFUSE": null, "STATUS": "Open", "WEBLINK": null, "VALIDATIONSTATE": 3, "created_user": "AC_owner", "last_edited_user": "AC_owner", "last_edited_date": 1789875254325, "created_date": 1789875254325, "PARK_SAPSITEID": null, "TRACK_ID": null, "KAURIDIEBACK_TRACK": null, "KAURIDIEBACK_MITIGATED": null, "SegmentID": null, "GlobalID": "48f44c56-3121-4d40-a152-2177d01992c1", "Shape__Length": 603.1497790808298}}, {"type": "Feature", "id": 2596, "geometry": {"type": "LineString", "coordinates": [[174.484326608757, -36.9523403852609], [174.484265772937, -36.9522804829994], [174.484213520747, -36.95225754657], [174.48410502024, -36.9523201146099], [174.484027443196, -36.9523609426823], [174.483871845208, -36.9524232068363], [174.483777388354, -36.9524652191846], [174.483679181211, -36.9525014915563], [174.483584484007, -36.9525328616279], [174.483493240476, -36.9525564277133], [174.483402950539, -36.9525683632115], [174.483343985974, -36.9525769417861], [174.483271881583, -36.9525924897986], [174.483175791034, -36.9526151517336], [174.483046516721, -36.952666386761], [174.482774771236, -36.9527729151105], [174.482490012536, -36.9528912509775], [174.482205069221, -36.9530018457405], [174.482061185536, -36.9530474663053], [174.481980666991, -36.9530641010597], [174.481907101461, -36.9530680388688], [174.481812936357, -36.9530684029277], [174.481667982711, -36.9530646144873], [174.481277513489, -36.9530419950574], [174.481109430106, -36.9530298233642], [174.480977489244, -36.9530142260995], [174.480789748929, -36.9529868317067], [174.480611657114, -36.9529583251907], [174.480429728694, -36.9529201765611], [174.480292678791, -36.9528916211037]]}, "properties": {"OBJECTID": 2596, "TRACKNAME": "Glen Esk Road", "CONDITIONSOFUSE": null, "STATUS": "Open", "WEBLINK": null, "VALIDATIONSTATE": 3, "created_user": "AC_owner", "last_edited_user": "AC_owner", "last_edited_date": 1789875254325, "created_date": 1789875254325, "PARK_SAPSITEID": null, "TRACK_ID": null, "KAURIDIEBACK_TRACK": null, "KAURIDIEBACK_MITIGATED": null, "SegmentID": null, "GlobalID": "103c7b67-0c8b-4170-80f5-9cda23115e8a", "Shape__Length": 385.3162496131054}}]}