{"type": "FeatureCollection", "features": [{"type": "Feature", "id": 12172, "geometry": {"type": "LineString", "coordinates": [[174.485179718817, -36.9534507701395], [174.484442233446, -36.952763580197], [174.484412534248, -36.9526681679121], [174.484398743279, -36.9525725567265], [174.484372587562, -36.9524547507663], [174.484326608757, -36.9523403852609]]}, "properties": {"OBJECTID": 12172, "TRACKNAME": "Glen Esk Carpark", "CONDITIONSOFUSE": "Waitakere West Regional Park", "STATUS": "Open", "WEBLINK": "https://www.aucklandcouncil.govt.nz/en/parks-recreation/find-park-beach/park-detail/3451.html", "VALIDATIONSTATE": 3, "created_user": "AC_owner", "last_edited_user": "AC_owner", "last_edited_date": 1789875254325, "created_date": 1789875254325, "PARK_SAPSITEID": null, "TRACK_ID": null, "KAURIDIEBACK_TRACK": null, "KAURIDIEBACK_MITIGATED": null, "SegmentID": null, "GlobalID": "c0b55c7b-ea9d-4945-aa0a-da87f01d643a", "Shape__Length": 148.83393028044068}}]}