{"type": "FeatureCollection", "features": [{"type": "Feature", "id": 307, "geometry": {"type": "LineString", "coordinates": [[175.088226754049, -37.0681821660228], [175.08825954216, -37.0681839228281], [175.088274763588, -37.0681955604823], [175.088278321373, -37.0682145596268], [175.088269887393, -37.0682314176703], [175.088267618604, -37.0682553141791], [175.088271384059, -37.0682814747422], [175.088286758697, -37.0682978774007], [175.088305166096, -37.0683165969746]]}, "properties": {"OBJECTID": 307, "TRACKNAME": "Gloworm Walk", "CONDITIONSOFUSE": "Hunua Ranges Regional Park", "STATUS": "Open", "WEBLINK": "https://www.aucklandcouncil.govt.nz/en/parks-recreation/find-park-beach/park-detail/213.html", "VALIDATIONSTATE": 3, "created_user": "AC_owner", "last_edited_user": "AC_owner", "last_edited_date": 1789875254325, "created_date": 1789875254325, "PARK_SAPSITEID": null, "TRACK_ID": null, "KAURIDIEBACK_TRACK": null, "KAURIDIEBACK_MITIGATED": null, "SegmentID": null, "GlobalID": "2ea9ec9d-43e7-4a85-8c5d-ddd2f849da20", "Shape__Length": 19.445407324046926}}, {"type": "Feature", "id": 1012, "geometry": {"type": "LineString", "coordinates": [[175.088305166096, -37.0683165969746], [175.088273372043, -37.0683482146333], [175.088265375374, -37.068379377101], [175.088260772065, -37.0684247739037], [175.088252709909, -37.0684535491651], [175.08820355594, -37.0685021820545], [175.088159519309, -37.0685221095578], [175.088055983373, -37.0685431750221], [175.087985158941, -37.0685636102659], [175.087932545948, -37.068595621499], [175.087886589337, -37.0686513540183], [175.087858418392, -37.0687043669453], [175.087839226989, -37.0687595920779], [175.087833706177, -37.0687740014213], [175.087818757539, -37.068771903331], [175.087789089881, -37.0687748501522], [175.087750846398, -37.0687898987789], [175.087730595541, -37.0688093622316], [175.087719412202, -37.0688334247118], [175.087710628748, -37.0688383651015], [175.087689809973, -37.0688387587151], [175.087651140462, -37.0688395026843], [175.087633584784, -37.0688493832554], [175.087625085139, -37.0688638540517], [175.087610420549, -37.0688712953564], [175.087577555451, -37.0688671513719], [175.087541362307, -37.0688511512177], [175.087567570799, -37.0688315648766], [175.087614302991, -37.0688020547186], [175.087622027391, -37.0687613616766], [175.087594399139, -37.068733268939], [175.087575128644, -37.0686859401953], [175.087574276973, -37.0686573399473], [175.087593741363, -37.0686116544711], [175.087625547301, -37.0685800457943]]}, "properties": {"OBJECTID": 1012, "TRACKNAME": "Gloworm Walk", "CONDITIONSOFUSE": "Hunua Ranges Regional Park", "STATUS": "Open", "WEBLINK": "https://www.aucklandcouncil.govt.nz/en/parks-recreation/find-park-beach/park-detail/213.html", "VALIDATIONSTATE": 3, "created_user": "AC_owner", "last_edited_user": "AC_owner", "last_edited_date": 1789875254325, "created_date": 1789875254325, "PARK_SAPSITEID": null, "TRACK_ID": null, "KAURIDIEBACK_TRACK": null, "KAURIDIEBACK_MITIGATED": null, "SegmentID": null, "GlobalID": "6720178a-296c-41c2-acc4-ccb91f4da8fe", "Shape__Length": 138.86884674392508}}, {"type": "Feature", "id": 1476, "geometry": {"type": "LineString", "coordinates": [[175.088305166096, -37.0683165969746], [175.088334342223, -37.0682969672111], [175.08836366004, -37.068282093637], [175.088396240762, -37.0682766979933], [175.088435193881, -37.0682854841985]]}, "properties": {"OBJECTID": 1476, "TRACKNAME": "Gloworm Walk", "CONDITIONSOFUSE": "Hunua Ranges Regional Park", "STATUS": "Open", "WEBLINK": "https://www.aucklandcouncil.govt.nz/en/parks-recreation/find-park-beach/park-detail/213.html", "VALIDATIONSTATE": 3, "created_user": "AC_owner", "last_edited_user": "AC_owner", "last_edited_date": 1789875254325, "created_date": 1789875254325, "PARK_SAPSITEID": null, "TRACK_ID": null, "KAURIDIEBACK_TRACK": null, "KAURIDIEBACK_MITIGATED": null, "SegmentID": null, "GlobalID": "00861a45-c5ec-4dc1-8223-b56f75ad3ddb", "Shape__Length": 13.031644949507454}}]}