{"type": "FeatureCollection", "features": [{"type": "Feature", "id": 1297, "geometry": {"type": "LineString", "coordinates": [[174.558516509028, -36.9947386038861], [174.558590873242, -36.9946773719625], [174.558686374703, -36.9946266245092], [174.558878364171, -36.9945674168142], [174.559017467494, -36.9945019361312], [174.559281163888, -36.9945051146857], [174.559484343084, -36.9945514694221], [174.559739731589, -36.9945759108295], [174.559914627448, -36.9945380988531], [174.560043026567, -36.9943881929437], [174.560039809994, -36.9942472549466], [174.559991217482, -36.9940435574654], [174.559882585771, -36.9939041853461], [174.559853647739, -36.9937918247323], [174.55988654624, -36.9936926583417], [174.559815138155, -36.9936443651169], [174.559856798686, -36.9935450655428], [174.559819420596, -36.9934469400151], [174.5598793046, -36.99337556813], [174.559754224671, -36.9932857700387], [174.559822571863, -36.9932001898215], [174.559908321211, -36.9931072871993], [174.559957978805, -36.9929726306336], [174.559990687964, -36.9928664181301], [174.560014313474, -36.9927462459177]]}, "properties": {"OBJECTID": 1297, "TRACKNAME": "Goat Hill Track", "CONDITIONSOFUSE": "Waitakere South Regional Park", "STATUS": "Temp Closed", "WEBLINK": "https://www.aucklandcouncil.govt.nz/en/parks-recreation/find-park-beach/park-detail/212.html", "VALIDATIONSTATE": 3, "created_user": "AC_owner", "last_edited_user": "AC_owner", "last_edited_date": 1789875254325, "created_date": 1789875254325, "PARK_SAPSITEID": null, "TRACK_ID": null, "KAURIDIEBACK_TRACK": null, "KAURIDIEBACK_MITIGATED": null, "SegmentID": null, "GlobalID": "2e909d05-9de8-46d7-8888-47c77acb2d59", "Shape__Length": 355.95372606178074}}]}