{"type": "FeatureCollection", "features": [{"type": "Feature", "id": 1296, "geometry": {"type": "LineString", "coordinates": [[174.553007495509, -36.9150219627639], [174.553029553761, -36.9149738299956], [174.553035902331, -36.9149315181336], [174.553034087865, -36.9147739656067], [174.553071335556, -36.914626285998], [174.553070583239, -36.9145465702888], [174.553039907239, -36.9145074015789], [174.552949258297, -36.9144717301331], [174.552893068252, -36.9144370322367], [174.55287187026, -36.9144069064201], [174.552867637991, -36.9143670313769], [174.552891945998, -36.9142864742319], [174.552946532086, -36.9141695658286], [174.553114125437, -36.9138983986941], [174.553129013504, -36.9138553982824], [174.553124777903, -36.9138258799501], [174.55303010084, -36.9137454184191], [174.552972402246, -36.9137077116969], [174.552827451337, -36.9136728042243], [174.552680656377, -36.9136488091458], [174.552646463002, -36.9136271366937], [174.552592119632, -36.9135694297434], [174.552535919616, -36.9135330913142], [174.552192856286, -36.9133984497853], [174.552164210987, -36.9133813376916], [174.552159464193, -36.9133703309849], [174.552175458602, -36.9133580797514], [174.552216945707, -36.9133486230889], [174.552483891667, -36.9133215905116], [174.5526653609, -36.9132924659172], [174.552734493006, -36.9132768068465], [174.55278212905, -36.9132561648077], [174.552816820145, -36.9132287605091], [174.552935870339, -36.9130957582222], [174.552980886914, -36.9129891242588], [174.553063412329, -36.9128772586517], [174.553078229266, -36.9128434891297], [174.552968196794, -36.9128100360987], [174.552792525001, -36.9127806770191], [174.5527476701, -36.9127607574138], [174.552735117358, -36.9127379007025], [174.552740673746, -36.9127063434471], [174.552759101058, -36.912688976642], [174.552838077619, -36.9126534219206], [174.55284224249, -36.9126412621616], [174.552833754477, -36.9126251125418], [174.55278559997, -36.9125819628907], [174.552729491042, -36.9125500850981], [174.552582553833, -36.9125017999923], [174.552470236164, -36.9124818337156], [174.552428020595, -36.9124614197924], [174.55234336351, -36.912328033858], [174.552332911757, -36.9122869871708], [174.552305023376, -36.9122368663012], [174.552308951, -36.9122008145189], [174.552420304862, -36.9120719153746], [174.552483381605, -36.9119569332574], [174.552513166425, -36.9119206426384], [174.552702942454, -36.9118341187827], [174.552766386979, -36.911816478947], [174.552827035414, -36.9118170561308], [174.552939565048, -36.9118408771444], [174.553071862917, -36.9118525776253], [174.553261731273, -36.9118354025645], [174.553317504993, -36.9118374854274], [174.553637088985, -36.9119160957171], [174.554026037612, -36.9119368855309], [174.554151119919, -36.9119680314788], [174.554211356986, -36.9119726694707], [174.554241272625, -36.9119506092381], [174.554325632065, -36.9119176421199], [174.554353049321, -36.9118947131912], [174.554360701348, -36.9118702131524], [174.554350550848, -36.9117893044309], [174.554360884112, -36.9117636245723], [174.554382462258, -36.9117560771971], [174.554475931907, -36.9117511132786], [174.554541303814, -36.9117261462327], [174.554543195485, -36.9116904905905], [174.554577822083, -36.9116102036543], [174.55458001619, -36.9115822597209], [174.554565946938, -36.91156986985], [174.554531547952, -36.9115701217724], [174.554340384128, -36.9116124638406], [174.55422324122, -36.9116229473089], [174.554114787422, -36.9116174439632], [174.553936588126, -36.9115895347597], [174.553473320873, -36.9113916163153], [174.553094797761, -36.9112941806156], [174.5530485766, -36.9112959657787], [174.553009669296, -36.9112870011786], [174.552812397155, -36.9112135413809], [174.552683707731, -36.9111787906326], [174.552649473858, -36.9111600481223], [174.552601647895, -36.9111192105854], [174.552542068967, -36.9110921823114], [174.552249018742, -36.9110077329517], [174.552040265622, -36.910876689561], [174.551938277469, -36.9107559144791], [174.55185383923, -36.9106847103459], [174.551804666607, -36.9105950992611], [174.551721212798, -36.9103558409465], [174.551683689762, -36.9102943894417], [174.551666070974, -36.9102829469519], [174.551531189073, -36.9102388475608]]}, "properties": {"OBJECTID": 1296, "TRACKNAME": "Goodfellow Track", "CONDITIONSOFUSE": "Waitakere North Regional Park", "STATUS": "Temp Closed", "WEBLINK": "https://www.aucklandcouncil.govt.nz/en/parks-recreation/find-park-beach/park-detail/3407.html", "VALIDATIONSTATE": 3, "created_user": "AC_owner", "last_edited_user": "AC_owner", "last_edited_date": 1789875254325, "created_date": 1789875254325, "PARK_SAPSITEID": null, "TRACK_ID": null, "KAURIDIEBACK_TRACK": null, "KAURIDIEBACK_MITIGATED": null, "SegmentID": null, "GlobalID": "19102c72-e808-4f03-a9d6-d14aa14c89c2", "Shape__Length": 1076.8743547667232}}]}