{"type": "FeatureCollection", "features": [{"type": "Feature", "id": 11998, "geometry": {"type": "LineString", "coordinates": [[175.029650462362, -36.779452084591], [175.030272217549, -36.7791393092357], [175.031388309083, -36.778183341391], [175.031971202129, -36.77789576399], [175.033192292839, -36.7774512426089], [175.033513654647, -36.7776848528085], [175.033975736212, -36.7783364950085], [175.034661155919, -36.7788334682515], [175.035063906218, -36.7789994258317]]}, "properties": {"OBJECTID": 11998, "TRACKNAME": "Gt Barrier Empire ", "CONDITIONSOFUSE": "Enclosure Bay", "STATUS": "Open", "WEBLINK": "https://www.aucklandcouncil.govt.nz/en/parks-recreation/find-park-beach/park-detail/1045.html", "VALIDATIONSTATE": 3, "created_user": "AC_owner", "last_edited_user": "AC_owner", "last_edited_date": 1789875254325, "created_date": 1789875254325, "PARK_SAPSITEID": null, "TRACK_ID": null, "KAURIDIEBACK_TRACK": null, "KAURIDIEBACK_MITIGATED": null, "SegmentID": null, "GlobalID": "02cf6873-94a3-4908-8c76-c5817d414145", "Shape__Length": 636.3826100596357}}]}