{"type": "FeatureCollection", "features": [{"type": "Feature", "id": 12558, "geometry": {"type": "LineString", "coordinates": [[175.068089747958, -36.8058906333021], [175.068095381712, -36.8059193518277], [175.068097637305, -36.8059302003562], [175.068097647552, -36.8059302479471], [175.06809766262, -36.8059303080724], [175.068100663293, -36.8059413960043], [175.06810367876, -36.8059527838135], [175.068103688789, -36.8059528232965], [175.068107027211, -36.8059641333826], [175.068107035781, -36.8059641602727], [175.068110208437, -36.8059757247068], [175.068110220876, -36.8059757704569], [175.068113058293, -36.8059874975501], [175.068113068419, -36.8059875406366], [175.068113074233, -36.8059875901073], [175.068114492564, -36.8059989804646], [175.068115740851, -36.8060101745917], [175.068115748585, -36.8060102537721], [175.068115749531, -36.8060102889065], [175.068115583587, -36.8060210768129], [175.068115581069, -36.8060211498624], [175.068115575238, -36.8060212247722], [175.068114416431, -36.8060330619459], [175.068114411697, -36.8060331359353], [175.068114409009, -36.8060332026787], [175.068114159439, -36.8060457982557], [175.068114159313, -36.8060458352114], [175.068114159477, -36.8060458829777], [175.06811449302, -36.806058030376], [175.068114825669, -36.806071436012], [175.068114825828, -36.8060715252385], [175.068114821408, -36.8060716109394], [175.068113910104, -36.8060843153695], [175.068113903274, -36.8060843948032], [175.06810502168, -36.8061060589665], [175.068100467191, -36.8061154982558], [175.068100408627, -36.8061156128391], [175.068100339908, -36.8061157248951], [175.068094314113, -36.8061250113218], [175.068094294722, -36.8061250405008], [175.068087539564, -36.8061351300605], [175.068087501807, -36.8061351847957], [175.068087465049, -36.8061352350069], [175.068080162768, -36.806144860899], [175.068080125938, -36.8061449084076], [175.068080082506, -36.8061449605375], [175.068072415933, -36.8061539609516], [175.068065297095, -36.8061622398053], [175.068065211376, -36.8061623449465], [175.068065134717, -36.8061624535355], [175.068058912906, -36.806171745173], [175.068058834055, -36.8061718556027], [175.06805874724, -36.8061719616643], [175.06805139905, -36.8061804229656], [175.068051377298, -36.8061804476792], [175.068051344634, -36.8061804833984], [175.068043364785, -36.8061890467196], [175.068043322328, -36.8061890934247], [175.068035199673, -36.8061990562529], [175.068027483775, -36.8062083901038], [175.068027407921, -36.8062084869618], [175.068027385364, -36.8062085234064], [175.06802736607, -36.806208556189], [175.068026192563, -36.8062107235128]]}, "properties": {"OBJECTID": 12558, "TRACKNAME": "Gully Link", "CONDITIONSOFUSE": "Onetangi Sports Park (Rangihoua)", "STATUS": "Open pending closure", "WEBLINK": "https://www.aucklandcouncil.govt.nz/en/parks-recreation/find-park-beach/park-detail/120.html", "VALIDATIONSTATE": 3, "created_user": "AC_owner", "last_edited_user": "AC_owner", "last_edited_date": 1789875254325, "created_date": 1789875254325, "PARK_SAPSITEID": null, "TRACK_ID": null, "KAURIDIEBACK_TRACK": null, "KAURIDIEBACK_MITIGATED": null, "SegmentID": null, "GlobalID": "81e3162d-b650-46d8-b2ef-e01256028b05", "Shape__Length": 37.87581961527516}}, {"type": "Feature", "id": 12559, "geometry": {"type": "LineString", "coordinates": [[175.068089747958, -36.8058906333021], [175.068075764593, -36.8058633984694], [175.068070036662, -36.8058558009678], [175.06806998443, -36.8058557342786], [175.068069919632, -36.8058556587949], [175.068062974213, -36.8058478436271], [175.068062940729, -36.8058478072561], [175.068055729178, -36.8058404320481], [175.068055649743, -36.8058403541151], [175.068055561345, -36.805840276338], [175.068051010678, -36.8058326926049], [175.068048691753, -36.8058344463272], [175.068048559324, -36.8058343566979], [175.068040986234, -36.8058295411764], [175.068040961151, -36.8058295253893], [175.068033283142, -36.8058245179119], [175.068033239746, -36.8058244880224], [175.068023690791, -36.8058179294982], [175.06802363366, -36.805817889032], [175.068023581035, -36.8058178493887], [175.06801474877, -36.8058110999377], [175.068006080105, -36.8058044738227], [175.068006033081, -36.805804434082], [175.068005949141, -36.805804355326], [175.067996619245, -36.8057951485588], [175.067996561629, -36.805795090075], [175.067996517264, -36.8057950241501], [175.067989660149, -36.8057845747287], [175.067989605095, -36.8057844864572], [175.067989556762, -36.8057843980687], [175.067983847045, -36.8057734356729], [175.067983817559, -36.8057733812062], [175.067983787001, -36.8057733285608], [175.067977575881, -36.805763018419], [175.067977530226, -36.8057629462075], [175.067977508067, -36.8057629141459], [175.067960516373, -36.8057448852876], [175.067960422665, -36.8057448184185], [175.06795090796, -36.8057383241863], [175.06795087713, -36.8057383030913], [175.067950834902, -36.8057382749841], [175.067940444005, -36.8057316671062], [175.067940401777, -36.8057316389989], [175.067940374405, -36.805731621449], [175.067929925294, -36.8057245161609], [175.067929887596, -36.8057244897775], [175.067920402125, -36.8057177904379], [175.067920367861, -36.8057177666986], [175.067920336958, -36.805717742901], [175.067910934515, -36.8057106716798], [175.067910896769, -36.8057106434946], [175.067900252005, -36.8057029314234], [175.067889809725, -36.8056952464734], [175.067889765088, -36.805695212099], [175.067879631652, -36.8056873415146], [175.067869909362, -36.8056797548993], [175.067859431584, -36.8056716667792], [175.0678498981, -36.8056642237906], [175.067849867149, -36.8056641981911], [175.067841924237, -36.8056573836849], [175.067841886467, -36.8056573545988], [175.067833265887, -36.8056507231276], [175.067833196118, -36.8056506711642], [175.067833126445, -36.8056506228043], [175.067824489756, -36.8056448090968], [175.06782444636, -36.8056447792072], [175.067814414709, -36.8056376918836], [175.067814338097, -36.8056376355327], [175.067814267086, -36.8056375790844], [175.067804496981, -36.8056295895102], [175.067804446524, -36.8056295471252], [175.067804399451, -36.8056295055827], [175.067795751498, -36.8056216479082], [175.067795719329, -36.8056216187246], [175.067787123298, -36.8056141495103], [175.067787095731, -36.8056141247532], [175.067787068238, -36.8056141026988], [175.067778470633, -36.8056071166108], [175.067778381164, -36.8056070406548], [175.067778291453, -36.8056069556899], [175.067769837053, -36.8055985430479], [175.067769805932, -36.8055985111422], [175.067761077393, -36.80558940746], [175.067761026718, -36.805589356967], [175.067760981838, -36.8055893135837], [175.067752730148, -36.8055816031365], [175.06774479414, -36.805574294588], [175.067744766549, -36.80557426893], [175.067744740176, -36.8055742468561], [175.067737093073, -36.80556759484], [175.067737056351, -36.8055675630318], [175.067737014953, -36.8055675240944], [175.067728391166, -36.8055593559453], [175.067728341684, -36.8055593081355], [175.067728295442, -36.8055592557628], [175.067720334205, -36.8055498007417], [175.067720293637, -36.8055497509743], [175.067720251827, -36.8055496967219], [175.067713816105, -36.8055410768143], [175.067708476012, -36.8055313112178], [175.067708442656, -36.8055312378909], [175.067704284879, -36.8055213408692], [175.06770426937, -36.805521305988], [175.067699589073, -36.805510817785], [175.06769524527, -36.8055007969144], [175.067695229713, -36.8055007602315], [175.067695213083, -36.8055007253698], [175.067691476916, -36.8054929598121], [175.067680389972, -36.8054727236601], [175.06768030935, -36.8054726015835], [175.0676766231, -36.8054674417325], [175.067673100466, -36.8054624475797], [175.067673022133, -36.8054623272659], [175.067672956246, -36.8054622112422], [175.067630858257, -36.8054104433064], [175.067570717316, -36.8053517255418]]}, "properties": {"OBJECTID": 12559, "TRACKNAME": "Gully Link", "CONDITIONSOFUSE": "Onetangi Sports Park (Rangihoua)", "STATUS": "Open pending closure", "WEBLINK": "https://www.aucklandcouncil.govt.nz/en/parks-recreation/find-park-beach/park-detail/120.html", "VALIDATIONSTATE": 3, "created_user": "AC_owner", "last_edited_user": "AC_owner", "last_edited_date": 1789875254325, "created_date": 1789875254325, "PARK_SAPSITEID": null, "TRACK_ID": null, "KAURIDIEBACK_TRACK": null, "KAURIDIEBACK_MITIGATED": null, "SegmentID": null, "GlobalID": "29ffa60e-15cb-4a8f-b1c7-37598dee9ab0", "Shape__Length": 76.97911473250639}}, {"type": "Feature", "id": 12560, "geometry": {"type": "LineString", "coordinates": [[175.067570717316, -36.8053517255418], [175.06750131679, -36.8053611695814], [175.067501083002, -36.8053612286269], [175.067441315344, -36.8053881490567], [175.067433617511, -36.805390027858], [175.067426342878, -36.8053918055631], [175.06742480958, -36.8053921810339], [175.067417537139, -36.8053939568978], [175.067398829883, -36.805398524678], [175.067361813676, -36.8054075505541], [175.06732899963, -36.8054084546842], [175.067283873197, -36.8054096936908], [175.067240959514, -36.8054053556793], [175.06720263702, -36.8053955660344], [175.067171620903, -36.8053828444648], [175.067158121585, -36.8053773036358], [175.06712978045, -36.8053774854987]]}, "properties": {"OBJECTID": 12560, "TRACKNAME": "Gully Link", "CONDITIONSOFUSE": "Onetangi Sports Park (Rangihoua)", "STATUS": "Open pending closure", "WEBLINK": "https://www.aucklandcouncil.govt.nz/en/parks-recreation/find-park-beach/park-detail/120.html", "VALIDATIONSTATE": 3, "created_user": "AC_owner", "last_edited_user": "AC_owner", "last_edited_date": 1789875254325, "created_date": 1789875254325, "PARK_SAPSITEID": null, "TRACK_ID": null, "KAURIDIEBACK_TRACK": null, "KAURIDIEBACK_MITIGATED": null, "SegmentID": null, "GlobalID": "09602c21-b5d5-4888-a9f8-f5b45d0494b9", "Shape__Length": 41.22717991345467}}, {"type": "Feature", "id": 12607, "geometry": {"type": "MultiLineString", "coordinates": [[[175.069848848123, -36.8090866629981], [175.069853654732, -36.8090940799622], [175.069864355734, -36.8090961550082], [175.069864468402, -36.8090961764803], [175.069875734226, -36.8090921290424], [175.069884733507, -36.8090796704372], [175.069884754677, -36.809079624102], [175.069884808148, -36.809079528534], [175.069896280057, -36.8090604915137], [175.0698963165, -36.8090604295904]], [[175.069848810902, -36.8090864878918], [175.069852212507, -36.8090635841955]], [[175.069852212507, -36.8090635841955], [175.069848979545, -36.8090857576025], [175.069850720702, -36.8090780310451], [175.069850728767, -36.8090779975564], [175.069852501776, -36.8090707877932], [175.069852546301, -36.8090705265409], [175.06985255271, -36.8090702650509], [175.069852234432, -36.809063773989], [175.069852224531, -36.8090636560905], [175.069852212507, -36.8090635841955]], [[175.0698963165, -36.8090604295904], [175.069902745138, -36.8090431685287], [175.069907551326, -36.8090369595745], [175.069907597168, -36.8090369137111], [175.069910691489, -36.8090339414067], [175.069910739815, -36.809033904513], [175.06991083101, -36.8090338362285]], [[175.069896407016, -36.8090603360813], [175.0698963165, -36.8090604295904]], [[175.06991083101, -36.8090338362285], [175.069914583356, -36.809031032727], [175.069914673431, -36.809030964462]], [[175.06991083101, -36.8090338362285], [175.069914711265, -36.8090308709689], [175.069916994377, -36.8090247888677], [175.069917014916, -36.8090247191096], [175.069917038093, -36.8090245808064], [175.069918188306, -36.8090153891022], [175.069918195789, -36.8090153339924], [175.069918204586, -36.80901528607]], [[175.069843095116, -36.8090253726067], [175.069843678218, -36.8090341222335], [175.069843683496, -36.8090341933447], [175.069843691038, -36.8090342653177]], [[175.069843095116, -36.8090253726067], [175.069844941557, -36.8090428248652], [175.069844980927, -36.8090429548689], [175.069846828396, -36.8090483746925], [175.069846869424, -36.8090484830359], [175.069846919512, -36.8090485948269], [175.069850332579, -36.8090555439433], [175.069850383909, -36.8090556602191], [175.069850407646, -36.8090557508376], [175.069852212507, -36.8090635841955]], [[175.069843095116, -36.8090253726067], [175.069843085531, -36.8090252664196], [175.069843077745, -36.8090251854378], [175.06984127478, -36.8090162569615], [175.069841244495, -36.8090161313062], [175.069841222703, -36.8090160712982], [175.069837673522, -36.8090078969745], [175.069837643742, -36.8090078316978], [175.069837627159, -36.8090077986383], [175.06983303541, -36.8089998272351], [175.069827538436, -36.8089902077849], [175.069827504222, -36.808990144388], [175.06982748114, -36.8089900780933], [175.069824268141, -36.8089798609671], [175.069824237197, -36.8089797524481], [175.069824227947, -36.8089797003335], [175.069822903529, -36.8089686878198], [175.069822898906, -36.8089686410325], [175.069822896815, -36.8089686050167], [175.069822905864, -36.808968483183], [175.069824055339, -36.8089578485036], [175.069824070621, -36.8089577499953], [175.069824100908, -36.8089576259892], [175.069827300991, -36.8089460524977], [175.069827339218, -36.8089459319586], [175.069827391816, -36.8089458039588], [175.069832756973, -36.8089337961951], [175.069832782261, -36.8089337362687], [175.069832806331, -36.8089336727583], [175.069836697353, -36.8089230741645], [175.069836723592, -36.8089230079124], [175.069836748855, -36.8089229470851], [175.069841302376, -36.8089128083382], [175.069841331903, -36.8089127393249], [175.06984135802, -36.8089126685684], [175.069846776192, -36.8088790294704], [175.069846777705, -36.8088790024049], [175.069846780217, -36.8088789708155], [175.069846280661, -36.808867413071], [175.069846276746, -36.8088673509492], [175.06984627176, -36.8088672906486], [175.069845024644, -36.8088560685877], [175.069845021529, -36.8088560361949], [175.069845019681, -36.8088560091879], [175.069844107214, -36.808844310819], [175.069844096849, -36.8088442172638], [175.069841670177, -36.8088323983475], [175.069839254803, -36.8088206242996], [175.06983924127, -36.80882053801], [175.069839230298, -36.8088204219327], [175.069838410442, -36.8088049617081], [175.069838412292, -36.8088047390536], [175.069838441128, -36.8088045195345], [175.069841066154, -36.8087909885072], [175.069841072149, -36.8087909613637], [175.069841086451, -36.8087909097403], [175.069841141168, -36.808790777197], [175.069846050112, -36.8087801013928], [175.069846115009, -36.8087799722775], [175.069846155958, -36.8087799111771], [175.069853357954, -36.808770473496], [175.069853402312, -36.8087704141388], [175.069853441117, -36.808770356681], [175.06985937956, -36.808761406975], [175.06985943437, -36.8087613194954], [175.069859492055, -36.8087612139397], [175.069863082757, -36.8087541149324], [175.069863124122, -36.8087540276869], [175.069863141839, -36.8087539363466], [175.0698647968, -36.8087442996224], [175.069864802552, -36.80874426347], [175.069864807135, -36.8087442255354], [175.069866143244, -36.8087328629568], [175.069867556069, -36.8087196874199], [175.069867564337, -36.8087195782181], [175.069867565786, -36.8087194655297], [175.069867403208, -36.8087093494129], [175.069867396572, -36.8087092278523], [175.069867379561, -36.8087090956567], [175.069862910142, -36.8086935124086], [175.069862876443, -36.8086934264701], [175.069862858356, -36.8086933375559], [175.069861618697, -36.8086860135078], [175.069859688721, -36.8086757397923], [175.069857619008, -36.8086643977599], [175.069857599562, -36.8086642583962], [175.069858506059, -36.8086494711297], [175.069858518198, -36.8086493807879], [175.069858557346, -36.8086492944823], [175.069860527172, -36.8086452313515], [175.069863341453, -36.8086393527103], [175.069863377629, -36.8086392808773], [175.069863420405, -36.8086392044229], [175.069868128736, -36.8086311522035], [175.069868155532, -36.8086311066717], [175.069868180281, -36.808631068386], [175.069874158619, -36.8086220188411], [175.069874188727, -36.808621971449], [175.069874219835, -36.808621919533], [175.069878912079, -36.808613727891], [175.069896853709, -36.8085853686866], [175.069892637146, -36.8085636080006], [175.069890812498, -36.8085592017477], [175.069890784207, -36.8085591085046], [175.069890711489, -36.808559030456], [175.069888100238, -36.8085563819241], [175.069887945404, -36.808556209767], [175.069887811516, -36.8085560246269], [175.069883799314, -36.8085498439404], [175.069883741821, -36.8085497485019], [175.069883722803, -36.8085497082743], [175.069880314483, -36.8085420605643], [175.069880296732, -36.8085420257225], [175.069876050786, -36.8085331172511], [175.069876031938, -36.8085330833297], [175.069875986134, -36.8085330057137], [175.069869454762, -36.8085215187461], [175.069869413148, -36.8085214302416], [175.069869416202, -36.8085213355514], [175.069869660725, -36.8085151816917], [175.069869667237, -36.8085150905466], [175.069869675036, -36.8085150471481], [175.06987098788, -36.8085083149765]], [[175.069917823958, -36.8090157199162], [175.069919791513, -36.8090068690939], [175.06992473417, -36.8089991931428], [175.069944681258, -36.8089788710956], [175.069944724496, -36.8089788117579], [175.069950527132, -36.8089706043835], [175.069950549786, -36.8089705715421], [175.069950568031, -36.8089705414813], [175.069954468165, -36.8089639859779], [175.069954489651, -36.8089639513542], [175.069959181582, -36.8089569963047], [175.069959201971, -36.8089569626014], [175.069964157014, -36.8089486230728], [175.069964185881, -36.8089485711958], [175.069964206027, -36.8089485284837], [175.069964249565, -36.8089483970364], [175.069967386199, -36.8089373401924], [175.069967398527, -36.8089372985178], [175.069967416118, -36.8089372441332], [175.069971148625, -36.8089265455468], [175.069971170552, -36.8089264856789], [175.069971196814, -36.8089264203276], [175.069975499177, -36.8089163625601], [175.069975528922, -36.8089163016547], [175.069975575938, -36.8089162161134], [175.069982065012, -36.8089051540697], [175.069987881752, -36.8088954313548], [175.069987929887, -36.8088953457939], [175.069987972494, -36.8088952630333], [175.069992948082, -36.8088848564542], [175.069992967205, -36.8088848173651], [175.069999147768, -36.8088727467249], [175.069999167939, -36.8088727049137], [175.070004278444, -36.8088609818826], [175.070004310454, -36.8088609218391], [175.070010228298, -36.8088501671714], [175.070015416723, -36.8088407131694], [175.070015429537, -36.8088406895123], [175.07002066243, -36.8088315132389], [175.070020705134, -36.8088314340818], [175.070020742284, -36.808831356824], [175.070025301987, -36.8088214486966], [175.070025315727, -36.808821417813], [175.070025327348, -36.8088213914728], [175.070029493458, -36.8088115190408], [175.07002950715, -36.8088114863554], [175.070029518794, -36.8088114609161], [175.070034535634, -36.8088005470838], [175.070039002937, -36.8087907874775], [175.070039056557, -36.8087906558546], [175.070039066766, -36.8087906187234], [175.070039079657, -36.8087905563089], [175.070040647795, -36.8087816087898], [175.070040649895, -36.8087815618855], [175.070040654094, -36.8087814680767]], [[175.06992342765, -36.8090008742933], [175.069923478123, -36.809000792297], [175.069923546863, -36.809000722601]], [[175.069986351305, -36.8089834415603], [175.069998243519, -36.8090054002629], [175.069998343959, -36.8090054255531], [175.070013304936, -36.8090089793533], [175.070013414339, -36.8090090044874], [175.070013523529, -36.8090089800534], [175.070030233263, -36.8090050901691], [175.070030342428, -36.8090050648343], [175.070030431624, -36.8090050055975], [175.070043668128, -36.8089961784586], [175.070043783243, -36.8089960827183], [175.070057075376, -36.8089843686318], [175.070057113667, -36.8089843337155], [175.070069068886, -36.8089730890542], [175.070080592917, -36.808962232251], [175.070080635543, -36.8089621918513], [175.070080664992, -36.8089621615954], [175.070091398787, -36.8089511797515], [175.07009144782, -36.8089511275232], [175.070091478244, -36.8089510918425], [175.07010107016, -36.8089394557066], [175.070101096248, -36.8089394255093], [175.070111645266, -36.8089273265596], [175.07012119679, -36.8089166879684], [175.070121222854, -36.8089166568702], [175.070129250546, -36.8089068722124], [175.070138807287, -36.8088951790026], [175.070147917698, -36.8088838108239], [175.070147938306, -36.8088837852285], [175.070147986243, -36.8088837339206], [175.070157935218, -36.8088733281521], [175.070158001789, -36.8088732611976], [175.070158052112, -36.808873215256], [175.070179880561, -36.8088557454831], [175.070180015208, -36.8088556674287], [175.070192188976, -36.808849042642], [175.070192219886, -36.8088490249789], [175.070203080855, -36.8088428908304], [175.070203179039, -36.8088428323384], [175.070203272693, -36.8088427721226], [175.070214086407, -36.8088354661988], [175.070214157896, -36.8088354153821], [175.070214219059, -36.8088353557321], [175.070223914815, -36.8088254536908], [175.070223961705, -36.8088254051051], [175.070224021238, -36.8088253265561], [175.070231007895, -36.8088158024725], [175.070237928854, -36.8088061281133], [175.070237963395, -36.8088060788413], [175.070237984953, -36.8088060469202], [175.070243484875, -36.8087973806319], [175.070243502097, -36.8087973541941], [175.070247249131, -36.8087911916126], [175.070247268448, -36.8087911597305], [175.070247285549, -36.8087911287883], [175.070250698633, -36.8087850522386], [175.070250723285, -36.8087850103493], [175.070253796997, -36.8087799005005], [175.070253832562, -36.8087798476055], [175.0702576032, -36.8087746030419], [175.070257663805, -36.8087745226716], [175.070257697517, -36.8087744842297], [175.070264599004, -36.8087672914998], [175.070264626261, -36.8087672630847], [175.070273220583, -36.808757917399], [175.070273253296, -36.808757883481], [175.070273290369, -36.8087578449806], [175.070282556045, -36.8087485804367], [175.070291421141, -36.8087397996585], [175.070291448422, -36.8087397721442], [175.070300805661, -36.8087301202459], [175.070300828582, -36.8087300973141], [175.070309658757, -36.8087212270124], [175.070309715535, -36.808721171044], [175.070309763691, -36.808721127844], [175.070319018455, -36.8087129982298], [175.070329359294, -36.8087040340191]], [[175.070652545556, -36.8089009902779], [175.070652520697, -36.8089008996791], [175.070648352246, -36.808890378355], [175.070645362148, -36.8088778293], [175.070645323671, -36.8088777740894], [175.07064528858, -36.808877719721], [175.070632958609, -36.8088577831259], [175.070632914385, -36.8088577226075], [175.070625205752, -36.8088468528538], [175.070603982745, -36.8088247142475], [175.070603947042, -36.8088246788172], [175.070603910172, -36.8088246416046], [175.070582341136, -36.8088039709374], [175.070578800651, -36.8087849709161]], [[175.070084365998, -36.8088854114453], [175.070084321224, -36.8088854969476], [175.07008425604, -36.8088855737923], [175.070075948397, -36.8088949108672], [175.070075855738, -36.808895008019], [175.070075825096, -36.8088950355918], [175.070075776794, -36.8088950733864], [175.070062596303, -36.8089051054989], [175.070062531439, -36.808905152595], [175.070062459635, -36.8089051917002], [175.070047504309, -36.8089129176348], [175.07004744237, -36.8089129484565], [175.070047382598, -36.8089129765364], [175.070032600996, -36.8089197864225], [175.070032524637, -36.8089198229031], [175.07003246825, -36.8089198518254], [175.06999982753, -36.808944434573], [175.069999753286, -36.8089445079702], [175.069999706295, -36.8089445944124], [175.069987938149, -36.8089696528093], [175.069987913876, -36.8089697920328], [175.069986190514, -36.8089829234062], [175.069986177566, -36.8089830669391], [175.069986195625, -36.8089831964125]], [[175.070084365998, -36.8088854114453], [175.070097034893, -36.8088613369002]], [[175.070097034893, -36.8088613369002], [175.070089298091, -36.8088753048529], [175.07008927144, -36.80887535579], [175.070089249053, -36.8088753985412], [175.070084365998, -36.8088854114453]], [[175.070097034893, -36.8088613369002], [175.070097067974, -36.8088612750354], [175.070097086147, -36.808861242272], [175.070105458323, -36.8088488495505], [175.070105533958, -36.8088487445834], [175.070105617508, -36.8088486421823], [175.070113226887, -36.8088398066736], [175.070113321253, -36.8088396896633], [175.070113405414, -36.8088395683241], [175.070118944233, -36.8088310554871], [175.070119020454, -36.808830930681], [175.070119057556, -36.8088308516214], [175.070123521883, -36.808819858178], [175.070123551239, -36.8088197828584], [175.070123576138, -36.8088197085179], [175.070127659093, -36.8088066658398], [175.070131830168, -36.8087933575447], [175.070131850949, -36.8087932967953], [175.070131870805, -36.8087932432726], [175.07013551811, -36.8087837521106], [175.070135539134, -36.8087837003701], [175.07013556447, -36.8087836422454], [175.070138975442, -36.8087761551938], [175.070143440529, -36.8087667300064], [175.070143495318, -36.8087666001657], [175.070143503431, -36.8087665684788], [175.070143520245, -36.8087664852659], [175.070144827837, -36.8087582687345], [175.070144841072, -36.8087581774722], [175.070146681801, -36.8087474072735]], [[175.070578800651, -36.8087849709161], [175.070582241003, -36.808803790618], [175.070582260527, -36.8088038912241]], [[175.070578800651, -36.8087849709161], [175.070578783489, -36.8087848747755], [175.070578859973, -36.8087848013389], [175.070601158122, -36.8087642588732], [175.070601206229, -36.8087642138713], [175.070601255335, -36.8087641643455], [175.070618831114, -36.8087460745633], [175.070618881218, -36.8087460205136], [175.070618921337, -36.808745970243], [175.070635290471, -36.8087246558786], [175.070635353171, -36.8087245700638], [175.070635284813, -36.8087244874332], [175.070607873051, -36.8086926405181], [175.070582624945, -36.8087027882479], [175.070582504088, -36.8087028372209], [175.070582401835, -36.8087029111063], [175.070566200484, -36.808715308639], [175.070566156519, -36.8087153409504], [175.070566132332, -36.8087153584965], [175.07055167883, -36.808724774712], [175.070551582936, -36.8087248349671], [175.070551481367, -36.8087248926171], [175.070541492128, -36.8087303058917], [175.070541356362, -36.8087303839661], [175.070541312373, -36.8087304153766], [175.070541272841, -36.8087304458083], [175.070528745349, -36.8087406648847], [175.070528655299, -36.808740734051], [175.070528549104, -36.8087407863738], [175.070510833946, -36.8087490426338], [175.070510718909, -36.808749099617], [175.070510623549, -36.8087491796915], [175.070495593828, -36.8087620885775], [175.07049549194, -36.808762175976], [175.070495440399, -36.8087622183338], [175.07047799977, -36.808773217885], [175.070477966718, -36.8087732391907], [175.070462788351, -36.8087830853248], [175.070462687122, -36.808783155587], [175.070462613097, -36.8087832370925], [175.070452116302, -36.808795565897], [175.070441323582, -36.8088078944468], [175.07044122118, -36.8088080043869], [175.070441116221, -36.8088081026546], [175.0704287632, -36.8088189324704], [175.070428649158, -36.8088190263897], [175.070428586438, -36.8088190698434], [175.070414090026, -36.8088280595715], [175.070395998372, -36.8088338248571], [175.07039587944, -36.8088338620794], [175.0703957515, -36.8088338561959], [175.07037303464, -36.808832323954], [175.070372914446, -36.8088323143304], [175.070372807773, -36.8088322657152], [175.070360109472, -36.8088266157754], [175.070346513699, -36.808811075226], [175.070354104604, -36.8087855758034]], [[175.070354183924, -36.8087853995688], [175.070374735965, -36.8087723954227], [175.070390243769, -36.8087833510798], [175.070398126548, -36.8087681052199], [175.070398147669, -36.8087680570829], [175.07040156274, -36.8087599741904], [175.070401584981, -36.8087599260338], [175.070404677867, -36.808753406207], [175.070404691631, -36.8087533762242], [175.070407851621, -36.8087470589234], [175.070407866505, -36.8087470289211], [175.070411115751, -36.808740779466], [175.070411140209, -36.8087407303696], [175.070414643576, -36.8087325549072], [175.070414656293, -36.8087325276465], [175.070414678631, -36.8087324830936], [175.070420317745, -36.8087218278977], [175.070420356185, -36.8087217569264], [175.070420399131, -36.808721686778], [175.070427392259, -36.8087106564904], [175.070433137762, -36.8087019120093], [175.070433177566, -36.8087018500273], [175.070433216079, -36.8087017817587], [175.070437672348, -36.8086936951516], [175.070437704357, -36.808693635108], [175.070437719192, -36.8086936033039], [175.070441724575, -36.8086839247341], [175.070441740361, -36.8086838866043], [175.070445223689, -36.8086760909392], [175.070445250193, -36.8086760345967], [175.070445289681, -36.8086759609033], [175.070448182525, -36.8086707117937], [175.070452599622, -36.8086626691309], [175.070452624153, -36.8086626227371], [175.07045264654, -36.8086625799859], [175.070458991824, -36.8086495537747], [175.07045900873, -36.8086495156254], [175.070463984308, -36.8086376552232], [175.070464768502, -36.8086277776873], [175.070464775746, -36.8086276721085], [175.070464750548, -36.8086275688973], [175.070461873308, -36.8086172522051], [175.070461841461, -36.8086171518137], [175.070453887551, -36.8086059546398], [175.070435329368, -36.8085996001016], [175.070420671111, -36.8085996255695], [175.070411621137, -36.808600251869]], [[175.070040654094, -36.8087814680767], [175.070040904688, -36.8087713366539], [175.070040905812, -36.8087712951743], [175.070040908252, -36.8087712608823], [175.070041574196, -36.8087612357911]], [[175.070040654094, -36.8087814680767], [175.070041606704, -36.808761069385], [175.070045738302, -36.8087494994955], [175.070045768634, -36.8087494187512], [175.070045784541, -36.8087493851259], [175.070050523935, -36.8087404058175], [175.07005054413, -36.8087403649071], [175.070050559014, -36.8087403349048]], [[175.070041574196, -36.8087612357911], [175.070040654094, -36.8087814680767]], [[175.070041574196, -36.8087612357911], [175.070041578686, -36.8087611527929]], [[175.070146681801, -36.8087474072735], [175.0701466125, -36.8087474977095]], [[175.070146681801, -36.8087474072735], [175.07014480177, -36.8087580916314]], [[175.070148191685, -36.8087428311938], [175.070148191871, -36.8087429213211], [175.070148165046, -36.8087430074121], [175.07014672156, -36.8087473020298], [175.070146681801, -36.8087474072735]], [[175.070148191685, -36.8087428311938], [175.070148360418, -36.8087373600402], [175.070148361324, -36.8087373104527], [175.070148357385, -36.80873724743], [175.070147692087, -36.8087300666048], [175.07014768873, -36.8087300252033], [175.070146941508, -36.8087182212107]], [[175.070050559014, -36.8087403349048], [175.070054037856, -36.8087322878648], [175.070061250689, -36.8087230455658], [175.070061281016, -36.8087230062816], [175.07006851546, -36.80871319308], [175.070068570706, -36.8087131218162], [175.07006862522, -36.808713064986], [175.070077819945, -36.8087037872724], [175.070077871268, -36.8087037368069], [175.070077896429, -36.8087037138361], [175.070088093197, -36.8086951009598], [175.070088174968, -36.8086950157145], [175.070094792822, -36.808687779263], [175.070094823222, -36.8086877426814], [175.07009947411, -36.8086819699517], [175.070099496934, -36.8086819434164], [175.070099554736, -36.808681883825]], [[175.070053982659, -36.8087323609304], [175.070053947822, -36.8087324408518], [175.070050559014, -36.8087403349048]], [[175.070146941508, -36.8087182212107], [175.070148191685, -36.8087428311938]], [[175.070329395979, -36.8087039811046], [175.070334519555, -36.8086973646241], [175.070338049695, -36.8086874780213], [175.07033962921, -36.8086769151627], [175.070339634767, -36.8086768718033], [175.070339639233, -36.8086767879042], [175.070340056075, -36.8086643408382], [175.070340640616, -36.8086515447506], [175.070340644349, -36.8086514752851], [175.070340651148, -36.8086514364106], [175.070342970629, -36.8086389661223], [175.070342993559, -36.8086388602703], [175.070343053799, -36.8086387663867]], [[175.070100756134, -36.8086813356405], [175.07010765039, -36.8086737077153], [175.070116429527, -36.8086663128509], [175.070126904531, -36.8086612057076], [175.070139142066, -36.8086602787654], [175.070150937242, -36.80866710714], [175.070156769695, -36.8086770713407], [175.070156827164, -36.8086771658782], [175.070156827787, -36.8086772722213], [175.070156742808, -36.8086861443415], [175.070156740263, -36.8086862579502], [175.070156700625, -36.8086863676983], [175.070153223512, -36.8086950194865], [175.070149155137, -36.8087048992337], [175.070149120616, -36.8087049908667], [175.070149097857, -36.8087051030247], [175.070146947903, -36.808718084101], [175.070146938543, -36.8087181527632], [175.070146941508, -36.8087182212107]], [[175.070343053799, -36.8086387663867], [175.07035716013, -36.8086197068756]], [[175.070343053799, -36.8086387663867], [175.070357239781, -36.8086196261736], [175.070357341204, -36.8086195631185], [175.070369061608, -36.8086125045708]], [[175.070369061608, -36.8086125045708], [175.070369144494, -36.8086124607659], [175.07036929078, -36.808612398732], [175.070397441452, -36.8086028972032]], [[175.070397441452, -36.8086028972032], [175.070369061608, -36.8086125045708]], [[175.070397441452, -36.8086028972032], [175.070397555927, -36.8086028609598], [175.070397675486, -36.8086028886206], [175.070403933423, -36.808601100498], [175.070411318931, -36.8086000182867]], [[175.069580469402, -36.8085994892329], [175.069580492187, -36.8085993779758], [175.069580523517, -36.8085992927077], [175.069584246478, -36.8085900697344], [175.069584260121, -36.8085900352474], [175.069584273667, -36.8085899971567], [175.069588938632, -36.8085769614877], [175.069588955393, -36.8085769179333], [175.069588970059, -36.8085768798232], [175.069593965778, -36.8085646802143], [175.069593982612, -36.8085646393625], [175.069593999592, -36.808564603916], [175.069598446716, -36.8085549257941], [175.069598514877, -36.808554793017], [175.069598589979, -36.8085546682307], [175.069604442234, -36.8085458056615], [175.069604459456, -36.8085457792238], [175.069604476727, -36.8085457545879], [175.069612825321, -36.8085338580281], [175.06961284152, -36.8085338352135], [175.069626294548, -36.8085117371454], [175.069626334157, -36.8085116679566], [175.069626353334, -36.8085115892093], [175.069628012887, -36.8085038703842], [175.069630276549, -36.8084747116198], [175.069630275122, -36.8084746170076], [175.069630242423, -36.8084745265451], [175.069621653233, -36.8084373999215]], [[175.069581316818, -36.808598949019], [175.06957916819, -36.808607403711], [175.069583280414, -36.8086168003246], [175.06959445279, -36.8086186923365], [175.069606592161, -36.8086152020448], [175.06961736578, -36.80861044396], [175.069617457974, -36.8086103711519], [175.069623398593, -36.8086055394808], [175.069623497635, -36.8086054295999], [175.069630180532, -36.8085975268784], [175.069630281766, -36.8085974151567], [175.069630397613, -36.8085973049832], [175.069636950394, -36.8085914802315], [175.069637079783, -36.8085913734274], [175.069637185688, -36.8085913102949], [175.06964165546, -36.8085888007551], [175.069641848927, -36.8085887009472], [175.069642051746, -36.8085886153973], [175.069649939713, -36.8085855875815], [175.069650138099, -36.8085855039114], [175.069650322749, -36.8085854096648], [175.069659993922, -36.808580046166], [175.069660114197, -36.8085799755728], [175.069660169196, -36.8085799367604], [175.069669099455, -36.808572907931], [175.069669167462, -36.8085728526687], [175.069669223315, -36.8085728039271], [175.069677078651, -36.8085656505046], [175.069677130022, -36.8085656018411], [175.069677182441, -36.8085655504553], [175.069684002108, -36.8085585646805], [175.069684022837, -36.8085585435896], [175.069690922177, -36.8085512698122], [175.06969095377, -36.8085512359139], [175.069691010112, -36.8085511637299], [175.069697799509, -36.8085420964673], [175.069697835243, -36.8085420498786], [175.069697865619, -36.8085420123963], [175.069704938483, -36.8085334404221], [175.069704959091, -36.8085334148268], [175.069704977506, -36.8085333910722], [175.069711896426, -36.8085245135317], [175.069711915938, -36.8085244888567], [175.069711937569, -36.8085244596384], [175.069719154828, -36.8085145899744], [175.069719210001, -36.8085145160081], [175.069719267561, -36.8085144474081], [175.0697269497, -36.8085056494128], [175.069727002948, -36.808505587197], [175.069727056002, -36.8085055177741], [175.069733457677, -36.808496870959], [175.069737419056, -36.8084915077235], [175.069737482925, -36.8084914236914], [175.069737568542, -36.8084913564055]], [[175.069737568542, -36.8084913564055], [175.069757143966, -36.8084789633291], [175.069757261992, -36.808478975695]], [[175.069757261992, -36.808478975695], [175.069737568542, -36.8084913564055]], [[175.069757261992, -36.808478975695], [175.069757357983, -36.8084789190441], [175.069772338695, -36.8084701814404], [175.069772376205, -36.808470159156], [175.069780241036, -36.8084653570655], [175.069780312695, -36.8084653125552], [175.069780372006, -36.8084652673586], [175.069788211796, -36.8084591191543], [175.069788241415, -36.8084590952047], [175.069788273178, -36.8084590676125], [175.06978835602, -36.8084589805461], [175.069808817738, -36.808432298968], [175.069808891375, -36.8084322030489], [175.069808949569, -36.8084321164117], [175.069825793765, -36.8084020061631], [175.069825814474, -36.8084019427112], [175.069825851605, -36.8084018230924]], [[175.06921707994, -36.8084654865296], [175.069227695177, -36.8084620480433], [175.069227859069, -36.8084620154474], [175.069231977851, -36.8084612903069]], [[175.069231977851, -36.8084612903069], [175.06921707994, -36.8084654865296]], [[175.069231977851, -36.8084612903069], [175.069232182003, -36.8084612543063]], [[175.069231977851, -36.8084612903069], [175.069246053611, -36.8084573238053]], [[175.069232182003, -36.8084612543063], [175.06921707994, -36.8084654865296]], [[175.069232182003, -36.8084612543063], [175.069238005417, -36.808460229102], [175.069238168165, -36.8084601956247], [175.069238216001, -36.8084601821738], [175.069238280424, -36.8084601603224], [175.069245853494, -36.8084574264322]], [[175.069245853494, -36.8084574264322], [175.069232182003, -36.8084612543063]], [[175.069245853494, -36.8084574264322], [175.069245965753, -36.8084573911298], [175.069246053611, -36.8084573238053]], [[175.069246053611, -36.8084573238053], [175.069253770822, -36.8084513255834], [175.06925384107, -36.8084512702823], [175.069253881674, -36.8084512380299]], [[175.06920213824, -36.8084541080641], [175.069216876185, -36.8084654540241], [175.069216966513, -36.8084655200497], [175.06921707994, -36.8084654865296]], [[175.069253881674, -36.8084512380299], [175.069263317776, -36.8084424717227]], [[175.069253881674, -36.8084512380299], [175.069271949462, -36.8084345522231], [175.069272001003, -36.8084345098659], [175.069281370277, -36.80842696689], [175.069281421794, -36.8084269236319], [175.06928144586, -36.8084269015816], [175.069291682979, -36.8084171208805], [175.069291733352, -36.8084170767411], [175.069291817873, -36.8084170103758], [175.069303093824, -36.8084085536334], [175.069303132309, -36.8084085259243], [175.06930317301, -36.8084084972754], [175.069313098114, -36.8084016575536], [175.069313127806, -36.8084016363067], [175.06932925288, -36.8083898558616], [175.069329290269, -36.8083898290729], [175.069334474368, -36.8083864157195], [175.06933456583, -36.8083863573451], [175.069334677211, -36.808386331071], [175.069345624478, -36.8083839016637], [175.069345673531, -36.8083838917967], [175.069345712574, -36.808383884808], [175.069345835474, -36.8083838700503], [175.06936149218, -36.808382296018], [175.069361553679, -36.8083822904409], [175.069361604022, -36.8083822868606], [175.069376883005, -36.8083812962366], [175.069377057441, -36.8083812805818], [175.069377200313, -36.808381258266]], [[175.069892382554, -36.8084332414119], [175.069892378004, -36.8084331973272], [175.069891293243, -36.8084233838822]], [[175.069621653233, -36.8084373999215], [175.069621644309, -36.8084374847995]], [[175.069891293243, -36.8084233838822], [175.06989329515, -36.8084448613653], [175.069893282081, -36.8084450003938], [175.069891791928, -36.8084563863854], [175.069890636496, -36.8084649679976], [175.069890612126, -36.8084651036176], [175.069890592708, -36.8084651733562], [175.069887119616, -36.8084745163679], [175.069887097641, -36.808474574434], [175.06988707652, -36.8084746225709], [175.069883242301, -36.8084833337468], [175.069883225297, -36.8084833682924], [175.069879738795, -36.8084902987447], [175.069879717553, -36.8084903423772], [175.069875295235, -36.8084998163823], [175.069875280375, -36.8084998472854], [175.069875264418, -36.8084998791089], [175.069873490648, -36.808503355682], [175.069872956152, -36.8085044023905], [175.069871045012, -36.8085081472403], [175.069871006838, -36.8085082281211]], [[175.069891293243, -36.8084233838822], [175.069891287112, -36.8084233227002], [175.069891284168, -36.8084232966137], [175.069889043345, -36.8084132590448], [175.069889027718, -36.8084131781995], [175.069889036762, -36.8084130978259], [175.069893108614, -36.8083909846174], [175.069893135075, -36.8083908850131], [175.069893207858, -36.8083907990232], [175.069900508901, -36.808382668309], [175.069908219252, -36.8083741699456], [175.069908307575, -36.8083740782772], [175.069918395037, -36.8083656944474], [175.069918443193, -36.8083656512476], [175.069918526059, -36.808365565082], [175.069927386888, -36.8083559182511], [175.069927411928, -36.8083558907759], [175.069927443399, -36.8083558523731], [175.069937097593, -36.8083437834408], [175.069937136616, -36.8083437340908], [175.069937173374, -36.808343683879], [175.069943298963, -36.8083350670969], [175.069943414062, -36.8083348875356], [175.069943508727, -36.8083346984159], [175.069956560223, -36.8083102648123], [175.069956415037, -36.8082972570067], [175.069946556288, -36.808293530532], [175.069946440775, -36.8082934865769], [175.069928384645, -36.8082964472128], [175.069909776953, -36.8083045657027], [175.0698849327, -36.8083210514375]], [[175.069825851605, -36.8084018230924], [175.069829401877, -36.8083904760394], [175.069829432917, -36.8083903799607]], [[175.069825851605, -36.8084018230924], [175.069829491087, -36.8083902924226], [175.069837124212, -36.8083793005967], [175.06983714253, -36.8083792732386], [175.069844105375, -36.8083679487848], [175.069850693452, -36.8083585244972], [175.069850713671, -36.8083584844877], [175.069850753038, -36.80835840629], [175.069866687033, -36.8083400748121], [175.069866810596, -36.8083400014576], [175.069866925124, -36.8083399255564], [175.069885647168, -36.8083210687401]], [[175.069212102009, -36.8083991154673], [175.069188133068, -36.8084231405594], [175.069187112841, -36.8084403281748], [175.069202047913, -36.8084540420386]], [[175.069234396738, -36.8083853060602], [175.069234469813, -36.8083852308812], [175.069242368005, -36.8083768789069], [175.069234303133, -36.808385368077], [175.069224006253, -36.8083918465313], [175.069212578064, -36.8083991035756], [175.069212524088, -36.8083991387647], [175.069212482266, -36.8083991674331]], [[175.069377200313, -36.808381258266], [175.069390163121, -36.8083788361294], [175.069390301391, -36.8083788093872], [175.069390424344, -36.8083787549711], [175.069397654062, -36.8083753420569], [175.069397761403, -36.8083752906165], [175.069377200313, -36.808381258266]], [[175.069377200313, -36.808381258266], [175.069397822935, -36.8083752030201], [175.06942188267, -36.8083380253676], [175.069421903059, -36.8083379916644], [175.069421947393, -36.8083379314065], [175.069433033643, -36.8083233040165], [175.069433049866, -36.8083232821028], [175.069433070401, -36.8083232538048], [175.06944174544, -36.8083111172345], [175.069441768142, -36.808311086195], [175.069441789773, -36.8083110569766], [175.069449874425, -36.8083005142761], [175.06944990368, -36.8083004768133], [175.069489370727, -36.8082401008319], [175.069489398571, -36.808240052578], [175.069495541853, -36.8082290939204], [175.069495578174, -36.8082290274928], [175.069495607919, -36.8082289665876], [175.069500356896, -36.8082188848374], [175.069505413307, -36.8082083984568], [175.069505476231, -36.8082082792904], [175.069505547724, -36.808208187014], [175.069512539252, -36.8081996750518], [175.069512594668, -36.8081996100944], [175.069512663747, -36.8081995530109], [175.069522671268, -36.8081916546067], [175.069522735962, -36.8081916012047], [175.069522791815, -36.8081915524632], [175.069532527905, -36.8081826484209], [175.06953255085, -36.8081826263901], [175.069567460813, -36.8081455824814], [175.069567495646, -36.8081455440202], [175.069567524023, -36.8081455155857], [175.069575154617, -36.8081377595045], [175.069575205842, -36.8081377054356], [175.069575239554, -36.8081376669939], [175.069581666653, -36.8081298399315], [175.069581720803, -36.8081297695883], [175.069581739121, -36.8081297422303], [175.069581801875, -36.8081296167577], [175.069585502473, -36.808121354063], [175.069585518381, -36.8081213204378], [175.069585541792, -36.8081212740637], [175.069590193919, -36.8081122584371], [175.069590210947, -36.8081122247923], [175.069590226976, -36.8081121956716], [175.069606876897, -36.8080824457513]], [[175.069324709134, -36.8082031809922], [175.069324759268, -36.8082030863838]], [[175.069324759268, -36.8082030863838], [175.069314867203, -36.8082404211804], [175.069314864642, -36.808240450968], [175.069314287428, -36.8082483212953], [175.069314275798, -36.8082484305556], [175.069314231508, -36.8082485340753], [175.069311282907, -36.8082550035945], [175.069311259569, -36.8082550526712], [175.069311232967, -36.8082551054099], [175.069306734984, -36.8082635613364], [175.069300461679, -36.8082750206696], [175.069300442434, -36.8082750552541], [175.069294799013, -36.8082847641041], [175.069294750925, -36.8082848514664], [175.069268822873, -36.8083209971749], [175.069268777637, -36.8083210655602], [175.06926871854, -36.8083211603246], [175.069242480986, -36.8083767038897]], [[175.069174325194, -36.8081600890272], [175.069174317585, -36.8081601810927]], [[175.069174325194, -36.8081600890272], [175.069164497799, -36.8081755957868], [175.069152944955, -36.8082224403046], [175.069132115017, -36.8082424035465], [175.069131975938, -36.8082424834795], [175.069131914337, -36.808242526913], [175.069124176733, -36.8082486832103], [175.069115684891, -36.8082554267664], [175.069115625507, -36.80825546926], [175.069115499726, -36.8082555435537], [175.069105872984, -36.8082608503541], [175.069105821079, -36.808260879198], [175.069105763718, -36.8082609135447], [175.06909442289, -36.808267834673], [175.069085276244, -36.8082735296896], [175.069085200152, -36.8082735760793], [175.069085158161, -36.8082735984414], [175.06906533514, -36.8082877469531], [175.06906524896, -36.8082878349783], [175.069065199097, -36.8082878980362], [175.069062036246, -36.8082922387913], [175.06906198212, -36.8082923100351], [175.069061921344, -36.8082923840986], [175.069060745082, -36.8082937412069], [175.069060637247, -36.8082938575495], [175.069060529023, -36.808293959478], [175.069057618557, -36.8082965166643], [175.06905754312, -36.8082965873778], [175.069057516634, -36.808296686081], [175.069051430914, -36.8083220276393], [175.06905142185, -36.8083220656519], [175.069051410544, -36.8083221037035], [175.069048163353, -36.8083335130575], [175.069048151999, -36.8083335493074], [175.069048140646, -36.8083335855572], [175.069044866584, -36.8083433721288], [175.069044812443, -36.808343567753], [175.069044780758, -36.8083437647889], [175.069043639793, -36.8083544696167], [175.069043633667, -36.808354575176], [175.06904365333, -36.8083547226478], [175.069048556411, -36.8083621055209], [175.069064754693, -36.8083644941519], [175.069078496617, -36.8083551635064], [175.069078576463, -36.8083550900122], [175.069078616563, -36.8083549973812], [175.0690822356, -36.8083457843433], [175.069082265907, -36.8083457026983], [175.069082291685, -36.8083456193296], [175.069085284959, -36.8083353121836], [175.069094266608, -36.8083165339935], [175.069116242477, -36.8082959595564], [175.069170770051, -36.8082537415041], [175.069229067333, -36.8082102419491], [175.069253929361, -36.808188583452], [175.069263093527, -36.8081759624911], [175.069274001376, -36.8081650335708], [175.069279683322, -36.808152967139], [175.06927973916, -36.8081528345765], [175.069279784769, -36.8081526967842], [175.069283669122, -36.8081392258644], [175.0692836834, -36.8081391733402], [175.069283695559, -36.8081391253594], [175.069286100025, -36.8081286400852], [175.069286117228, -36.8081285712866], [175.069286149068, -36.8081285049371], [175.069298244469, -36.8080953219546], [175.069298266134, -36.808095210717], [175.069298249633, -36.8080950974398], [175.069296757976, -36.8080854884565], [175.06929672825, -36.8080853835213], [175.069293759231, -36.8080758561356], [175.069293744404, -36.8080758050193], [175.069293730722, -36.8080757547844]], [[175.068805488851, -36.8081049205298], [175.068804674513, -36.8081123533427], [175.06880466327, -36.8081124770171]], [[175.068805488851, -36.8081049205298], [175.06880507277, -36.8081217362066], [175.06880508296, -36.8081218649158], [175.068805101894, -36.8081219853612], [175.068806570498, -36.808129574027], [175.068806589631, -36.8081296602193], [175.068806613318, -36.8081297490362], [175.068809177697, -36.8081442758048], [175.068809188061, -36.8081443693601], [175.06880919731, -36.8081444214749], [175.068807939719, -36.8081661612044], [175.068813053448, -36.8081763326647], [175.068822747868, -36.808176871475], [175.068857015277, -36.808158585194], [175.068866626473, -36.8081396662759], [175.068896859478, -36.8081186191981], [175.068907683292, -36.8081120622008], [175.068907884493, -36.8081032132927], [175.068893114441, -36.8080939183196], [175.068883740334, -36.8080562239539], [175.068887010762, -36.808046968318], [175.068892904125, -36.8080206837443], [175.068899896102, -36.8079862430691], [175.068904507777, -36.807961396751], [175.068907129587, -36.8079443678323], [175.068899956047, -36.8079276716257], [175.068899626939, -36.8079196088716], [175.068899630552, -36.8079195349017], [175.068900293616, -36.8079075233879], [175.06890029852, -36.8079074557046], [175.068900305761, -36.807907391586], [175.068901888303, -36.8078950603298], [175.068901893716, -36.8078950115651], [175.06890314482, -36.807881943402], [175.068903150451, -36.8078819027453], [175.06890547634, -36.8078685797347], [175.068905498175, -36.8078684748034], [175.068905528458, -36.8078683922576], [175.068910839367, -36.8078550740781], [175.068910858296, -36.8078550277821], [175.068910873108, -36.8078549950774]], [[175.069605691563, -36.8080824663878], [175.06961686697, -36.8080525449902], [175.069629391483, -36.8080392174603], [175.069639411404, -36.8080321137815], [175.069639499479, -36.8080320545646], [175.069639614856, -36.8080320101945], [175.069675353909, -36.8080169364472], [175.069675457839, -36.8080168832633]], [[175.069293516496, -36.808075499839], [175.069278740315, -36.8079648469795], [175.06927874208, -36.8079647460026]], [[175.068722348557, -36.8080434004328], [175.068722683689, -36.8080532701991], [175.068722684513, -36.8080533008291], [175.068722686701, -36.8080533404485], [175.06872343836, -36.808063610356], [175.06872435778, -36.8080754906799], [175.068724359603, -36.808075516786], [175.068724943678, -36.8080851406704], [175.068724948446, -36.8080851928631], [175.068724953237, -36.8080852459567], [175.06872577898, -36.8080921463983], [175.068725783601, -36.8080921931858], [175.068725788417, -36.8080922471802], [175.068726115085, -36.8080973879467], [175.068726118485, -36.8080974726102], [175.068726101694, -36.8080975567237], [175.068724709041, -36.8081038675613], [175.068724693908, -36.8081039300147], [175.068724675197, -36.8081039844186], [175.068720869051, -36.8081146175539], [175.068720835528, -36.8081147046625], [175.068720808828, -36.8081147537976], [175.068715253621, -36.8081249522972], [175.068715229138, -36.8081250004924], [175.068715194494, -36.8081250876206], [175.068711864211, -36.8081356601987], [175.068712330403, -36.808149733173], [175.068721746416, -36.8081599180955], [175.068740626528, -36.8081570451509], [175.068749499766, -36.8081530187275], [175.068749588328, -36.8081529775289], [175.068749673455, -36.8081529336861], [175.068763408845, -36.8081406532194], [175.068770184418, -36.8081197836608], [175.068770206423, -36.8081196850356], [175.068770220683, -36.8081195901504], [175.068771706415, -36.8081082421019], [175.068771715412, -36.8081081599265], [175.068771720878, -36.8081080715035], [175.068772133716, -36.8080962157643], [175.068772139352, -36.8080961336474], [175.068772157069, -36.8080960423073], [175.068774811505, -36.8080846387691], [175.068774819619, -36.8080846070822], [175.068774828757, -36.8080845717723], [175.068776315706, -36.8080790993094], [175.068791261636, -36.8080512439533], [175.068813371328, -36.8080359326659], [175.068831663132, -36.80802586221], [175.068840726724, -36.8080131673215], [175.068832312358, -36.8079948045613], [175.068836170156, -36.8079818018943], [175.06883110162, -36.8079740586649], [175.068841267527, -36.8079667127647], [175.068853950887, -36.8079619891113], [175.068866222996, -36.8079673474004], [175.068875519532, -36.8079817137413], [175.068873830819, -36.8080005948252], [175.068869273563, -36.8080162613055], [175.068859656024, -36.8080212849161], [175.068853529265, -36.8080327353672], [175.068842831995, -36.8080494073051], [175.068824911174, -36.8080541463968], [175.068809179483, -36.8080546815568], [175.068807655561, -36.8080614038722], [175.068812787721, -36.8080754253866], [175.068809464279, -36.8080855435907], [175.068808287127, -36.8080941138554], [175.068805488851, -36.8081049205298]], [[175.068722068795, -36.8080431258968], [175.068719248829, -36.8080058167817], [175.068717490785, -36.8079892642658], [175.068728228035, -36.8079722446406], [175.068754294087, -36.8079532980501], [175.068782706076, -36.8079380979114], [175.068793680383, -36.8079048164161], [175.068793696175, -36.8079047368264], [175.068796935562, -36.807889954931], [175.068796951911, -36.8078898960616], [175.068797000295, -36.80788977805], [175.068802143026, -36.8078780815457], [175.068802155816, -36.8078780569879], [175.068806452802, -36.80786941981], [175.068806506129, -36.8078693188372], [175.068806565129, -36.8078692204694], [175.068811255073, -36.8078619401272], [175.068811279774, -36.8078619000399], [175.068811304451, -36.8078618590517], [175.068816261695, -36.807853349184], [175.068816309783, -36.8078532618218], [175.068816340188, -36.8078531837804], [175.068819980326, -36.8078429636249], [175.068819999183, -36.8078429146262], [175.068820017041, -36.8078428701515], [175.068823581407, -36.8078342907883], [175.068823601336, -36.8078342399684], [175.068823619145, -36.8078341936919], [175.068827596408, -36.8078229645166], [175.068827627836, -36.8078228828522], [175.068831494121, -36.8078148182873], [175.06883634385, -36.8077912783256], [175.068826999814, -36.8077829335247], [175.068817624553, -36.8077843810436]], [[175.069675457839, -36.8080168832633], [175.069675584686, -36.8080168486079]], [[175.069675457839, -36.8080168832633], [175.069697540367, -36.8080131414351], [175.069711751595, -36.8080198710089], [175.06971182972, -36.808019941753], [175.069711886873, -36.8080200245793], [175.069715211067, -36.8080250491604], [175.069715268487, -36.8080251418964], [175.069715304305, -36.8080252232915], [175.069723717946, -36.8080500032889], [175.069723734427, -36.808050074205], [175.069723736392, -36.8080501471765], [175.06972381851, -36.8080572345089], [175.069723818651, -36.8080572813743], [175.069723817647, -36.8080573273583], [175.069723484498, -36.8080656017289], [175.069723484101, -36.808065670235], [175.069723486216, -36.8080657071516], [175.069724232335, -36.8080755165807], [175.069724240096, -36.8080755966617], [175.06972425129, -36.8080756793868], [175.069725824755, -36.808085119297], [175.069725831546, -36.8080851633427], [175.069727255549, -36.8080956711973], [175.069728418418, -36.8081052228076], [175.069728426446, -36.8081053127983], [175.06972842488, -36.8081053795221], [175.069728014324, -36.8081130270309], [175.069728007472, -36.8081131055637], [175.069726589984, -36.8081164930116], [175.069721718682, -36.8081245282345], [175.069705464233, -36.8081367030519], [175.069705399417, -36.8081367519495], [175.069689078952, -36.8081487647779], [175.069689036056, -36.8081495027921], [175.069679139196, -36.8081601780061], [175.069672626941, -36.8082095080362], [175.069641646908, -36.8082470135218], [175.069635389995, -36.8082763968347], [175.069635390844, -36.8082764283656], [175.06963539454, -36.8082764823796], [175.069636305091, -36.808286820716], [175.069636315311, -36.808286908866], [175.069636329236, -36.8082869681096], [175.069647324069, -36.8083069532963], [175.069650543181, -36.8083218120422], [175.069639058984, -36.8083527545887], [175.069621653233, -36.8084373999215]], [[175.069021705725, -36.8079754371723], [175.069030047073, -36.8080008295651], [175.069030054707, -36.8080007384004], [175.069021705725, -36.8079754371723]], [[175.069021705725, -36.8079754371723], [175.069029979599, -36.8080009046465], [175.069020486665, -36.8080112230701], [175.069020405965, -36.8080113064935], [175.069020312651, -36.8080113793206], [175.069006617911, -36.8080215031876], [175.069006579475, -36.8080215326983], [175.06900654764, -36.8080215575876], [175.068995942975, -36.8080299674676], [175.06899585307, -36.8080300420381], [175.068995834572, -36.8080301460101], [175.068994530086, -36.8080374828036], [175.06899451266, -36.8080375849544], [175.068994526604, -36.8080376865591], [175.068995495897, -36.8080435479995], [175.0689955113, -36.8080436621972], [175.068995518934, -36.8080437792339], [175.068995762262, -36.8080504870166], [175.068995771404, -36.8080506184479], [175.068995779217, -36.8080506588707], [175.068995792851, -36.8080507073039], [175.069011945636, -36.808096213359], [175.069008488577, -36.8081065718383], [175.068988062163, -36.8081218718909], [175.068985938193, -36.8081266641425], [175.068967109891, -36.8081385402602], [175.068953804572, -36.8081568862573], [175.068947768825, -36.8081837104892], [175.0689496289, -36.8082319096449], [175.06895285959, -36.8082368349289], [175.06896397695, -36.8082418491775], [175.068963234815, -36.8082561279478], [175.068978482283, -36.8082576732945], [175.068998596114, -36.8082516630253], [175.069004801471, -36.8082415919983], [175.068997411146, -36.8082285868104], [175.068999781855, -36.8082120156172], [175.069016464872, -36.8081831944461], [175.069031744902, -36.8081754566804], [175.069042820573, -36.8081684707727], [175.06905864774, -36.8081392111356], [175.069056361173, -36.8081170599062], [175.069054349903, -36.8081050940381], [175.069068799253, -36.808076991321], [175.06907964127, -36.8080299302507], [175.06911035845, -36.8079784475402], [175.069124673765, -36.8079569843587], [175.069133238067, -36.8079286586964], [175.069136413561, -36.8079091739944], [175.069136417756, -36.8079091216457], [175.069136915603, -36.8079015501308], [175.069136921088, -36.8079015040688], [175.069136941924, -36.8079014036613], [175.069138998337, -36.8078930614416], [175.0691390123, -36.8078929972059], [175.069139024095, -36.8078929357119], [175.069140923083, -36.8078819932637], [175.069140943895, -36.8078818919553], [175.069140957222, -36.8078818457568], [175.069144765409, -36.8078710827852], [175.069144798907, -36.8078709947756], [175.069144833793, -36.8078709166561], [175.069150301953, -36.8078594443058], [175.069150330651, -36.8078593861228], [175.069150361589, -36.8078593279008], [175.069163836072, -36.8078385255857], [175.069163910927, -36.807838433251]], [[175.069021705725, -36.8079754371723], [175.069021669714, -36.8079753485698], [175.069021698659, -36.8079752579356], [175.069025406184, -36.807964252466], [175.069025440683, -36.8079641599325], [175.069025476495, -36.8079640745865], [175.06903035971, -36.807953231619], [175.069030382951, -36.8079531789388], [175.069030404999, -36.8079531235754], [175.069033374032, -36.8079453305915], [175.069033383412, -36.8079453042904], [175.069033396716, -36.807945257191], [175.069033420233, -36.8079451315003], [175.069034812233, -36.8079356327553], [175.069034823058, -36.807935535226], [175.06903480926, -36.8079354390265], [175.069031750335, -36.8079184062296], [175.069031717302, -36.8079182616945], [175.069031664951, -36.8079181490412], [175.069023962285, -36.8079029501063], [175.069023928049, -36.8079028858082], [175.069023882755, -36.8079028271104], [175.068995110497, -36.8078652901131], [175.068984946774, -36.8078182494456], [175.06900099697, -36.8077864920228], [175.068995766666, -36.8077370527424]], [[175.069278785468, -36.8079646506103], [175.069284059988, -36.8079536052382]], [[175.069284104618, -36.8079535143308], [175.069284202898, -36.8079534594431], [175.069292383639, -36.8079485266044], [175.069314122969, -36.8079463590921], [175.069335815693, -36.8079572405776], [175.069335902194, -36.8079573310049], [175.069335954327, -36.8079574355501], [175.069340463106, -36.8079666594308], [175.069340510612, -36.8079667586487], [175.069340525749, -36.8079668629365], [175.069341846647, -36.8079782477586], [175.069341849882, -36.8079782846558], [175.069341850974, -36.8079783251955], [175.069341842021, -36.8079784506327], [175.069340369599, -36.8079917470768], [175.06934033677, -36.8079919432314], [175.069340283629, -36.8079921343318], [175.069336000309, -36.8080048992664], [175.069335985836, -36.8080049445836], [175.069331638184, -36.8080298503131], [175.069331632937, -36.808029946844], [175.069331650019, -36.8080300817424], [175.069333714001, -36.8080423387106], [175.069333726975, -36.80804240428], [175.069333751832, -36.808042494879], [175.069336464501, -36.8080517013551], [175.069336488262, -36.8080517928746], [175.069336496099, -36.8080518341982], [175.06934185287, -36.8081025060441], [175.069341853646, -36.8081025348724], [175.069341853787, -36.8081025817378], [175.069341605843, -36.8081149384368], [175.069341600547, -36.808115033166], [175.069341596769, -36.8081150593696], [175.069341587996, -36.8081151081928], [175.069336718291, -36.8081518066693], [175.069336749453, -36.8081519232965], [175.069336784174, -36.8081520056121], [175.06934233061, -36.8081640081782], [175.069342356883, -36.8081640681082], [175.069342379722, -36.8081641253942], [175.069347207054, -36.8081766461098], [175.069347219107, -36.8081766774457], [175.069347232643, -36.8081767222753], [175.069349202954, -36.8081832098185], [175.069349229003, -36.8081833031008], [175.069324759268, -36.8082030863838]], [[175.069216600604, -36.8078765155822], [175.069202060632, -36.8078930462381], [175.069193212847, -36.807916627864], [175.069197674479, -36.8079712756337], [175.069201992213, -36.8080173301628], [175.06920076257, -36.8080647944527], [175.069199927199, -36.8080792722328], [175.069199913338, -36.8080792986119], [175.06919989743, -36.8080793322371], [175.069199859862, -36.8080794356398], [175.069184825154, -36.8081077351312], [175.069181244476, -36.8081313629746], [175.069179007908, -36.808142006658], [175.069178991535, -36.8081420646265], [175.069178946391, -36.8081421780754], [175.069174368946, -36.8081600071482], [175.069174325194, -36.8081600890272]], [[175.06922190039, -36.8078571236895], [175.069220943978, -36.8078681876315], [175.069216592888, -36.8078766869645], [175.069216562949, -36.8078767406626], [175.069216541488, -36.807876776187], [175.069216448194, -36.8078768913754]], [[175.06922190039, -36.8078571236895], [175.069220994171, -36.8078680119047], [175.069220986537, -36.8078681030694]], [[175.06922190039, -36.8078571236895], [175.069221908145, -36.8078570370293], [175.069215111787, -36.8078414050271], [175.069200869505, -36.8078319368677], [175.069185408198, -36.8078296066287]], [[175.068910873108, -36.8078549950774], [175.068917006113, -36.8078422367212], [175.068917063533, -36.8078421212561]], [[175.068910873108, -36.8078549950774], [175.068923223764, -36.80783308121], [175.06892326252, -36.8078330219506], [175.068923289976, -36.8078329592828], [175.06892725757, -36.8078234535677], [175.068927284856, -36.8078233845936], [175.06892730671, -36.8078233220232], [175.068931298702, -36.8078113913731], [175.06893130796, -36.8078113605676], [175.068931319169, -36.8078113189125], [175.068934664555, -36.8077974779337], [175.068934672645, -36.8077974453459], [175.068937409793, -36.807786783941], [175.068937429237, -36.8077867151035], [175.068937461126, -36.8077866505558], [175.068941364606, -36.8077790522161], [175.068941378467, -36.807779025837], [175.068946352901, -36.8077697811013], [175.068946398918, -36.8077697000843], [175.068946440817, -36.8077696326585], [175.068952268314, -36.8077608489646], [175.068952342393, -36.8077607278018], [175.068952374161, -36.8077606587497], [175.068955952264, -36.8077510913133], [175.068960033346, -36.8077399306287], [175.068960065919, -36.8077398498457], [175.068960091474, -36.8077397998291], [175.068965475422, -36.8077298620722], [175.068965509648, -36.8077298010891], [175.068965540781, -36.8077297500742], [175.068971721775, -36.8077198579311], [175.068974694288, -36.8077129022002], [175.068963916633, -36.8077050564477], [175.068963831909, -36.8077049903244], [175.068963824881, -36.8077048958097], [175.068963415335, -36.8076983837988], [175.068963410446, -36.8076983271017], [175.068963405679, -36.807698274909], [175.06896199846, -36.8076868456172], [175.068961995516, -36.8076868195306], [175.068961993916, -36.8076867600724], [175.068962005963, -36.8076866246669], [175.068963680909, -36.8076797672292], [175.068963608266, -36.8076751529108], [175.068966736314, -36.8076656888453], [175.068983093947, -36.8076558890732], [175.069003827134, -36.8076535309286], [175.06900241969, -36.8076786126039], [175.06899053614, -36.807691227698], [175.068992499571, -36.8076997099559], [175.068992515276, -36.8076997520439], [175.068996250351, -36.8077089668722], [175.068996270682, -36.8077090142875], [175.06899629805, -36.8077090732973], [175.068999491684, -36.8077157874147], [175.068999533467, -36.8077158822258], [175.068999562315, -36.8077159961894], [175.069001088817, -36.8077229871815], [175.069001120895, -36.8077231795025], [175.069001130663, -36.807723375817], [175.069001131495, -36.8077287367644]], [[175.069163910927, -36.807838433251], [175.069185408198, -36.8078296066287]], [[175.069163910927, -36.807838433251], [175.069164012108, -36.807838361188], [175.069185158481, -36.8078296154818], [175.069185282185, -36.8078295889934]], [[175.069185408198, -36.8078296066287], [175.069185282185, -36.8078295889934]], [[175.069185282185, -36.8078295889934], [175.069163910927, -36.807838433251]], [[175.068995766666, -36.8077370527424], [175.068995738187, -36.8077371190334]], [[175.069001129681, -36.8077288359395], [175.069001078329, -36.8077289269637], [175.068998802623, -36.8077327872033], [175.06899878333, -36.8077328199861], [175.068998760675, -36.8077328528273], [175.068995809807, -36.8077369898015], [175.068995766666, -36.8077370527424]]]}, "properties": {"OBJECTID": 12607, "TRACKNAME": "Gully Link", "CONDITIONSOFUSE": "Onetangi Sports Park (Rangihoua)", "STATUS": "Open", "WEBLINK": "https://www.aucklandcouncil.govt.nz/en/parks-recreation/find-park-beach/park-detail/120.html", "VALIDATIONSTATE": 3, "created_user": "AC_owner", "last_edited_user": "AC_owner", "last_edited_date": 1789875254325, "created_date": 1789875254325, "PARK_SAPSITEID": null, "TRACK_ID": null, "KAURIDIEBACK_TRACK": null, "KAURIDIEBACK_MITIGATED": null, "SegmentID": null, "GlobalID": "b0333446-dae0-4e03-a651-caf0623d24aa", "Shape__Length": 1082.8989166644783}}, {"type": "Feature", "id": 12608, "geometry": {"type": "LineString", "coordinates": [[175.067961721373, -36.8063185965517], [175.067956882734, -36.8063592214355], [175.06793840093, -36.8063977168217], [175.067923789767, -36.8064253508416], [175.067910424494, -36.8064610911583], [175.067913737986, -36.8064991812657], [175.067922940984, -36.8065355826253], [175.067952962945, -36.8065631991286], [175.067973322564, -36.8065923356665], [175.067980084321, -36.8066054455961], [175.067980128222, -36.8066055358642], [175.067980168906, -36.8066056315961], [175.067986232607, -36.8066211250027], [175.067986253058, -36.8066211769227], [175.067992431988, -36.8066355371863], [175.067992452366, -36.8066355864036], [175.067992471697, -36.806635638343], [175.067996368612, -36.8066462924796], [175.067996392715, -36.8066463551516], [175.067996421421, -36.8066464222502], [175.068001461631, -36.8066576603723], [175.068006392875, -36.8066625984634], [175.068030901645, -36.8066812662552], [175.068039052363, -36.8066869261642], [175.06803904838, -36.806687028081], [175.068038392504, -36.8066966870622], [175.068038388084, -36.8066967727631], [175.068038389291, -36.8066968592674], [175.068038719588, -36.8067073447145], [175.068038720461, -36.8067073771463], [175.068038723841, -36.8067074194488], [175.068039558455, -36.8067188605191], [175.068051035058, -36.8067655674953], [175.068077723175, -36.8067918305175], [175.06808968066, -36.8068148743677], [175.068089689758, -36.8068149625374], [175.068090517094, -36.8068251328933], [175.068090521837, -36.8068251841852], [175.068090528989, -36.8068252417443], [175.068092270246, -36.8068375106629], [175.068092280197, -36.8068375889034], [175.068092285691, -36.8068376681226], [175.068092781968, -36.8068469068805], [175.06809278384, -36.8068469347884], [175.068092784591, -36.8068469627157], [175.068092783752, -36.8068530555536], [175.068095695686, -36.8068692590332], [175.068095721831, -36.8068693559193], [175.068095740042, -36.8068694078782], [175.06810163566, -36.8068834431861], [175.068101673789, -36.8068835272455], [175.068101707878, -36.8068835861386], [175.068110033331, -36.8068970726407], [175.068110050912, -36.8068971011766], [175.068110066107, -36.8068971243462], [175.068117906879, -36.8069090519099], [175.068117929062, -36.8069090848723], [175.068117954631, -36.8069091186771], [175.068127040507, -36.8069207064183], [175.068127063737, -36.8069207366585], [175.068127088258, -36.8069207731854], [175.06813321547, -36.8069301681484], [175.068133272936, -36.806930262687], [175.068133299086, -36.806930318113], [175.068136994697, -36.8069388630868], [175.068137036769, -36.8069389687089], [175.068137035294, -36.8069390804964], [175.068139672114, -36.8069472662433], [175.06813196349, -36.8069697869706], [175.068131924995, -36.8069698975995], [175.068131881849, -36.8069700020002], [175.068125483944, -36.8069842070151], [175.068125473395, -36.8069842315339], [175.06812545527, -36.8069842660988], [175.068119635136, -36.8069958662042], [175.068119608703, -36.8069959252489], [175.068119572206, -36.80699602683], [175.068116265732, -36.8070059860919], [175.068116252258, -36.8070060268851], [175.068112814495, -36.8070187302013], [175.068109624906, -36.8070299510595], [175.068109298296, -36.8070501396686], [175.068109297577, -36.8070502379233], [175.068110467929, -36.8070544518944], [175.068136519247, -36.8070721230211], [175.068188796458, -36.8071254081065], [175.068221529815, -36.807169092699]]}, "properties": {"OBJECTID": 12608, "TRACKNAME": "Gully Link", "CONDITIONSOFUSE": "Onetangi Sports Park (Rangihoua)", "STATUS": "Closed", "WEBLINK": "https://www.aucklandcouncil.govt.nz/en/parks-recreation/find-park-beach/park-detail/120.html", "VALIDATIONSTATE": 3, "created_user": "AC_owner", "last_edited_user": "AC_owner", "last_edited_date": 1789875254325, "created_date": 1789875254325, "PARK_SAPSITEID": null, "TRACK_ID": null, "KAURIDIEBACK_TRACK": null, "KAURIDIEBACK_MITIGATED": null, "SegmentID": null, "GlobalID": "0188fab2-f60d-4f29-932c-5d3d6f8662fb", "Shape__Length": 104.60178650767689}}, {"type": "Feature", "id": 12732, "geometry": {"type": "LineString", "coordinates": [[175.068817624553, -36.8077843810436], [175.068814324973, -36.8077848909218], [175.068802757477, -36.8077997970223], [175.068793315919, -36.8078121911408], [175.06878584955, -36.8078258424546], [175.06878352326, -36.8078293646798], [175.068778603994, -36.8078392024088], [175.068778591205, -36.8078392269666], [175.068778577319, -36.8078392524448], [175.068774178283, -36.8078474713895], [175.068774149513, -36.8078475268698], [175.068774130583, -36.8078475731658], [175.06876965558, -36.8078588416458], [175.068769625296, -36.8078589241915], [175.068769598422, -36.8078590084806], [175.068765785729, -36.8078719797164], [175.068765766115, -36.8078720422478], [175.068765746332, -36.807872098473], [175.068761923494, -36.807882527304], [175.068761910947, -36.8078825608706], [175.068761896256, -36.8078825980798], [175.068740597349, -36.807916996604], [175.068708733752, -36.8079505469803]]}, "properties": {"OBJECTID": 12732, "TRACKNAME": "Gully Link", "CONDITIONSOFUSE": "Onetangi Sports Park (Rangihoua)", "STATUS": "Open pending closure", "WEBLINK": "https://www.aucklandcouncil.govt.nz/en/parks-recreation/find-park-beach/park-detail/120.html", "VALIDATIONSTATE": 3, "created_user": "AC_owner", "last_edited_user": "AC_owner", "last_edited_date": 1789875254325, "created_date": 1789875254325, "PARK_SAPSITEID": null, "TRACK_ID": null, "KAURIDIEBACK_TRACK": null, "KAURIDIEBACK_MITIGATED": null, "SegmentID": null, "GlobalID": "48f72f91-4b47-4c52-ab01-e49d720a53f7", "Shape__Length": 21.13692773795522}}, {"type": "Feature", "id": 12734, "geometry": {"type": "LineString", "coordinates": [[175.069848848123, -36.8090866629981], [175.06984879545, -36.8090865800939], [175.069848810902, -36.8090864878918]]}, "properties": {"OBJECTID": 12734, "TRACKNAME": "Gully Link", "CONDITIONSOFUSE": "Onetangi Sports Park (Rangihoua)", "STATUS": null, "WEBLINK": "https://www.aucklandcouncil.govt.nz/en/parks-recreation/find-park-beach/park-detail/120.html", "VALIDATIONSTATE": 3, "created_user": "AC_owner", "last_edited_user": "AC_owner", "last_edited_date": 1789875254325, "created_date": 1789875254325, "PARK_SAPSITEID": null, "TRACK_ID": null, "KAURIDIEBACK_TRACK": null, "KAURIDIEBACK_MITIGATED": null, "SegmentID": null, "GlobalID": "d0bd3da2-4eda-4138-8d9c-0bd8b416fe40", "Shape__Length": 0.02065623354145894}}, {"type": "Feature", "id": 12735, "geometry": {"type": "LineString", "coordinates": [[175.069848979545, -36.8090857576025], [175.069848810902, -36.8090864878918]]}, "properties": {"OBJECTID": 12735, "TRACKNAME": "Gully Link", "CONDITIONSOFUSE": "Onetangi Sports Park (Rangihoua)", "STATUS": null, "WEBLINK": "https://www.aucklandcouncil.govt.nz/en/parks-recreation/find-park-beach/park-detail/120.html", "VALIDATIONSTATE": 3, "created_user": "AC_owner", "last_edited_user": "AC_owner", "last_edited_date": 1789875254325, "created_date": 1789875254325, "PARK_SAPSITEID": null, "TRACK_ID": null, "KAURIDIEBACK_TRACK": null, "KAURIDIEBACK_MITIGATED": null, "SegmentID": null, "GlobalID": "f5724313-658c-4b45-afeb-de36a3657953", "Shape__Length": 0.08243015213854127}}, {"type": "Feature", "id": 12736, "geometry": {"type": "LineString", "coordinates": [[175.069848979545, -36.8090857576025], [175.069848848123, -36.8090866629981]]}, "properties": {"OBJECTID": 12736, "TRACKNAME": "Gully Link", "CONDITIONSOFUSE": "Onetangi Sports Park (Rangihoua)", "STATUS": null, "WEBLINK": "https://www.aucklandcouncil.govt.nz/en/parks-recreation/find-park-beach/park-detail/120.html", "VALIDATIONSTATE": 3, "created_user": "AC_owner", "last_edited_user": "AC_owner", "last_edited_date": 1789875254325, "created_date": 1789875254325, "PARK_SAPSITEID": null, "TRACK_ID": null, "KAURIDIEBACK_TRACK": null, "KAURIDIEBACK_MITIGATED": null, "SegmentID": null, "GlobalID": "e1414248-bef9-479a-83b3-add2d086874d", "Shape__Length": 0.10115952765183345}}, {"type": "Feature", "id": 12737, "geometry": {"type": "LineString", "coordinates": [[175.070158052112, -36.808873215256], [175.070168986718, -36.808863697232], [175.070169071093, -36.8088636254609], [175.070169159926, -36.8088635527109]]}, "properties": {"OBJECTID": 12737, "TRACKNAME": "Gully Link", "CONDITIONSOFUSE": "Onetangi Sports Park (Rangihoua)", "STATUS": null, "WEBLINK": "https://www.aucklandcouncil.govt.nz/en/parks-recreation/find-park-beach/park-detail/120.html", "VALIDATIONSTATE": 3, "created_user": "AC_owner", "last_edited_user": "AC_owner", "last_edited_date": 1789875254325, "created_date": 1789875254325, "PARK_SAPSITEID": null, "TRACK_ID": null, "KAURIDIEBACK_TRACK": null, "KAURIDIEBACK_MITIGATED": null, "SegmentID": null, "GlobalID": "be4004bc-3070-4075-bec0-68de4a2d5280", "Shape__Length": 1.4602668286591747}}, {"type": "Feature", "id": 12738, "geometry": {"type": "LineString", "coordinates": [[175.069857594272, -36.808655321151], [175.069857605731, -36.8086552055845], [175.069858506059, -36.8086494711297]]}, "properties": {"OBJECTID": 12738, "TRACKNAME": "Gully Link", "CONDITIONSOFUSE": "Onetangi Sports Park (Rangihoua)", "STATUS": null, "WEBLINK": "https://www.aucklandcouncil.govt.nz/en/parks-recreation/find-park-beach/park-detail/120.html", "VALIDATIONSTATE": 3, "created_user": "AC_owner", "last_edited_user": "AC_owner", "last_edited_date": 1789875254325, "created_date": 1789875254325, "PARK_SAPSITEID": null, "TRACK_ID": null, "KAURIDIEBACK_TRACK": null, "KAURIDIEBACK_MITIGATED": null, "SegmentID": null, "GlobalID": "e13c86e2-df2d-421d-88d5-daf3d20f0918", "Shape__Length": 0.6543056800773098}}, {"type": "Feature", "id": 12739, "geometry": {"type": "LineString", "coordinates": [[175.069892626586, -36.8085635072384], [175.069890812498, -36.8085592017477]]}, "properties": {"OBJECTID": 12739, "TRACKNAME": "Gully Link", "CONDITIONSOFUSE": "Onetangi Sports Park (Rangihoua)", "STATUS": null, "WEBLINK": "https://www.aucklandcouncil.govt.nz/en/parks-recreation/find-park-beach/park-detail/120.html", "VALIDATIONSTATE": 3, "created_user": "AC_owner", "last_edited_user": "AC_owner", "last_edited_date": 1789875254325, "created_date": 1789875254325, "PARK_SAPSITEID": null, "TRACK_ID": null, "KAURIDIEBACK_TRACK": null, "KAURIDIEBACK_MITIGATED": null, "SegmentID": null, "GlobalID": "8aefae2a-bf39-483a-adec-151cca3611d3", "Shape__Length": 0.5044855689411571}}, {"type": "Feature", "id": 12740, "geometry": {"type": "LineString", "coordinates": [[175.069618711029, -36.8085244063239], [175.069618739018, -36.8085243634753], [175.069626294548, -36.8085117371454]]}, "properties": {"OBJECTID": 12740, "TRACKNAME": "Gully Link", "CONDITIONSOFUSE": "Onetangi Sports Park (Rangihoua)", "STATUS": null, "WEBLINK": "https://www.aucklandcouncil.govt.nz/en/parks-recreation/find-park-beach/park-detail/120.html", "VALIDATIONSTATE": 3, "created_user": "AC_owner", "last_edited_user": "AC_owner", "last_edited_date": 1789875254325, "created_date": 1789875254325, "PARK_SAPSITEID": null, "TRACK_ID": null, "KAURIDIEBACK_TRACK": null, "KAURIDIEBACK_MITIGATED": null, "SegmentID": null, "GlobalID": "575f9679-a32c-4188-b682-1533eb3fa26f", "Shape__Length": 1.560365447480815}}, {"type": "Feature", "id": 12741, "geometry": {"type": "LineString", "coordinates": [[175.068595333809, -36.8081936608808], [175.06860699921, -36.8081773912245], [175.068607013876, -36.8081773531144], [175.068607024207, -36.8081773204877], [175.068610614908, -36.8081668028668], [175.068610627237, -36.8081667611922], [175.068624772536, -36.8081404736383], [175.068624815221, -36.8081403521207]]}, "properties": {"OBJECTID": 12741, "TRACKNAME": "Gully Link", "CONDITIONSOFUSE": "Onetangi Sports Park (Rangihoua)", "STATUS": "Open pending closure", "WEBLINK": "https://www.aucklandcouncil.govt.nz/en/parks-recreation/find-park-beach/park-detail/120.html", "VALIDATIONSTATE": 3, "created_user": "AC_owner", "last_edited_user": "AC_owner", "last_edited_date": 1789875254325, "created_date": 1789875254325, "PARK_SAPSITEID": null, "TRACK_ID": null, "KAURIDIEBACK_TRACK": null, "KAURIDIEBACK_MITIGATED": null, "SegmentID": null, "GlobalID": "345db9d7-4985-47b7-9ea5-88c23dce9569", "Shape__Length": 6.500126898618677}}, {"type": "Feature", "id": 12742, "geometry": {"type": "LineString", "coordinates": [[175.068624898706, -36.8081409969035], [175.068647407979, -36.8081003403068], [175.06864743011, -36.8081002047259], [175.068648660338, -36.8080899408882], [175.068648668336, -36.8080898632368], [175.06864859039, -36.8080891327336], [175.068648922902, -36.8080780399949], [175.068648924003, -36.8080779976145], [175.068649590395, -36.8080669828871], [175.06864959737, -36.8080669088587], [175.068651348624, -36.8080565133766], [175.068651353498, -36.8080564862527], [175.068651360371, -36.8080564500809], [175.068654023906, -36.8080434682017], [175.068654032437, -36.8080434103698], [175.068671328365, -36.8079746796109], [175.068684891103, -36.8079576090179], [175.06868496993, -36.8079574976869], [175.068685033994, -36.8079574208625], [175.068708733752, -36.8079505469803]]}, "properties": {"OBJECTID": 12742, "TRACKNAME": "Gully Link", "CONDITIONSOFUSE": "Onetangi Sports Park (Rangihoua)", "STATUS": "Open pending closure", "WEBLINK": "https://www.aucklandcouncil.govt.nz/en/parks-recreation/find-park-beach/park-detail/120.html", "VALIDATIONSTATE": 3, "created_user": "AC_owner", "last_edited_user": "AC_owner", "last_edited_date": 1789875254325, "created_date": 1789875254325, "PARK_SAPSITEID": null, "TRACK_ID": null, "KAURIDIEBACK_TRACK": null, "KAURIDIEBACK_MITIGATED": null, "SegmentID": null, "GlobalID": "fcf66a5d-0d5d-4cb3-be7f-3efe18546c8c", "Shape__Length": 23.597250655061952}}]}