{"type": "FeatureCollection", "features": [{"type": "Feature", "id": 310, "geometry": {"type": "LineString", "coordinates": [[174.567646793992, -36.9621617937926], [174.567630886844, -36.9622198527763], [174.567647520816, -36.9623706532502], [174.567640021153, -36.9624109184397], [174.567489201478, -36.9625643293774], [174.567328360846, -36.9626797739819], [174.567253819545, -36.9627854450042], [174.567220437596, -36.9628499026009], [174.567098795656, -36.9631789776784], [174.567122076122, -36.9635218177501], [174.567116765058, -36.9635825634271], [174.567020748324, -36.9638108604137], [174.566902453151, -36.9640107504581], [174.566903578038, -36.9640228858659], [174.566921582381, -36.964035148202], [174.567034685405, -36.9640647105177], [174.567071108222, -36.9640815988149], [174.567123597517, -36.9641354441505], [174.567185347714, -36.9642164448853], [174.567196454824, -36.9642678539098], [174.567196845776, -36.9644024696001], [174.567187276529, -36.9644330851365], [174.567159323809, -36.9644632511216], [174.56715972037, -36.9644840184945], [174.567306864961, -36.9647716322889], [174.567218548581, -36.9647129618793], [174.567199667068, -36.9647074533008], [174.567190990149, -36.9647139863942], [174.567113965555, -36.9650027677386], [174.567096493488, -36.9650392193024], [174.567074747096, -36.9650494672381], [174.567034386097, -36.9650513403422], [174.566514807714, -36.9650272111245], [174.56622476566, -36.9650808740604], [174.566187322729, -36.9651071909592], [174.566141947928, -36.965175535376], [174.566118476842, -36.9652223359741], [174.566112338077, -36.965279677288], [174.566084598697, -36.9653168924039], [174.566040271102, -36.9653326289506], [174.565845240382, -36.9653529430131], [174.565797367491, -36.9653658193665], [174.565767065836, -36.9653941006332], [174.565620062588, -36.9655956633053], [174.565571788344, -36.965626520569], [174.565515724251, -36.9656469076594], [174.565440476546, -36.9656512656391], [174.565091038432, -36.9656437211434], [174.564753673062, -36.9655097394509], [174.564725842255, -36.9655022482869], [174.564702228403, -36.9655054114252], [174.564667570276, -36.9655434078485], [174.564589527478, -36.9656713282303], [174.564371427845, -36.9662265993467], [174.564367637767, -36.9662779651928], [174.564391470369, -36.966371699323], [174.564413108334, -36.9664096829643], [174.564450714443, -36.9664406707658], [174.564462765872, -36.9664430150017], [174.564479732778, -36.9664315280721], [174.564533830495, -36.9663460382301], [174.564554616965, -36.9663288647818], [174.564584306884, -36.9663482536912], [174.564722349419, -36.9665111521825], [174.564754828143, -36.9665376529276], [174.564783776719, -36.9665319614627], [174.564883847162, -36.9664514205046], [174.564912154674, -36.9664432235829], [174.564939605455, -36.9666048467592], [174.564937795759, -36.9668853602972], [174.564951121703, -36.9669150014132], [174.564984707347, -36.9669411837421], [174.565056699644, -36.9669532699973], [174.565307211284, -36.9669656153848], [174.565346231909, -36.9669555041301], [174.565457111342, -36.9669062053083], [174.565518584701, -36.9668970453759], [174.565814351003, -36.9669059130439], [174.565843328492, -36.9669102935695], [174.565863720569, -36.9669221820451], [174.565878721249, -36.9669685787646], [174.56592135276, -36.9672590717047], [174.565989791606, -36.9675377868867], [174.565886916573, -36.9681178428784], [174.565777883571, -36.9681418654245], [174.565773380537, -36.9681483514733], [174.566088905546, -36.9685835270451], [174.566124646401, -36.9686201029522], [174.566135572582, -36.9686038597213], [174.566151907998, -36.9685189512044], [174.56647811746, -36.9686704531109], [174.566466716804, -36.9686841509015], [174.566350797517, -36.9687205196551], [174.566310586448, -36.9687437814785], [174.566284682575, -36.9688048393572], [174.566296269451, -36.968853394722], [174.566350914611, -36.968955728146], [174.566467618276, -36.9690810374547], [174.566578826627, -36.9692359763508], [174.566698358406, -36.9694589304808], [174.566738562811, -36.9695162117605], [174.566793114073, -36.9695515549036], [174.567012011561, -36.9696303037571], [174.567057123147, -36.9696559799852], [174.567083334819, -36.969680842107], [174.567089361569, -36.9697198515392]]}, "properties": {"OBJECTID": 310, "TRACKNAME": "Hamilton Track", "CONDITIONSOFUSE": "Waitakere Central Regional Park", "STATUS": "Temp Closed", "WEBLINK": "https://www.aucklandcouncil.govt.nz/en/parks-recreation/find-park-beach/park-detail/204.html", "VALIDATIONSTATE": 3, "created_user": "AC_owner", "last_edited_user": "AC_owner", "last_edited_date": 1789875254325, "created_date": 1789875254325, "PARK_SAPSITEID": null, "TRACK_ID": null, "KAURIDIEBACK_TRACK": null, "KAURIDIEBACK_MITIGATED": null, "SegmentID": null, "GlobalID": "1d897e14-6704-4711-9eb6-11fea1aa7519", "Shape__Length": 1345.7037251927936}}, {"type": "Feature", "id": 597, "geometry": {"type": "LineString", "coordinates": [[174.572416327971, -36.9620690830999], [174.572425038662, -36.9620540710475], [174.572495965821, -36.9619988204838], [174.572097470844, -36.9621506151938]]}, "properties": {"OBJECTID": 597, "TRACKNAME": "Hamilton Track", "CONDITIONSOFUSE": "Waitakere Central Regional Park", "STATUS": "Temp Closed", "WEBLINK": "https://www.aucklandcouncil.govt.nz/en/parks-recreation/find-park-beach/park-detail/204.html", "VALIDATIONSTATE": 3, "created_user": "AC_owner", "last_edited_user": "AC_owner", "last_edited_date": 1789875254325, "created_date": 1789875254325, "PARK_SAPSITEID": null, "TRACK_ID": null, "KAURIDIEBACK_TRACK": null, "KAURIDIEBACK_MITIGATED": null, "SegmentID": null, "GlobalID": "1bb52ccd-b41b-46f1-93e6-30890beb45da", "Shape__Length": 49.916437934126954}}, {"type": "Feature", "id": 835, "geometry": {"type": "LineString", "coordinates": [[174.572097470844, -36.9621506151938], [174.572038755705, -36.9621661929602], [174.57199515381, -36.962151961095], [174.571872345924, -36.9620672744889], [174.571827478374, -36.9620647940462], [174.571679835154, -36.9621145007485], [174.571265871541, -36.9622084439712], [174.570321148681, -36.9625530202913], [174.570239023057, -36.9625717415989], [174.569889759868, -36.962486988875], [174.569859777613, -36.9624647857103], [174.569814098577, -36.9623964866429], [174.569783825069, -36.9623816486688], [174.569516507733, -36.9623953513562], [174.568436240465, -36.9623159004557], [174.568405593897, -36.9623085960682], [174.568370644212, -36.9622893542007], [174.568187986606, -36.9621462886223], [174.568146551009, -36.9621222560373], [174.568109071419, -36.9621212215176], [174.567995467768, -36.9621457678979], [174.567768855123, -36.9621429723234], [174.567727808085, -36.9621288980311], [174.567646793992, -36.9621617937926]]}, "properties": {"OBJECTID": 835, "TRACKNAME": "Hamilton Track", "CONDITIONSOFUSE": "Waitakere Central Regional Park", "STATUS": "Temp Closed", "WEBLINK": "https://www.aucklandcouncil.govt.nz/en/parks-recreation/find-park-beach/park-detail/204.html", "VALIDATIONSTATE": 3, "created_user": "AC_owner", "last_edited_user": "AC_owner", "last_edited_date": 1789875254325, "created_date": 1789875254325, "PARK_SAPSITEID": null, "TRACK_ID": null, "KAURIDIEBACK_TRACK": null, "KAURIDIEBACK_MITIGATED": null, "SegmentID": null, "GlobalID": "74cce076-106d-41ef-9dea-d1237de0e52c", "Shape__Length": 428.9631941184085}}, {"type": "Feature", "id": 2429, "geometry": {"type": "LineString", "coordinates": [[174.582972384598, -36.9599005332586], [174.582558530743, -36.9595812898279], [174.582239621342, -36.9591626077632], [174.582212163758, -36.9591152623867], [174.582223787125, -36.9591071025578], [174.582250478983, -36.9591067558276], [174.58275073505, -36.9591528688341], [174.582783055311, -36.9591524208059], [174.582778048742, -36.9591479988174], [174.582280091332, -36.9589495212067], [174.582116451494, -36.9589505492784], [174.581695841585, -36.9588561821157], [174.581632594835, -36.9588585831881], [174.581405510416, -36.9589278109342], [174.581294584494, -36.958934213495], [174.581056352433, -36.958754432484], [174.581045454178, -36.9587683854554], [174.58104291548, -36.9588889473241], [174.581035389897, -36.9589003378984], [174.581012596669, -36.9589070410566], [174.580563912236, -36.9588789515983], [174.58032657889, -36.9588487926119], [174.580156745921, -36.9588154155399], [174.580052387743, -36.958808853687], [174.580016026038, -36.9588134135522], [174.57999733882, -36.9588276052956], [174.579958450114, -36.9589262550024], [174.579938985013, -36.9589494940584], [174.579903762834, -36.9589509353648], [174.579774876103, -36.9589219540424], [174.579735221669, -36.9589218084073], [174.579730931628, -36.9589446084431], [174.579749875272, -36.9590358851986], [174.579740230688, -36.9590620923952], [174.57969757288, -36.9590815199431], [174.579509786217, -36.9591356994595], [174.579473971308, -36.9591528726359], [174.579444145802, -36.9591870395536], [174.579312627999, -36.9594096262262], [174.579278759359, -36.9594530605238], [174.579226753843, -36.9594834600444], [174.578949160719, -36.9596113922498], [174.578856144568, -36.9596933743857], [174.578843897077, -36.959740897082], [174.578875057051, -36.9600205295664], [174.578821977567, -36.9601587450587], [174.578745443668, -36.9603045364444], [174.578743173267, -36.9603271428348], [174.578770271382, -36.9603699437716], [174.578774646239, -36.9603919723536], [174.578735335873, -36.960511325945], [174.578690660258, -36.9605711380662], [174.578446325604, -36.9607681446198], [174.57839659535, -36.9608018503407], [174.578357611221, -36.9608122402756], [174.578118193919, -36.9608236137645], [174.578060694223, -36.9608163966281], [174.578027445008, -36.9607728011782], [174.577945055615, -36.9605330727134], [174.577922020956, -36.9604915452687], [174.577901005543, -36.9604871186294], [174.577812061401, -36.9605107751385], [174.577706733129, -36.9605211524579], [174.577668516077, -36.9605180387108], [174.577641231243, -36.9605001263678], [174.577603640831, -36.9604257027062], [174.577629072957, -36.9603067529298], [174.57762426278, -36.9602759680297], [174.577479096049, -36.9601485618572], [174.577449579103, -36.9601125520063], [174.577167071811, -36.9594656841356], [174.577112191829, -36.9593905372581], [174.577054057642, -36.9593319211443], [174.577038367146, -36.9593426646001], [174.576998019425, -36.9594580654818], [174.576935225868, -36.9595801641143], [174.576907473541, -36.9596254381901], [174.576888717633, -36.9596405848959], [174.576852405067, -36.9596437442432], [174.576724331196, -36.9596246628022], [174.576672655971, -36.9596257655362], [174.576550372123, -36.9596790145554], [174.576475349164, -36.9597315907989], [174.576438322684, -36.9597473027386], [174.575883988984, -36.9598848702119], [174.575848628192, -36.9598910010016], [174.575838284811, -36.9598858275235], [174.575929155221, -36.9597654019194], [174.575936250278, -36.9597304686084], [174.575904071562, -36.9596999279578], [174.575808492825, -36.9596384011638], [174.575771851501, -36.9596299172507], [174.575733402205, -36.9596402514519], [174.575696923309, -36.9596592674672], [174.575653297804, -36.959698187377], [174.575506096585, -36.9598512457546], [174.575485691094, -36.9598944426313], [174.575507324193, -36.9599417749587], [174.575849436455, -36.9604863019537], [174.575864947578, -36.9605632311985], [174.575879259344, -36.9607632625099], [174.575840994369, -36.9608756365473], [174.575815379838, -36.9609238681771], [174.575580940687, -36.9610858695895], [174.575437315317, -36.9613090219544], [174.575395496446, -36.9613338458623], [174.575001420755, -36.961485542028], [174.574815765077, -36.9616481458003], [174.57474984797, -36.9616912179835], [174.574703256952, -36.9617116108037], [174.574321863242, -36.9617980587791], [174.574121582574, -36.9617771234916], [174.573959766227, -36.9617730289552], [174.573912761695, -36.9617808783033], [174.573881785619, -36.9618122495793], [174.573789995241, -36.9619660070747], [174.573747780218, -36.9620044226661], [174.573656040167, -36.9620514636186], [174.573607654292, -36.9620675731369], [174.573560906684, -36.9620668515747], [174.57346112339, -36.9620486409305], [174.573434418076, -36.9620520982467], [174.573392028667, -36.9620842894729], [174.573318275711, -36.9621913166225], [174.573285509405, -36.96222440872], [174.573037193424, -36.962339295043], [174.572944845252, -36.9623672483302], [174.572861840535, -36.9623828346648], [174.572827381347, -36.9623771701237], [174.572791513819, -36.9623391394911], [174.572684835679, -36.962180758976], [174.572639869172, -36.9621579113588], [174.572423090933, -36.9620779863289], [174.572416327971, -36.9620690830999]]}, "properties": {"OBJECTID": 2429, "TRACKNAME": "Hamilton Track", "CONDITIONSOFUSE": "Waitakere Central Regional Park", "STATUS": "Temp Closed", "WEBLINK": "https://www.aucklandcouncil.govt.nz/en/parks-recreation/find-park-beach/park-detail/204.html", "VALIDATIONSTATE": 3, "created_user": "AC_owner", "last_edited_user": "AC_owner", "last_edited_date": 1789875254325, "created_date": 1789875254325, "PARK_SAPSITEID": null, "TRACK_ID": null, "KAURIDIEBACK_TRACK": null, "KAURIDIEBACK_MITIGATED": null, "SegmentID": null, "GlobalID": "7f0307a5-4465-4b59-b95d-de397937b5f1", "Shape__Length": 1706.490710939951}}]}