{"type": "FeatureCollection", "features": [{"type": "Feature", "id": 1503, "geometry": {"type": "LineString", "coordinates": [[174.832952743734, -36.9175760125939], [174.832861959261, -36.9176597048417], [174.832788772813, -36.9177057564545], [174.832725480437, -36.9177740442667], [174.832634103239, -36.9178353385281], [174.832590174017, -36.9179331613441], [174.832563664734, -36.9179858923926], [174.832510053634, -36.9180689476398], [174.832503131118, -36.9181586732963], [174.83243093816, -36.9182420422818], [174.832375941618, -36.9182728509576], [174.832265378696, -36.9183120700637], [174.832219684001, -36.9183427171235], [174.832146496514, -36.9183887683638], [174.832112069538, -36.9184938983704], [174.83214271222, -36.9185979253459], [174.832144488352, -36.9186651098156], [174.832101172398, -36.918785320938], [174.832047560481, -36.9188683850048], [174.831984456243, -36.9189441325049], [174.831968231023, -36.9190340196627], [174.83198088372, -36.9191607491808], [174.831992531246, -36.9192501612856], [174.832014475121, -36.9193767384481], [174.832026536092, -36.9194810791359], [174.83205698915, -36.9195776370493], [174.832078732064, -36.9196967453011], [174.83208960916, -36.9197562993374], [174.832119269313, -36.9198229995265], [174.832157829718, -36.9198746184112], [174.832270573219, -36.9199175035536], [174.832391814783, -36.9199303785139], [174.832494284285, -36.9199360980754], [174.832596731356, -36.9199418178943], [174.832643220135, -36.9199410283644], [174.832810548048, -36.919938175579], [174.832894223218, -36.9199367489248], [174.833052640069, -36.9199489863272], [174.833201788468, -36.9199613846223], [174.833267049196, -36.9199677409977], [174.833351316656, -36.9199887028169]]}, "properties": {"OBJECTID": 1503, "TRACKNAME": "Hamlins Hill Bush Walk", "CONDITIONSOFUSE": "Hamlins Hill Regional Park", "STATUS": "Open", "WEBLINK": "https://www.aucklandcouncil.govt.nz/en/parks-recreation/find-park-beach/park-detail/221.html", "VALIDATIONSTATE": 3, "created_user": "AC_owner", "last_edited_user": "AC_owner", "last_edited_date": 1789875254325, "created_date": 1789875254325, "PARK_SAPSITEID": null, "TRACK_ID": null, "KAURIDIEBACK_TRACK": null, "KAURIDIEBACK_MITIGATED": null, "SegmentID": null, "GlobalID": "71ad4c8d-5a31-497f-820b-7dbd17837892", "Shape__Length": 399.91222191371264}}]}