{"type": "FeatureCollection", "features": [{"type": "Feature", "id": 390, "geometry": {"type": "LineString", "coordinates": [[174.654864689054, -37.0965660229873], [174.654781012781, -37.0965689647866], [174.65469702092, -37.0965827971339], [174.654608221288, -37.09661779744], [174.654509071956, -37.0966613821259], [174.654405114707, -37.0967261347418], [174.654326480909, -37.0967441120603], [174.654227147766, -37.096779259071], [174.654054355433, -37.0968280918367], [174.653933772263, -37.096855094174], [174.653807462714, -37.0968610762542], [174.653697320867, -37.0968837135936], [174.653555670031, -37.0969110103204], [174.653403669284, -37.0969468903308], [174.65331958505, -37.0969565038936], [174.653183383881, -37.0969921641852], [174.653083591448, -37.0970062157286], [174.652989340602, -37.0970328508349], [174.652896281377, -37.0971143302053], [174.65280858022, -37.097199954808], [174.652725412195, -37.0972517552184], [174.652652593974, -37.0972949712849], [174.652573593661, -37.0972960725422], [174.652420582461, -37.0972855453425], [174.652299081584, -37.0972703587773], [174.6521618714, -37.0972596101173], [174.652056170438, -37.0972442031117], [174.65192268448, -37.09725302773]]}, "properties": {"OBJECTID": 390, "TRACKNAME": "Hatton Road Walk", "CONDITIONSOFUSE": "Awhitu Regional Park", "STATUS": "Open", "WEBLINK": "https://www.aucklandcouncil.govt.nz/en/parks-recreation/find-park-beach/park-detail/207.html", "VALIDATIONSTATE": 3, "created_user": "AC_owner", "last_edited_user": "AC_owner", "last_edited_date": 1789875254325, "created_date": 1789875254325, "PARK_SAPSITEID": null, "TRACK_ID": null, "KAURIDIEBACK_TRACK": null, "KAURIDIEBACK_MITIGATED": null, "SegmentID": null, "GlobalID": "1d348198-4f8c-4fa6-bdd8-6c0c7a567990", "Shape__Length": 283.80212513068284}}]}