{"type": "FeatureCollection", "features": [{"type": "Feature", "id": 168, "geometry": {"type": "LineString", "coordinates": [[174.495158401722, -36.9256361341602], [174.49518835214, -36.9257727740543], [174.49519061394, -36.9258241956691], [174.495152391256, -36.9259963334264], [174.495039850851, -36.9262601565001], [174.495033045024, -36.9266837048725], [174.494990129931, -36.9269524832111], [174.495076956999, -36.9271345030521], [174.495087276418, -36.9272846131407], [174.495136822543, -36.9273605064961], [174.495193293282, -36.9274149952963], [174.495435575518, -36.927613751892], [174.495523025762, -36.9276465601133], [174.495536826239, -36.9276363270574], [174.495533684715, -36.9276054046353]]}, "properties": {"OBJECTID": 168, "TRACKNAME": "Hetting Track", "CONDITIONSOFUSE": "Waitakere West Regional Park", "STATUS": "Temp Closed", "WEBLINK": "https://www.aucklandcouncil.govt.nz/en/parks-recreation/find-park-beach/park-detail/3451.html", "VALIDATIONSTATE": 3, "created_user": "AC_owner", "last_edited_user": "AC_owner", "last_edited_date": 1789875254325, "created_date": 1789875254325, "PARK_SAPSITEID": null, "TRACK_ID": null, "KAURIDIEBACK_TRACK": null, "KAURIDIEBACK_MITIGATED": null, "SegmentID": null, "GlobalID": "4c7898c5-6bbb-4897-8604-e0897fdccc09", "Shape__Length": 248.7630864812305}}]}