{"type": "FeatureCollection", "features": [{"type": "Feature", "id": 6010, "geometry": {"type": "MultiLineString", "coordinates": [[[175.045139651028, -36.8201729367148], [175.045107628014, -36.8200978463961], [175.045107620026, -36.8200978411257], [175.04501331792, -36.8200898052114], [175.045013315655, -36.8200898043491], [175.044865401633, -36.8199475036243], [175.044865397007, -36.819947498296], [175.044772863996, -36.8197801058705], [175.044772861635, -36.8197801014046], [175.044726926012, -36.8197084742826], [175.044726920338, -36.8197084716763], [175.044676596451, -36.81969807372], [175.044612702853, -36.8197040020029], [175.044612693793, -36.8197039985535], [175.04457918391, -36.8196482459651], [175.044579182717, -36.8196482432817], [175.044551879074, -36.8195247930923], [175.044463913541, -36.8194538861009], [175.044463905506, -36.8194538790287], [175.044306165248, -36.81931818191], [175.044306162959, -36.8193181801467], [175.044270845658, -36.8192747046117], [175.044246733214, -36.8192637132615], [175.044172131938, -36.8192297055595], [175.044169713299, -36.8192226484572], [175.043997203109, -36.8191440062135], [175.043988414356, -36.8191459536516], [175.043712511465, -36.8190201812416], [175.043698877882, -36.8190139640937], [175.043696084095, -36.8190137056845], [175.04369354019, -36.8190148760577], [175.043654307421, -36.8190445195277], [175.043654301842, -36.819044520525], [175.043561321353, -36.8190107166663], [175.043561317968, -36.8190107158232], [175.043464806626, -36.8189946706669], [175.043464803241, -36.8189946698238], [175.043372767341, -36.8189962520364], [175.043372757208, -36.818996250408], [175.043273816881, -36.8189641540049], [175.043166412289, -36.8189145022313], [175.043015748653, -36.8188945565156], [175.043015744075, -36.8188945529891], [175.042974268262, -36.8187724302463], [175.042974263589, -36.8187724231162], [175.042877930026, -36.8186850467332], [175.042877919749, -36.8186850396993], [175.042766747633, -36.8186397172926], [175.0427667442, -36.8186397146476], [175.042746650159, -36.8186164601348], [175.042741727295, -36.8185975550843], [175.042741716755, -36.8185975381406], [175.042734506275, -36.8185848472627], [175.04273460463, -36.8185901912286], [175.042714086059, -36.8186134586948], [175.042714078623, -36.8186134741449], [175.042712548448, -36.8186307640895], [175.042712532809, -36.8186307661609], [175.04263785106, -36.8185252436926], [175.042637564368, -36.8185252125669], [175.042627296666, -36.8185334304806], [175.042627295617, -36.8185334332025], [175.042630116826, -36.8185654226066], [175.042630105717, -36.8185654264027], [175.042575142528, -36.818515333454], [175.042575140239, -36.8185153316907], [175.042557342892, -36.8184938754442], [175.042557336121, -36.8184938737579], [175.042549549767, -36.8184973874618], [175.0425495448, -36.8185034839929], [175.042549547089, -36.8185034857562], [175.042552025451, -36.8185457730875], [175.042552025547, -36.8185457766911], [175.042564000629, -36.8186069716017], [175.042564000725, -36.8186069752053], [175.042564678521, -36.8186321343796], [175.042564677497, -36.8186321380024], [175.042553667214, -36.818669690014], [175.042553601328, -36.8186697839809], [175.042542706255, -36.818670933797], [175.042529571437, -36.818681448832], [175.042529230418, -36.8186814826324], [175.042512159753, -36.8186732784391], [175.0425120383, -36.8186732219411], [175.042266682758, -36.8185608427911], [175.042266678228, -36.8185608410663], [175.042020997992, -36.8184761632648], [175.041905748885, -36.8184461737285], [175.041905745476, -36.8184461719844], [175.041853086593, -36.8183987376244], [175.041853083088, -36.8183987322768], [175.041826180157, -36.8183464516757], [175.041826175532, -36.8183464463473], [175.041815064511, -36.8183376124128], [175.041815053234, -36.8183376099026], [175.041802839259, -36.8183397917709], [175.041802831535, -36.8183397964102], [175.041779059274, -36.8183833891225], [175.041779057128, -36.8183833927646], [175.04174690944, -36.818428540786], [175.041746906151, -36.8184285435465], [175.041722345977, -36.818441938842], [175.041722341519, -36.8184419398199], [175.041706746832, -36.8184362878965], [175.041706741062, -36.8184362816865], [175.041704106794, -36.8184162908597], [175.041704105554, -36.8184162863744], [175.041696846381, -36.8183941199155], [175.041696841684, -36.8183941118845], [175.041647574392, -36.8183368165494], [175.041647568717, -36.818336813943], [175.041619767171, -36.8183339061528], [175.041619757134, -36.8183339081277], [175.0415865469, -36.8183519801394], [175.041586542514, -36.81835198382], [175.041527899567, -36.8184201447912], [175.041528964481, -36.8184282851406], [175.041528877874, -36.8184283587327], [175.041450001889, -36.8184774728277], [175.041449998575, -36.8184774746872], [175.041372903416, -36.8185006662734], [175.041372813635, -36.8185007047689], [175.04136425319, -36.8184990933334], [175.041188331423, -36.818599996507], [175.041066671301, -36.818611662039], [175.040931668973, -36.8185866687036], [175.040931663346, -36.8185866678989], [175.040771670536, -36.8185683279035], [175.040771659331, -36.8185683280959], [175.040726667057, -36.8185733294922], [175.040726659285, -36.8185733323296], [175.040635002783, -36.8186233322809], [175.040634993866, -36.8186233342366], [175.040526666683, -36.8186266630534], [175.040526656574, -36.8186266623256], [175.040449995775, -36.8186099981295], [175.040290950113, -36.8186298575917], [175.04015832954, -36.8186866612697], [175.040158326226, -36.8186866631292], [175.040039999937, -36.8187300018463], [175.039906670836, -36.8187466623266], [175.039906666378, -36.8187466633044], [175.039816000128, -36.8187502985692], [175.039815994549, -36.8187502995662], [175.039683333254, -36.8187766635376], [175.039683325458, -36.818776665474], [175.039561671646, -36.8188350018048], [175.039415002905, -36.8189449984698], [175.039235001878, -36.8190550007906], [175.039074370814, -36.8190772220288], [175.039071569755, -36.8190758865719], [175.03903927302, -36.818998562166], [175.039039065082, -36.818997992501], [175.039016593184, -36.8189235387594], [175.039013750048, -36.8189141120772], [175.038665385902, -36.8176252840093], [175.038041172608, -36.8173934938677], [175.038041169223, -36.8173934930245], [175.037971872402, -36.8173677599585]], [[175.054053321126, -36.8177834007165], [175.053940927851, -36.8178648606105], [175.053300247191, -36.8177452366285], [175.05319559659, -36.8177225071829], [175.053186239135, -36.8177011429218], [175.05319027337, -36.8176943765324], [175.053178559018, -36.8176675811521], [175.053178554416, -36.817667576725], [175.053116832741, -36.8176485121662], [175.053116830476, -36.817648511304], [175.053061707433, -36.8176592029287], [175.053058420657, -36.8176635264821], [175.053057907246, -36.8176691910462], [175.053031664849, -36.817721662293], [175.053031661704, -36.8177216704591], [175.053025002886, -36.8177683271192], [175.053024996307, -36.8177683326406], [175.052985002299, -36.8177766673853], [175.052984994455, -36.8177766675208], [175.052913338304, -36.8177666685304], [175.052913334943, -36.8177666685885], [175.052860063145, -36.8177711289639], [175.052860054278, -36.8177711327223], [175.052831666966, -36.8178100006019], [175.052831665942, -36.8178100042248], [175.052821662809, -36.8178699975764], [175.05282166064, -36.8178700003178], [175.052788352785, -36.8178799878883], [175.052788330278, -36.8178799846718], [175.052721102263, -36.8178341984386], [175.052720912234, -36.8178342188451], [175.052717484907, -36.8178382338659], [175.052368412522, -36.8182469661449], [175.052358381475, -36.8182587148214], [175.052356151413, -36.8182613463845], [175.052341627724, -36.8182784840288], [175.052321470393, -36.818302277748], [175.052314892098, -36.8183100389127], [175.052292849059, -36.8183360526561], [175.052291831902, -36.8183378430875], [175.052263331756, -36.8184233310452], [175.05226332737, -36.8184233347261], [175.052193177027, -36.8184523989618], [175.052193147326, -36.8184524202046], [175.052104576396, -36.8185561664934], [175.052104575347, -36.8185561692154], [175.052056112545, -36.8186659990431], [175.052055289129, -36.8186678663441], [175.052055136523, -36.8186707991252], [175.052083652604, -36.8187539597565], [175.052083663396, -36.8187540280695], [175.05208028295, -36.8188413563049], [175.052080280926, -36.8188413644516], [175.052042209948, -36.8189144236362], [175.052042206707, -36.8189144281987], [175.051962999776, -36.818999687368], [175.051962993222, -36.8189996937903], [175.051860848761, -36.8190818995672], [175.051860846544, -36.8190819005068], [175.051739317204, -36.8191345679153], [175.051739307168, -36.8191345698912], [175.051625074797, -36.8191388408722], [175.05162506805, -36.8191388400874], [175.051514101638, -36.8191051285242], [175.051461898315, -36.8190773021782], [175.051461889279, -36.8190772996302], [175.051338928266, -36.819075976056], [175.051338919374, -36.8190759789134], [175.051275702277, -36.8191172825764], [175.051224907631, -36.8191423024426], [175.051116318451, -36.8191441763176], [175.051116307221, -36.81914417561], [175.051051679527, -36.8191326445851], [175.051005198801, -36.8191047165857], [175.050954786559, -36.8190906454906], [175.050954778692, -36.8190906447251], [175.050903530599, -36.819098428486], [175.050903528406, -36.8190984303264], [175.050868506032, -36.8191926794367], [175.050868505007, -36.8191926830596], [175.050859102372, -36.8192751516866], [175.050843964612, -36.819276443065], [175.050843958937, -36.819276440459], [175.050807846506, -36.8192253618949], [175.050807840759, -36.8192253565862], [175.05077606872, -36.8192064374451], [175.05077606419, -36.8192064357207], [175.050690724353, -36.819212429933], [175.050675193363, -36.8191127150623], [175.050675184231, -36.8191127089107], [175.05053797043, -36.8191127795668], [175.050537964851, -36.8191127805643], [175.050321297663, -36.8192429335787], [175.050321293277, -36.8192429372596], [175.05016302843, -36.8193651875761], [175.050163020682, -36.819365191315], [175.050047574957, -36.8193775321812], [175.050047571619, -36.8193775331401], [175.049941714166, -36.8194816390887], [175.049941709829, -36.8194816445714], [175.049845003975, -36.8195716602094], [175.049844999565, -36.8195716629893], [175.049636666123, -36.819673326773], [175.049636661665, -36.8196733277512], [175.049550002258, -36.8196633303931], [175.04954999551, -36.8196633296081], [175.04941333196, -36.819651663492], [175.049413324116, -36.8196516636273], [175.049278333883, -36.8196616683604], [175.049278331666, -36.8196616692999], [175.049156668443, -36.8197183300943], [175.049156661791, -36.8197183329129], [175.04902166512, -36.8197733324937], [175.049021659614, -36.8197733361939], [175.048916382642, -36.8198455574363], [175.048916377111, -36.8198455602355], [175.048836668202, -36.8198699959382], [175.048836661551, -36.8198699987567], [175.048494997784, -36.8200999938198], [175.048494991157, -36.8200999975392], [175.048430004592, -36.8201133284144], [175.048429995556, -36.8201133258662], [175.048383841462, -36.8200687918463], [175.048383839125, -36.8200687882814], [175.048340449705, -36.8200180344514], [175.048340446295, -36.8200180327076], [175.048281699056, -36.8199916904199], [175.048281687803, -36.8199916888112], [175.048207919913, -36.8200026174853], [175.048207913237, -36.8200026194029], [175.048112637819, -36.8200332282229], [175.048109513209, -36.8200365420891], [175.04812764755, -36.8199203098597], [175.048127649647, -36.8199203044157], [175.048220903885, -36.8198140945595], [175.048220904933, -36.8198140918375], [175.048272103515, -36.8197069896865], [175.048272103443, -36.8197069869838], [175.048266528214, -36.8196859104618], [175.048266522467, -36.8196859051529], [175.048254271692, -36.8196812825522], [175.047753758923, -36.8194924652118], [175.047728768261, -36.8194830345465], [175.047728747995, -36.8194830312904], [175.047619639388, -36.8194864710853], [175.047451094375, -36.8194716727756], [175.047451088772, -36.8194716728721], [175.047363651684, -36.8194957044305], [175.047363649419, -36.8194957035682], [175.047321570992, -36.8194191827382], [175.047321567487, -36.8194191773908], [175.047251438433, -36.8193415254389], [175.046986258373, -36.8193058545473], [175.046663849853, -36.8192261058225], [175.046663841937, -36.8192261032548], [175.04649047773, -36.8191808124126], [175.046490470983, -36.8191808116274], [175.046404360998, -36.8191790755974], [175.046404348696, -36.8191790767105], [175.046298874296, -36.8192018154984], [175.0462988665, -36.8192018174353], [175.045931443576, -36.819311139124], [175.0459314369, -36.8193111410415], [175.0457111855, -36.8193841342705], [175.045711182186, -36.8193841361301], [175.045501421682, -36.8194568970448], [175.045382716265, -36.8195281998212], [175.045334704568, -36.8195290241886], [175.045334694411, -36.8195290216595], [175.045287999137, -36.8195040847261], [175.04528798786, -36.8195040822162], [175.045231970941, -36.8195050397816], [175.045231962048, -36.8195050426385], [175.04518105887, -36.8195477598836], [175.045181056677, -36.8195477617239], [175.045131104745, -36.8197015207532], [175.045131103744, -36.819701525277], [175.045127326417, -36.8197852748391], [175.045127327705, -36.8197852811261], [175.045170679992, -36.8199100674686], [175.045196189644, -36.8199659539306], [175.045196188715, -36.8199659611571], [175.04517108007, -36.8200001876953], [175.04517352094, -36.8200918834424], [175.045139652148, -36.8201729366955]]]}, "properties": {"OBJECTID": 6010, "TRACKNAME": "Hitapa Bay Track", "CONDITIONSOFUSE": "Wairua South Reserve", "STATUS": "Open", "WEBLINK": "https://www.aucklandcouncil.govt.nz/en/parks-recreation/find-park-beach/park-detail/1398.html", "VALIDATIONSTATE": 3, "created_user": "AC_owner", "last_edited_user": "AC_owner", "last_edited_date": 1789875254325, "created_date": 1789875254325, "PARK_SAPSITEID": null, "TRACK_ID": null, "KAURIDIEBACK_TRACK": null, "KAURIDIEBACK_MITIGATED": null, "SegmentID": null, "GlobalID": "403c8d57-0d0e-4555-8fa7-0a002672a68f", "Shape__Length": 2111.3399320525846}}]}