{"type": "FeatureCollection", "features": [{"type": "Feature", "id": 8828, "geometry": {"type": "MultiLineString", "coordinates": [[[175.072575753765, -36.787436593412], [175.072593098917, -36.7874400359951], [175.072594024235, -36.7874396097709], [175.07259640021, -36.7874327607823], [175.072611341665, -36.7873896639114], [175.072595352449, -36.7873860976499]], [[175.072611341665, -36.7873896639114], [175.072612596509, -36.7873890742142]], [[175.072612596509, -36.7873890742142], [175.072621234815, -36.7873907298547], [175.072622251671, -36.7873904570594], [175.072650612977, -36.7873597066978], [175.072657083807, -36.787331741709], [175.072657165161, -36.7873316835085], [175.072670775452, -36.7873309271024], [175.07269238927, -36.7873297274358], [175.072717817664, -36.787321837563], [175.072738106319, -36.7873155406636], [175.072779028258, -36.7873004748706]], [[175.072772728762, -36.7873429470207], [175.0727739613, -36.7873441495091], [175.072774735285, -36.7873452599462], [175.07278185481, -36.7873486473246], [175.072784503016, -36.7873504461342], [175.072789013645, -36.787354616262], [175.072791126278, -36.7873575816863], [175.072793724302, -36.7873635895729], [175.072794054785, -36.7873657487511], [175.072793539164, -36.7873733945144], [175.072793446738, -36.7873736656164], [175.072789745697, -36.7873801609623], [175.072788000562, -36.7873823085553], [175.072784475451, -36.7873850613112], [175.072777698398, -36.7873887693607], [175.072774184254, -36.7873898914607], [175.072766000887, -36.7873911463326], [175.072764259702, -36.7873911117921], [175.072754516533, -36.7873895403169], [175.072753694097, -36.7873892932751], [175.072747363413, -36.7873860291421], [175.072743896626, -36.7873835857463], [175.072741394489, -36.7873808866877], [175.07273755106, -36.787375028496], [175.072737303933, -36.78737425768], [175.072736504448, -36.7873681670645], [175.072736758489, -36.7873635803909], [175.072737795145, -36.7873605492499], [175.072741002677, -36.7873550764792], [175.072742005864, -36.7873540053632], [175.072746389159, -36.7873502480131], [175.072749896212, -36.7873479894894], [175.072752987763, -36.7873467792186], [175.072762038696, -36.7873446601924], [175.072770749004, -36.7873441640483], [175.072772728762, -36.7873429470207]], [[175.072752715816, -36.7871359952795], [175.072761271683, -36.7871545951175], [175.072762842609, -36.7871580008106], [175.07278143176, -36.7871983374151], [175.072783146225, -36.787202038037], [175.072789527425, -36.7872160349533], [175.072779968691, -36.7872943719497], [175.072777389777, -36.7873154795517], [175.07277469955, -36.7873313335728], [175.072774503326, -36.7873324933705], [175.072772728762, -36.7873429470207]]]}, "properties": {"OBJECTID": 8828, "TRACKNAME": "Homersham Res Paths", "CONDITIONSOFUSE": "Homersham Reserve", "STATUS": "Open", "WEBLINK": "https://www.aucklandcouncil.govt.nz/en/parks-recreation/find-park-beach/park-detail/26.html", "VALIDATIONSTATE": 3, "created_user": "AC_owner", "last_edited_user": "AC_owner", "last_edited_date": 1789875254325, "created_date": 1789875254325, "PARK_SAPSITEID": null, "TRACK_ID": null, "KAURIDIEBACK_TRACK": null, "KAURIDIEBACK_MITIGATED": null, "SegmentID": null, "GlobalID": "6a8bc3af-f566-4896-9b67-ff0f60539b0a", "Shape__Length": 68.93154527953942}}]}