{"type": "FeatureCollection", "features": [{"type": "Feature", "id": 1705, "geometry": {"type": "LineString", "coordinates": [[174.480216024877, -36.9773183630536], [174.480121179433, -36.9773205282516], [174.479960244968, -36.9773426262849], [174.480053563601, -36.9771253430451], [174.480067213259, -36.9770766074342], [174.480007061701, -36.9768862775988], [174.479926986298, -36.9768070366922], [174.479914705514, -36.9767744793569], [174.479915110532, -36.9767368063638], [174.48003221218, -36.9764093324722], [174.48011120419, -36.9762969481141], [174.480124846268, -36.976120237115], [174.480145460408, -36.9759531558617], [174.480120599739, -36.9759387105526], [174.480010665932, -36.9759256775254], [174.479994016045, -36.975914050229], [174.48002079216, -36.9758806453765], [174.480216122195, -36.9757036518456], [174.480307450603, -36.975551940293], [174.480323447661, -36.9755113146762], [174.480282850344, -36.9754906209057], [174.480254575716, -36.9754576771647], [174.480063326519, -36.9751261160586], [174.480075119974, -36.975119605387], [174.480100733037, -36.9751224498027], [174.480314824356, -36.9751705718871], [174.480390114136, -36.9750405577831], [174.480406910933, -36.9749896105889], [174.480403786583, -36.9749466365213], [174.480391480434, -36.9749249409632], [174.480282950621, -36.9748584668876], [174.480261454522, -36.9748367507143], [174.480273543647, -36.9748025915376], [174.480341856149, -36.9747206800684], [174.480399634933, -36.9747659740661], [174.480478512081, -36.9747996927902], [174.480788820864, -36.9748882388786], [174.480830623547, -36.9748894029385], [174.480902604352, -36.9748744887526], [174.480941026459, -36.9748594704193], [174.480984055058, -36.9748311445684], [174.481030721428, -36.974783583301], [174.481052519444, -36.9747003048312], [174.481048830957, -36.9746357772231], [174.481000591911, -36.97452335721], [174.48101668542, -36.974447162519], [174.481044381188, -36.9743818467326], [174.481183498517, -36.9742400931966], [174.481254887134, -36.9741911867857], [174.481420924839, -36.9741012228532], [174.481504129879, -36.974027318251], [174.481753554138, -36.9737135412817], [174.481795613652, -36.9736109549395], [174.481858255652, -36.9734997740323], [174.481897650258, -36.9734468950278], [174.48218506322, -36.973128424523], [174.482409713597, -36.9729462390203], [174.482430231635, -36.9729181126444], [174.48245244253, -36.9728579577279], [174.482481281231, -36.9728232736714], [174.482589856968, -36.9727769396306], [174.482764037763, -36.9727357710727], [174.482842289933, -36.9727089695375], [174.482930330025, -36.9726539682222], [174.483098658161, -36.9725132716971], [174.483216154817, -36.9723698029331], [174.483238031882, -36.9723121668455], [174.48324864954, -36.9722167511069], [174.483283542642, -36.9721542833114], [174.483410829238, -36.971989140438], [174.483537400045, -36.9718780070257], [174.483624261981, -36.9718329889999], [174.483973706173, -36.9717424777646], [174.484052514183, -36.9717293331529], [174.484334141983, -36.971708370555], [174.484382174435, -36.9716949074852], [174.484417554242, -36.9716708583734], [174.484428295856, -36.9716351112038], [174.484414980937, -36.9715615101732], [174.484373099015, -36.9715006510883], [174.48433626579, -36.9714718444158], [174.48410917715, -36.9714204217365], [174.48379459849, -36.9713827744285], [174.483751968264, -36.9713626119937], [174.483717561533, -36.9713285829453], [174.483734823786, -36.9711455347192], [174.483723750799, -36.9709906386885], [174.483710752309, -36.9709419743231], [174.483685242882, -36.9709033182251], [174.483643762244, -36.9708619232931], [174.483549306626, -36.9707963668788], [174.483411894178, -36.970718097164], [174.48328639578, -36.9706059944778], [174.483268183428, -36.9705670758463], [174.483259687938, -36.970511360581], [174.48326596881, -36.9704923264344], [174.48331688948, -36.9704546441377], [174.483322534194, -36.9704277219962], [174.483311166304, -36.9704005437282], [174.48322842681, -36.9703360755133], [174.483037607784, -36.9702362089706], [174.482829578343, -36.9700754897402], [174.482793264619, -36.9700241780542], [174.482749664103, -36.969875781401], [174.482728802012, -36.9698380675472], [174.482606079774, -36.9697276510304], [174.482418190855, -36.9696177237034], [174.482356987322, -36.9695399251615]]}, "properties": {"OBJECTID": 1705, "TRACKNAME": "Horoeka Track", "CONDITIONSOFUSE": "Waitakere West Regional Park", "STATUS": "Temp Closed", "WEBLINK": "https://www.aucklandcouncil.govt.nz/en/parks-recreation/find-park-beach/park-detail/3451.html", "VALIDATIONSTATE": 3, "created_user": "AC_owner", "last_edited_user": "AC_owner", "last_edited_date": 1789875254325, "created_date": 1789875254325, "PARK_SAPSITEID": null, "TRACK_ID": null, "KAURIDIEBACK_TRACK": null, "KAURIDIEBACK_MITIGATED": null, "SegmentID": null, "GlobalID": "d7d12fdf-7a01-4519-aa5d-6c18f4141af3", "Shape__Length": 1288.8472197390288}}]}