{"type": "FeatureCollection", "features": [{"type": "Feature", "id": 32, "geometry": {"type": "LineString", "coordinates": [[174.358470066247, -36.3354931224807], [174.358710211166, -36.33557148729], [174.358919717094, -36.3357527600105], [174.359474388976, -36.336287877616], [174.360433234546, -36.3370092016349]]}, "properties": {"OBJECTID": 32, "TRACKNAME": "Horse Riding Track", "CONDITIONSOFUSE": "Atiu Regional Park", "STATUS": "Open", "WEBLINK": "https://www.aucklandcouncil.govt.nz/en/parks-recreation/find-park-beach/park-detail/205.html", "VALIDATIONSTATE": 3, "created_user": "AC_owner", "last_edited_user": "AC_owner", "last_edited_date": 1789875254325, "created_date": 1789875254325, "PARK_SAPSITEID": null, "TRACK_ID": null, "KAURIDIEBACK_TRACK": null, "KAURIDIEBACK_MITIGATED": null, "SegmentID": null, "GlobalID": "eeb98ec2-a7aa-402f-b988-1cc1f601d371", "Shape__Length": 245.7772823632121}}, {"type": "Feature", "id": 810, "geometry": {"type": "LineString", "coordinates": [[174.367080166805, -36.339510777302], [174.366866834805, -36.3393315625067], [174.366620639508, -36.3390767836699], [174.36628758464, -36.3385749446363], [174.366293875482, -36.3382600346885], [174.366295438541, -36.3380119630201], [174.366368073298, -36.3377821591079], [174.366234303734, -36.3375499456299], [174.366200126876, -36.3373654879875], [174.366157936739, -36.3371441528025], [174.366050862725, -36.3369211749886], [174.365806709409, -36.3366138983625], [174.365640689097, -36.3363915929836], [174.365606228083, -36.3362751152669], [174.365610646026, -36.3362141130069]]}, "properties": {"OBJECTID": 810, "TRACKNAME": "Horse Riding Track", "CONDITIONSOFUSE": "Atiu Regional Park", "STATUS": "Open", "WEBLINK": "https://www.aucklandcouncil.govt.nz/en/parks-recreation/find-park-beach/park-detail/205.html", "VALIDATIONSTATE": 3, "created_user": "AC_owner", "last_edited_user": "AC_owner", "last_edited_date": 1789875254325, "created_date": 1789875254325, "PARK_SAPSITEID": null, "TRACK_ID": null, "KAURIDIEBACK_TRACK": null, "KAURIDIEBACK_MITIGATED": null, "SegmentID": null, "GlobalID": "e93499c7-803c-4f1e-a8b1-d7643a1189f7", "Shape__Length": 405.3606176994067}}, {"type": "Feature", "id": 925, "geometry": {"type": "LineString", "coordinates": [[174.358721012911, -36.3417441300913], [174.358233737251, -36.3422213201519], [174.357183971525, -36.3422093975149], [174.356357231492, -36.3421376901132], [174.355697982467, -36.3418637256882], [174.355561151989, -36.341793724143], [174.355324765038, -36.3417630135412], [174.354934028233, -36.341672040009], [174.354542880376, -36.3415572179274], [174.354407207789, -36.3415539853111], [174.354085284433, -36.3416912016282], [174.353714794074, -36.3417478722372], [174.353097199606, -36.3418359627093], [174.352991415898, -36.3418562419407], [174.352927805458, -36.3419285161763], [174.35292945562, -36.3420239024825], [174.35217111457, -36.3421565141463], [174.351641943526, -36.3422435955544], [174.351671379869, -36.3418998034674], [174.351685069271, -36.3413272149368], [174.351691666115, -36.3410266135594], [174.351637169307, -36.3406026748405], [174.35147359358, -36.3400082411377], [174.351374245153, -36.3397183781763], [174.351315751065, -36.339404201158], [174.351445651193, -36.3390735826849], [174.351434152051, -36.3387493339319], [174.351212412063, -36.3385419491933], [174.351022289557, -36.3384582341273], [174.350758510285, -36.33786493115], [174.350726894684, -36.33774126184], [174.35081095285, -36.3374874867628], [174.350858899981, -36.3371911874352], [174.350605386311, -36.3368505928014], [174.350691714431, -36.336386899639], [174.351128388614, -36.3360671251076], [174.351180288238, -36.3359997538828], [174.351513242468, -36.3358194882586], [174.35180320073, -36.3355395324506], [174.352321071982, -36.3351425095056], [174.352723684036, -36.3348994393035], [174.352945620665, -36.3347776696683], [174.353127366022, -36.3347183676505], [174.353990465274, -36.3348517001114], [174.354066518588, -36.3348174461525], [174.354118002055, -36.3347262273398], [174.354472623586, -36.3344359921201], [174.354839195432, -36.3341551597059], [174.355072254512, -36.3339950981976], [174.35528886825, -36.3339067767967], [174.355522505253, -36.3337800991487], [174.355678601237, -36.3336018281032], [174.356042826067, -36.3332929595644]]}, "properties": {"OBJECTID": 925, "TRACKNAME": "Horse Riding Track", "CONDITIONSOFUSE": "Atiu Regional Park", "STATUS": "Open", "WEBLINK": "https://www.aucklandcouncil.govt.nz/en/parks-recreation/find-park-beach/park-detail/205.html", "VALIDATIONSTATE": 3, "created_user": "AC_owner", "last_edited_user": "AC_owner", "last_edited_date": 1789875254325, "created_date": 1789875254325, "PARK_SAPSITEID": null, "TRACK_ID": null, "KAURIDIEBACK_TRACK": null, "KAURIDIEBACK_MITIGATED": null, "SegmentID": null, "GlobalID": "cb0ea763-428b-4a9b-ad3f-39b087769595", "Shape__Length": 2005.869460975054}}, {"type": "Feature", "id": 1042, "geometry": {"type": "LineString", "coordinates": [[174.358876437813, -36.3417982337085], [174.358818310827, -36.3417241703731], [174.358780896632, -36.3416153831541], [174.358736178582, -36.341495183472], [174.358676555463, -36.3413349162853], [174.358639240402, -36.341231876538], [174.358608929847, -36.3411230084795], [174.358571614968, -36.3410199678022], [174.358505688083, -36.3409057569102], [174.358432955523, -36.34080886751], [174.358395941605, -36.3407230675075], [174.358366130688, -36.3406429342611], [174.358342524601, -36.3405109979873], [174.358362836816, -36.3404532868412], [174.358395658273, -36.3402977171698], [174.358422474546, -36.3402054437488], [174.358504121995, -36.3399975864654], [174.358537443236, -36.3398707507355], [174.358612485078, -36.3396917081456], [174.358632597247, -36.3396225037172], [174.358673819785, -36.3395415619381], [174.358722045407, -36.3394547936601], [174.35881159303, -36.339292830158], [174.358930352033, -36.3391765191143], [174.359048611382, -36.339031473064], [174.359201887834, -36.3388572889126], [174.359333653999, -36.3386718528609], [174.35941699558, -36.3385616928988], [174.359527850553, -36.3383994864511], [174.359576574021, -36.3383414518366], [174.359617794954, -36.338260510651], [174.359630901799, -36.3381971326129], [174.359657216472, -36.3380761249393], [174.359684431289, -36.3380068386087], [174.359718647888, -36.3379317248427], [174.35980128878, -36.3377813355998], [174.359899034242, -36.3376825068958], [174.359975570947, -36.3375896672522], [174.360052506063, -36.3375198149453], [174.360121938521, -36.3374270560687], [174.360219283388, -36.3373052397449], [174.360246396407, -36.3372302066893], [174.360336837961, -36.3371199643635], [174.360385661111, -36.3370676760407], [174.360476385903, -36.3369693838404]]}, "properties": {"OBJECTID": 1042, "TRACKNAME": "Horse Riding Track", "CONDITIONSOFUSE": "Atiu Regional Park", "STATUS": "Open", "WEBLINK": "https://www.aucklandcouncil.govt.nz/en/parks-recreation/find-park-beach/park-detail/205.html", "VALIDATIONSTATE": 3, "created_user": "AC_owner", "last_edited_user": "AC_owner", "last_edited_date": 1789875254325, "created_date": 1789875254325, "PARK_SAPSITEID": null, "TRACK_ID": null, "KAURIDIEBACK_TRACK": null, "KAURIDIEBACK_MITIGATED": null, "SegmentID": null, "GlobalID": "574d8945-048b-4ec2-bb26-d5c4edf8c705", "Shape__Length": 594.7275886181708}}, {"type": "Feature", "id": 1171, "geometry": {"type": "LineString", "coordinates": [[174.37492970635, -36.3361645780852], [174.375076315642, -36.3362141285669], [174.375186317623, -36.3362365117123], [174.375310618636, -36.3362409929442], [174.375493781848, -36.3362684455437], [174.375632591971, -36.3362668476124], [174.375844977988, -36.3362939623472], [174.375976481635, -36.3362924481424], [174.376115602625, -36.3363085824038], [174.376203687709, -36.3363312161049], [174.376292083751, -36.3363715833939], [174.376358979703, -36.3364358455053], [174.376441735879, -36.3365708711166], [174.376495164395, -36.3367003217965], [174.376732775669, -36.337330178692], [174.376763455285, -36.3374125941484], [174.376793719923, -36.3374713671396], [174.376853622784, -36.3375534458532], [174.37690642949, -36.3376474308236], [174.37695850681, -36.3377000397077], [174.377003174624, -36.3377468221455], [174.377033126257, -36.3377878614476], [174.377055668334, -36.3378230743232], [174.377056604928, -36.3378762725124], [174.377058269984, -36.3379708467695], [174.37705304576, -36.3380891485551], [174.377040931126, -36.338231178782], [174.377042492124, -36.338319842425], [174.377065658778, -36.3383905207487], [174.37711147185, -36.3385023225314], [174.377157493215, -36.3386259464099], [174.377188173828, -36.3387083617195], [174.377196832471, -36.3387851190306], [174.377219895338, -36.338849886705], [174.377213838698, -36.3389209018101], [174.377215087684, -36.3389918327112], [174.377216128503, -36.3390509414944], [174.377217065248, -36.3391041396692], [174.377232302157, -36.3391394366975], [174.377276970967, -36.3391862180996], [174.377336875715, -36.3392682974104], [174.377440826129, -36.3393616925641], [174.377552393685, -36.3394727361302], [174.377633905869, -36.3395368289527], [174.377686089099, -36.3395953489736], [174.377753093152, -36.3396655216945], [174.377819889059, -36.3397238722617], [174.377850154304, -36.3397826440386], [174.37784368165, -36.3398300149294], [174.377844410592, -36.3398713918721], [174.377823325376, -36.3399189312605], [174.377780217741, -36.3399608136752], [174.377715087612, -36.3399970363893], [174.377686904818, -36.3400564830048], [174.377658617852, -36.340110018107], [174.377645046448, -36.3401692953456], [174.377631683268, -36.3402403946953], [174.377618008825, -36.340293761312], [174.377604541475, -36.3403589491512], [174.377583768352, -36.3404242221189], [174.377570196845, -36.3404834993484], [174.377564140445, -36.3405545144483], [174.377565077478, -36.3406077126019], [174.377580627191, -36.3406607413838], [174.377567263882, -36.3407318407235], [174.377560999248, -36.3407910346103], [174.377569242077, -36.3408441476321], [174.377570699711, -36.3409269006114], [174.377587186577, -36.3410331284389], [174.377595637699, -36.341098063567], [174.377618701639, -36.3411628311183], [174.377612957614, -36.3412515789285], [174.377584773191, -36.3413110246307], [174.37754166578, -36.3413529060549], [174.3775060713, -36.3414065253625], [174.377455865043, -36.3414603131067], [174.37744218918, -36.3415136797127], [174.377421311527, -36.3415730411431], [174.377385612752, -36.3416207489106], [174.377364319734, -36.3416564669978], [174.377306702126, -36.3417044283081], [174.377212449766, -36.3417468991468], [174.377118197303, -36.341789369913], [174.37707498419, -36.3418253405839], [174.376966326787, -36.3418798017587], [174.376901298793, -36.3419219364684], [174.376843472551, -36.3419580745491], [174.376807566249, -36.3419939609274], [174.37677176287, -36.3420357588155], [174.376729277858, -36.3421131054113], [174.376678966553, -36.3421609813365], [174.376593059718, -36.3422624771926], [174.376521141407, -36.3423283383008], [174.376463210672, -36.3423585665001], [174.376434193829, -36.3423707252798], [174.376397661836, -36.3423711461112]]}, "properties": {"OBJECTID": 1171, "TRACKNAME": "Horse Riding Track", "CONDITIONSOFUSE": "Atiu Regional Park", "STATUS": "Open", "WEBLINK": "https://www.aucklandcouncil.govt.nz/en/parks-recreation/find-park-beach/park-detail/205.html", "VALIDATIONSTATE": 3, "created_user": "AC_owner", "last_edited_user": "AC_owner", "last_edited_date": 1789875254325, "created_date": 1789875254325, "PARK_SAPSITEID": null, "TRACK_ID": null, "KAURIDIEBACK_TRACK": null, "KAURIDIEBACK_MITIGATED": null, "SegmentID": null, "GlobalID": "e23f81fb-aaad-413c-a59b-c62e55e3e0a8", "Shape__Length": 883.9804679460206}}, {"type": "Feature", "id": 1721, "geometry": {"type": "LineString", "coordinates": [[174.360433234546, -36.3370092016349], [174.360527676591, -36.3370152822158], [174.36077173203, -36.3369791110417], [174.36156483607, -36.3368150432219], [174.361803410325, -36.33680278342], [174.362190850071, -36.3368746918408], [174.362488248246, -36.3368546051339], [174.362945221584, -36.3368565495829], [174.363385836988, -36.336765657458], [174.363318000898, -36.336594701985], [174.363311769881, -36.3364063475549]]}, "properties": {"OBJECTID": 1721, "TRACKNAME": "Horse Riding Track", "CONDITIONSOFUSE": "Atiu Regional Park", "STATUS": "Open", "WEBLINK": "https://www.aucklandcouncil.govt.nz/en/parks-recreation/find-park-beach/park-detail/205.html", "VALIDATIONSTATE": 3, "created_user": "AC_owner", "last_edited_user": "AC_owner", "last_edited_date": 1789875254325, "created_date": 1789875254325, "PARK_SAPSITEID": null, "TRACK_ID": null, "KAURIDIEBACK_TRACK": null, "KAURIDIEBACK_MITIGATED": null, "SegmentID": null, "GlobalID": "31262bf7-7c8e-483e-9a6e-cd9466084837", "Shape__Length": 310.8332926545988}}, {"type": "Feature", "id": 1934, "geometry": {"type": "LineString", "coordinates": [[174.376397661836, -36.3423711461112], [174.376368157582, -36.3423728958688], [174.376336203795, -36.342364685607], [174.376312201018, -36.3423563846533], [174.376274795649, -36.3423396588322], [174.37622697876, -36.3423337758408], [174.376203012622, -36.3423276190273], [174.376168446272, -36.3423215833954], [174.376123241999, -36.3423135256871], [174.376077961179, -36.3423011805758], [174.376046082905, -36.3422972585349], [174.375976761646, -36.3422744673201], [174.375915542285, -36.3422601602053], [174.375825689754, -36.3422594910845], [174.375635310383, -36.3422380349462], [174.375423116122, -36.3422227414265], [174.375174182111, -36.342196045863], [174.374991108979, -36.3421745046056], [174.374851769866, -36.3421465471453], [174.374705227713, -36.3421245851016], [174.374551380818, -36.3421027069104], [174.374434479192, -36.3421040516762], [174.374259128968, -36.3421060685849], [174.37414963823, -36.3421132396427], [174.374040043619, -36.3421144999879], [174.373879824432, -36.3421459031764], [174.373777640647, -36.3421529898764], [174.373632448442, -36.3422078680925], [174.373471917449, -36.342221537998], [174.373362322655, -36.3422227977248], [174.373106290834, -36.3422080039421], [174.373018615002, -36.342209011463], [174.372835853601, -36.3422051987373], [174.372718745353, -36.3421947205835], [174.372572412214, -36.3421845771326], [174.372418772047, -36.342174517431], [174.37216263679, -36.3421538110014], [174.37204542386, -36.3421374206778], [174.371906604225, -36.3421390146504], [174.371782086533, -36.3421227079388], [174.371620725932, -36.3420890877073], [174.371525744236, -36.3420901779974], [174.371386923541, -36.3420917713774], [174.371291941833, -36.3420928614818], [174.37121157312, -36.342093783814], [174.371094879726, -36.3421069474412], [174.370963366035, -36.3421084564815], [174.370846154501, -36.3420920649615], [174.370743658497, -36.3420814163198], [174.370677590864, -36.3420644378996], [174.370611108885, -36.3420238160557], [174.370515298539, -36.3419776187663], [174.37043379052, -36.3419135201281], [174.370337566107, -36.3418436783993], [174.370256678678, -36.3418150460836], [174.370160868777, -36.3417688475973], [174.370021014199, -36.3417113304323], [174.369903389276, -36.3416712945748], [174.369785866881, -36.3416371692353], [174.369726589198, -36.3415905515862], [174.369651559964, -36.3414790818412], [174.369621091961, -36.3414084857491], [174.369583422776, -36.3413438849018], [174.36953813612, -36.3412616341154], [174.369492332037, -36.3411498292827], [174.369476270118, -36.3410672435082], [174.369438083708, -36.3409730876768], [174.369393004433, -36.3409026589747], [174.369355231087, -36.3408321474282], [174.36929595428, -36.3407855295409], [174.369243775288, -36.3407270066638], [174.369199110261, -36.3406802212849], [174.369176777776, -36.3406568290393]]}, "properties": {"OBJECTID": 1934, "TRACKNAME": "Horse Riding Track", "CONDITIONSOFUSE": "Atiu Regional Park", "STATUS": "Open", "WEBLINK": "https://www.aucklandcouncil.govt.nz/en/parks-recreation/find-park-beach/park-detail/205.html", "VALIDATIONSTATE": 3, "created_user": "AC_owner", "last_edited_user": "AC_owner", "last_edited_date": 1789875254325, "created_date": 1789875254325, "PARK_SAPSITEID": null, "TRACK_ID": null, "KAURIDIEBACK_TRACK": null, "KAURIDIEBACK_MITIGATED": null, "SegmentID": null, "GlobalID": "a152e213-111c-473d-a2d6-1f7c110f8349", "Shape__Length": 738.2001976034715}}, {"type": "Feature", "id": 2694, "geometry": {"type": "LineString", "coordinates": [[174.369176777776, -36.3406568290393], [174.369117294266, -36.3405983898041], [174.368984437944, -36.3405230548609], [174.368844379529, -36.3404537140854], [174.36871965817, -36.3404255819505], [174.368557680563, -36.3403564919127], [174.36840311468, -36.3402932294858], [174.368255853691, -36.3402298823065], [174.368130098885, -36.340142640547], [174.367981804527, -36.3400201849184], [174.367922735921, -36.3399853884743], [174.367812213626, -36.3399334446695], [174.367680083216, -36.3398994844337], [174.367451630243, -36.3397897692329], [174.367355721111, -36.3397376577621], [174.367244682868, -36.3396561584527], [174.367133438221, -36.3395628377693], [174.367088569605, -36.3395042302738], [174.367036289811, -36.3394397957344], [174.366997797222, -36.3393279053175], [174.366951894659, -36.3392101887412], [174.366928220298, -36.3391099542087], [174.366897343615, -36.3390157129736], [174.366866465911, -36.3389214726416], [174.366858023969, -36.338856536537], [174.36685678438, -36.3387856053263], [174.366862333936, -36.3386850355729], [174.366883218965, -36.3386256758058], [174.366890009218, -36.3385960381509], [174.366933017672, -36.3385482489272], [174.366990949467, -36.3385180253122], [174.367070695894, -36.3384816411803], [174.36717246239, -36.3384509159656], [174.367266923192, -36.3384202742601], [174.367332573712, -36.3384136112242], [174.367405013131, -36.3383773095834], [174.367470560247, -36.3383647349386], [174.367557921923, -36.3383459987799], [174.367623365636, -36.3383275134199], [174.367695908206, -36.3382971231403], [174.367760524917, -36.3382313499452], [174.367847576254, -36.3381948807815], [174.367905196199, -36.3381469248515], [174.367977429444, -36.3380988006952], [174.368042459307, -36.3380566716833], [174.368136919274, -36.3380260293053], [174.368209151165, -36.3379779059274], [174.368252573199, -36.3379537605631], [174.368318119811, -36.3379411854629], [174.368390661728, -36.3379107938716], [174.368455691209, -36.3378686646416], [174.368492116693, -36.3378623356644], [174.368564556162, -36.3378260333267], [174.368637511603, -36.3378192859137], [174.368695751369, -36.3378067942988], [174.36874679013, -36.3378002978582], [174.368805029863, -36.3377878061908], [174.368834254284, -36.3377874714144], [174.368863374148, -36.3377812260137], [174.368929230862, -36.3377863833736], [174.368973169825, -36.3377917918032], [174.369060944328, -36.3377966988853], [174.369104778731, -36.3377961966496], [174.369178045596, -36.3378071807827], [174.369243798877, -36.3378064273393], [174.369360900194, -36.3378169099579], [174.369419553782, -36.3378280614081], [174.369499919287, -36.3378271403608], [174.369580283674, -36.3378262192723], [174.369646243977, -36.3378372877644], [174.369704795225, -36.3378425284328], [174.369763138347, -36.3378359478298], [174.36986542161, -36.3378347752854], [174.369916459162, -36.3378282783595], [174.369952678545, -36.3378101267715], [174.370025219675, -36.3377797342031], [174.370097864298, -36.3377552531199], [174.370185328148, -36.3377424256926], [174.370265693539, -36.3377415041323], [174.370345954259, -36.3377346719044], [174.370404712597, -36.3377517343841], [174.370478496312, -36.3377922726619], [174.370508237461, -36.3378214924204], [174.370596529935, -36.3378559524009], [174.370692024442, -36.3378844169855], [174.370780109891, -36.3379070555766], [174.370868298967, -36.3379356038249], [174.370985193424, -36.3379342626921], [174.371080066485, -36.337927262314], [174.371182349812, -36.3379260886399], [174.371299036972, -36.3379129250515], [174.371379505034, -36.3379179142762], [174.371431372727, -36.3379587034818], [174.371461114273, -36.3379879220922], [174.371476452029, -36.3380291314455], [174.371498680771, -36.3380466126495], [174.371528526036, -36.3380817427657], [174.371580081842, -36.3381047991446], [174.371638426085, -36.3380982176126], [174.371695939903, -36.3380443483806], [174.371746562741, -36.3380142063808], [174.371826098982, -36.3379659960822], [174.371876825404, -36.3379417655525], [174.371912837019, -36.3379117921346], [174.371956050464, -36.3378758233035], [174.372006465716, -36.3378338590517], [174.372035377941, -36.3378157907377], [174.372071596806, -36.3377976385177], [174.372129732281, -36.3377792355204], [174.372187972519, -36.3377667422028], [174.372239113497, -36.3377661549112], [174.372333778787, -36.3377473314001], [174.372450570293, -36.3377400782059], [174.372523628959, -36.3377392390495], [174.372611092336, -36.3377264098551], [174.37269834822, -36.3377017593564], [174.372727363964, -36.3376896014994], [174.372770888129, -36.3376713651452], [174.372821717797, -36.3376530448437], [174.37287995782, -36.3376405511929], [174.372952601365, -36.337616068395], [174.373047370057, -36.3376031558465], [174.373105816428, -36.3376024842404], [174.37319338331, -36.3375955652442], [174.373309758246, -36.3375646678513], [174.373382298895, -36.3375342732632], [174.373491056751, -36.3374857260038], [174.373606912373, -36.3374252734315], [174.373708051907, -36.337359078117], [174.373787793883, -36.3373226886849], [174.373838519243, -36.3372984564403], [174.373918259997, -36.3372620678375], [174.37396157597, -36.3372320089224], [174.374041110018, -36.3371837971891], [174.374120642869, -36.3371355863187], [174.37420059212, -36.3371110187548], [174.374273338586, -36.3370924457883], [174.374368314104, -36.3370913534431], [174.374469972991, -36.3370547114754], [174.374542719336, -36.3370361383472], [174.374607744665, -36.3369940049474], [174.374672666063, -36.3369459617983], [174.374737483482, -36.3368920070979], [174.374765771378, -36.3368384726415], [174.374815768885, -36.3367728647789], [174.374873072835, -36.336707171927], [174.374923277959, -36.3366533852537], [174.374987887166, -36.3365876091919], [174.375045502566, -36.3365396490101], [174.375066069085, -36.3364625551876], [174.375087050094, -36.3364091047389], [174.375100726794, -36.3363557383429], [174.375092694021, -36.3363144462979], [174.375077562566, -36.336285059564], [174.375055125752, -36.3362557577952], [174.375025383557, -36.3362265391846], [174.37492970635, -36.3361645780852]]}, "properties": {"OBJECTID": 2694, "TRACKNAME": "Horse Riding Track", "CONDITIONSOFUSE": "Atiu Regional Park", "STATUS": "Open", "WEBLINK": "https://www.aucklandcouncil.govt.nz/en/parks-recreation/find-park-beach/park-detail/205.html", "VALIDATIONSTATE": 3, "created_user": "AC_owner", "last_edited_user": "AC_owner", "last_edited_date": 1789875254325, "created_date": 1789875254325, "PARK_SAPSITEID": null, "TRACK_ID": null, "KAURIDIEBACK_TRACK": null, "KAURIDIEBACK_MITIGATED": null, "SegmentID": null, "GlobalID": "481c7dd4-abc6-451d-9b89-be941c7c9ab6", "Shape__Length": 1220.955721221491}}, {"type": "Feature", "id": 2722, "geometry": {"type": "LineString", "coordinates": [[174.369176777776, -36.3406568290393], [174.369181850466, -36.3407666541697], [174.369161345014, -36.3408128738002], [174.369119730387, -36.3408708307934], [174.369006779698, -36.3409123609768], [174.368858311211, -36.3409542979542], [174.368751961576, -36.3409670126487], [174.368674427661, -36.3410023881623], [174.368618806403, -36.3410720018145], [174.368591297999, -36.3411240493064], [174.368556584758, -36.3411704306666], [174.368529478531, -36.3412454654199], [174.368481061768, -36.3413207442373], [174.368453251512, -36.3413555510175], [174.368418437539, -36.3413961857463], [174.368362113031, -36.3414255713151], [174.368320396947, -36.3414777814499], [174.368264071213, -36.3415071660857], [174.368222155044, -36.3415478820861], [174.368187944108, -36.3416229981165], [174.368174541011, -36.3416691362531], [174.368161239547, -36.3417210209692], [174.368111917326, -36.3417445775966], [174.36804138499, -36.3417741247924], [174.367998763764, -36.3417746127698], [174.367913722357, -36.3417870827689], [174.367807470807, -36.3418055432554], [174.367679608176, -36.3418070068799], [174.367544440259, -36.341797057586], [174.367402370174, -36.3417986835197], [174.367161052163, -36.3418129413105], [174.367047596737, -36.3418257349022], [174.366869807591, -36.3418162733688], [174.366734639732, -36.3418063231568], [174.366557051486, -36.341808354351], [174.366428987971, -36.341798323442], [174.366258303204, -36.3417887788505], [174.366108927989, -36.3417789903811], [174.365981065312, -36.3417804521874], [174.365896023529, -36.3417929207571], [174.365811282802, -36.341822629065], [174.365719539199, -36.3418581660037], [174.365613789852, -36.3419053593402], [174.365550861313, -36.3419635587068], [174.365466521642, -36.3420162549783], [174.365367975439, -36.3420691126282], [174.365311448595, -36.3420870026883], [174.365226406358, -36.3420994707901], [174.365127057354, -36.3421063536387], [174.365041814436, -36.3421073275072], [174.364928458485, -36.3421258666044], [174.364858125146, -36.3421669060557], [174.364780688518, -36.3422080266006], [174.364703250709, -36.3422491480107], [174.364647124699, -36.3422900250699], [174.364583693728, -36.3423194891338], [174.364477340311, -36.3423322000869], [174.364377990926, -36.34233908232], [174.364285644498, -36.3423401367641], [174.364214809375, -36.3423524419321], [174.364158081547, -36.3423588373487], [174.364087145018, -36.3423653949502], [174.363980491856, -36.3423608647405], [174.363916759893, -36.3423730886466], [174.363839021878, -36.3423969678829], [174.363768487265, -36.3424265125996], [174.363676842205, -36.3424677955058], [174.363577391242, -36.3424689304868], [174.363428316648, -36.3424763793886], [174.363278940356, -36.3424665874019], [174.363165284005, -36.3424678841161], [174.363051626532, -36.3424691807349], [174.362930864694, -36.3424705582827], [174.362831414811, -36.3424716926302], [174.362717757318, -36.3424729889316], [174.362603899561, -36.3424627919121], [174.36251825676, -36.3424407757472], [174.362432412678, -36.3424072672199], [174.362339465414, -36.342373838717], [174.3622041969, -36.3423581367808], [174.36210474713, -36.3423592705207], [174.36201270086, -36.3423775639338], [174.361878032871, -36.3423963430784], [174.361778783173, -36.3424089697648], [174.361665125721, -36.3424102650631], [174.361558571505, -36.3424114793112], [174.361431007692, -36.3424301769999], [174.361353067623, -36.3424425614295], [174.361268425529, -36.3424780140613], [174.361183682203, -36.3425077191362], [174.361084832331, -36.3425433334934], [174.360985981253, -36.3425789477832], [174.360859117045, -36.3426378729444], [174.360788781042, -36.3426789100512], [174.360732951501, -36.3427370260641], [174.360676923017, -36.342783648818], [174.360585575779, -36.3428421692262], [174.360521042979, -36.3428084157474], [174.360427696109, -36.3427519984057], [174.360362663598, -36.3426895099778], [174.360254710609, -36.3426102668888], [174.360175870552, -36.3425709283455], [174.359996782069, -36.3424867461219], [174.359889028485, -36.3424189968258], [174.35980208629, -36.3423222700342], [174.359687630631, -36.342277587825], [174.359594284988, -36.3422211698012], [174.359486831808, -36.3421706599665], [174.359357968093, -36.3421146458652], [174.359214598475, -36.3420415524802], [174.359085536524, -36.341974043931], [174.358970082034, -36.341871893067], [174.358876437813, -36.3417982337085]]}, "properties": {"OBJECTID": 2722, "TRACKNAME": "Horse Riding Track", "CONDITIONSOFUSE": "Atiu Regional Park", "STATUS": "Open", "WEBLINK": "https://www.aucklandcouncil.govt.nz/en/parks-recreation/find-park-beach/park-detail/205.html", "VALIDATIONSTATE": 3, "created_user": "AC_owner", "last_edited_user": "AC_owner", "last_edited_date": 1789875254325, "created_date": 1789875254325, "PARK_SAPSITEID": null, "TRACK_ID": null, "KAURIDIEBACK_TRACK": null, "KAURIDIEBACK_MITIGATED": null, "SegmentID": null, "GlobalID": "2b7cf151-9640-4187-8720-321c8867ef0c", "Shape__Length": 1076.4054577675163}}, {"type": "Feature", "id": 2887, "geometry": {"type": "LineString", "coordinates": [[174.380676339823, -36.34352285553], [174.380607848419, -36.3435459428607], [174.380497632677, -36.3435472163277], [174.380387416929, -36.3435484896931], [174.380325223477, -36.343538059788], [174.380228390857, -36.3435168833903], [174.380159112472, -36.343495387736], [174.380089539069, -36.3434571732905], [174.379985620533, -36.3434249301331], [174.379916047292, -36.3433867164843], [174.379846474101, -36.343348501892], [174.379784182547, -36.3433324990829], [174.379708311157, -36.3433278014577], [174.379618268879, -36.3433009714965], [174.379535312657, -36.3432852080599], [174.379444877268, -36.3432360865927], [174.379347848623, -36.3432037624282], [174.379251114945, -36.343188157841], [174.379167962334, -36.3431612480064], [174.379056861476, -36.3431123647734], [174.378973807275, -36.3430910274193], [174.378897543094, -36.3430640378942], [174.378786540789, -36.3430207270221], [174.378703388508, -36.3429938168562], [174.378537770667, -36.3429790065046], [174.378448220322, -36.3429800396466], [174.37834499173, -36.342986804265], [174.378227887325, -36.3429881550956], [174.378117574055, -36.3429838537297], [174.377972915597, -36.3429855221115], [174.377862307763, -36.3429645017427], [174.377765378266, -36.3429377497936], [174.377668547005, -36.3429165703869], [174.377516412547, -36.3428848809849], [174.377419286934, -36.3428469826027], [174.377308678315, -36.3428259617263], [174.377211552888, -36.3427880640725], [174.377114721949, -36.3427668842091], [174.377003918383, -36.342734717785], [174.376893213021, -36.3427081238805], [174.37681015868, -36.3426867850118], [174.376748064454, -36.3426819267441], [174.376685970219, -36.3426770675427], [174.376582447542, -36.3426671127578], [174.376520157148, -36.342651108219], [174.376464265673, -36.3426071611549], [174.37643573088, -36.3425517505129], [174.376420972518, -36.3424961811652], [174.376397661836, -36.3423711461112]]}, "properties": {"OBJECTID": 2887, "TRACKNAME": "Horse Riding Track", "CONDITIONSOFUSE": "Atiu Regional Park", "STATUS": "Open", "WEBLINK": "https://www.aucklandcouncil.govt.nz/en/parks-recreation/find-park-beach/park-detail/205.html", "VALIDATIONSTATE": 3, "created_user": "AC_owner", "last_edited_user": "AC_owner", "last_edited_date": 1789875254325, "created_date": 1789875254325, "PARK_SAPSITEID": null, "TRACK_ID": null, "KAURIDIEBACK_TRACK": null, "KAURIDIEBACK_MITIGATED": null, "SegmentID": null, "GlobalID": "0780d960-3af4-4478-83d0-66f380265dad", "Shape__Length": 427.13378308715664}}]}