{"type": "FeatureCollection", "features": [{"type": "Feature", "id": 1062, "geometry": {"type": "LineString", "coordinates": [[174.470096426621, -36.8926579366189], [174.470098414049, -36.8926682327768], [174.47010067221, -36.8926783678437], [174.470103376179, -36.8926889859395], [174.470106981828, -36.8927017967407], [174.470111516741, -36.8927168927476], [174.470116977537, -36.8927342731005], [174.470123366478, -36.8927539386727], [174.470129315696, -36.8927746084102], [174.470130982158, -36.892792684707], [174.470128136147, -36.8928079513716], [174.470120776539, -36.8928204084177], [174.470108904472, -36.8928300567319], [174.470093709427, -36.892837653171], [174.470078732613, -36.8928454524213], [174.470064206969, -36.8928536048344], [174.470050134705, -36.8928621085803], [174.470036515872, -36.8928709663626], [174.470023558645, -36.8928805001008], [174.470011924556, -36.8928917327832], [174.470001663299, -36.8929047395107], [174.469992772614, -36.8929195194104], [174.469985253658, -36.8929360742709], [174.469979285578, -36.8929536221858], [174.46997546488, -36.8929695616155], [174.46997383806, -36.8929836837669], [174.469974405084, -36.8929959868379], [174.469977168233, -36.893006472603], [174.469981493998, -36.8930158132146], [174.469985152145, -36.8930263879577], [174.469987946923, -36.8930384056696], [174.469989876106, -36.8930518672793], [174.469990941921, -36.8930667718579], [174.469991917863, -36.8930825491786], [174.46999570875, -36.8930970603889], [174.470002593461, -36.8931101010308], [174.470012570876, -36.8931216711176], [174.470025640979, -36.8931317697475], [174.470040502323, -36.8931414090436], [174.47005196449, -36.8931546192856], [174.470059491192, -36.8931718172364], [174.470063081324, -36.8931930038119], [174.470062733745, -36.8932181781251], [174.470058985093, -36.8932467079809], [174.47005409675, -36.8932759072394], [174.47004832443, -36.8933054752821], [174.470041667026, -36.8933354130242], [174.470034125658, -36.8933657204515], [174.470025982889, -36.893395800061], [174.47001851489, -36.8934229706937], [174.470011877054, -36.8934469086359], [174.470006068226, -36.8934676120992], [174.470001089563, -36.8934850828721], [174.469996678861, -36.8935001606759], [174.469991582386, -36.8935168721452], [174.469985634031, -36.8935357430346], [174.469978836039, -36.8935567733161], [174.469971187304, -36.8935799639045], [174.469963210746, -36.893605254247], [174.469957569266, -36.8936323436855], [174.469954638015, -36.8936611906219], [174.469954414753, -36.8936917950841], [174.46995690171, -36.8937241561431], [174.469961780739, -36.8937578351599], [174.469967337121, -36.8937904358623], [174.469973311447, -36.8938215982056], [174.469979704874, -36.8938513239783], [174.469986516246, -36.8938796113918], [174.46999357812, -36.8939067410431], [174.469999919465, -36.8939343357055], [174.470005382589, -36.893962657828], [174.470009967493, -36.8939917074107], [174.470013675279, -36.8940214835386], [174.470017467589, -36.8940516290857], [174.470027322579, -36.894079920297], [174.470044268768, -36.8941059757813], [174.470068306142, -36.8941297946343], [174.470099435811, -36.8941513759365], [174.470136157263, -36.8941711835307], [174.470168504538, -36.8941922936504], [174.470194645743, -36.8942152706964], [174.470214579768, -36.894240115588], [174.470228307733, -36.8942668283144], [174.47023681238, -36.894295508486], [174.470247115884, -36.8943268741259], [174.470260595695, -36.8943610659268], [174.470277249574, -36.8943980839151], [174.470297079754, -36.8944379271605], [174.470319464092, -36.8944798714443], [174.470339634183, -36.8945183602144], [174.47035659363, -36.8945522322134], [174.470370343567, -36.8945814883304], [174.470380883986, -36.8946061285667], [174.470388510247, -36.8946269244502], [174.470395668675, -36.8946502427636], [174.470402902682, -36.8946775000526], [174.470410212271, -36.8947086963172], [174.470417597441, -36.8947438315572], [174.470424971557, -36.8947822506436], [174.470431560555, -36.8948181195413], [174.470437183145, -36.89485006139], [174.470441838185, -36.8948780753029], [174.470445525691, -36.8949021621812], [174.470448697366, -36.8949226436333], [174.47045568999, -36.8949426406231], [174.470467592559, -36.8949629346834], [174.470484407336, -36.8949835266861], [174.470506132064, -36.8950044157555], [174.470532298726, -36.8950256581594], [174.470558008718, -36.8950478400351], [174.470581956517, -36.8950711190598], [174.470604140967, -36.8950954934461], [174.470624563224, -36.8951209649834], [174.470643111888, -36.8951476936938], [174.470658520592, -36.8951775268497], [174.470670431213, -36.8952109844725], [174.47067884375, -36.8952480665631], [174.470683759337, -36.8952887740096], [174.470685553364, -36.8953324342461], [174.47068891236, -36.8953706839831], [174.470695241557, -36.8954010171267], [174.470704539851, -36.8954234345917], [174.470716808346, -36.8954379354624], [174.470731914732, -36.8954449936966], [174.470748057184, -36.8954510692222], [174.470764667946, -36.8954582142883], [174.470781743636, -36.8954664280352], [174.470799286498, -36.8954757104348], [174.47081755059, -36.8954861421693], [174.470840375233, -36.8954989547547], [174.470869049943, -36.895514559474], [174.470903574746, -36.895532957224], [174.470943950753, -36.8955541470843], [174.470989589993, -36.8955780164464], [174.471030692274, -36.8956026621697], [174.471063770058, -36.895627406345], [174.471088823373, -36.8956522507816], [174.471105851073, -36.8956771945975], [174.47111532411, -36.8957022175422], [174.471125963466, -36.8957269628412], [174.471141053652, -36.8957512951754], [174.471160594657, -36.8957752136418], [174.471184586499, -36.8957987191394], [174.471212530385, -36.8958219602599], [174.471234006124, -36.8958480369823], [174.47124485697, -36.8958781833939], [174.471245084084, -36.8959124021875], [174.471234687437, -36.8959506924623], [174.471213998402, -36.8959927787976], [174.471190808429, -36.8960322082009], [174.471168407316, -36.8960662556351], [174.471146793929, -36.8960949202132], [174.471125969429, -36.8961182037242], [174.471105984879, -36.8961364273269], [174.471088207604, -36.8961582642468], [174.471073249515, -36.896187587327], [174.471061111735, -36.8962243965546], [174.471051792018, -36.8962686919582], [174.471045246544, -36.8963201198404], [174.47104008044, -36.8963677529785], [174.47103563448, -36.896406422939], [174.471031907563, -36.8964361306372], [174.471028901917, -36.8964568751442], [174.471026580126, -36.8964688119601], [174.47102368384, -36.8964775388823], [174.471019585572, -36.8964858552393], [174.471014283096, -36.89649376196], [174.471007776428, -36.8965012599453], [174.471000088131, -36.8965083552253], [174.470992096922, -36.896515397469], [174.470984269841, -36.8965225710834], [174.470976606853, -36.8965298742661], [174.470969107993, -36.8965373088196], [174.47096176924, -36.8965448991307], [174.470954318012, -36.896553879853], [174.470946602693, -36.8965649469225], [174.470938624387, -36.8965780994242], [174.470930380849, -36.8965933373857], [174.470921854678, -36.8966106312771], [174.470911767775, -36.8966280607701], [174.470899360925, -36.8966444860116], [174.47088463525, -36.896659906987], [174.470867590714, -36.8966743218932], [174.470848241039, -36.8966877440799], [174.470827821995, -36.8967011749967], [174.470807108795, -36.8967152432186], [174.470786103715, -36.89672995052], [174.470764806738, -36.8967452959997], [174.470743242548, -36.8967612793518], [174.470724205586, -36.8967777235629], [174.470709563326, -36.8967945117714], [174.470699316912, -36.8968116448662], [174.470693465222, -36.8968291228623], [174.470691979089, -36.8968469461213], [174.47069048961, -36.8968653553154], [174.470685893545, -36.8968845186609], [174.470678189785, -36.8969044370726], [174.470667379433, -36.8969251096347], [174.470653480317, -36.8969465298161], [174.470640202777, -36.8969671229512], [174.470630348754, -36.8969856987905], [174.470623921634, -36.8970022581944], [174.470620918055, -36.897016801205], [174.4706213293, -36.8970293414512], [174.470621750949, -36.8970445874962], [174.470619445433, -36.8970663238512], [174.470614413873, -36.897094550502], [174.470606655124, -36.8971292665611], [174.470596173498, -36.8971704629607], [174.470584253001, -36.897211654637], [174.470571996985, -36.8972472934888], [174.470559405451, -36.8972773795159], [174.47054647728, -36.8973019127322], [174.470533212508, -36.8973208949399], [174.470518439417, -36.8973381832047], [174.470501087495, -36.8973572944219], [174.470481158984, -36.8973782285627], [174.470458651652, -36.8974009865547], [174.470433567741, -36.8974255683687], [174.470409362441, -36.8974495588167], [174.470389401311, -36.897470608722], [174.47037368548, -36.8974887180726], [174.470362214952, -36.8975038868701], [174.470354988626, -36.8975161160307], [174.47035030388, -36.8975270373862], [174.470346389871, -36.8975383539191], [174.470343244323, -36.8975500638552], [174.470340869513, -36.8975621689689], [174.470339263163, -36.8975746674858], [174.470337594605, -36.8975888956097], [174.470334938321, -36.8976063349385], [174.470331294343, -36.8976269872745], [174.470326661549, -36.8976508526314], [174.470321039938, -36.897677931009], [174.470315127826, -36.8977088789789], [174.470309749304, -36.897744474143], [174.470304905565, -36.8977847200919], [174.470300596555, -36.8978296141221], [174.470296823434, -36.8978791580221], [174.470293699277, -36.8979288336025], [174.470291367299, -36.8979729442045], [174.470289829435, -36.8980114735792], [174.470289084528, -36.8980444199386], [174.470289133721, -36.8980717841698], [174.470290213011, -36.8980965658317], [174.47029263858, -36.8981227847485], [174.470296411965, -36.8981504625341], [174.470301534256, -36.8981795973719], [174.470308005473, -36.8982101901629], [174.470315814066, -36.8982411125285], [174.470324944882, -36.8982707557018], [174.470335397695, -36.8982991079675], [174.470347171385, -36.8983261693392], [174.470360265936, -36.8983519389151], [174.470373547978, -36.8983756059654], [174.470385299253, -36.8983959415512], [174.47039550379, -36.8984129323501], [174.470404160483, -36.8984265792775], [174.470411269328, -36.898436882334], [174.47041792147, -36.8984450836287], [174.470425865505, -36.8984531742876], [174.470435124394, -36.8984611810674], [174.470445698136, -36.8984691039678], [174.470457587855, -36.8984769429746], [174.470470243216, -36.898484676957], [174.470482732012, -36.8984922696813], [174.470495039658, -36.898499721328], [174.470507165012, -36.89850703101], [174.470519108077, -36.8985141987273], [174.470530804215, -36.8985210729477], [174.470542132618, -36.8985273820503], [174.470553090938, -36.898533120656], [174.470563681382, -36.8985382869348], [174.47057390062, -36.8985428827307], [174.470584554818, -36.8985476281777], [174.470597172019, -36.8985538987861], [174.470611789889, -36.8985617274396], [174.470628409571, -36.8985711150249], [174.470647029926, -36.8985820606538], [174.470666989202, -36.8985933574646], [174.470686944315, -36.8986025658381], [174.470706857991, -36.8986096150274], [174.470726731385, -36.8986145068208], [174.470746562217, -36.898617239444], [174.470767476667, -36.8986182487397], [174.470791880817, -36.8986184630788], [174.470819853816, -36.8986179130272], [174.470851396801, -36.8986165994698], [174.470886509771, -36.8986145224037], [174.470922448264, -36.8986136474544], [174.470953001666, -36.8986184295013], [174.470977931945, -36.8986290382503], [174.470997240228, -36.8986454736909], [174.471010925411, -36.8986677367408], [174.471019257607, -36.898694522472], [174.471022885083, -36.8987227104112], [174.471021835499, -36.8987521632075], [174.471016107764, -36.8987828826769], [174.471005704079, -36.8988148669889], [174.470992196068, -36.8988466752132], [174.470979574043, -36.8988746506363], [174.470968034355, -36.8988986150591], [174.470957576992, -36.8989185675806], [174.470948201954, -36.8989345082013], [174.470939258447, -36.8989473797053], [174.470928997203, -36.8989597176867], [174.470917324322, -36.8989716585141], [174.470904238733, -36.8989832049046], [174.470889739279, -36.898994355069], [174.470873978052, -36.8990058408429], [174.470857382218, -36.8990197445204], [174.470839975535, -36.8990361929008], [174.470821760242, -36.8990551859561], [174.470802735218, -36.8990767236997], [174.47078335716, -36.8990998080632], [174.470765001616, -36.8991214357618], [174.470747760087, -36.8991414037549], [174.470731632574, -36.8991597120431], [174.470716620185, -36.8991763597117], [174.470702522577, -36.8991923110083], [174.470688700558, -36.8992106340136], [174.470675108012, -36.8992315573465], [174.470661743815, -36.8992550810208], [174.470648609088, -36.8992812050228], [174.470636605953, -36.8993088653788], [174.470628788703, -36.8993344611434], [174.470625406479, -36.8993576989903], [174.470626458181, -36.899378579835], [174.470631946021, -36.8993971018471], [174.470641800496, -36.8994135029481], [174.470655775151, -36.8994286253678], [174.470673847911, -36.8994425468963], [174.470696019848, -36.8994552648142], [174.470722291015, -36.8994667818228], [174.470752558883, -36.8994777788251], [174.470786438949, -36.8994908520309], [174.470823893408, -36.8995062533884], [174.470864922263, -36.8995239828943], [174.470909525522, -36.8995440405446], [174.470955559614, -36.8995658444505], [174.470994382496, -36.8995870462803], [174.471025083698, -36.8996073986211], [174.471047663214, -36.8996269014796], [174.471062119931, -36.8996455557754], [174.471068864694, -36.8996638918404], [174.471069655042, -36.8996841891206], [174.471064690105, -36.8997067065488], [174.47105397098, -36.8997314432093], [174.471037497697, -36.8997584009031], [174.471016793967, -36.8997872083219], [174.470998802636, -36.899816178649], [174.470984377204, -36.8998451057187], [174.470973519885, -36.8998739877019], [174.470966228456, -36.8999028255285], [174.470962099648, -36.8999310743543], [174.470959179263, -36.8999560912106], [174.47095720692, -36.8999775250815], [174.470956183757, -36.8999953768544], [174.470956108637, -36.900009645642], [174.470956825063, -36.9000208318424], [174.470957529436, -36.9000315071126], [174.470958104265, -36.9000420406684], [174.470958551743, -36.9000524297784], [174.470958871905, -36.900062676245], [174.470959104386, -36.9000727985062], [174.470959481302, -36.9000829027542], [174.470960037747, -36.9000930047791], [174.470960773722, -36.9001031045809], [174.470961688104, -36.9001132021735], [174.470963055437, -36.9001232752285], [174.470966486078, -36.9001331974429], [174.470972243333, -36.9001429457257], [174.470980327255, -36.9001525227802], [174.470990737791, -36.9001619259023], [174.471003195697, -36.9001709323044], [174.471015950012, -36.9001781322856], [174.471028691865, -36.9001832799901], [174.47104142462, -36.9001863753761], [174.471054146016, -36.9001874175703], [174.471066874291, -36.9001866551262], [174.47107972238, -36.9001857613991], [174.471092711976, -36.9001850479958], [174.471105843063, -36.9001845140151], [174.471119114519, -36.900184159471], [174.471132797665, -36.9001833266053], [174.471148838116, -36.9001772545998], [174.471167623976, -36.9001649967109], [174.471189154132, -36.9001465538524], [174.4712134297, -36.900121926009], [174.471239921938, -36.9000922176017], [174.471264533087, -36.9000660135947], [174.47128639571, -36.9000451319885], [174.471305508676, -36.9000295718975], [174.471321873112, -36.9000193333088], [174.471336156091, -36.9000143205281], [174.471353953753, -36.9000137269177], [174.471376526357, -36.9000173710134], [174.47140387168, -36.9000252537412], [174.471435990814, -36.9000373732816], [174.471472034592, -36.900053342643], [174.471504310559, -36.9000696534159], [174.471530979907, -36.9000854648649], [174.471552043772, -36.9001007778812], [174.471567501028, -36.9001155924817], [174.471577901644, -36.9001296765121], [174.471588640907, -36.9001407646846], [174.471601085977, -36.9001482812104], [174.471615239095, -36.9001522260613], [174.471631100261, -36.9001525992366], [174.471648414531, -36.9001495670428], [174.471664486352, -36.9001448971181], [174.471678588619, -36.9001390653829], [174.47169072247, -36.9001320727252], [174.471700887889, -36.9001239182444], [174.471709194805, -36.9001146573657], [174.471716947277, -36.9001049283312], [174.471724513573, -36.9000949140643], [174.471731895938, -36.9000846145372], [174.471739093233, -36.9000740288627], [174.471746089766, -36.9000631581367], [174.471752683549, -36.9000520039603], [174.471758812852, -36.900040566197], [174.471764477692, -36.900028845748], [174.471769679192, -36.9000168425995], [174.471774401483, -36.9000044902464], [174.471778459534, -36.8999908616642], [174.471781791546, -36.8999756610665], [174.471784398643, -36.8999588884393], [174.471786280806, -36.8999405428816], [174.471787383492, -36.8999207061929], [174.471786874667, -36.8999006433949], [174.471784473011, -36.899880783422], [174.471780178509, -36.8998611253727], [174.471773990057, -36.899841670162], [174.471766071232, -36.8998223445542], [174.471759189565, -36.8998019154328], [174.471754342143, -36.8997799395879], [174.471751527843, -36.8997564170335], [174.471750746629, -36.8997313459674], [174.47175202393, -36.8997048234231], [174.471755822005, -36.8996786536334], [174.471762314562, -36.8996535248988], [174.471771502722, -36.899629437205], [174.471783386483, -36.8996063905514], [174.471797939123, -36.8995844546742], [174.471814573075, -36.8995651178106], [174.471833051893, -36.8995489832047], [174.471853376649, -36.8995360481383], [174.47187554624, -36.8995263135254], [174.471899422845, -36.8995197909879], [174.471921671935, -36.8995167661145], [174.471940868272, -36.8995173611257], [174.471957012963, -36.8995215751077], [174.471970104888, -36.8995294080758], [174.471980272489, -36.8995407106139], [174.471991033363, -36.8995513477962], [174.472003974473, -36.8995594503375], [174.472019095836, -36.8995650191381], [174.472036398572, -36.8995680541833], [174.472055966955, -36.8995685607376], [174.472080461467, -36.8995667446952], [174.472111156677, -36.8995627029298], [174.472148052564, -36.8995564345355], [174.472191148034, -36.8995479413231], [174.472240242291, -36.8995372870677], [174.472287819828, -36.8995269012708], [174.472330073824, -36.8995180146215], [174.472367006508, -36.8995106261965], [174.472398615642, -36.8995047360283], [174.472424941449, -36.899500334609], [174.472447690679, -36.8994969392828], [174.472467778707, -36.8994942935315], [174.472485205515, -36.8994923964553], [174.472499971122, -36.8994912489566], [174.47251214727, -36.8994908465415], [174.472525550903, -36.8994909526079], [174.472542349991, -36.8994914321164], [174.472562545673, -36.899492285953], [174.472586137913, -36.8994935123133], [174.47261311116, -36.8994951195007], [174.472642559253, -36.8994974928167], [174.472673934492, -36.8995008652943], [174.472707238016, -36.8995052378193], [174.472742468689, -36.8995106095027], [174.472779601879, -36.8995169833522], [174.472816579208, -36.8995245903999], [174.472852085884, -36.8995335767454], [174.472886123048, -36.8995439432771], [174.472918690684, -36.8995556890952], [174.472949767423, -36.8995688117618], [174.472977190064, -36.8995829937758], [174.472999489842, -36.8995980198965], [174.473016667896, -36.8996138910139], [174.473028724187, -36.8996306053279], [174.473035684468, -36.8996481598168], [174.473041545131, -36.8996658442181], [174.473049182983, -36.8996831487357], [174.473058596887, -36.899700072482], [174.473069787982, -36.899716616344], [174.473082756165, -36.8997327749141], [174.473097634045, -36.8997472729054], [174.473114525214, -36.8997591355481], [174.47313342969, -36.8997683637428], [174.47315434633, -36.8997749566012], [174.473177271889, -36.8997789204722], [174.47320037877, -36.899782566609], [174.473222181244, -36.8997877747751], [174.473242680419, -36.8997945440563], [174.473261874068, -36.899802875382], [174.473279764401, -36.8998127669227], [174.473296354008, -36.8998232442614], [174.473311645726, -36.8998334627756], [174.473325640662, -36.8998434215508], [174.47333833769, -36.8998531206013], [174.473349736847, -36.8998625617299], [174.473360355804, -36.8998725767945], [174.473370672857, -36.8998839341434], [174.473380685812, -36.8998966365081], [174.473390396864, -36.8999106811571], [174.473399804924, -36.899926069907], [174.473407953763, -36.8999428605881], [174.473413901736, -36.8999611108506], [174.473417647737, -36.8999808216097], [174.473419191748, -36.9000019919646], [174.473418533767, -36.9000246219153], [174.473419310643, -36.900045878402], [174.473425353747, -36.9000627718166], [174.473436664204, -36.9000753021446], [174.473453242014, -36.9000834693842], [174.473475087176, -36.9000872735336], [174.473497871213, -36.900090642387], [174.473516721816, -36.9000979963288], [174.47353163569, -36.9001093390071], [174.47354261282, -36.9001246695222], [174.473549653221, -36.9001439887762], [174.473556758582, -36.9001646430606], [174.473568722953, -36.9001834532503], [174.473585556315, -36.9002004129104], [174.473607260878, -36.9002155202088], [174.473633834434, -36.9002287769728], [174.473664261534, -36.9002381541839], [174.473697244318, -36.900241061166], [174.473732778151, -36.9002374907636], [174.473770863006, -36.9002274420734], [174.473811498855, -36.9002109141921], [174.473851567377, -36.9001924914363], [174.473886838034, -36.9001783916961], [174.47391728679, -36.9001686486248], [174.47394291481, -36.9001632640142], [174.47396372096, -36.9001622369803], [174.473981715986, -36.9001661266662], [174.473999798655, -36.9001757389877], [174.474017990412, -36.9001910799883], [174.474036293523, -36.9002121505412], [174.474054706852, -36.9002389497588], [174.474072278329, -36.9002675513516], [174.474087554562, -36.9002919476692], [174.474100517499, -36.9003120758403], [174.474111170487, -36.900327934923], [174.474119510138, -36.9003395240586], [174.474125419901, -36.9003494190184], [174.47412870514, -36.9003617955803], [174.474129362477, -36.9003767114743], [174.474127394172, -36.9003941675739], [174.474122799083, -36.9004141629918], [174.474118236451, -36.9004348538674], [174.474118281621, -36.9004530691762], [174.474123013222, -36.90046875386], [174.474132431239, -36.900481907017], [174.47414653457, -36.9004925295612], [174.474165524845, -36.9005017096513], [174.474189764574, -36.9005114303161], [174.474219261305, -36.9005217338234], [174.474254015006, -36.9005326183667], [174.474294025715, -36.9005440857438], [174.474335816408, -36.9005554922564], [174.474372674051, -36.9005655943993], [174.474404430828, -36.9005743618105], [174.474431086736, -36.9005817944943], [174.47445264065, -36.900587892468], [174.474470736632, -36.9005931725468], [174.474488730632, -36.9005986936541], [174.474506722017, -36.900604487006], [174.474524710789, -36.9006105526026], [174.474542696946, -36.9006168904438], [174.474562167854, -36.9006225815942], [174.474586340043, -36.9006256391572], [174.474615322191, -36.9006259950793], [174.474649116538, -36.9006236493291], [174.474687720836, -36.9006186019304], [174.474728703813, -36.9006115374594], [174.474766492924, -36.9006040222783], [174.474800869355, -36.9005961167946], [174.474831834246, -36.9005878218986], [174.474859385371, -36.9005791385219], [174.474883689564, -36.9005703377119], [174.474905143374, -36.9005620797609], [174.47492376424, -36.9005543960022], [174.474939554392, -36.9005472855079], [174.474952511567, -36.9005407474058], [174.474964840366, -36.9005332832811], [174.474982196274, -36.9005210479576], [174.475004862855, -36.9005038468208], [174.475032840103, -36.9004816798678], [174.475066128042, -36.9004545488972], [174.475102565086, -36.9004246710855], [174.475136279635, -36.9003980738197], [174.475166941514, -36.900375095612], [174.475194552993, -36.900355737338], [174.475219110693, -36.9003399981404], [174.475240831977, -36.900327042452], [174.475260331607, -36.9003144658863], [174.475277649326, -36.9003021174212], [174.475292782924, -36.900289998888], [174.475305734613, -36.9002781084572], [174.475316999113, -36.9002665508544], [174.475328086457, -36.9002556435386], [174.475339102552, -36.900245407729], [174.475350047418, -36.9002358443266], [174.475360919931, -36.9002269533454], [174.475372889753, -36.9002189780514], [174.475389730764, -36.9002127080475], [174.475411730321, -36.9002082037601], [174.475438886162, -36.9002054643132], [174.475471200552, -36.9002044905763], [174.475509715037, -36.9002066243733], [174.475557993911, -36.900216458092], [174.475616332936, -36.9002343711304], [174.475684732174, -36.9002603652752], [174.475763192759, -36.9002944395933], [174.475847320533, -36.9003327339898], [174.475921187238, -36.9003612560257], [174.475983349743, -36.9003787355883], [174.476033805785, -36.9003851736259], [174.476072556429, -36.9003805683377], [174.476102223749, -36.9003676165133], [174.476132886187, -36.9003566840128], [174.47616553878, -36.9003487950502], [174.476200182621, -36.9003439478076], [174.476236816625, -36.9003421440995], [174.476274420033, -36.9003429468239], [174.476308820529, -36.900344576241], [174.476339571131, -36.9003468423106], [174.476366672962, -36.9003497450216], [174.476390124884, -36.9003532834892], [174.476410447377, -36.9003571519906], [174.476429898797, -36.9003600226776], [174.476448738805, -36.9003617417938], [174.476466968522, -36.9003623093257], [174.476484587965, -36.9003617261747], [174.476502095999, -36.9003599627046], [174.47652179988, -36.9003568892836], [174.476543986628, -36.9003524906249], [174.47656865733, -36.900346764911], [174.476595811999, -36.9003397130415], [174.476625203765, -36.900331337182], [174.476655627565, -36.9003216541136], [174.476686924049, -36.900310664915], [174.47671908983, -36.9002983687261], [174.476752127186, -36.9002847673207], [174.47678583868, -36.9002702732778], [174.476819190942, -36.9002570564312], [174.476852037365, -36.9002454295779], [174.476884375675, -36.9002353909439], [174.476916207045, -36.900226943219], [174.476947878637, -36.9002195809235], [174.476981326306, -36.9002105010527], [174.477016848086, -36.9001992699441], [174.477054443937, -36.9001858857937], [174.477094116118, -36.9001703494727], [174.477135226154, -36.9001533665817], [174.477173993271, -36.9001391466778], [174.477209790019, -36.9001283844126], [174.477242615317, -36.9001210816049], [174.477272470274, -36.9001172373421], [174.477299606889, -36.9001168241552], [174.477325629137, -36.9001196760761], [174.477350821468, -36.9001257607239], [174.477375185023, -36.9001350789862], [174.477398719824, -36.9001476317646], [174.477421363999, -36.9001628294293], [174.47744270673, -36.9001766533578], [174.477462670568, -36.9001883464586], [174.477481255492, -36.9001979078314], [174.477498461483, -36.9002053365757], [174.477514923087, -36.90021048058], [174.477535284022, -36.9002122094507], [174.477560479312, -36.9002102970288], [174.477590511196, -36.9002047432833], [174.477625377407, -36.9001955473374], [174.477664668099, -36.9001832812492], [174.477705138043, -36.9001724543945], [174.47774609319, -36.9001640326651], [174.477787533527, -36.900158015159], [174.477829459076, -36.900154402777], [174.477871133194, -36.9001532912148], [174.477906289053, -36.9001555074815], [174.477933501529, -36.9001612378705], [174.477952768396, -36.9001704833162], [174.477964091882, -36.9001832428934], [174.477968307985, -36.9001991023877], [174.477973126558, -36.9002142522159], [174.477980411947, -36.9002277696109], [174.477990164151, -36.9002396545724], [174.478002383189, -36.9002499080008], [174.478016829086, -36.9002587149588], [174.478031105488, -36.9002679278394], [174.478044598693, -36.9002780229927], [174.478057307596, -36.9002890013342], [174.47806923218, -36.9003008619631], [174.478080295545, -36.9003135166004], [174.478089675557, -36.9003260037951], [174.478097144954, -36.900338062273], [174.478102703716, -36.9003496911333], [174.478106354106, -36.9003608912496], [174.478108693925, -36.9003718165295], [174.478116804134, -36.9003842798615], [174.47813273188, -36.9003988056094], [174.47815647717, -36.9004153937699], [174.478188041132, -36.9004340443242], [174.478226641779, -36.9004544803601], [174.478262189997, -36.9004731281856], [174.478291595036, -36.9004888905356], [174.478314856905, -36.9005017683161], [174.478331975581, -36.9005117606297], [174.478343269297, -36.900519132128], [174.478353271554, -36.9005276265842], [174.478363453633, -36.9005384605704], [174.478373817761, -36.9005516331572], [174.478384361697, -36.9005671443725], [174.47839502539, -36.9005847903518], [174.47840486954, -36.9006013765993], [174.478413569887, -36.900615802968], [174.478421126448, -36.9006280703594], [174.478427538065, -36.9006381769855], [174.478432881531, -36.9006462057184], [174.478438474782, -36.9006535688327], [174.47844479575, -36.9006607804726], [174.478451845541, -36.9006678397229], [174.478459623067, -36.9006747483998], [174.478468345644, -36.9006814848695], [174.478482206415, -36.9006876472104], [174.478502823033, -36.9006930800808], [174.478530194378, -36.9006977834912], [174.478564321588, -36.900701758324], [174.478604969003, -36.9007052968476], [174.478646990079, -36.9007148214065], [174.478688284966, -36.900732950488], [174.478728853661, -36.9007596831915], [174.478768697351, -36.9007950222067], [174.478807652377, -36.900838570263], [174.478841707297, -36.900880546921], [174.478869129651, -36.9009167300867], [174.478889918282, -36.900947118878], [174.478904073179, -36.9009717132988], [174.478911755692, -36.9009906744914], [174.478917496005, -36.9010085601879], [174.478923366869, -36.9010274528956], [174.47892936606, -36.9010473535435], [174.478935496925, -36.9010682611887], [174.478941765623, -36.901090146009], [174.478948487224, -36.9011120035571], [174.478955812861, -36.9011333488153], [174.478963742552, -36.9011541826845], [174.478972275158, -36.9011745042774], [174.478981426152, -36.9011943593713], [174.4789916967, -36.9012154651524], [174.479003347356, -36.9012387026235], [174.479016377002, -36.9012640717981], [174.479030784534, -36.9012915735909], [174.479046515288, -36.9013211086294], [174.479060987175, -36.9013482220262], [174.479072798844, -36.9013704957194], [174.47908195143, -36.9013879305971], [174.47908844491, -36.9014005257588], [174.479092305135, -36.9014083412753], [174.479095071912, -36.9014146885487], [174.479097628252, -36.9014214720029], [174.479099973033, -36.9014286916519], [174.479102108482, -36.9014363465665], [174.479102082763, -36.9014513511483], [174.479091583996, -36.9014691235532]]}, "properties": {"OBJECTID": 1062, "TRACKNAME": "Houghton Track", "CONDITIONSOFUSE": "Waitakere North Regional Park", "STATUS": "Closed upgrade", "WEBLINK": "https://www.aucklandcouncil.govt.nz/en/parks-recreation/find-park-beach/park-detail/3407.html", "VALIDATIONSTATE": 3, "created_user": "AC_owner", "last_edited_user": "AC_owner", "last_edited_date": 1789875254325, "created_date": 1789875254325, "PARK_SAPSITEID": null, "TRACK_ID": null, "KAURIDIEBACK_TRACK": null, "KAURIDIEBACK_MITIGATED": null, "SegmentID": null, "GlobalID": "345adf5b-b5e0-432f-bd6f-6fe3deb32962", "Shape__Length": 1964.4040755226858}}]}