{"type": "FeatureCollection", "features": [{"type": "Feature", "id": 2709, "geometry": {"type": "LineString", "coordinates": [[174.557992253748, -37.0051497555429], [174.55794487157, -37.0051420311397], [174.557808372007, -37.0051356299061], [174.557614287638, -37.005134265814], [174.557419729548, -37.0051118881489], [174.557303914845, -37.0050925508884], [174.557228597249, -37.0050095335215], [174.557231731846, -37.0049169418048], [174.557296619344, -37.0047729829825], [174.557367820539, -37.0046751895137], [174.557428722175, -37.004585967814], [174.557463121107, -37.0044845201041], [174.557525358373, -37.004454156986], [174.557603907154, -37.004448799494], [174.557760702275, -37.0044254694293], [174.557751761487, -37.0044928995904], [174.557731841899, -37.0045394634116], [174.557697443304, -37.0046409111908], [174.557647606796, -37.004755216555], [174.557629411327, -37.0048774620807], [174.557673282034, -37.0049609460725], [174.557816364598, -37.0050261462111], [174.558005590028, -37.005044401967], [174.558073742685, -37.0050433989704]]}, "properties": {"OBJECTID": 2709, "TRACKNAME": "Huia Abseil Track", "CONDITIONSOFUSE": "Waitakere South Regional Park", "STATUS": "Closed Dieback", "WEBLINK": "https://www.aucklandcouncil.govt.nz/en/parks-recreation/find-park-beach/park-detail/212.html", "VALIDATIONSTATE": 3, "created_user": "AC_owner", "last_edited_user": "AC_owner", "last_edited_date": 1789875254325, "created_date": 1789875254325, "PARK_SAPSITEID": null, "TRACK_ID": null, "KAURIDIEBACK_TRACK": null, "KAURIDIEBACK_MITIGATED": null, "SegmentID": null, "GlobalID": "75702524-8735-4fe7-86ea-c1d9b9c32c5b", "Shape__Length": 263.09727962788367}}]}