{"type": "FeatureCollection", "features": [{"type": "Feature", "id": 131, "geometry": {"type": "LineString", "coordinates": [[174.566816273613, -36.9947244036125], [174.566814118754, -36.9948543733724], [174.566823126705, -36.9950179071399]]}, "properties": {"OBJECTID": 131, "TRACKNAME": "Huia Dam Road", "CONDITIONSOFUSE": "Waitakere South Regional Park", "STATUS": "Open", "WEBLINK": "https://www.aucklandcouncil.govt.nz/en/parks-recreation/find-park-beach/park-detail/212.html", "VALIDATIONSTATE": 3, "created_user": "AC_owner", "last_edited_user": "AC_owner", "last_edited_date": 1789875254325, "created_date": 1789875254325, "PARK_SAPSITEID": null, "TRACK_ID": null, "KAURIDIEBACK_TRACK": null, "KAURIDIEBACK_MITIGATED": null, "SegmentID": null, "GlobalID": "e9721954-27ee-4623-a481-b19374ef00b1", "Shape__Length": 32.58605080155439}}, {"type": "Feature", "id": 1972, "geometry": {"type": "LineString", "coordinates": [[174.567046980302, -36.9936478902036], [174.567052270231, -36.9936262429343], [174.567096125585, -36.993346894291], [174.567129725353, -36.9931793763554], [174.567162493989, -36.9930159903555], [174.567170443377, -36.9927896699278], [174.567143585589, -36.992694303903], [174.567134054532, -36.9926604632796], [174.567023051911, -36.9924639086738], [174.566947437837, -36.9923300154822], [174.566780587407, -36.9921545811263], [174.566683183696, -36.9920521657409], [174.566665361627, -36.9920294535311], [174.56651848038, -36.9918422620541], [174.566262949352, -36.9915633281301], [174.566202084331, -36.9914623589937], [174.56617747853, -36.9914215415688], [174.566172901911, -36.9914068594764], [174.566162383436, -36.9913731120129], [174.566161735411, -36.991331214076], [174.566161730728, -36.9913308761313], [174.566177207032, -36.991282180141], [174.566229306744, -36.9912254970884], [174.56628513898, -36.9911822282254], [174.566344900692, -36.9911493198762], [174.566367701592, -36.9911367641848], [174.56638747641, -36.991132092882], [174.566777479371, -36.9910399581883], [174.567044730135, -36.9909527762904], [174.567132449237, -36.9909241601818], [174.56720704344, -36.9908759660358], [174.567223232758, -36.9908590934911], [174.56723942205, -36.9908422200433], [174.567243343438, -36.9908336721298], [174.567265963875, -36.990784357073], [174.567264696474, -36.9907346463059], [174.567240401938, -36.9906705205736], [174.567210593029, -36.9906329159813], [174.567146489163, -36.9905520397302], [174.566522602848, -36.989859316709], [174.566363452236, -36.9897083589331], [174.566357435003, -36.9897026516771], [174.566350560386, -36.9896970512796], [174.566163641, -36.9895447714813], [174.565806858321, -36.9892541074062], [174.565745089187, -36.9892037841876], [174.565591172101, -36.9890221932798]]}, "properties": {"OBJECTID": 1972, "TRACKNAME": "Huia Dam Road", "CONDITIONSOFUSE": "Waitakere South Regional Park", "STATUS": "Open", "WEBLINK": "https://www.aucklandcouncil.govt.nz/en/parks-recreation/find-park-beach/park-detail/212.html", "VALIDATIONSTATE": 3, "created_user": "AC_owner", "last_edited_user": "AC_owner", "last_edited_date": 1789875254325, "created_date": 1789875254325, "PARK_SAPSITEID": null, "TRACK_ID": null, "KAURIDIEBACK_TRACK": null, "KAURIDIEBACK_MITIGATED": null, "SegmentID": null, "GlobalID": "28d1c3eb-a8bf-4c4f-afb6-3fef38cffb3e", "Shape__Length": 652.9698897144812}}, {"type": "Feature", "id": 2071, "geometry": {"type": "LineString", "coordinates": [[174.566823126705, -36.9950179071399], [174.566834497335, -36.9952243473122], [174.566665747711, -36.9968207194886], [174.566593285326, -36.9973248707391]]}, "properties": {"OBJECTID": 2071, "TRACKNAME": "Huia Dam Road", "CONDITIONSOFUSE": "Waitakere South Regional Park", "STATUS": "Open", "WEBLINK": "https://www.aucklandcouncil.govt.nz/en/parks-recreation/find-park-beach/park-detail/212.html", "VALIDATIONSTATE": 3, "created_user": "AC_owner", "last_edited_user": "AC_owner", "last_edited_date": 1789875254325, "created_date": 1789875254325, "PARK_SAPSITEID": null, "TRACK_ID": null, "KAURIDIEBACK_TRACK": null, "KAURIDIEBACK_MITIGATED": null, "SegmentID": null, "GlobalID": "c43a4cde-6b7e-43ac-b10c-da54dbb26de3", "Shape__Length": 257.00857058385776}}, {"type": "Feature", "id": 3253, "geometry": {"type": "LineString", "coordinates": [[174.566593285326, -36.9973248707391], [174.5664959664, -36.9980019521554], [174.566474920626, -36.9982583754645], [174.566483622853, -36.9983889382408], [174.566494012619, -36.9984100549139], [174.566517176299, -36.998437696386]]}, "properties": {"OBJECTID": 3253, "TRACKNAME": "Huia Dam Road", "CONDITIONSOFUSE": null, "STATUS": "Open", "WEBLINK": null, "VALIDATIONSTATE": 3, "created_user": "AC_owner", "last_edited_user": "AC_owner", "last_edited_date": 1789875254325, "created_date": 1789875254325, "PARK_SAPSITEID": null, "TRACK_ID": null, "KAURIDIEBACK_TRACK": null, "KAURIDIEBACK_MITIGATED": null, "SegmentID": null, "GlobalID": "1714d12d-af0e-465c-8616-83d12c5b45c0", "Shape__Length": 124.86309320659792}}, {"type": "Feature", "id": 3254, "geometry": {"type": "LineString", "coordinates": [[174.566816273613, -36.9947244036125], [174.56681783454, -36.9946299990458], [174.566872982444, -36.9943598664505], [174.567046980302, -36.9936478902036]]}, "properties": {"OBJECTID": 3254, "TRACKNAME": "Huia Dam Road", "CONDITIONSOFUSE": "Waitakere South Regional Park", "STATUS": "Open", "WEBLINK": "https://www.aucklandcouncil.govt.nz/en/parks-recreation/find-park-beach/park-detail/212.html", "VALIDATIONSTATE": 3, "created_user": "AC_owner", "last_edited_user": "AC_owner", "last_edited_date": 1789875254325, "created_date": 1789875254325, "PARK_SAPSITEID": null, "TRACK_ID": null, "KAURIDIEBACK_TRACK": null, "KAURIDIEBACK_MITIGATED": null, "SegmentID": null, "GlobalID": "7ff405ac-8904-41b4-a08b-7955467dfb0d", "Shape__Length": 121.35339077135566}}]}