{"type": "FeatureCollection", "features": [{"type": "Feature", "id": 2663, "geometry": {"type": "LineString", "coordinates": [[174.575113269922, -37.0094199023514], [174.575044820164, -37.0094584151521], [174.57493421904, -37.0095642501553], [174.574800991458, -37.0096188102836]]}, "properties": {"OBJECTID": 2663, "TRACKNAME": "Huia Point Lookout", "CONDITIONSOFUSE": "Waitakere South Regional Park", "STATUS": "Open", "WEBLINK": "https://www.aucklandcouncil.govt.nz/en/parks-recreation/find-park-beach/park-detail/212.html", "VALIDATIONSTATE": 3, "created_user": "AC_owner", "last_edited_user": "AC_owner", "last_edited_date": 1789875254325, "created_date": 1789875254325, "PARK_SAPSITEID": null, "TRACK_ID": null, "KAURIDIEBACK_TRACK": null, "KAURIDIEBACK_MITIGATED": null, "SegmentID": null, "GlobalID": "7675daa5-0989-4427-a8fd-710ee7bfc188", "Shape__Length": 36.074762849759225}}]}