{"type": "FeatureCollection", "features": [{"type": "Feature", "id": 1189, "geometry": {"type": "LineString", "coordinates": [[174.559466009232, -36.9699510583765], [174.559384888034, -36.9698259011069], [174.559283854994, -36.9696744325071], [174.559171623984, -36.9696329859982], [174.558977010815, -36.9695118383578], [174.558902853322, -36.9693732988103], [174.558876934053, -36.969230405854], [174.558826360116, -36.9690240658189], [174.558794603658, -36.968924319812], [174.558713070555, -36.9687188179993], [174.558655596452, -36.9686442131137], [174.558586372846, -36.9685073220268], [174.558503207724, -36.968413660828], [174.55842974059, -36.9683462323664], [174.558296383313, -36.9682359590892], [174.558165958404, -36.9680995195963], [174.557956061505, -36.967751881885], [174.557910817217, -36.9676769466495], [174.557827558737, -36.9675639584207], [174.557586574087, -36.9672399054014], [174.557484389964, -36.967146423588], [174.557327882076, -36.9670240412474], [174.557192440244, -36.9668834282649], [174.557126051218, -36.9667441447228], [174.557027589805, -36.9665547148929], [174.556920982125, -36.9665056543855], [174.556735708576, -36.9664591378923], [174.556439921938, -36.966426479992], [174.556261689794, -36.9664165492775], [174.556069817316, -36.9663891683908], [174.555898576479, -36.9662646697635], [174.555728143465, -36.9661343023862], [174.555655090104, -36.9660784193835], [174.555621925028, -36.9660582670414], [174.5555955414, -36.96605341196], [174.555538547643, -36.9660722580179], [174.555394627778, -36.9661415742069], [174.555243137106, -36.9662683246234], [174.555191179029, -36.9663005978319], [174.554495267654, -36.9666313614645], [174.554405873371, -36.9666643679196], [174.554013553982, -36.9667208005304], [174.553542484752, -36.9667520510554], [174.55348155653, -36.9667376425386], [174.553192623036, -36.9666055259299], [174.553133240932, -36.9665853824085], [174.553058850978, -36.9665862114492], [174.552810196956, -36.9666126381493], [174.552762090731, -36.966630546393], [174.552552240635, -36.9667379925918], [174.552333122915, -36.9667929024204], [174.552176153286, -36.9669151237052], [174.552143427998, -36.9669486854316], [174.5521318694, -36.9669802217643], [174.552121876622, -36.9673040472376], [174.551994112097, -36.9674948942041], [174.551665546843, -36.9677793667813], [174.551443519679, -36.9679401501941], [174.55140744657, -36.9679593427986], [174.551367896632, -36.9679693960172], [174.551284620142, -36.9679790922574], [174.551246458816, -36.9679756520235], [174.551206942964, -36.9679497496693], [174.551129640667, -36.9678730088539], [174.551080283733, -36.967806097177], [174.551059512081, -36.9676798092417], [174.551101612921, -36.9674528295862], [174.551097240611, -36.967391810857], [174.551023961093, -36.9671484829164], [174.550914249655, -36.9669608749937], [174.550799011182, -36.9665722466825], [174.550766223934, -36.9665197293635], [174.550598902748, -36.9664169431493], [174.550495102705, -36.9663694725041], [174.550248059824, -36.9662931362454], [174.550174590338, -36.9662817380814], [174.549897048381, -36.9663482045829], [174.549414309057, -36.9665789710238], [174.549304928331, -36.9665847792177], [174.549248288588, -36.9665657697126], [174.548806903702, -36.9662165842854], [174.548418970768, -36.9659589988329], [174.548125183288, -36.9657391680033], [174.54807381272, -36.9656929854264], [174.547818593786, -36.9653535546273], [174.547640485118, -36.9650005891226], [174.547552486361, -36.9647791193153], [174.547359060787, -36.9643757418339], [174.547222578999, -36.9642056410499], [174.546994262536, -36.9639529377443], [174.546611052041, -36.9636608437308], [174.545916119387, -36.9631842353022], [174.545881296356, -36.9631646696343], [174.545853142184, -36.9631582760761], [174.5457911779, -36.9631685201468], [174.545473946333, -36.9632532497876], [174.545249828154, -36.963353396635], [174.545017756391, -36.9633890553378], [174.544969108631, -36.9634196225279], [174.544856505024, -36.9635308732076], [174.544809754102, -36.9635274705459], [174.544557975313, -36.9634528333655], [174.544466381255, -36.963434817126], [174.544108201708, -36.9634954868454], [174.543850550917, -36.9634954667632], [174.543763944006, -36.9635275005773], [174.54343731232, -36.9636942713923], [174.543277080904, -36.9637532571928], [174.543218094742, -36.9637602794204], [174.543111250596, -36.9637207466863], [174.54306824085, -36.9637318516262], [174.542470397727, -36.9641146307212], [174.542181736295, -36.964328081785], [174.54211521028, -36.9643862182338], [174.541964929329, -36.9645438076833], [174.541718519359, -36.9648612662474], [174.541456817638, -36.9650655501673], [174.541250113635, -36.965279485092], [174.541227740013, -36.9653191378367], [174.541166505225, -36.9655105338097], [174.541135053414, -36.9655762724923], [174.541017141492, -36.9657845835291], [174.540990703454, -36.9658087405802], [174.540950082209, -36.9658264026785], [174.540923970959, -36.9658272103241], [174.540887576433, -36.9658132700376], [174.540646140161, -36.9656745931623], [174.540428844919, -36.965514781174], [174.540046623018, -36.9652575445658], [174.539811154643, -36.9651105050505], [174.53971974452, -36.9651055704824], [174.539649934521, -36.965091693655], [174.539215687648, -36.9649220379223], [174.539165336349, -36.9649284143856], [174.539023684893, -36.9649827279223], [174.538985998028, -36.9650116813711], [174.538972672578, -36.9650427526553], [174.538958997739, -36.9649644126875], [174.538978521124, -36.9649393542311], [174.539031346156, -36.9648979550802], [174.539053331318, -36.9648506732755], [174.539043816427, -36.9648071168495], [174.539006484763, -36.9647689055546], [174.538968805312, -36.9647781372003], [174.538879125117, -36.9648451619615], [174.538821348193, -36.9648961345566], [174.538743850237, -36.9649818847412], [174.538715218179, -36.9649897010797], [174.538702378464, -36.9649740396672], [174.5387200944, -36.9649278227792], [174.538789908364, -36.964826966312], [174.538918469784, -36.9647267092982], [174.538946982924, -36.9646917906335], [174.539025032467, -36.9644454473136], [174.539028920282, -36.9644019965461], [174.539021836171, -36.9643698197874], [174.538987373336, -36.9643413059508], [174.538945704237, -36.9643431711367], [174.538893457025, -36.9643697354277], [174.538778761377, -36.9644517855327], [174.538714463334, -36.9643936251102], [174.538620635911, -36.9643304933182], [174.538613082641, -36.964322433929]]}, "properties": {"OBJECTID": 1189, "TRACKNAME": "Huia Dam Track", "CONDITIONSOFUSE": "Waitakere South Regional Park", "STATUS": "Open", "WEBLINK": "https://www.aucklandcouncil.govt.nz/en/parks-recreation/find-park-beach/park-detail/212.html", "VALIDATIONSTATE": 3, "created_user": "AC_owner", "last_edited_user": "AC_owner", "last_edited_date": 1789875254325, "created_date": 1789875254325, "PARK_SAPSITEID": null, "TRACK_ID": null, "KAURIDIEBACK_TRACK": null, "KAURIDIEBACK_MITIGATED": null, "SegmentID": null, "GlobalID": "cbb642f3-b6ba-41a1-a17c-744a34eee0e3", "Shape__Length": 2891.419498201596}}, {"type": "Feature", "id": 3224, "geometry": {"type": "LineString", "coordinates": [[174.56522679147, -36.9877112071933], [174.565073408655, -36.9872725413223], [174.564727691131, -36.986670941002], [174.56463346142, -36.9864830707478], [174.564567827021, -36.9863231619436], [174.564436628926, -36.9861104328393], [174.56410784462, -36.9856833973897], [174.563964277377, -36.9855386574298], [174.563879951716, -36.9854293620245], [174.563809746431, -36.985252414337], [174.563660528162, -36.9849292537684], [174.563524459259, -36.9846578105821], [174.563439019905, -36.9845264103304], [174.563393263729, -36.984382337077], [174.563297378153, -36.983995766399], [174.563276974231, -36.9839441443185], [174.563140171183, -36.9837717328108], [174.5630189896, -36.9836774699413], [174.562461908757, -36.9834722570374], [174.56229825718, -36.9833806616586], [174.561980950647, -36.9832780457207], [174.561893086815, -36.9832394163144], [174.561851263754, -36.9832122410855], [174.561787068397, -36.9831228334314], [174.561764474219, -36.9830426039325], [174.561778177927, -36.9829330805778], [174.561815028049, -36.9827791314522], [174.561811817368, -36.982736945349], [174.561709185988, -36.9825381415238], [174.561562211632, -36.9823251388312], [174.561539958663, -36.9822786153628], [174.561546700732, -36.9822275461734], [174.561636076939, -36.9819318714149], [174.561665727198, -36.9818681522807], [174.561727409498, -36.9818363431776], [174.562221226266, -36.9816566226574], [174.562273043921, -36.9816429521318], [174.562383051262, -36.9816360238872], [174.562410975021, -36.9816285536554], [174.562446229235, -36.9815894756426], [174.562572594937, -36.9813628435788], [174.562572977534, -36.9812524679479], [174.562554873888, -36.9811786691981], [174.562241213321, -36.9808704253721], [174.56214790791, -36.9807375231735], [174.562056147673, -36.9803796139585], [174.561988548502, -36.9801642781139], [174.562043628228, -36.9799546828239], [174.562079457125, -36.9798607680743], [174.562253090224, -36.9794925877479], [174.56240179846, -36.9792615245374], [174.562525040084, -36.9790130487597], [174.56256899097, -36.9788944290239], [174.562576415687, -36.9787608770009], [174.5625596889, -36.9786203329497], [174.562517010922, -36.9784523598424], [174.562485716327, -36.9782768187314], [174.562458432336, -36.9780715973452], [174.562452343314, -36.9778864675203], [174.562487568552, -36.9778026557301], [174.562516129057, -36.9777319021316], [174.562517144109, -36.977668920259], [174.562493078758, -36.9776210777701], [174.562466635429, -36.9775695710317], [174.562453851118, -36.9775086185794], [174.562457141948, -36.9774437499605], [174.562480783277, -36.9773582428792], [174.562569762339, -36.9771940889202], [174.5626750923, -36.9770389765255], [174.562715300732, -36.9769736308741], [174.56276494163, -36.9769174089025], [174.56289432489, -36.9768101389135], [174.562984438679, -36.9767015290992], [174.563106410373, -36.9765702813391], [174.563248087543, -36.9763869100862], [174.563378229514, -36.9762036905976], [174.563476816192, -36.9760579232087], [174.563541356303, -36.9759403929321]]}, "properties": {"OBJECTID": 3224, "TRACKNAME": "Huia Dam Track", "CONDITIONSOFUSE": "Waitakere South Regional Park", "STATUS": "Open", "WEBLINK": "https://www.aucklandcouncil.govt.nz/en/parks-recreation/find-park-beach/park-detail/212.html", "VALIDATIONSTATE": 3, "created_user": "AC_owner", "last_edited_user": "AC_owner", "last_edited_date": 1789875254325, "created_date": 1789875254325, "PARK_SAPSITEID": null, "TRACK_ID": null, "KAURIDIEBACK_TRACK": null, "KAURIDIEBACK_MITIGATED": null, "SegmentID": null, "GlobalID": "f73ca43f-bd73-4b52-928f-83642d557ebe", "Shape__Length": 1528.7440234005705}}, {"type": "Feature", "id": 3225, "geometry": {"type": "LineString", "coordinates": [[174.562478147974, -36.9749423088069], [174.562430391072, -36.9748922813851]]}, "properties": {"OBJECTID": 3225, "TRACKNAME": "Huia Dam Track", "CONDITIONSOFUSE": "Waitakere South Regional Park", "STATUS": "Open", "WEBLINK": "https://www.aucklandcouncil.govt.nz/en/parks-recreation/find-park-beach/park-detail/212.html", "VALIDATIONSTATE": 3, "created_user": "AC_owner", "last_edited_user": "AC_owner", "last_edited_date": 1789875254325, "created_date": 1789875254325, "PARK_SAPSITEID": null, "TRACK_ID": null, "KAURIDIEBACK_TRACK": null, "KAURIDIEBACK_MITIGATED": null, "SegmentID": null, "GlobalID": "61e5d9e4-4d8d-4a45-8fca-00088195278c", "Shape__Length": 6.992138442743818}}, {"type": "Feature", "id": 3226, "geometry": {"type": "LineString", "coordinates": [[174.562430391072, -36.9748922813851], [174.562274664572, -36.9747291310709], [174.562201089692, -36.9746300852477], [174.562143427058, -36.9745197252905], [174.56207619202, -36.9744038127477], [174.561938190987, -36.9739904202945], [174.561929284823, -36.9736124106915], [174.561991881394, -36.9733744949674], [174.561997789516, -36.9733068517613], [174.561978708571, -36.9731713680169], [174.561913721063, -36.9730130982036], [174.561885965313, -36.9729676295898], [174.561835951695, -36.9729357217578], [174.561533699566, -36.9727880996377], [174.561505554413, -36.972764791326], [174.561486263694, -36.9727190490132], [174.561465180724, -36.9727010468988], [174.561419977763, -36.9727044357099], [174.561142436071, -36.972788045296], [174.561079684806, -36.9727996327357], [174.560573566306, -36.9727555505605], [174.560236492408, -36.9726491871838], [174.560121131624, -36.9725627493385], [174.560041345623, -36.9724701202441], [174.559850426694, -36.9721904874335], [174.559823759301, -36.9721344221183], [174.559834452286, -36.9719004433434], [174.559761570802, -36.9713237592813], [174.559661262782, -36.9709559096774], [174.559615381274, -36.9707124258007], [174.559637934946, -36.9704788770334], [174.559615039301, -36.9702162167679], [174.559599312243, -36.9701567537462], [174.559465998002, -36.969951058524]]}, "properties": {"OBJECTID": 3226, "TRACKNAME": "Huia Dam Track", "CONDITIONSOFUSE": "Waitakere South Regional Park", "STATUS": "Open", "WEBLINK": "https://www.aucklandcouncil.govt.nz/en/parks-recreation/find-park-beach/park-detail/212.html", "VALIDATIONSTATE": 3, "created_user": "AC_owner", "last_edited_user": "AC_owner", "last_edited_date": 1789875254325, "created_date": 1789875254325, "PARK_SAPSITEID": null, "TRACK_ID": null, "KAURIDIEBACK_TRACK": null, "KAURIDIEBACK_MITIGATED": null, "SegmentID": null, "GlobalID": "df8f2960-1514-428d-9db6-cd591f05e6ba", "Shape__Length": 704.5323617197346}}, {"type": "Feature", "id": 3227, "geometry": {"type": "LineString", "coordinates": [[174.562731911484, -36.9751898417934], [174.562604585898, -36.9750663561268], [174.562496401224, -36.9749614295992], [174.562478147974, -36.9749423088069]]}, "properties": {"OBJECTID": 3227, "TRACKNAME": "Huia Dam Track", "CONDITIONSOFUSE": "Waitakere South Regional Park", "STATUS": "Open", "WEBLINK": "https://www.aucklandcouncil.govt.nz/en/parks-recreation/find-park-beach/park-detail/212.html", "VALIDATIONSTATE": 3, "created_user": "AC_owner", "last_edited_user": "AC_owner", "last_edited_date": 1789875254325, "created_date": 1789875254325, "PARK_SAPSITEID": null, "TRACK_ID": null, "KAURIDIEBACK_TRACK": null, "KAURIDIEBACK_MITIGATED": null, "SegmentID": null, "GlobalID": "e2469000-4cc4-4f7f-a08e-83c29844346c", "Shape__Length": 35.56530201501773}}, {"type": "Feature", "id": 3228, "geometry": {"type": "LineString", "coordinates": [[174.563541356303, -36.9759403929321], [174.563468638752, -36.975883934592], [174.563444546848, -36.9758342448593], [174.563410112982, -36.9757309797121], [174.563383282333, -36.9755479798682], [174.563356763404, -36.975492769745], [174.563316585822, -36.9754469964029], [174.563258171378, -36.9754125678971], [174.563179169027, -36.9753876854157], [174.563063325475, -36.9753669835719], [174.562954070801, -36.9753295288366], [174.562877117024, -36.9752916487056], [174.562825670476, -36.9752589850254], [174.562731911484, -36.9751898417934]]}, "properties": {"OBJECTID": 3228, "TRACKNAME": "Huia Dam Track", "CONDITIONSOFUSE": "Waitakere South Regional Park", "STATUS": "Open", "WEBLINK": "https://www.aucklandcouncil.govt.nz/en/parks-recreation/find-park-beach/park-detail/212.html", "VALIDATIONSTATE": 3, "created_user": "AC_owner", "last_edited_user": "AC_owner", "last_edited_date": 1789875254325, "created_date": 1789875254325, "PARK_SAPSITEID": null, "TRACK_ID": null, "KAURIDIEBACK_TRACK": null, "KAURIDIEBACK_MITIGATED": null, "SegmentID": null, "GlobalID": "81c7c583-214a-4485-a4da-df6c0f2633df", "Shape__Length": 120.37547577499123}}, {"type": "Feature", "id": 3242, "geometry": {"type": "LineString", "coordinates": [[174.565608424238, -36.9890311865177], [174.56544716147, -36.9889028702142], [174.565393071874, -36.9888398941975], [174.565467195694, -36.9884550221133], [174.565507931132, -36.9883044999879], [174.565517452416, -36.9881989163276], [174.565498392131, -36.9881241753395], [174.565462384651, -36.988077780038], [174.565414838945, -36.9880385674506], [174.565367101213, -36.9879899833251], [174.565336885135, -36.9879312081557], [174.565281832697, -36.9878212122697], [174.565274299264, -36.9878061508999], [174.56522679147, -36.9877112071933]]}, "properties": {"OBJECTID": 3242, "TRACKNAME": "Huia Dam Track", "CONDITIONSOFUSE": "Waitakere South Regional Park", "STATUS": "Open", "WEBLINK": "https://www.aucklandcouncil.govt.nz/en/parks-recreation/find-park-beach/park-detail/212.html", "VALIDATIONSTATE": 3, "created_user": "AC_owner", "last_edited_user": "AC_owner", "last_edited_date": 1789875254325, "created_date": 1789875254325, "PARK_SAPSITEID": null, "TRACK_ID": null, "KAURIDIEBACK_TRACK": null, "KAURIDIEBACK_MITIGATED": null, "SegmentID": null, "GlobalID": "1a471448-2c06-43b0-a300-4c4e6bd203db", "Shape__Length": 161.57487266530492}}]}