{"type": "FeatureCollection", "features": [{"type": "Feature", "id": 275, "geometry": {"type": "LineString", "coordinates": [[174.556032760666, -36.9330573176998], [174.555853408016, -36.9330143924121], [174.555756258554, -36.9330075169347], [174.555519138574, -36.9330215026745], [174.555250529557, -36.9330816173364], [174.555198957283, -36.9331124522719], [174.555018279095, -36.9332838774796], [174.554675521384, -36.9336315131733], [174.554446056819, -36.9337853507328], [174.554409186472, -36.9338020668643], [174.554367900171, -36.9338075647739], [174.553973679439, -36.9338035755181], [174.55347642196, -36.933709598114], [174.552969188076, -36.9335964599739], [174.552824132359, -36.9336041886981], [174.552633872703, -36.9336606319188], [174.552595127219, -36.9336552255865], [174.552480516426, -36.9336073385009], [174.552430844556, -36.9335952156106], [174.552161283581, -36.9336257801603], [174.552096499277, -36.9336230936068], [174.551893652626, -36.9335765665141], [174.551723058817, -36.9334849101438], [174.551675145724, -36.9334681489872], [174.551451880525, -36.9334683710932], [174.551305470825, -36.9334835248329], [174.551231140007, -36.9334723905808], [174.550957079885, -36.9334000758031], [174.550934669473, -36.9333862622082], [174.550908831598, -36.9333401705859], [174.550877468218, -36.9333300252694], [174.550719517015, -36.9333258235766], [174.550448290299, -36.933358397993], [174.550396240774, -36.9333580229769], [174.550340269876, -36.9333347865485], [174.550061389272, -36.9331779669687], [174.549745297879, -36.933104196984], [174.549635916932, -36.9330682630193], [174.549316405872, -36.9329359029916], [174.549180795321, -36.9328411004267], [174.549129344574, -36.9328148209445], [174.549024206843, -36.9327765866645], [174.548813075814, -36.9327244026273], [174.54869134118, -36.9326866098563], [174.548605671065, -36.9326510507321], [174.548504219941, -36.9325835728295], [174.548431254731, -36.9325533011368], [174.548381573674, -36.932551758633], [174.548233812815, -36.9325805457547], [174.547942363834, -36.9325835881039], [174.547525863366, -36.9325457963353], [174.547220522728, -36.9324720597368], [174.547027780315, -36.9324785188284], [174.546977808147, -36.932473680547], [174.546943978741, -36.9324553639201], [174.546795288066, -36.9323403942693], [174.546701827039, -36.9323015010512], [174.546419682124, -36.9322187350723], [174.546253978223, -36.9321035536256], [174.546204843391, -36.9320929083597], [174.546033458995, -36.932087784661], [174.545984775137, -36.9320750062197], [174.545460466089, -36.9317485255249], [174.545422869654, -36.9317449046029], [174.545310261527, -36.9317658123964], [174.545040357525, -36.9317174870689], [174.54450689889, -36.9315426219642], [174.54416791158, -36.9314091491573], [174.543812054374, -36.9312870174858], [174.543749933978, -36.9312715644935], [174.543635823585, -36.9312630697821], [174.54359744215, -36.9312533562639], [174.543268819489, -36.9310179192939], [174.543166864666, -36.9309290179188], [174.543026311664, -36.9308664059521], [174.542968588244, -36.9308562855552], [174.542874042996, -36.9308837255643], [174.542833664344, -36.9308868731364], [174.542539153431, -36.9308234845254], [174.542370890456, -36.9308600029451], [174.542305328456, -36.9308620532687], [174.54185441831, -36.930736327846], [174.541796640546, -36.93068782759], [174.541698733297, -36.93056175429], [174.541682530285, -36.930520988728], [174.541670597863, -36.930406292092], [174.541643942388, -36.9303727919924], [174.541607150413, -36.9303444080074], [174.541531186371, -36.9303127287629], [174.541474213851, -36.9303002813842], [174.541441736581, -36.9303121953184], [174.541368561803, -36.930367163752], [174.541343702629, -36.9303682165163], [174.541316890427, -36.9303592624646], [174.541104785048, -36.9302530856298], [174.540771792521, -36.9300598820464], [174.540452433186, -36.9297350910578], [174.540436620046, -36.9297287162381], [174.54040934997, -36.9297304670865], [174.540279929484, -36.9297767271709], [174.540255318057, -36.929780597756], [174.540244577587, -36.9297757885828], [174.540216013146, -36.9296323196709], [174.540187437635, -36.9295569217729], [174.540162772411, -36.9295185011165], [174.539810138694, -36.9291863971624], [174.539386520776, -36.9289393184195], [174.539305054114, -36.9288801093289], [174.539287382069, -36.9288611213455], [174.539282646749, -36.9288411544493], [174.539334738244, -36.9287650532187], [174.539335720698, -36.9287541700519], [174.539319809264, -36.9287428929415], [174.539038350535, -36.9286853924932], [174.538724488874, -36.9287378538238], [174.538634711428, -36.9287415949489], [174.538582839205, -36.9287364802678], [174.538547965827, -36.9287101706253], [174.538438896581, -36.9285484099627], [174.538357047625, -36.9284678879315], [174.538177972618, -36.9283992162155], [174.537956426853, -36.9283429291495], [174.537920562673, -36.9283125489754], [174.537843321358, -36.9282037091855], [174.537810494746, -36.9281697202442], [174.537753293008, -36.9281451957596], [174.537554016856, -36.9280869159846], [174.537481614109, -36.9280948389394], [174.53729935295, -36.9281581305938], [174.537270843808, -36.9281820162004], [174.537222067043, -36.9282588938815], [174.537178848326, -36.9282765431558], [174.536864476414, -36.9283080494845], [174.536824372311, -36.928299095159], [174.536709780433, -36.9282512644855], [174.536673007989, -36.9282449620712], [174.536557206368, -36.9283040845988], [174.536530403064, -36.9283038995957], [174.536483304178, -36.9282859859735], [174.535846490943, -36.9279776648118], [174.535574788923, -36.9277380266694], [174.535064154745, -36.9273888242246], [174.535038838051, -36.9273535836769], [174.535021835384, -36.9272005086054], [174.534989900501, -36.9271196454595], [174.534769015605, -36.9268524428412]]}, "properties": {"OBJECTID": 275, "TRACKNAME": "Ian Wells Track", "CONDITIONSOFUSE": "Waitakere West Regional Park", "STATUS": "Temp Closed", "WEBLINK": "https://www.aucklandcouncil.govt.nz/en/parks-recreation/find-park-beach/park-detail/3451.html", "VALIDATIONSTATE": 3, "created_user": "AC_owner", "last_edited_user": "AC_owner", "last_edited_date": 1789875254325, "created_date": 1789875254325, "PARK_SAPSITEID": null, "TRACK_ID": null, "KAURIDIEBACK_TRACK": null, "KAURIDIEBACK_MITIGATED": null, "SegmentID": null, "GlobalID": "b3d4849a-da05-49bc-b712-05ceebda486b", "Shape__Length": 2282.234693388708}}, {"type": "Feature", "id": 3309, "geometry": {"type": "LineString", "coordinates": [[174.556612168756, -36.9365552106354], [174.55671086732, -36.9364337926036], [174.556946303711, -36.9360904336942], [174.557006593908, -36.9360288645117], [174.557070177669, -36.9359796187623], [174.557616236539, -36.9356061267445], [174.5577053819, -36.9355533455332], [174.55810608213, -36.9353517904441], [174.558431120029, -36.9352724328257], [174.558485819405, -36.935249036735], [174.558527878271, -36.9351998563903], [174.558643383208, -36.9350311472078], [174.558662997615, -36.9349401228661], [174.55866046519, -36.9348797379897], [174.558587088007, -36.9345390137967], [174.558544734167, -36.9344871376176], [174.558329406416, -36.934268553642], [174.558303303924, -36.9342554659277], [174.558250885179, -36.9342474646937], [174.557496584743, -36.9341992498794], [174.557412894872, -36.9341757584399], [174.557034592772, -36.9340414863697], [174.55645800345, -36.9336284167368], [174.556239768026, -36.9333674760124], [174.556101129572, -36.9331431578652], [174.556032762984, -36.9330573212748]]}, "properties": {"OBJECTID": 3309, "TRACKNAME": "Ian Wells Track", "CONDITIONSOFUSE": "Waitakere West Regional Park", "STATUS": "Open", "WEBLINK": "https://www.aucklandcouncil.govt.nz/en/parks-recreation/find-park-beach/park-detail/3451.html", "VALIDATIONSTATE": 3, "created_user": "AC_owner", "last_edited_user": "AC_owner", "last_edited_date": 1789875254325, "created_date": 1789875254325, "PARK_SAPSITEID": null, "TRACK_ID": null, "KAURIDIEBACK_TRACK": null, "KAURIDIEBACK_MITIGATED": null, "SegmentID": null, "GlobalID": "8b799f08-39e9-4e5e-85ad-7aa196a35a8c", "Shape__Length": 611.3425415122176}}]}