{"type": "FeatureCollection", "features": [{"type": "Feature", "id": 530, "geometry": {"type": "LineString", "coordinates": [[174.58868017821, -36.9566145590513], [174.588653841731, -36.9566135324075], [174.588601965707, -36.9565801013655], [174.588548309793, -36.9565615484085], [174.588499833422, -36.956557681267], [174.588446460677, -36.9565657324062], [174.58820480987, -36.9566648603139], [174.588084965222, -36.9566759457383], [174.58800067907, -36.9567513807032], [174.587920585778, -36.9567967084281], [174.587389437452, -36.9569983415135], [174.587242406024, -36.9570383534722], [174.587075869324, -36.9570596164736], [174.587035244443, -36.9570428085112], [174.586956520203, -36.9569771878002], [174.586894337004, -36.9568908581858], [174.586855107035, -36.9567513033097], [174.586842542747, -36.9565555712136], [174.586848512813, -36.9565033751914], [174.586911354596, -36.9563081224032], [174.587014474038, -36.9557828956751], [174.587060620612, -36.9556896918179], [174.587156606065, -36.955583247793], [174.587165498287, -36.9555376556559], [174.587161582528, -36.9555156609107], [174.58715228919, -36.955517038032], [174.587163415464, -36.9554854681215], [174.587240982257, -36.9553098120002], [174.587317884364, -36.9551784391749], [174.587315701288, -36.9551533476538], [174.587302130291, -36.9551342311298], [174.587209287747, -36.9550771458386], [174.587179188276, -36.955047929778], [174.587171560579, -36.9550234969213], [174.587181915557, -36.9549785792662], [174.587239779252, -36.9548639107022], [174.587338074882, -36.9547411301671], [174.587416574271, -36.9546748316382], [174.587535908928, -36.9546101142149], [174.58758256669, -36.9545626920527], [174.587587985805, -36.9545072494668], [174.587535315029, -36.9543910843402], [174.587534067914, -36.9543715867214], [174.587622874512, -36.9542797501006], [174.587628546768, -36.9541894397867], [174.587648778361, -36.9541123018411], [174.587677675478, -36.9540625212519], [174.587734659745, -36.9539991421861], [174.587770192487, -36.9539368341596], [174.587865838314, -36.9536865381423], [174.58792090635, -36.9535985055665], [174.588035645871, -36.9532509594117], [174.588129983199, -36.9530778004573], [174.588101971951, -36.9529349591349], [174.5881053812, -36.9528081742499], [174.588204689024, -36.9525845270413], [174.588209562762, -36.9525780171682], [174.588209976532, -36.9525957773063], [174.588244370525, -36.9525289776019], [174.588391105824, -36.9521728908692], [174.588421172956, -36.9520697343261], [174.588431667634, -36.9519937450344], [174.588428565687, -36.9519611935986], [174.588397963444, -36.9518742078016], [174.588440712594, -36.9518236287789], [174.588474422524, -36.9517244615445], [174.588633984554, -36.9515826528782], [174.588649126002, -36.9515281707737], [174.588632444766, -36.9514523017284], [174.588713933654, -36.9513760474647], [174.588808728736, -36.9512261818199], [174.588866125623, -36.9512217271777], [174.589027636361, -36.9512467594626], [174.589125992959, -36.9512418466189], [174.589187147706, -36.9512263720529], [174.589283260682, -36.9511869943181], [174.589400093684, -36.9511605709939], [174.589522698375, -36.9511195224407], [174.589706304813, -36.951084831756], [174.589742533052, -36.9510604427762], [174.589781289489, -36.9510004615439], [174.589878263498, -36.9507513268839], [174.589884951272, -36.9506927124547], [174.589865823478, -36.9506569505161], [174.58965402414, -36.9505509030362], [174.589577734553, -36.9505038552886], [174.589525201966, -36.9504564804192], [174.589398502427, -36.9503139510486], [174.589171134726, -36.9501590414117], [174.588872406014, -36.9499109669967], [174.588833190564, -36.9498623680203], [174.58881651524, -36.9498159641494], [174.588817472098, -36.9497609327208], [174.588833501114, -36.9496989214157], [174.588871468914, -36.9496393566305], [174.588891703875, -36.9496295224735], [174.588932769587, -36.9496304240788], [174.588956351561, -36.9496200674005], [174.589017149988, -36.9495426386528], [174.589144446452, -36.9494421285089], [174.589603510308, -36.9493541222464], [174.589869404375, -36.949263599414], [174.589928998964, -36.9492606741847], [174.590092424249, -36.9492807490249], [174.590163513742, -36.9492684038155], [174.59020657705, -36.9492373793267], [174.59024676069, -36.9491694018446], [174.590312144665, -36.9491257117833], [174.590362337259, -36.9490810984831], [174.590420113226, -36.9490058457226], [174.590435744556, -36.9489593428166], [174.590438680776, -36.9488802006988], [174.590407448187, -36.9486300878523], [174.590405973015, -36.9485337619286], [174.590386177458, -36.9484615492507], [174.590335179321, -36.9483480398737], [174.590326384016, -36.9482987905451], [174.590340702998, -36.9482377844186], [174.590401590842, -36.9481609937342], [174.590416341887, -36.9481164495417], [174.590391921144, -36.9480723940079], [174.590375341371, -36.9480149474867], [174.590317590961, -36.9476247408412], [174.59028158723, -36.947452433571], [174.590128677632, -36.947085584482], [174.590119867841, -36.9470123953617], [174.59012543057, -36.9469347954183], [174.590169743263, -36.946788371906], [174.590271698997, -36.9465960365254], [174.590371518034, -36.9464478689768], [174.59056909284, -36.9462035784031], [174.590664360501, -36.9460515236517], [174.590734193252, -36.9458903363652], [174.59082589813, -36.9455756438447], [174.590926205497, -36.945379796677], [174.59101019569, -36.9452498226969], [174.591117160816, -36.9451414076254], [174.591238964603, -36.9450596629572], [174.591843472323, -36.9447532658652], [174.592088378837, -36.9446577286155], [174.592241678114, -36.9445591739927], [174.592707783607, -36.944295874422], [174.593148643846, -36.9440326684142], [174.593229364716, -36.9439972256849], [174.593316166603, -36.9439696151864], [174.593715491644, -36.9438867575101], [174.593740940142, -36.9437629034084], [174.593693871699, -36.9435971542748], [174.593623732163, -36.9431820757877], [174.593647440793, -36.9428722867074], [174.593663573242, -36.9427869192687], [174.593682547113, -36.9427139704016], [174.593745080827, -36.9426216796765], [174.593794952888, -36.942542033616], [174.593816877422, -36.9424296198949]]}, "properties": {"OBJECTID": 530, "TRACKNAME": "Incline Track", "CONDITIONSOFUSE": "Waitakere Central Regional Park", "STATUS": "Closed Dieback", "WEBLINK": "https://www.aucklandcouncil.govt.nz/en/parks-recreation/find-park-beach/park-detail/204.html", "VALIDATIONSTATE": 3, "created_user": "AC_owner", "last_edited_user": "AC_owner", "last_edited_date": 1789875254325, "created_date": 1789875254325, "PARK_SAPSITEID": null, "TRACK_ID": null, "KAURIDIEBACK_TRACK": null, "KAURIDIEBACK_MITIGATED": null, "SegmentID": null, "GlobalID": "56b964c3-a655-4490-b003-84d14b95cf1f", "Shape__Length": 2224.0651199084946}}]}