{"type": "FeatureCollection", "features": [{"type": "Feature", "id": 12040, "geometry": {"type": "LineString", "coordinates": [[175.001158284654, -36.769326111973], [175.001158488777, -36.7693271117084], [175.00114854346, -36.7693551587137], [175.001148456233, -36.7693554233671], [175.00113258878, -36.7694109611624], [175.001132232976, -36.7694123578875], [175.001115252496, -36.7694876127759], [175.00111639024, -36.76952736892], [175.001155820936, -36.7695686790383], [175.001177238254, -36.7695978945897], [175.001183806659, -36.7696175842777], [175.001201696351, -36.7696408635981], [175.001202002341, -36.7696432821008], [175.001196454162, -36.7696533972478], [175.001192405806, -36.7696599242355], [175.001177230815, -36.7697190863105], [175.00123684054, -36.7697864457114], [175.001251553107, -36.7698023597152], [175.001263990686, -36.7698195819614], [175.001295203439, -36.7698389822105], [175.001306801857, -36.7698493514105], [175.001275686761, -36.7698575795093], [175.001267283297, -36.7698582752348], [175.001228406561, -36.7698656001185], [175.001209814289, -36.7698714912547], [175.001216439085, -36.7698766290683], [175.001234940688, -36.7698853057017], [175.001320789025, -36.7699036360211], [175.001352163555, -36.7699064194866], [175.001332014406, -36.7699224514635], [175.001330616469, -36.7699251753456], [175.001327383384, -36.7699314741036], [175.001319807649, -36.7699391429419], [175.001280133882, -36.7699393842561], [175.001271730852, -36.7699385026633], [175.001269966, -36.7699383178479], [175.001249624331, -36.7699487558489], [175.001300425796, -36.769965727283], [175.001308182039, -36.7699683187476], [175.001337800337, -36.7699774527332], [175.001344950082, -36.7699768402921], [175.001353266834, -36.7699758684134], [175.001421667209, -36.7699678735778], [175.001428967546, -36.7699670206486], [175.001443446106, -36.7699558358513], [175.001471044895, -36.7699567576074], [175.001488222994, -36.7699664515328], [175.00148171841, -36.7699785188255], [175.001478947798, -36.7699849377917], [175.001471677069, -36.7700488006554], [175.001482578638, -36.7701003574999], [175.001577237681, -36.7701591889094], [175.001578229014, -36.7701596994973], [175.001764698571, -36.770240790272], [175.001766204841, -36.7702416292846], [175.001789826721, -36.7702581098043], [175.001805375656, -36.7702740817633], [175.00182577377, -36.7702825280884], [175.001837239609, -36.7702833571843], [175.001848636574, -36.770284984206], [175.001872191375, -36.7702772167081], [175.001901057127, -36.7702485780554], [175.001906332253, -36.7702433445192], [175.00191195952, -36.7702378662052], [175.001912112696, -36.7702377680867], [175.001955275186, -36.7702202904629], [175.001957060658, -36.7702197601737], [175.002180299297, -36.7701760365543], [175.002181699394, -36.7701760670619], [175.002329288074, -36.7702120181281], [175.002607718064, -36.7701795043292]]}, "properties": {"OBJECTID": 12040, "TRACKNAME": "Island Bay to Fossil Bay", "CONDITIONSOFUSE": "Owhanake Matiatia Walkway", "STATUS": "Temp Closed", "WEBLINK": "https://www.aucklandcouncil.govt.nz/en/parks-recreation/find-park-beach/park-detail/1039.html", "VALIDATIONSTATE": 3, "created_user": "AC_owner", "last_edited_user": "AC_owner", "last_edited_date": 1789875254325, "created_date": 1789875254325, "PARK_SAPSITEID": null, "TRACK_ID": null, "KAURIDIEBACK_TRACK": null, "KAURIDIEBACK_MITIGATED": null, "SegmentID": null, "GlobalID": "0b10ed82-b58a-4c0c-be8f-300882ea7acb", "Shape__Length": 248.0218122303401}}]}