{"type": "FeatureCollection", "features": [{"type": "Feature", "id": 11980, "geometry": {"type": "MultiLineString", "coordinates": [[[175.006264109518, -36.7744045426328], [175.006252712224, -36.7744047349133], [175.006136028746, -36.7743082198186], [175.005849731515, -36.7740873642268], [175.005827738989, -36.7740596257267], [175.005800762517, -36.7740148894784], [175.005798138653, -36.7739722914076], [175.005795682942, -36.773935199365], [175.005797333547, -36.7738831500663], [175.005821326314, -36.7738157277712], [175.005873211684, -36.773764704096], [175.005881698304, -36.7737383830245], [175.005912795172, -36.7736856126088], [175.00594200359, -36.7736360448813], [175.005939380219, -36.7735901578888], [175.005919235783, -36.7735425339619], [175.005890219207, -36.773497066019], [175.005854150265, -36.7734543227367], [175.005809817625, -36.7734246996294], [175.00575157684, -36.7733960330413], [175.005514395195, -36.7732760945157], [175.005468458881, -36.7732561640737], [175.005440125046, -36.7732246720802], [175.005412199739, -36.7731889496062], [175.005394772596, -36.7731565012457], [175.005362883327, -36.773073346958], [175.005312114413, -36.772943185425], [175.005260601387, -36.7728348546599], [175.005192033105, -36.7727425665159], [175.005118360371, -36.772678783007], [175.005054122738, -36.7726350092054], [175.004957071309, -36.7725903609044], [175.004846133418, -36.7725397942189], [175.004756421939, -36.7725008724765], [175.00464853954, -36.7724620911277], [175.004582645807, -36.7724291328782], [175.004549323131, -36.7723900932768], [175.004539243352, -36.7723591712491], [175.00453841434, -36.7723273406887], [175.004543712943, -36.7722907902811], [175.004595047943, -36.7722502569802], [175.004681931707, -36.7722116418013], [175.004896370136, -36.7720937520604], [175.004964481765, -36.7720511340285], [175.005028110711, -36.7719989672426], [175.005097734302, -36.771944207201], [175.005158841777, -36.7718892698405], [175.00516907052, -36.771859332185], [175.005203241439, -36.7718132267479], [175.005250417883, -36.7717517850684], [175.005287133105, -36.771690717158], [175.005332079291, -36.7715982914255], [175.005375765851, -36.7715104575102], [175.005435114692, -36.7713972892496], [175.00550033723, -36.7712803742654], [175.005557299921, -36.771191176228], [175.005598340004, -36.7711177989685], [175.005636919777, -36.7710535818415], [175.00566151427, -36.7710251405122], [175.005692437266, -36.7709745443577], [175.00574515172, -36.7709007592466], [175.00576267702, -36.7708621828074], [175.005765945186, -36.7708558671185], [175.005772912521, -36.770783291597], [175.005800745128, -36.7707034059679], [175.005818071735, -36.7706713088554], [175.00578439122, -36.7706637154665], [175.005695959533, -36.7706326503514], [175.005455222784, -36.7705729931979], [175.005454986916, -36.7705727123583], [175.0055238096, -36.7698200653517], [175.005522040114, -36.7698177679834], [175.005459604976, -36.7697977687224], [175.005457974147, -36.7697969661075], [175.005374428872, -36.7697356944118], [175.005372369267, -36.7697334415913], [175.005283772983, -36.7695832965039], [175.005284274561, -36.7695804885461], [175.005284280611, -36.7695756032887]], [[175.005284280611, -36.7695756032887], [175.005298484027, -36.7695706102317], [175.00547984565, -36.7694066690654], [175.005481706347, -36.7694048566792], [175.005514535077, -36.7693698041428], [175.005514731931, -36.7693691897281], [175.005513059381, -36.7693214209248], [175.005514410249, -36.7693169825768], [175.005515335855, -36.7693153139466], [175.005519717738, -36.7693050911871], [175.00552293704, -36.7693021905289], [175.005532607354, -36.7692911268856], [175.005561212098, -36.7691778055229], [175.005561532225, -36.7691761606228], [175.005590765876, -36.7689607370088], [175.005587591706, -36.7689460629662], [175.005587646209, -36.768944628948], [175.005587674887, -36.7689420317608]], [[175.000898883874, -36.769209860041], [175.000833846722, -36.7691683524202], [175.000784707971, -36.7691455437896], [175.000771811983, -36.7691104181511], [175.000627448919, -36.7691326010262], [175.000550802803, -36.7691503070349], [175.000367341276, -36.7691919713842], [175.000302435353, -36.7692105992013], [175.000109928874, -36.7692956705868], [175.000075031572, -36.7693292485413], [174.99957477727, -36.7697262210856], [174.998897969097, -36.770024478486], [174.998486633075, -36.7702474021488], [174.998338253851, -36.7705258178557], [174.998186279568, -36.7707218075792], [174.998115180183, -36.7708599588285], [174.99804345155, -36.7711510459577], [174.998087328031, -36.771217943013], [174.99820393414, -36.7713957261554], [174.998218987111, -36.7714186786396], [174.998225133525, -36.7714280482481], [174.998229977004, -36.7714354343097], [174.99823297025, -36.7714399951737], [174.998233276125, -36.7714405137016], [174.998233938378, -36.7714417698314], [174.998333273972, -36.7716298332638], [174.998333290586, -36.7716298690375], [174.998540982349, -36.7721486871627], [174.998623990092, -36.772300285966], [174.998712559974, -36.7723803209865], [174.998800441263, -36.7724358614998], [174.998839763747, -36.7725013349898], [174.998840294232, -36.7725020894922], [174.998843264066, -36.7725057458064], [174.998938139955, -36.7726225368752], [174.998938792235, -36.7726230630983], [174.999131513015, -36.7727245362732], [174.9991332946, -36.7727257943112], [174.99916708136, -36.7727575233604], [174.999219016459, -36.7729980257628], [174.999229050741, -36.7730276628468], [174.999263736686, -36.773079724062], [174.999280075405, -36.7731147099455], [174.999288251728, -36.7731629634905], [174.999289010869, -36.7731707083947], [174.999289161215, -36.7731965944996], [174.999288953055, -36.7732032885022], [174.999285762056, -36.7732646995505], [174.999285722498, -36.7732692149305], [174.999286552457, -36.7733003019466], [174.999293716862, -36.7735685920698], [174.999293630496, -36.7735695372044], [174.999272820364, -36.7736719688276], [174.999252272521, -36.773798861482]], [[175.000898404552, -36.7692093065825], [175.000978323151, -36.7692407330744], [175.001118947217, -36.7692797222415], [175.001120767715, -36.7692810138464], [175.001158284654, -36.769326111973], [175.001158488777, -36.7693271117084], [175.00114854346, -36.7693551587137], [175.001148456233, -36.7693554233671], [175.00113258878, -36.7694109611624], [175.001132232976, -36.7694123578875], [175.001115252496, -36.7694876127759], [175.00111639024, -36.76952736892], [175.001155820936, -36.7695686790383], [175.001177238254, -36.7695978945897], [175.001183806659, -36.7696175842777], [175.001201696351, -36.7696408635981], [175.001202002341, -36.7696432821008], [175.001196454162, -36.7696533972478], [175.001191555286, -36.7696612959365], [175.001177230815, -36.7697190863105], [175.001251553083, -36.7698023588143], [175.001264667868, -36.7698196012108], [175.001294249188, -36.7698385187661], [175.00130749981, -36.7698494370078], [175.001275686761, -36.7698575795093], [175.001267283297, -36.7698582752348], [175.001227882134, -36.769866156045], [175.001209814289, -36.7698714912547], [175.0012180308, -36.7698776955858], [175.001237328275, -36.7698855701706], [175.001312440069, -36.7699028950286], [175.001352163555, -36.7699064194866], [175.001332014406, -36.7699224514635], [175.001327383384, -36.7699314741036], [175.001319807649, -36.7699391429419], [175.001280133882, -36.7699393842561], [175.001269966, -36.7699383178479], [175.001249624331, -36.7699487558489], [175.001308182039, -36.7699683187476], [175.001337800337, -36.7699774527332], [175.001344950082, -36.7699768402921], [175.001428967546, -36.7699670206486], [175.001443446106, -36.7699558358513], [175.001471044895, -36.7699567576074], [175.001488222994, -36.7699664515328], [175.00148171841, -36.7699785188255], [175.001478947798, -36.7699849377917], [175.001471677069, -36.7700488006554], [175.001482578662, -36.7701003584008], [175.001577237681, -36.7701591889094], [175.001578229014, -36.7701596994973], [175.001764698571, -36.770240790272], [175.001766204841, -36.7702416292846], [175.001789826721, -36.7702581098043], [175.001805375656, -36.7702740817633], [175.00182577377, -36.7702825280884], [175.001837239609, -36.7702833571843], [175.001848637694, -36.7702849841871], [175.001872191375, -36.7702772167081], [175.001906332253, -36.7702433445192], [175.00191195952, -36.7702378662052], [175.001912112696, -36.7702377680867], [175.001955275186, -36.7702202904629], [175.001957060658, -36.7702197601737], [175.002180299297, -36.7701760365543], [175.002181699394, -36.7701760670619], [175.002329288074, -36.7702120181281], [175.00260896234, -36.7701793589943], [175.002758366878, -36.7701257769209], [175.002767110015, -36.7701233664658], [175.002810670425, -36.7701150347427], [175.003042074934, -36.770070040835], [175.003046380113, -36.7700681359388], [175.003464087251, -36.7697503335232], [175.003464783289, -36.7697500441908], [175.003686681794, -36.7697140601527], [175.003701167019, -36.7697117106165], [175.003702748691, -36.7697112711631], [175.00379349521, -36.7696734721608], [175.003966925617, -36.7695984586692], [175.003972225577, -36.7695961656332], [175.003973747577, -36.7695958010901], [175.004161454555, -36.7695839753652], [175.004232219473, -36.7695795164118], [175.004238258208, -36.7695791352326], [175.004243158203, -36.7695797250384], [175.004410193178, -36.7696327935545], [175.004451529138, -36.7696459249129], [175.004452020889, -36.7696460941846], [175.004604006868, -36.7697030393767], [175.004639925612, -36.7697164963241], [175.00464331277, -36.7697168556391], [175.004692693369, -36.7697094039579], [175.004785414965, -36.7696954090286], [175.004867144568, -36.7696830765969], [175.004893640527, -36.7696790814222], [175.004902039081, -36.769677812284], [175.004906525272, -36.7696764937329], [175.004938127591, -36.7696628170075], [175.004959950941, -36.7696533709931], [175.005017093366, -36.7696286389017], [175.005049425686, -36.7696146451935], [175.005082508005, -36.7696003269748], [175.005136497461, -36.769576960308], [175.005140864861, -36.7695736193859], [175.005142068733, -36.7695701172881], [175.005144264775, -36.7695691356782], [175.005271245307, -36.7695707333302], [175.005284280611, -36.7695756032887]]]}, "properties": {"OBJECTID": 11980, "TRACKNAME": "Island Bay Track", "CONDITIONSOFUSE": "Owhanake Matiatia Walkway", "STATUS": "Open", "WEBLINK": "https://www.aucklandcouncil.govt.nz/en/parks-recreation/find-park-beach/park-detail/1039.html", "VALIDATIONSTATE": 3, "created_user": "AC_owner", "last_edited_user": "AC_owner", "last_edited_date": 1789875254325, "created_date": 1789875254325, "PARK_SAPSITEID": null, "TRACK_ID": null, "KAURIDIEBACK_TRACK": null, "KAURIDIEBACK_MITIGATED": null, "SegmentID": null, "GlobalID": "53553b1f-39c3-4640-b14c-6e7a1249e40c", "Shape__Length": 2003.168603093489}}]}