{"type": "FeatureCollection", "features": [{"type": "Feature", "id": 6484, "geometry": {"type": "MultiLineString", "coordinates": [[[175.077871444703, -36.789083327321], [175.077853595769, -36.7890349173511], [175.07781192099, -36.7889218882123], [175.077806606698, -36.7889074781671], [175.077806602049, -36.788907347559], [175.077827170613, -36.7888345050824], [175.077827201177, -36.7888341431246], [175.077804094553, -36.7886297593788], [175.077800013727, -36.7885936829123], [175.077798087376, -36.7885766314184], [175.077799260895, -36.7885727416039]], [[175.077799260895, -36.7885727416039], [175.077801717875, -36.7885645932219], [175.077823712256, -36.7884916447093], [175.077870564596, -36.7883719445617], [175.077888372852, -36.7883016280008]], [[175.077757584035, -36.7877434354802], [175.077776746283, -36.7877847662026], [175.077782858427, -36.7877894723675], [175.077782895924, -36.787789491541], [175.077859741269, -36.7878125713307], [175.077861080314, -36.7878126939415], [175.077873413632, -36.7878823089028], [175.077878010323, -36.7878827260926], [175.077898108169, -36.7878890391207], [175.077904370865, -36.7878998571087], [175.077895864596, -36.7879000255937], [175.077800843167, -36.7879331507518], [175.077684263059, -36.7879670338117], [175.077618435268, -36.7879777280174], [175.077595929537, -36.7879813812985], [175.077586184012, -36.787982964835], [175.077585001981, -36.7879834694905], [175.077584959247, -36.7879835053882], [175.077579200887, -36.7880110652001], [175.077579150306, -36.7880114743756], [175.077577089904, -36.7880442214824], [175.077576998559, -36.7880448639072], [175.077571374089, -36.7880670090356], [175.077571374135, -36.7880671766777], [175.077615356222, -36.7882320979673], [175.077615671756, -36.7882338229615], [175.077634633073, -36.7884182675], [175.07763472876, -36.7884185740747], [175.077678390277, -36.7884995118211], [175.077731319314, -36.7885498802389], [175.077799260895, -36.7885727416039]]]}, "properties": {"OBJECTID": 6484, "TRACKNAME": "Jacobs Ladder Track", "CONDITIONSOFUSE": "The Strand Reserve Accessway", "STATUS": "Open", "WEBLINK": null, "VALIDATIONSTATE": 3, "created_user": "AC_owner", "last_edited_user": "AC_owner", "last_edited_date": 1789875254325, "created_date": 1789875254325, "PARK_SAPSITEID": null, "TRACK_ID": null, "KAURIDIEBACK_TRACK": null, "KAURIDIEBACK_MITIGATED": null, "SegmentID": null, "GlobalID": "0c075c75-f9e6-4b4b-a954-27c7fed123f0", "Shape__Length": 216.23247165189426}}]}