{"type": "FeatureCollection", "features": [{"type": "Feature", "id": 190, "geometry": {"type": "LineString", "coordinates": [[174.591651127287, -36.9999604276285], [174.592004474527, -37.0000519515752], [174.592068113998, -37.0000578759214], [174.5922145118, -37.0000294752608], [174.592240487455, -37.0000178689207], [174.592284273517, -36.9999792536176], [174.5923399927, -36.9999540434353], [174.592481950678, -36.9999051423173], [174.592651069753, -36.9998643040912], [174.592726510881, -36.9998590191918], [174.593021618018, -36.9998764379343], [174.593107004044, -36.99989482384], [174.593193800197, -36.9999398525675], [174.593248670401, -37.0000134408827], [174.59330163524, -37.0001190345087], [174.593286991256, -37.0003348961766], [174.593240407994, -37.0005275443551], [174.593220408663, -37.0005767379229], [174.593189947319, -37.0006027991949], [174.593108429596, -37.000633574916], [174.59306949763, -37.0006560002758], [174.592862532286, -37.0008960010639], [174.592724353895, -37.0010157662107], [174.592585972206, -37.0011818829373], [174.592473250903, -37.0013276461746], [174.592334377679, -37.001437063733], [174.592224846509, -37.0015382934958], [174.592162607939, -37.0018012715101], [174.592099081559, -37.0019468619575], [174.592076515196, -37.002036830607]]}, "properties": {"OBJECTID": 190, "TRACKNAME": "Kakamatua Beach Walk", "CONDITIONSOFUSE": "Waitakere South Regional Park", "STATUS": "Open", "WEBLINK": "https://www.aucklandcouncil.govt.nz/en/parks-recreation/find-park-beach/park-detail/212.html", "VALIDATIONSTATE": 3, "created_user": "AC_owner", "last_edited_user": "AC_owner", "last_edited_date": 1789875254325, "created_date": 1789875254325, "PARK_SAPSITEID": null, "TRACK_ID": null, "KAURIDIEBACK_TRACK": null, "KAURIDIEBACK_MITIGATED": null, "SegmentID": null, "GlobalID": "3d9dbb6a-2d60-46c1-853b-b74351b00f5c", "Shape__Length": 416.6752730104705}}]}