{"type": "FeatureCollection", "features": [{"type": "Feature", "id": 7833, "geometry": {"type": "LineString", "coordinates": [[174.813351295003, -36.6034708336019], [174.812992164887, -36.6032908663374], [174.812934059321, -36.6032726712109], [174.812895508327, -36.6032684886783], [174.812854390894, -36.603281038589], [174.812794472259, -36.6033117613836], [174.812605596196, -36.6035197350684], [174.812566347679, -36.6035489507525], [174.812512091778, -36.6035688555232], [174.812457361608, -36.6035684956347], [174.812409633553, -36.6035513348945], [174.812322879096, -36.6035097267997], [174.812270743413, -36.6034938255661], [174.812214757893, -36.6035030238784], [174.812117962602, -36.6035378848072], [174.811967439906, -36.6036152981242], [174.811883922142, -36.6036487644121], [174.811826513701, -36.6036603692135], [174.811733678458, -36.6036748977579], [174.811386523196, -36.6036921015928], [174.811250840446, -36.6037084737268], [174.811039172511, -36.6037641585721], [174.810900084093, -36.6038247024311], [174.810795113313, -36.6038894976356], [174.810741386205, -36.6039320495528], [174.810714243763, -36.6039730048874], [174.810715860215, -36.6040421425866], [174.810737868556, -36.6040978526913], [174.810736555779, -36.6041682256214], [174.810736555822, -36.6041682274235], [174.810687875769, -36.6043001349241], [174.810660033854, -36.6043744894938], [174.81064413176, -36.6044534326561], [174.810636151888, -36.6045549113963], [174.810637740413, -36.6046228560993], [174.810624628139, -36.6046946017678], [174.810591625789, -36.6047380311616], [174.810524313469, -36.604768866099], [174.810413957991, -36.6047931991036], [174.810360035015, -36.6048274071263], [174.810326949979, -36.60486726016], [174.810298495644, -36.6049153904252], [174.810212042815, -36.6050764911464], [174.8101596241, -36.605175067524], [174.810140485618, -36.6052421355438], [174.810146201845, -36.605296900773], [174.810167149552, -36.6053705139105], [174.810191416658, -36.6054595783991], [174.810191275514, -36.6055168176522], [174.810181340943, -36.6056612547864], [174.810184602739, -36.605737520767], [174.81020248203, -36.6058064113561], [174.81024507628, -36.6059202383604], [174.810289568946, -36.6059887236423], [174.810308369654, -36.6060337508162], [174.810304909201, -36.6060755387113], [174.810270984228, -36.6062060311051], [174.810254551995, -36.6062623253804], [174.810243865763, -36.6063113772551], [174.810243530756, -36.6063602727445], [174.810316122344, -36.6067202952274]]}, "properties": {"OBJECTID": 7833, "TRACKNAME": "Kanuka Track", "CONDITIONSOFUSE": "Shakespear Regional Park", "STATUS": "Open", "WEBLINK": "https://www.aucklandcouncil.govt.nz/en/parks-recreation/find-park-beach/park-detail/226.html", "VALIDATIONSTATE": 3, "created_user": "AC_owner", "last_edited_user": "AC_owner", "last_edited_date": 1789875254325, "created_date": 1789875254325, "PARK_SAPSITEID": null, "TRACK_ID": null, "KAURIDIEBACK_TRACK": null, "KAURIDIEBACK_MITIGATED": null, "SegmentID": null, "GlobalID": "e5f992f2-85fd-407d-b046-244b648487fe", "Shape__Length": 601.7265539523463}}, {"type": "Feature", "id": 12156, "geometry": {"type": "LineString", "coordinates": [[174.818413490473, -36.6032422462669], [174.818431232803, -36.6032644060784], [174.818450586099, -36.6032705194308], [174.818462280789, -36.6032890326581], [174.81845131313, -36.6033014839444], [174.818419642773, -36.6033067734461], [174.818402039949, -36.603318791488], [174.818391136556, -36.6033622164973], [174.818365839725, -36.6033850332114], [174.818327823602, -36.6034021698131], [174.818300715205, -36.603432491034], [174.818252280087, -36.6034572625977], [174.818158668306, -36.603476315743], [174.818037794094, -36.603530518268], [174.817997858013, -36.6035515004686], [174.817919555387, -36.6035526953094], [174.817882335035, -36.6035817853272], [174.817819522147, -36.6035970043391], [174.817781251257, -36.6035812905862], [174.817722581524, -36.6035577378574], [174.817676351262, -36.6035258469186], [174.817614391203, -36.6034697480566], [174.817535466202, -36.603444467155], [174.817461976052, -36.603435401882], [174.817381052278, -36.603432562156], [174.817315951548, -36.6034580021958], [174.817265529208, -36.6034628464187], [174.817229831924, -36.6034491294269], [174.817181649673, -36.603441715953], [174.817126843811, -36.6034751481607], [174.817083431834, -36.6035634136355], [174.817050075799, -36.6036494877252], [174.81704707903, -36.6037371367806], [174.817066241169, -36.6038000008885], [174.817133349166, -36.6038600957134], [174.817195261409, -36.6039141575525], [174.81723658371, -36.603952235735], [174.817346440927, -36.6040035299683], [174.81743252968, -36.6040541266744], [174.817474412293, -36.6041160726379], [174.817537249621, -36.6041750921409], [174.817608751581, -36.6042587517938], [174.817679978393, -36.6043306815528], [174.817740618779, -36.6043649602837], [174.817821178068, -36.6044211015682], [174.817917535946, -36.6044613548297], [174.817977079553, -36.6045178157818], [174.81803189652, -36.6045795650639], [174.818072831372, -36.6046011059976], [174.818155589641, -36.6046819858625], [174.818237643146, -36.6047328878188], [174.818331895978, -36.6047523115386], [174.818408427247, -36.6047746133384], [174.818455860291, -36.6047973583354], [174.818461719413, -36.6048402967344], [174.818443850795, -36.6049057620096], [174.818443886329, -36.6049761702339], [174.818522824803, -36.6052204274762], [174.818600504474, -36.6053338383792], [174.818731212544, -36.6055196553292], [174.818836445921, -36.6056294626857], [174.818846432064, -36.6057184413481], [174.818813750691, -36.605839904213], [174.818752244434, -36.6059108751821], [174.818568162351, -36.6059741663537], [174.818420125648, -36.606059190751], [174.818339333826, -36.6061495550156], [174.818359783939, -36.6062361539317]]}, "properties": {"OBJECTID": 12156, "TRACKNAME": "Kanuka Track", "CONDITIONSOFUSE": "Shakespear Regional Park", "STATUS": "Open", "WEBLINK": "https://www.aucklandcouncil.govt.nz/en/parks-recreation/find-park-beach/park-detail/226.html", "VALIDATIONSTATE": 3, "created_user": "AC_owner", "last_edited_user": "AC_owner", "last_edited_date": 1789875254325, "created_date": 1789875254325, "PARK_SAPSITEID": null, "TRACK_ID": null, "KAURIDIEBACK_TRACK": null, "KAURIDIEBACK_MITIGATED": null, "SegmentID": null, "GlobalID": "dc56cdd1-541d-43af-b5ce-1622116bed55", "Shape__Length": 546.9798428410389}}]}