{"type": "FeatureCollection", "features": [{"type": "Feature", "id": 12263, "geometry": {"type": "LineString", "coordinates": [[174.545290065755, -37.0003108787581], [174.544877966437, -36.9998886394023], [174.544410983086, -36.9995626669477], [174.543952586909, -36.9993081437194]]}, "properties": {"OBJECTID": 12263, "TRACKNAME": "Karamatura Waterfall Walk", "CONDITIONSOFUSE": "Waitakere South Regional Park", "STATUS": "Open", "WEBLINK": "https://www.aucklandcouncil.govt.nz/en/parks-recreation/find-park-beach/park-detail/212.html", "VALIDATIONSTATE": 3, "created_user": "AC_owner", "last_edited_user": "AC_owner", "last_edited_date": 1789875254325, "created_date": 1789875254325, "PARK_SAPSITEID": null, "TRACK_ID": null, "KAURIDIEBACK_TRACK": null, "KAURIDIEBACK_MITIGATED": null, "SegmentID": null, "GlobalID": "66564f0a-f184-4e13-b5ee-b4a65fefe9d3", "Shape__Length": 164.21193280084645}}]}