{"type": "FeatureCollection", "features": [{"type": "Feature", "id": 2594, "geometry": {"type": "LineString", "coordinates": [[174.549542889419, -36.9999498832759], [174.549541966853, -37.0000197581569], [174.549530592682, -37.0000517424014], [174.549503730516, -37.0000764188178], [174.549468879594, -37.0000924699505], [174.549414058638, -37.0001157014868], [174.549392367863, -37.0001338891317], [174.549371974667, -37.0001633537624], [174.549346299412, -37.000205984887], [174.549317851877, -37.0002532184455], [174.549313950909, -37.0002788416114], [174.54932628879, -37.0003070730954], [174.549511915444, -37.0005233037302], [174.549554655051, -37.0005605438172], [174.549623078095, -37.0006201625575], [174.549648361374, -37.0006873255717], [174.549665555401, -37.0007323885281], [174.549674739233, -37.0007459610239], [174.549703101984, -37.0007844568984], [174.5498018578, -37.0008926263802], [174.549960024201, -37.0010658671159], [174.55003216156, -37.0011448819401], [174.550045664247, -37.0011596707006], [174.550081286123, -37.0011941336575], [174.55012133675, -37.0012322955832], [174.55018983051, -37.0012975582174], [174.550267369612, -37.0013714403398], [174.550382152097, -37.0014808087529], [174.55047090045, -37.0015653713161], [174.55052318027, -37.00161518462], [174.550546704578, -37.0016340345603], [174.550574949382, -37.0016525767468], [174.550605692046, -37.0016573794444], [174.550626383873, -37.0016628705028], [174.550651692172, -37.0016720616694], [174.550745538014, -37.0017061403488], [174.550835840274, -37.001738932165], [174.55084768948, -37.0017432353921], [174.550872471423, -37.0017654029272], [174.550893838924, -37.0017887715141], [174.550932702925, -37.0018392385819], [174.550947038867, -37.0018578542967], [174.550956019296, -37.0018680348585], [174.550971109837, -37.0018802041616], [174.550981121839, -37.0018882783023], [174.551008728096, -37.0018936356567], [174.551036249288, -37.0018977376333], [174.551101463695, -37.0018994901408], [174.551204914171, -37.0019022696915], [174.55124208429, -37.0019032683291], [174.551301094893, -37.0019194360048], [174.551317892444, -37.0019267327794], [174.551369412292, -37.001952106495], [174.551390162821, -37.0019743590711], [174.55140156815, -37.0019872867609], [174.551467908101, -37.0020948438291], [174.551507436643, -37.0021582409021], [174.551540070771, -37.0021916761692], [174.551627850458, -37.0022816108335], [174.551701618972, -37.0023571898552], [174.551761056985, -37.0024162532946], [174.551813632779, -37.0024610407139], [174.551905124301, -37.0025165536172], [174.551942143323, -37.0025390151663], [174.551965241755, -37.0025557909699], [174.552030290889, -37.0026291466104], [174.552096267797, -37.0027159021749], [174.552142564798, -37.0027784668793], [174.552231107909, -37.0028560804438], [174.552319974069, -37.0029303943762], [174.552376341627, -37.0029726045473], [174.552417309651, -37.0029932737748], [174.552466473804, -37.0030043851016], [174.552510956813, -37.0030023249249], [174.552551536298, -37.0029926164669], [174.552591582909, -37.0029746117265], [174.552626063193, -37.0029497006456], [174.55264491855, -37.0029316234267], [174.55266763407, -37.0029050293124], [174.552684575458, -37.0028761194623], [174.552708541843, -37.0028117937653], [174.552730528669, -37.0027500970655], [174.552743819809, -37.0026911866481], [174.552751334969, -37.0026578798564], [174.552780231257, -37.0026391241108], [174.55280936844, -37.0026551384068], [174.552837290244, -37.0027056542691], [174.55289525808, -37.0028451945111], [174.552913651169, -37.0028894715129], [174.552930075209, -37.002941531301], [174.552949265877, -37.0030051237131], [174.552952435178, -37.0030371685099], [174.552952223462, -37.0031089043521], [174.55294183781, -37.0032039010865], [174.552933900481, -37.0032765014728], [174.552930516024, -37.0033074620821], [174.55293107021, -37.0033385694449], [174.552939904045, -37.0034102968731], [174.552951286476, -37.0035027256105], [174.552956916372, -37.0035484387285], [174.552966527222, -37.0036264825612], [174.552974242031, -37.0036836939589], [174.553011590288, -37.0037804590739], [174.553024460131, -37.0038138046487], [174.553039770651, -37.0038339333273], [174.553085229123, -37.0038881882481], [174.553126012292, -37.0039281836889], [174.553154182832, -37.0039361542742], [174.55318704321, -37.0039324180231], [174.553219538043, -37.0039287226016], [174.55325227496, -37.0039140040941], [174.553289993011, -37.0038936112738], [174.553311239037, -37.0038689164914], [174.553358140679, -37.0037988021327], [174.553386102488, -37.0037516199702], [174.553423252032, -37.0036959529965], [174.553489538025, -37.0036478472791], [174.553595604609, -37.0036054968182], [174.553725472636, -37.0035536426567], [174.553845695664, -37.0035046556552], [174.553943159733, -37.0034604138284], [174.554231229628, -37.0033296508398], [174.554328692119, -37.0032854087201], [174.554420731455, -37.0032387660575], [174.554513556468, -37.0031549954299], [174.554603747407, -37.0030703605926], [174.554663725742, -37.0030337037888], [174.554731632826, -37.0029997057136], [174.554956540853, -37.0028871023604], [174.555059418023, -37.0028401549499], [174.555147825584, -37.0028100197791], [174.555241413472, -37.002768059438], [174.555312540885, -37.0027069215375], [174.555398340536, -37.0026106928061], [174.555406264601, -37.002594036548], [174.555433043594, -37.0025373132999], [174.555454742999, -37.0024913502464], [174.555487129367, -37.0024227494036], [174.55551017339, -37.002388066238], [174.555541686424, -37.0023488581408], [174.555573553832, -37.0023138060225], [174.555625009328, -37.002275114347], [174.555683194448, -37.0022313625791], [174.555782060341, -37.0021576078016], [174.555864744812, -37.002107865253], [174.55609012192, -37.0019759782532]]}, "properties": {"OBJECTID": 2594, "TRACKNAME": "Karamatura Loop Walk", "CONDITIONSOFUSE": "Waitakere South Regional Park", "STATUS": "Open", "WEBLINK": "https://www.aucklandcouncil.govt.nz/en/parks-recreation/find-park-beach/park-detail/212.html", "VALIDATIONSTATE": 3, "created_user": "AC_owner", "last_edited_user": "AC_owner", "last_edited_date": 1789875254325, "created_date": 1789875254325, "PARK_SAPSITEID": null, "TRACK_ID": null, "KAURIDIEBACK_TRACK": null, "KAURIDIEBACK_MITIGATED": null, "SegmentID": null, "GlobalID": "e6b46948-490a-4670-82ef-8fab3ea13cb6", "Shape__Length": 1029.146894061813}}]}