{"type": "FeatureCollection", "features": [{"type": "Feature", "id": 3236, "geometry": {"type": "LineString", "coordinates": [[174.47523623204, -36.9905853220168], [174.47418504593, -36.9915288713723], [174.473851143172, -36.9927135220144], [174.473821052273, -36.9934651250875], [174.474644323541, -36.9945280838869], [174.475294795841, -36.9958793667147], [174.475033608343, -36.9980191436309], [174.475378653763, -36.9989497171888], [174.475797724986, -36.9994023982011], [174.476461309199, -36.9996229966999], [174.476542376722, -36.9996525558916], [174.476638058372, -36.9996655140173], [174.476739072473, -36.9996468689362], [174.476851806052, -36.999601476997], [174.476931030661, -36.9995601065247], [174.476999803579, -36.9994976300468], [174.477078403575, -36.9993743805241], [174.477082218196, -36.9992501626306], [174.477100052072, -36.9991994843431], [174.47714429189, -36.999154522798], [174.47718958012, -36.9991391812894], [174.477399258649, -36.9991916829717], [174.477529657222, -36.9991834075005], [174.477668411251, -36.9991456453256], [174.477751850758, -36.9991389043465], [174.477910735154, -36.9991948534575], [174.478034991079, -36.9992012640673], [174.478085515363, -36.9992135206333], [174.478232224762, -36.9993000977194], [174.478360925099, -36.9993438067684], [174.47840202387, -36.9994340346458], [174.478443938261, -36.999509156376], [174.478494351384, -36.9995453118948], [174.478703679552, -36.9996123455285], [174.478775441309, -36.9996276640867], [174.478899699659, -36.9996551610573], [174.479020306982, -36.9996818498121], [174.479152581736, -36.9997565156986], [174.479391872007, -36.9998298483144], [174.479557055679, -36.9999289999372], [174.479609906974, -37.0000005768395], [174.479668888778, -37.0000926850566], [174.479921496119, -37.0004871652869], [174.480066265256, -37.0008897969952], [174.480185873992, -37.0014918200869], [174.480323571511, -37.0020198311933], [174.480489639254, -37.0024698694242], [174.480625364605, -37.0027192135321], [174.480720413826, -37.0029537960006], [174.480896724244, -37.003224652639], [174.480977933804, -37.0033494111684], [174.480935257069, -37.0035521626871], [174.480768027629, -37.0036687220807], [174.480395951486, -37.0038021459675], [174.480309680493, -37.0039534678552], [174.480226004186, -37.0041796115478], [174.480107849632, -37.0042390039185], [174.479926311312, -37.004262788895], [174.47973292943, -37.0042467910877], [174.479586329286, -37.004277237175], [174.479530847433, -37.0043679566381], [174.479533550981, -37.004507437036], [174.479522321367, -37.0046184721079], [174.479471652483, -37.0047657720125], [174.479539582023, -37.0048185847718], [174.479592377171, -37.0050110993861], [174.479621051914, -37.0053398504136], [174.479632049793, -37.0054470317392], [174.479755918357, -37.005624350962], [174.479788797294, -37.0057097953587], [174.479794990314, -37.0057991500196], [174.479837878005, -37.0060145824849], [174.479917288764, -37.0062445012572], [174.479983283506, -37.0064365373451], [174.479958313497, -37.0065499971855], [174.479922248777, -37.0066626669879], [174.479976695187, -37.0067341065328], [174.48008963756, -37.0067825664225], [174.480177003533, -37.0068486395976], [174.480231173184, -37.006952150096], [174.480226669498, -37.0070763269153], [174.48023716021, -37.0071727693796], [174.4803261577, -37.0072236684488], [174.480345377926, -37.0072696989998], [174.480314994783, -37.0073130052138], [174.480240918692, -37.0074033611396], [174.480174076495, -37.0076367174013], [174.480189049782, -37.0077188084061], [174.480260589434, -37.0079575934544], [174.480295204187, -37.0081324478617], [174.480328362372, -37.008232197635], [174.480485554219, -37.0082874727902], [174.48068246431, -37.0083207889968], [174.480750675449, -37.0083879056379], [174.48074362945, -37.008484580383], [174.48071944052, -37.0086172412389], [174.480756365349, -37.0086811707803], [174.480886800948, -37.008736779269], [174.480937034779, -37.0087969660679], [174.480983138919, -37.0091040358413], [174.481040886665, -37.0093215293294], [174.481102816925, -37.009524660617], [174.481220707743, -37.0096233524601], [174.481364663608, -37.0096859466031], [174.481495240215, -37.0097487067092], [174.481603171871, -37.0097938637746], [174.481712180616, -37.0098441846893], [174.481784470205, -37.0099418454559], [174.481847876745, -37.009991135783], [174.482059003599, -37.0100671983622], [174.482345041805, -37.0100958210266], [174.4826931661, -37.0101057806956], [174.482934955925, -37.0101528413577], [174.48445628393, -37.0096508871811], [174.484558166637, -37.0097910121216], [174.484715438255, -37.0099365515378], [174.484873190553, -37.010079094919], [174.485002425797, -37.0102077264821], [174.48512854227, -37.010303770503], [174.485195458692, -37.0103457059789], [174.485366881041, -37.0103875969798], [174.485577645063, -37.0103879167431], [174.485790343761, -37.0103376268412]]}, "properties": {"OBJECTID": 3236, "TRACKNAME": "Karekare Beach Walk", "CONDITIONSOFUSE": "Waitakere South Regional Park", "STATUS": "Open", "WEBLINK": "https://www.aucklandcouncil.govt.nz/en/parks-recreation/find-park-beach/park-detail/212.html", "VALIDATIONSTATE": 3, "created_user": "AC_owner", "last_edited_user": "AC_owner", "last_edited_date": 1789875254325, "created_date": 1789875254325, "PARK_SAPSITEID": null, "TRACK_ID": null, "KAURIDIEBACK_TRACK": null, "KAURIDIEBACK_MITIGATED": null, "SegmentID": null, "GlobalID": "9ec51442-c966-4497-b0ca-938a98a71933", "Shape__Length": 3197.8164264526204}}]}