{"type": "FeatureCollection", "features": [{"type": "Feature", "id": 423, "geometry": {"type": "LineString", "coordinates": [[174.514787454523, -36.9632294531815], [174.514406487345, -36.963340818436], [174.514303300048, -36.9633864636331], [174.514263608213, -36.9634257825148], [174.514220502112, -36.9634957461238], [174.514174076326, -36.9636487673651], [174.51419183757, -36.9636863258566], [174.514251266038, -36.9637485549085], [174.514440884482, -36.9638841524069], [174.514474948298, -36.9639162389335], [174.514643476179, -36.9642623294434], [174.514708201802, -36.9643027408412], [174.51483863354, -36.9643315695646], [174.514890256129, -36.9643728150679], [174.514905072269, -36.9643949346682], [174.514911845375, -36.9644266662563], [174.514907637494, -36.9644580602525], [174.514893583321, -36.9644783579606], [174.51480274186, -36.9645371591431], [174.514440496147, -36.9646968689802], [174.514366695097, -36.9647370106113], [174.514309999455, -36.9647798904624], [174.514154471339, -36.9649443354807], [174.513892203398, -36.9650699318689], [174.513841937865, -36.9651119543285], [174.513804516141, -36.9651712362812]]}, "properties": {"OBJECTID": 423, "TRACKNAME": "Kauri Grove Track", "CONDITIONSOFUSE": "Waitakere West Regional Park", "STATUS": "Temp Closed", "WEBLINK": "https://www.aucklandcouncil.govt.nz/en/parks-recreation/find-park-beach/park-detail/3451.html", "VALIDATIONSTATE": 3, "created_user": "AC_owner", "last_edited_user": "AC_owner", "last_edited_date": 1789875254325, "created_date": 1789875254325, "PARK_SAPSITEID": null, "TRACK_ID": null, "KAURIDIEBACK_TRACK": null, "KAURIDIEBACK_MITIGATED": null, "SegmentID": null, "GlobalID": "ae21f524-d0dd-4a29-b12c-1f45f72e6ece", "Shape__Length": 324.295420480373}}, {"type": "Feature", "id": 1119, "geometry": {"type": "LineString", "coordinates": [[174.5136864093, -36.9669038524488], [174.513546389411, -36.9670654507268], [174.513517122723, -36.9670849588454], [174.513488483189, -36.9670529182873], [174.51330898834, -36.9667103489084], [174.513275070095, -36.9666716415247], [174.513240223538, -36.9666678033667], [174.513189660693, -36.966674167026], [174.513079593094, -36.9667068471922], [174.512995544033, -36.9667444469722], [174.51289249967, -36.9668204568774], [174.512790792547, -36.9667815721909], [174.512708820459, -36.9667591886195], [174.512578102631, -36.9667643244992], [174.512421835698, -36.9667423429281], [174.512206206763, -36.9665401359135], [174.512153069879, -36.9665075769284], [174.512108183173, -36.9665185458836], [174.511966234116, -36.9665898514976], [174.511923931993, -36.9666035438251], [174.511911729127, -36.9665995439712], [174.511899365655, -36.9665816318612], [174.511858218917, -36.9664645662231], [174.511836889613, -36.966449166811], [174.511650149399, -36.9665186187176], [174.511616970107, -36.9665097896504], [174.51153076817, -36.966450249157], [174.511478089779, -36.9664357463899], [174.511047701693, -36.9664615502664], [174.51097864505, -36.9664691173488], [174.510950780412, -36.9664793374032], [174.511059199822, -36.9665651964708], [174.511115290019, -36.9666378424174], [174.511110779533, -36.9666769684012], [174.511091096863, -36.9667083212913], [174.511069654315, -36.9667124745923], [174.511020316556, -36.9667041106306], [174.511009160611, -36.9667198840228], [174.511046137396, -36.96691807861], [174.511076843835, -36.9669827894073], [174.511013612877, -36.9669923239395], [174.510818996038, -36.9669944800894], [174.51070688755, -36.9669428455451], [174.510644144422, -36.9668990843393], [174.510614933944, -36.9667514129978], [174.510595309199, -36.9667032353281], [174.510573362854, -36.9666758157845], [174.510369050461, -36.9665700178261], [174.510290953983, -36.9665376511721], [174.51003228505, -36.9664955402512], [174.509469243703, -36.9664517767598], [174.509380126824, -36.9664596718986], [174.509069459134, -36.9665202630575], [174.508965605282, -36.9665242728755], [174.50889546573, -36.9665047089355], [174.508768976962, -36.9664520700284], [174.508726800211, -36.9664253606377], [174.508544638579, -36.9662353054041], [174.508386847801, -36.9660541386027], [174.508347522711, -36.9660264815621], [174.508297958712, -36.9660544333618], [174.508072202417, -36.9662663559418], [174.508038142314, -36.9662860182588], [174.507979013077, -36.9662987619931], [174.507921104885, -36.9662979562542], [174.507852177269, -36.966255472717], [174.507815330043, -36.9662434650022], [174.50761490448, -36.9662216043923], [174.507387244, -36.9661744122024], [174.50732302102, -36.9661466193862], [174.507265334935, -36.9660871751707], [174.50724505541, -36.9660756293332], [174.507211846205, -36.9660815411655], [174.507081446219, -36.9661441809892], [174.506943041961, -36.9661907798045], [174.506874654463, -36.9662059182545], [174.506828887035, -36.966202270914], [174.506731222836, -36.9661437124508], [174.506685615433, -36.9661043583094], [174.506698516, -36.9660862719116], [174.506800164702, -36.9660427890231], [174.506818627984, -36.9660213519523], [174.506796498288, -36.9659681415723], [174.506723212433, -36.9658462360742], [174.506694910003, -36.9658137487931], [174.506650619253, -36.9658100096289], [174.506478924777, -36.9658528057256], [174.506427736202, -36.9658567191369], [174.50631010807, -36.965798362275], [174.506056108598, -36.9657746026994], [174.50590403999, -36.9656727500134], [174.50567997244, -36.9655968871143], [174.50562802039, -36.9655530800803], [174.505476142987, -36.9653781852989], [174.505465217143, -36.9653468888812], [174.505463071895, -36.9652569566219], [174.505427812753, -36.9651977823116], [174.505374537489, -36.9651576045961], [174.505249481445, -36.9651029327745], [174.505168151397, -36.9650960121814], [174.505121313904, -36.965106553452], [174.505117440782, -36.9651317081765], [174.505137934197, -36.9652322998667], [174.505104602251, -36.9653874240223], [174.505082566654, -36.9654274047617], [174.505026602197, -36.9654956767282], [174.504988077817, -36.9655363397072], [174.504969172168, -36.9655453703611], [174.504950196432, -36.9655343529204], [174.504940957937, -36.9655160642404], [174.504941408483, -36.9653876983628], [174.504931985647, -36.9653595889823], [174.504909990384, -36.9653460508482], [174.504781108331, -36.9653038685275], [174.50468677, -36.9651716655219], [174.504636118342, -36.9651544461437], [174.504523516258, -36.9651631057996], [174.50448517201, -36.9651570532788], [174.50414437338, -36.9649699442892], [174.504094943882, -36.9649644737622], [174.503957050334, -36.9649881473146], [174.503904651976, -36.9649902109442], [174.503688048932, -36.9649366061432], [174.50356327716, -36.9649178373691], [174.503527115783, -36.9649237855596], [174.503468316746, -36.9649624992032], [174.503431136485, -36.9649701584338], [174.503149556376, -36.9649409172868]]}, "properties": {"OBJECTID": 1119, "TRACKNAME": "Kauri Grove Track", "CONDITIONSOFUSE": "Waitakere West Regional Park", "STATUS": "Temp Closed", "WEBLINK": "https://www.aucklandcouncil.govt.nz/en/parks-recreation/find-park-beach/park-detail/3451.html", "VALIDATIONSTATE": 3, "created_user": "AC_owner", "last_edited_user": "AC_owner", "last_edited_date": 1789875254325, "created_date": 1789875254325, "PARK_SAPSITEID": null, "TRACK_ID": null, "KAURIDIEBACK_TRACK": null, "KAURIDIEBACK_MITIGATED": null, "SegmentID": null, "GlobalID": "7b1d800e-9165-48da-bd56-dfffd8dffbe3", "Shape__Length": 1338.1155516488204}}, {"type": "Feature", "id": 1653, "geometry": {"type": "LineString", "coordinates": [[174.513804516141, -36.9651712362812], [174.513775088234, -36.9651883498001], [174.513489529196, -36.9652405560931], [174.513117873551, -36.9651953133921], [174.512985094969, -36.9651994844649], [174.512851945785, -36.9652212546685], [174.512801670022, -36.9652531455316], [174.512522050468, -36.9654789749935], [174.512403640315, -36.9656240523052], [174.512395435073, -36.9656550104092], [174.512406174145, -36.9656879625348], [174.512435465283, -36.9657354425842], [174.512465733508, -36.9657579334792], [174.512525598538, -36.9657769285652], [174.512578394831, -36.9657832684517], [174.512738833807, -36.9657577346413], [174.512788822173, -36.9657572779034], [174.512830398601, -36.9657795975582], [174.512944288353, -36.9658743663434], [174.512973946237, -36.96590970927], [174.512994796888, -36.9659688521883], [174.513038764008, -36.9661346378621], [174.513042451824, -36.9662335512073], [174.513050073388, -36.9662525629043], [174.513079668447, -36.9662676981034], [174.513190395771, -36.9662945894462], [174.513296363001, -36.966330122315], [174.513467464027, -36.9664305879465], [174.513499401016, -36.9664749242931], [174.513613657337, -36.9667129048524], [174.513707486029, -36.9668183844315], [174.51372124129, -36.9668459168446], [174.513686409246, -36.9669038497454]]}, "properties": {"OBJECTID": 1653, "TRACKNAME": "Kauri Grove Track", "CONDITIONSOFUSE": "Waitakere West Regional Park", "STATUS": "Temp Closed", "WEBLINK": "https://www.aucklandcouncil.govt.nz/en/parks-recreation/find-park-beach/park-detail/3451.html", "VALIDATIONSTATE": 3, "created_user": "AC_owner", "last_edited_user": "AC_owner", "last_edited_date": 1789875254325, "created_date": 1789875254325, "PARK_SAPSITEID": null, "TRACK_ID": null, "KAURIDIEBACK_TRACK": null, "KAURIDIEBACK_MITIGATED": null, "SegmentID": null, "GlobalID": "7ade6d4d-4ca8-4324-8f0e-0c21a2079311", "Shape__Length": 357.252224240689}}, {"type": "Feature", "id": 12192, "geometry": {"type": "LineString", "coordinates": [[174.492878390346, -36.9616665219803], [174.492768995091, -36.9616239723464], [174.492699930876, -36.9615875964174], [174.492665343815, -36.9615490175863], [174.492624858909, -36.9614597634381], [174.49256439384, -36.9614008678125], [174.492515231248, -36.9613681769118], [174.492284140384, -36.9612644227218], [174.492134195022, -36.961219373448], [174.491999394797, -36.9611941529276], [174.491965255704, -36.9611784439579], [174.491881718533, -36.9610545810139], [174.491853267324, -36.9609490103082], [174.491829907243, -36.9608997099353], [174.491805854571, -36.9608717859837], [174.491753991908, -36.9608422915719], [174.491687644345, -36.960826039897], [174.491598270491, -36.9608212237547], [174.491442980174, -36.9608520174797], [174.491361122381, -36.9608905921191], [174.491261498907, -36.9610062878941], [174.491197786161, -36.961047554011], [174.491121196623, -36.9610738975106], [174.491000533683, -36.9610755094437], [174.490978618336, -36.9610677228843], [174.490973256047, -36.9610418607029], [174.491012590453, -36.9608426665027], [174.490997696779, -36.9607991338144], [174.490963962319, -36.9607596324842], [174.490889850171, -36.9607206274048], [174.490715058469, -36.9606926041266], [174.490522685922, -36.9606418589098]]}, "properties": {"OBJECTID": 12192, "TRACKNAME": "Kauri Grove Track", "CONDITIONSOFUSE": "Waitakere West Regional Park", "STATUS": "Open", "WEBLINK": "https://www.aucklandcouncil.govt.nz/en/parks-recreation/find-park-beach/park-detail/3451.html", "VALIDATIONSTATE": 3, "created_user": "AC_owner", "last_edited_user": "AC_owner", "last_edited_date": 1789875254325, "created_date": 1789875254325, "PARK_SAPSITEID": null, "TRACK_ID": null, "KAURIDIEBACK_TRACK": null, "KAURIDIEBACK_MITIGATED": null, "SegmentID": null, "GlobalID": "9f644b6a-ac9c-4745-b22d-1627bde94c57", "Shape__Length": 302.14195057054206}}, {"type": "Feature", "id": 12236, "geometry": {"type": "LineString", "coordinates": [[174.503149556376, -36.9649409172868], [174.503127071671, -36.9649431957987], [174.503069627297, -36.9649362768858], [174.502991603584, -36.9649088565313], [174.502955405248, -36.9648754497631], [174.502848808766, -36.9647752311299], [174.502797285929, -36.9647528598892], [174.502529183631, -36.9647720678961], [174.502373533042, -36.9647915026151], [174.502348511382, -36.9648109524792], [174.502313540031, -36.9649035169197], [174.502293080721, -36.9649150049946], [174.502255205774, -36.9649197288014], [174.50216576508, -36.9649117261945], [174.502092213417, -36.9648569797593], [174.502067807784, -36.9648492484171], [174.501789414463, -36.9649127580054], [174.501509671967, -36.9649176134668], [174.501462856948, -36.9649026138269], [174.501370836684, -36.9648283525886], [174.501283174079, -36.9648040374151], [174.501257167659, -36.9648115086884], [174.501218860646, -36.9648407907257], [174.500970242261, -36.9650931880314], [174.500936139061, -36.9651171312409], [174.500928127567, -36.965089371438], [174.500927651919, -36.9649729863957], [174.50091031418, -36.9649428955048], [174.500851804559, -36.9648791950721], [174.500739960914, -36.9647851701163], [174.500517867678, -36.9646416044753], [174.500448353959, -36.9646113816004], [174.500321058671, -36.9645811254967], [174.500246835671, -36.9645758224844], [174.500121291616, -36.9645866596627], [174.499986435767, -36.9646297326002], [174.499639944436, -36.9646328455184], [174.499591872683, -36.964617313883], [174.499345351243, -36.9645003905906], [174.499136056966, -36.9644198497661], [174.499059841972, -36.9643988180571], [174.498993115387, -36.9644145682575], [174.498805048777, -36.9645020926984], [174.498591760911, -36.9644637328018], [174.497781198881, -36.9643520205117], [174.497600683539, -36.9643467030065], [174.497217871031, -36.9643598358958], [174.497123992101, -36.9643719533831], [174.496993689626, -36.964399820818], [174.496964684703, -36.9643961538737], [174.496917250938, -36.9643768003392], [174.496853241608, -36.9643428995817], [174.496824011753, -36.9643189097157], [174.496732106371, -36.9641323011597], [174.496691330868, -36.9640958747051], [174.496632037812, -36.9640609084425], [174.496304366704, -36.9639114864199], [174.496236038471, -36.9638877683681], [174.496128974802, -36.9638714600185], [174.495937680223, -36.9638857461514], [174.49587887128, -36.9638772157797], [174.495772349477, -36.9638088015192], [174.495633950236, -36.9636445313529], [174.495537076593, -36.963576804744], [174.495392343831, -36.9635327522], [174.495214808412, -36.9635066522487], [174.495143977373, -36.9634843243374], [174.494816968759, -36.9633565026747], [174.494601731018, -36.96322079218], [174.494434058021, -36.9630929553436], [174.494344875751, -36.9629908016083], [174.494265572177, -36.9628721303722], [174.494192837458, -36.9623421502642], [174.49416833149, -36.9622434016055], [174.494135652033, -36.9622004113725], [174.493833524961, -36.9619525240535], [174.493551070528, -36.9618110368323], [174.493381107109, -36.9617524014656], [174.493031590865, -36.9617284154988], [174.492982579426, -36.9617138961825], [174.492878390346, -36.9616665219803]]}, "properties": {"OBJECTID": 12236, "TRACKNAME": "Kauri Grove Track", "CONDITIONSOFUSE": "Waitakere West Regional Park", "STATUS": "Temp Closed", "WEBLINK": "https://www.aucklandcouncil.govt.nz/en/parks-recreation/find-park-beach/park-detail/3451.html", "VALIDATIONSTATE": 3, "created_user": "AC_owner", "last_edited_user": "AC_owner", "last_edited_date": 1789875254325, "created_date": 1789875254325, "PARK_SAPSITEID": null, "TRACK_ID": null, "KAURIDIEBACK_TRACK": null, "KAURIDIEBACK_MITIGATED": null, "SegmentID": null, "GlobalID": "7f475952-2dd0-4b1d-bc55-05a2d049f5e2", "Shape__Length": 1153.8227806079117}}]}