{"type": "FeatureCollection", "features": [{"type": "Feature", "id": 1429, "geometry": {"type": "LineString", "coordinates": [[174.369623492217, -36.3249188257362], [174.369624893724, -36.3247220859424], [174.36967585171, -36.3246022449357], [174.369832231153, -36.32444303375], [174.36997724011, -36.3243078037451], [174.369816353071, -36.3242094723218], [174.369779153433, -36.3241049525031], [174.36978204231, -36.3239331897401], [174.369706641807, -36.3236669183089], [174.369713670904, -36.3233949315417], [174.369602491325, -36.3231052190307], [174.369420002464, -36.3227829313314], [174.369297204742, -36.3225028918535], [174.369239405047, -36.3222316478056], [174.369225614318, -36.322117319329], [174.369644252826, -36.3214494536133], [174.36974319214, -36.3213767656519], [174.369924726176, -36.3213079005588], [174.369926977848, -36.3213076007024]]}, "properties": {"OBJECTID": 1429, "TRACKNAME": "Kauri Point Track", "CONDITIONSOFUSE": "Atiu Regional Park", "STATUS": "Open", "WEBLINK": "https://www.aucklandcouncil.govt.nz/en/parks-recreation/find-park-beach/park-detail/205.html", "VALIDATIONSTATE": 3, "created_user": "AC_owner", "last_edited_user": "AC_owner", "last_edited_date": 1789875254325, "created_date": 1789875254325, "PARK_SAPSITEID": null, "TRACK_ID": null, "KAURIDIEBACK_TRACK": null, "KAURIDIEBACK_MITIGATED": null, "SegmentID": null, "GlobalID": "a00c5f6f-a506-4488-9d21-d0caa319c6a8", "Shape__Length": 450.5383792891561}}, {"type": "Feature", "id": 1510, "geometry": {"type": "LineString", "coordinates": [[174.369339802471, -36.3141556027593], [174.369140138843, -36.3142401771319], [174.369099832494, -36.3142533865194], [174.368927313458, -36.3143726049805], [174.368710206428, -36.3144287576718], [174.368499276708, -36.3144168612305], [174.368321197731, -36.3144296338631], [174.368050010213, -36.3144267749719], [174.367786417604, -36.3144369476371], [174.367623716734, -36.3144865116125], [174.367412622357, -36.3149713221705], [174.367388368545, -36.3150169174257], [174.367316580357, -36.3151674069849], [174.367137473471, -36.3153745780117], [174.367070586634, -36.3155947760827], [174.36695274261, -36.3159348141205], [174.366858886256, -36.316298428784], [174.366820483562, -36.3164199145708], [174.36636375644, -36.317649310592], [174.366572652043, -36.3178818595558], [174.366680606376, -36.3179879558732], [174.366907887035, -36.3181761679718], [174.36709241517, -36.3182790037224], [174.367276318959, -36.3183460697208], [174.367526758367, -36.3185101636981], [174.367767650843, -36.3186338201215], [174.368037552383, -36.318730906748], [174.368177424522, -36.3188080155803], [174.368406489573, -36.3189294198981], [174.368607047475, -36.319106009099], [174.368706416825, -36.3192265135486], [174.368771051159, -36.3193831923153], [174.36882028384, -36.3195018855624], [174.368933386598, -36.319564989253], [174.369148248955, -36.3195482171969], [174.369320772811, -36.319469916014], [174.369518204708, -36.3194676538153], [174.369725061616, -36.319498675475], [174.369895721891, -36.3194824086554], [174.370141012035, -36.3195201440167], [174.370291546974, -36.3195327289776], [174.370383355469, -36.3195579126594], [174.370473177468, -36.3196379779168], [174.370556263682, -36.3197962325938], [174.370658916815, -36.3199357790936], [174.370756011639, -36.32009446973], [174.370820045209, -36.3202165702754], [174.370860880333, -36.3203604026426], [174.370864212497, -36.3204665033084], [174.370883187998, -36.3205402249881], [174.370867941468, -36.3205952578279], [174.370708049082, -36.3208057915884], [174.370556197202, -36.3209285786562], [174.370372971373, -36.3210690181476], [174.370236558297, -36.3211898392737], [174.370052286547, -36.3212706617457], [174.369926977848, -36.3213076007024]]}, "properties": {"OBJECTID": 1510, "TRACKNAME": "Kauri Point Track", "CONDITIONSOFUSE": "Atiu Regional Park", "STATUS": "Open", "WEBLINK": "https://www.aucklandcouncil.govt.nz/en/parks-recreation/find-park-beach/park-detail/205.html", "VALIDATIONSTATE": 3, "created_user": "AC_owner", "last_edited_user": "AC_owner", "last_edited_date": 1789875254325, "created_date": 1789875254325, "PARK_SAPSITEID": null, "TRACK_ID": null, "KAURIDIEBACK_TRACK": null, "KAURIDIEBACK_MITIGATED": null, "SegmentID": null, "GlobalID": "422e1228-b502-4dd3-870b-dfa4c3427abf", "Shape__Length": 1235.0409217253396}}, {"type": "Feature", "id": 2325, "geometry": {"type": "LineString", "coordinates": [[174.369926977848, -36.3213076007024], [174.370042348871, -36.3212922414315], [174.370288962344, -36.3212369414402], [174.370559151363, -36.3211813696822], [174.370876236734, -36.3211109494925], [174.371052961289, -36.3211041516695], [174.3714311562, -36.3211570556513], [174.371661591936, -36.3211878033243], [174.372027999638, -36.3212408406902], [174.372323099033, -36.3212613035756], [174.372552448025, -36.3212300482105], [174.372697948299, -36.3211234309073], [174.372860627009, -36.3209879953898], [174.372916133096, -36.3207917761596], [174.372936110238, -36.3205864248142], [174.372838968577, -36.3204253512651], [174.372979577056, -36.3203760330425], [174.373189904808, -36.32026867039], [174.37343220888, -36.3203040479729], [174.37381319659, -36.3201804121121], [174.37391869514, -36.3201458080823], [174.374249319364, -36.3201753980904], [174.374373167143, -36.3201787445143], [174.374544414036, -36.3201958564811], [174.374863503321, -36.3202398891537], [174.375046370643, -36.3202473255822], [174.375169212953, -36.3201934386333], [174.375308143347, -36.3200487319407], [174.375314037232, -36.3200486641168]]}, "properties": {"OBJECTID": 2325, "TRACKNAME": "Kauri Point Track", "CONDITIONSOFUSE": "Atiu Regional Park", "STATUS": "Open", "WEBLINK": "https://www.aucklandcouncil.govt.nz/en/parks-recreation/find-park-beach/park-detail/205.html", "VALIDATIONSTATE": 3, "created_user": "AC_owner", "last_edited_user": "AC_owner", "last_edited_date": 1789875254325, "created_date": 1789875254325, "PARK_SAPSITEID": null, "TRACK_ID": null, "KAURIDIEBACK_TRACK": null, "KAURIDIEBACK_MITIGATED": null, "SegmentID": null, "GlobalID": "df738fb7-5f8c-46a6-acde-549ed23ee097", "Shape__Length": 584.5046138562199}}, {"type": "Feature", "id": 2394, "geometry": {"type": "LineString", "coordinates": [[174.372836042533, -36.3204265775185], [174.372595847718, -36.32034347061], [174.372338829121, -36.3201413002603], [174.371931129668, -36.3197500480306], [174.371944713774, -36.3195161485597], [174.371951567992, -36.3192346233296], [174.37204766093, -36.3189997766608], [174.37203127625, -36.3187375986702], [174.371628224849, -36.3182747378042], [174.371305636906, -36.3180303851131], [174.370946770864, -36.3177339740678], [174.370600196023, -36.3174660434888], [174.370485216218, -36.317295631276], [174.370243005007, -36.3172650162008], [174.369861659115, -36.3170308742637], [174.369707598026, -36.3169849369041], [174.369658031906, -36.3168471663995], [174.36944320244, -36.3166969787464], [174.369796934973, -36.3163637762757], [174.370075470184, -36.3161125291502], [174.370125754464, -36.3159545327804], [174.370301049312, -36.3158666582119], [174.370380715131, -36.3157035551977], [174.37039697533, -36.3156222735025], [174.370313218693, -36.3155516797003], [174.369913866634, -36.3152986628285], [174.369840728313, -36.3151611625319], [174.369890344844, -36.3149650119936], [174.369877156416, -36.31484292482], [174.369908818435, -36.3147996294507], [174.36997627626, -36.314780967498], [174.370027152445, -36.3147410297913], [174.369339802471, -36.3141556027593]]}, "properties": {"OBJECTID": 2394, "TRACKNAME": "Kauri Point Track", "CONDITIONSOFUSE": "Atiu Regional Park", "STATUS": "Open", "WEBLINK": "https://www.aucklandcouncil.govt.nz/en/parks-recreation/find-park-beach/park-detail/205.html", "VALIDATIONSTATE": 3, "created_user": "AC_owner", "last_edited_user": "AC_owner", "last_edited_date": 1789875254325, "created_date": 1789875254325, "PARK_SAPSITEID": null, "TRACK_ID": null, "KAURIDIEBACK_TRACK": null, "KAURIDIEBACK_MITIGATED": null, "SegmentID": null, "GlobalID": "aa307fe7-ebfb-4629-8c93-4c1eee768ef4", "Shape__Length": 928.5682128688402}}]}