{"type": "FeatureCollection", "features": [{"type": "Feature", "id": 1205, "geometry": {"type": "LineString", "coordinates": [[174.773926668975, -36.4426456123218], [174.773965181615, -36.4426265251133], [174.774033219143, -36.4425958937659], [174.774074071457, -36.4425786286258], [174.77416744038, -36.4425531732567], [174.774279164016, -36.4425292928025], [174.774393185238, -36.4425053870976], [174.774431666563, -36.4424844433234], [174.774476290472, -36.4424319493709], [174.77451175778, -36.4423795825388], [174.774522199908, -36.4423349973046], [174.774535097031, -36.4422977850671], [174.77452925972, -36.4422423276416], [174.774528374496, -36.442203463454], [174.774525360544, -36.4421720404207], [174.774524812542, -36.4421479812085], [174.774531176632, -36.4421256670875], [174.774542166727, -36.4421051410633], [174.774571396212, -36.4420806390768], [174.774625819436, -36.442055762455], [174.7746757967, -36.4420365135555], [174.774730135494, -36.4420079333913], [174.774782187963, -36.4419793872033], [174.774861383118, -36.4419356273413], [174.774940620473, -36.4418937236823], [174.774992630702, -36.4418633301637], [174.775056083436, -36.4418327664323], [174.775119673744, -36.4418077532406], [174.775183390485, -36.4417882907539], [174.775217234497, -36.4417655768549], [174.775266915956, -36.4417333609763], [174.775300717621, -36.4417087908015], [174.775327576255, -36.441680628164], [174.775354297025, -36.4416469059383], [174.775381155414, -36.4416187342787], [174.775396686817, -36.4415962927516], [174.775423491926, -36.4415662740069], [174.77543427082, -36.4415364936745], [174.775445091803, -36.4415085605834], [174.775460622961, -36.4414861100377], [174.775462276758, -36.4414583223381], [174.775473013323, -36.4414266857494], [174.775477091029, -36.4414044146081], [174.775487900827, -36.4413764816794], [174.775501145683, -36.4413540651421], [174.775519005362, -36.4413334368293], [174.775552680277, -36.4413033158512], [174.775575123608, -36.4412826193362], [174.775593194158, -36.4412712452454], [174.775615721668, -36.4412542432074], [174.775647532075, -36.4412426646837], [174.775693220002, -36.4412364322905], [174.775727400855, -36.4412285142131], [174.77576389047, -36.4412205707869], [174.775791117168, -36.4412090604282], [174.775825014008, -36.4411881934423], [174.775851607878, -36.4411489203766], [174.775875251697, -36.4410800712244], [174.775892351872, -36.4410261294292], [174.775914193161, -36.4409795175684], [174.775935919052, -36.4409273548016], [174.77595576961, -36.4408937436918], [174.77598021475, -36.4408600551922], [174.776007188025, -36.4408374343041], [174.776034088218, -36.4408111187607], [174.776072219822, -36.4407753786966], [174.776089825944, -36.440743639821], [174.776096020838, -36.440713927649], [174.776102184771, -36.4406823680689], [174.776110202078, -36.4406288498624], [174.776112913849, -36.4405912031284], [174.776122928484, -36.440559234694], [174.776136127596, -36.4405098669302], [174.776148853963, -36.440440251759], [174.77614793122, -36.4403997746363], [174.776161327908, -36.4403590753898], [174.776177777171, -36.4402951917914], [174.776191228616, -36.4402573852181], [174.776226291343, -36.440225043985], [174.776243729461, -36.4402045390218], [174.776264867999, -36.4401897569507], [174.776296812377, -36.440177716551], [174.77633962813, -36.4401712923024], [174.776386155669, -36.4401705997739], [174.776436263106, -36.440169853941], [174.776493782994, -36.4401805717166], [174.776558528445, -36.440194066383], [174.776605319816, -36.4402049438077], [174.776652308867, -36.4402244897316], [174.776702800937, -36.4402410990093], [174.77675310609, -36.4402490215596], [174.776806793469, -36.4402482222738], [174.776878501136, -36.440252941651], [174.776950076872, -36.4402518759665], [174.777021586633, -36.4402479177302], [174.777107470812, -36.4402466389005], [174.777196946039, -36.4402453065338], [174.777311469414, -36.4402436010798], [174.777418766992, -36.4402391096396], [174.777511888086, -36.4402406162294], [174.777597772234, -36.4402393370473], [174.777694473225, -36.4402407901731], [174.777766048918, -36.4402397239998], [174.777837558605, -36.4402357652758], [174.777901842481, -36.4402290206625], [174.777951949915, -36.4402282741924], [174.778019747868, -36.4402185926875], [174.77805507363, -36.4401978119569], [174.778090663622, -36.4401886102568], [174.778129833297, -36.4401793461983], [174.778154694531, -36.4401702953135], [174.778190482336, -36.4401697620951], [174.778219176365, -36.4401722280531], [174.778254964171, -36.4401716948153], [174.778312286216, -36.4401737341862], [174.77833383161, -36.4401763066353], [174.778362459623, -36.4401758800517], [174.778398247427, -36.4401753467709], [174.778433771136, -36.4401632434521], [174.778479704594, -36.4401365265574], [174.778557383908, -36.440089091131], [174.778638378891, -36.4400300322776], [174.778758532082, -36.4399617092781], [174.778853978179, -36.4399082128632], [174.778949281112, -36.4398489405398], [174.778984606657, -36.4398281685552], [174.779001713727, -36.4397932006792]]}, "properties": {"OBJECTID": 1205, "TRACKNAME": "Kawau Bay Track", "CONDITIONSOFUSE": "Scandrett Regional Park", "STATUS": "Open", "WEBLINK": "https://www.aucklandcouncil.govt.nz/en/parks-recreation/find-park-beach/park-detail/225.html", "VALIDATIONSTATE": 3, "created_user": "AC_owner", "last_edited_user": "AC_owner", "last_edited_date": 1789875254325, "created_date": 1789875254325, "PARK_SAPSITEID": null, "TRACK_ID": null, "KAURIDIEBACK_TRACK": null, "KAURIDIEBACK_MITIGATED": null, "SegmentID": null, "GlobalID": "66614731-eddb-48ef-8d63-6f6042061a4a", "Shape__Length": 639.4841339198001}}]}