{"type": "FeatureCollection", "features": [{"type": "Feature", "id": 12778, "geometry": {"type": "LineString", "coordinates": [[175.14700578268, -37.0643471978106], [175.147108923257, -37.063739227417], [175.146932640328, -37.0631516705853], [175.146890252292, -37.0629555211728], [175.147013396883, -37.0625299205736], [175.147053358597, -37.0622042850488], [175.146821510092, -37.0618244954333], [175.146441554138, -37.0609846332569], [175.146544023591, -37.0606972494741], [175.146536534547, -37.0604315469549], [175.146506429049, -37.0602351758413], [175.146757077872, -37.0599746462736], [175.146915392211, -37.0594893340634], [175.146866004931, -37.0593767101624], [175.147047481285, -37.0589454216638], [175.147080988225, -37.058826665262], [175.147207732879, -37.058528995067], [175.147127124444, -37.0582843081991], [175.146950228653, -37.0581102867066], [175.147196430435, -37.0576923038342], [175.147401561293, -37.0575605931484], [175.147742589237, -37.0574559585917], [175.148065231256, -37.0571350474732], [175.148378368339, -37.0569127657824], [175.148403907382, -37.056797672792], [175.148309852712, -37.0566600007093], [175.148164663346, -37.0565361609554], [175.148015582804, -37.0565027274386], [175.147999725345, -37.0563971924176], [175.148053806209, -37.0562594186851], [175.148065971254, -37.056119823045], [175.147899926161, -37.0560557240014], [175.147840315501, -37.0559974396047], [175.147797763576, -37.0558588350757], [175.147753574479, -37.0554337659824], [175.147660177404, -37.0553193113733], [175.147665251815, -37.0551566151044], [175.147748755201, -37.0549202290123], [175.147811528299, -37.0548623099627], [175.148159161436, -37.054742446885], [175.148204985553, -37.054540296964], [175.148221276549, -37.0542044682684], [175.148212301661, -37.0541217158692], [175.148114816202, -37.0540549230645], [175.148085464363, -37.0539062386123], [175.14804869745, -37.053672999793], [175.148065290486, -37.0535476800616], [175.148545580572, -37.0534502560119], [175.149552669177, -37.0532989199494], [175.149712461457, -37.0532556954748], [175.149750078157, -37.0531622576965], [175.149633864697, -37.0529667542892], [175.149675145809, -37.0528248560664], [175.1498174601, -37.0526972578414], [175.150017483591, -37.0526533026933], [175.151000893276, -37.0525548109687], [175.151160227801, -37.0524954612297], [175.151213269622, -37.0524138416884], [175.151152146461, -37.0522092750008], [175.151073296513, -37.0520897193877], [175.15099010152, -37.0519944404493], [175.150987256248, -37.0518936708607], [175.151057342094, -37.0517028547458], [175.151167885033, -37.0515193709513], [175.151106079945, -37.0512906195547], [175.1510752441, -37.0510895364974], [175.151068870643, -37.0508638117657], [175.151091761011, -37.0506052937954], [175.151110070426, -37.0504483263345], [175.151157705619, -37.0503106672238], [175.151252948408, -37.0502624813139], [175.151643195912, -37.0501702266942], [175.151895560547, -37.0500985414288], [175.152085388632, -37.04997895033], [175.152417349456, -37.0497612808165], [175.152767211506, -37.049721377007], [175.152963682176, -37.049722971664], [175.153139081479, -37.049776570027], [175.153339936421, -37.0498193810606], [175.153536115661, -37.0498106570312], [175.153980123439, -37.0496838654756], [175.154106234966, -37.04958865758], [175.154156280555, -37.0494225629727], [175.154224477687, -37.0491012770094], [175.154474217672, -37.0488231509753], [175.154529749765, -37.0486234026438], [175.15464958488, -37.0483063406508], [175.154918841829, -37.0481491677039], [175.155225842738, -37.0479603355149], [175.155466591503, -37.0474784699329], [175.155562936247, -37.0472418451099], [175.155605226578, -37.0470294327452], [175.155564942533, -37.0467436708394], [175.155431628069, -37.0463563587547], [175.155231606694, -37.0460012315143], [175.154980094856, -37.0456470395761], [175.154688134644, -37.0453426213242], [175.154571637841, -37.045094377862], [175.154505093998, -37.0450106052326], [175.154486351457, -37.0446758654249], [175.154326936534, -37.0445537423032], [175.153956683165, -37.0442701025188], [175.153804933919, -37.0440631498244], [175.153558605618, -37.0433578403247], [175.153536572015, -37.0431122360458], [175.153751245125, -37.0425195406335], [175.153897097563, -37.0421620006664], [175.153906144387, -37.0419480943554], [175.153831701253, -37.0413575841543], [175.153783022884, -37.0410022864609], [175.153647107046, -37.0404571028475], [175.153829262102, -37.0400180741023], [175.153954794691, -37.0396750987889], [175.153918625548, -37.0393066678112], [175.15384186179, -37.0389828528236], [175.153774378141, -37.0387595283478], [175.153987698428, -37.0386147159236], [175.154313214707, -37.0384512693366], [175.154606414968, -37.0382569026973], [175.154683931445, -37.0379404280743], [175.154482361918, -37.0377613503567], [175.153403766142, -37.0374217625466], [175.153196301512, -37.0373121055934], [175.153231845774, -37.037179131714], [175.153569689896, -37.0368957380578], [175.153723635664, -37.0365022594067], [175.15373441763, -37.0357711074738], [175.153965498214, -37.035325816594], [175.154148045461, -37.0352347967164], [175.154179213386, -37.0350845311272], [175.154140255411, -37.0348452022098], [175.154316681976, -37.0344806532133], [175.154538227345, -37.0341178655517], [175.15486428959, -37.0335802490906], [175.155125546184, -37.0331418891011], [175.155321051031, -37.0327692492351], [175.155409550675, -37.0325972926518], [175.155398156223, -37.0324219898907], [175.155080651346, -37.0321231970861], [175.154956637764, -37.0319499405142], [175.154971140705, -37.031665763409], [175.155050352066, -37.0315068809973], [175.155227923942, -37.031297171793], [175.155495954278, -37.0310987235792], [175.155552129525, -37.030922192798], [175.155558955431, -37.0306583190584], [175.155622073075, -37.0300441770671], [175.155622896463, -37.0297174998153], [175.155538025985, -37.0293843145514], [175.155372589346, -37.0292260068695], [175.154914878229, -37.0290488114408], [175.154484356051, -37.028943712482], [175.154312756939, -37.028745185532], [175.153985893934, -37.0283921970061], [175.153671139966, -37.028111579813], [175.153548223745, -37.0278557081299], [175.153486128916, -37.0272599709691], [175.153332481937, -37.0269844920962], [175.15292678807, -37.0266893919878], [175.152514136459, -37.0263258576519], [175.152311247463, -37.0260875675019], [175.152149963054, -37.025719469382], [175.1517129354, -37.0248482333151], [175.151591396216, -37.0246407285546], [175.151672217226, -37.0242964679964], [175.151849236239, -37.0239746602535], [175.151863201804, -37.0237566320002], [175.151883583601, -37.0234094354743], [175.151960739788, -37.0231136363067], [175.15214976478, -37.0226827223878], [175.152239931694, -37.0224915417292], [175.152256420809, -37.0221847445594], [175.152061717065, -37.0216234230743]]}, "properties": {"OBJECTID": 12778, "TRACKNAME": "Keeney Road", "CONDITIONSOFUSE": "Hunua Ranges Regional Park", "STATUS": "Open", "WEBLINK": "https://www.aucklandcouncil.govt.nz/en/parks-recreation/find-park-beach/park-detail/213.html", "VALIDATIONSTATE": 3, "created_user": "AC_owner", "last_edited_user": "AC_owner", "last_edited_date": 1789875254325, "created_date": 1789875254325, "PARK_SAPSITEID": null, "TRACK_ID": null, "KAURIDIEBACK_TRACK": null, "KAURIDIEBACK_MITIGATED": null, "SegmentID": null, "GlobalID": "54e162fd-0a62-4e67-b08b-691b0be7083e", "Shape__Length": 5801.155735510765}}]}