{"type": "FeatureCollection", "features": [{"type": "Feature", "id": 12188, "geometry": {"type": "LineString", "coordinates": [[174.486072971874, -36.9563184347129], [174.48603176632, -36.9562388831418], [174.485999957256, -36.956154426796], [174.485986717676, -36.9558210694786], [174.485916486309, -36.9556597478759], [174.485930704139, -36.9556203875965], [174.486017117837, -36.955478179325], [174.486083728434, -36.9552931065823], [174.486097561529, -36.9552339571232], [174.48608599841, -36.9551527356438], [174.48605761014, -36.9551067337757], [174.48588556146, -36.9549017444491], [174.485688885546, -36.9547263393735], [174.485601091844, -36.9545824443671], [174.485466290703, -36.9543197606404], [174.485449933286, -36.9542518671594], [174.485442085416, -36.9540704574398], [174.485473557584, -36.9540162341432], [174.485552822943, -36.9539373914589], [174.485555109854, -36.9539169379085], [174.485541404398, -36.9538872742071], [174.485452287974, -36.9537578985766], [174.485179718817, -36.9534507701395]]}, "properties": {"OBJECTID": 12188, "TRACKNAME": "Kitekite Track", "CONDITIONSOFUSE": "Waitakere West Regional Park", "STATUS": "Open", "WEBLINK": "https://www.aucklandcouncil.govt.nz/en/parks-recreation/find-park-beach/park-detail/3451.html", "VALIDATIONSTATE": 3, "created_user": "AC_owner", "last_edited_user": "AC_owner", "last_edited_date": 1789875254325, "created_date": 1789875254325, "PARK_SAPSITEID": null, "TRACK_ID": null, "KAURIDIEBACK_TRACK": null, "KAURIDIEBACK_MITIGATED": null, "SegmentID": null, "GlobalID": "1fc92ba4-bdf2-4311-9128-8198c2863bad", "Shape__Length": 352.8625728455977}}, {"type": "Feature", "id": 12199, "geometry": {"type": "LineString", "coordinates": [[174.487030404358, -36.9592331825521], [174.486999927388, -36.9590506747651], [174.487021561293, -36.9590235972194], [174.487122653142, -36.9589551252395], [174.487155392025, -36.9589215269063], [174.487238974377, -36.9587422531157], [174.487291229554, -36.958597560473], [174.487283575047, -36.9583149163897], [174.487270218665, -36.9581791309183], [174.487249445644, -36.9581424712613], [174.487170605577, -36.9580816162659], [174.487148933611, -36.9580535939083], [174.487133830521, -36.9578672547328], [174.48701266895, -36.9574985368898], [174.486974086003, -36.9574591527855], [174.486731334004, -36.9573088618238], [174.486597850043, -36.9572010445706], [174.486377105975, -36.9568539166899], [174.486230836332, -36.9565314368148], [174.486189933013, -36.9564731708553], [174.486117453592, -36.9564089004464], [174.486073064555, -36.9563232035754]]}, "properties": {"OBJECTID": 12199, "TRACKNAME": "Kitekite Track", "CONDITIONSOFUSE": "Waitakere West Regional Park", "STATUS": "Open", "WEBLINK": "https://www.aucklandcouncil.govt.nz/en/parks-recreation/find-park-beach/park-detail/3451.html", "VALIDATIONSTATE": 3, "created_user": "AC_owner", "last_edited_user": "AC_owner", "last_edited_date": 1789875254325, "created_date": 1789875254325, "PARK_SAPSITEID": null, "TRACK_ID": null, "KAURIDIEBACK_TRACK": null, "KAURIDIEBACK_MITIGATED": null, "SegmentID": null, "GlobalID": "76665e7b-bc0d-4bc5-93ba-c956135bc08f", "Shape__Length": 364.2241841278244}}, {"type": "Feature", "id": 12266, "geometry": {"type": "LineString", "coordinates": [[174.488412138019, -36.9603427998441], [174.488179222726, -36.9602949053398], [174.487985477369, -36.9602243323632], [174.487930817268, -36.9601975348514], [174.487911746612, -36.9601704805625], [174.487902365598, -36.9601293877698], [174.487913360529, -36.9600121627779], [174.487878485627, -36.9599614023805], [174.487819178116, -36.9599122190924], [174.487645827457, -36.9598425977801], [174.487427189968, -36.9596194193522], [174.487344686231, -36.9595487314525], [174.487225630172, -36.9594755449208], [174.487110407412, -36.9594348494995], [174.487080606481, -36.9594173938026], [174.487053752211, -36.9593729954657], [174.487030404358, -36.9592331825521]]}, "properties": {"OBJECTID": 12266, "TRACKNAME": "Kitekite Track", "CONDITIONSOFUSE": "Waitakere West Regional Park", "STATUS": "Open", "WEBLINK": "https://www.aucklandcouncil.govt.nz/en/parks-recreation/find-park-beach/park-detail/3451.html", "VALIDATIONSTATE": 3, "created_user": "AC_owner", "last_edited_user": "AC_owner", "last_edited_date": 1789875254325, "created_date": 1789875254325, "PARK_SAPSITEID": null, "TRACK_ID": null, "KAURIDIEBACK_TRACK": null, "KAURIDIEBACK_MITIGATED": null, "SegmentID": null, "GlobalID": "b8cc38d3-453e-42a7-b950-e31aaeb93178", "Shape__Length": 189.69408286944736}}]}