{"type": "FeatureCollection", "features": [{"type": "Feature", "id": 12234, "geometry": {"type": "LineString", "coordinates": [[174.488412138019, -36.9603427998441], [174.488609194989, -36.9603985319986], [174.488655086473, -36.9604193828819], [174.488699358396, -36.9604717332895], [174.488756194224, -36.96058566685], [174.488794753077, -36.9606353919813], [174.489160722167, -36.9609792178497], [174.489246057687, -36.9610439803068], [174.4890741656, -36.9611268346603], [174.488947692171, -36.9611591331101], [174.488787347025, -36.9611718909915], [174.488652769023, -36.9611627550173], [174.488514317732, -36.9610859831414], [174.48808424813, -36.9607727479272], [174.487894616495, -36.9606990856581], [174.487822862072, -36.9606799160614], [174.487696150946, -36.9606975076982], [174.487604888454, -36.9607246268064], [174.487499310661, -36.9607911246307], [174.487388386406, -36.9608900230765], [174.487334321025, -36.9609154609028], [174.487228630755, -36.9609284513244], [174.487085793418, -36.9609287389408], [174.486835117148, -36.9609074868732], [174.486753559061, -36.9608844905347], [174.486637505182, -36.9608183649892], [174.486616914719, -36.9607893266923], [174.486558707585, -36.9606389680015], [174.486513615565, -36.9606035240243], [174.486434352207, -36.9605604019127], [174.486396123635, -36.9605547377552], [174.48625040528, -36.9605741161706], [174.485968459969, -36.9605605403408], [174.485615690603, -36.9604899699285], [174.485568171056, -36.9604741390038], [174.48553461918, -36.9604526701138], [174.485531286613, -36.9604344609902], [174.485549750821, -36.9603975101677], [174.485730032528, -36.9601461882574], [174.485770796651, -36.9601059405555], [174.485861164258, -36.9600442793546], [174.485920720348, -36.9600266739326], [174.486382338836, -36.9599677175264], [174.486631279098, -36.95990077851], [174.4866996007, -36.9598606054457], [174.486717578168, -36.9598322766811], [174.486724746153, -36.9597749629065], [174.48671960346, -36.9597343793859], [174.4866800669, -36.9596599846429], [174.486700761792, -36.9595865085692], [174.486823259308, -36.9593962774951], [174.486940347176, -36.9593038931466], [174.487031098166, -36.9592331080622]]}, "properties": {"OBJECTID": 12234, "TRACKNAME": "Knutzen Track", "CONDITIONSOFUSE": "Waitakere West Regional Park", "STATUS": "Open", "WEBLINK": "https://www.aucklandcouncil.govt.nz/en/parks-recreation/find-park-beach/park-detail/3451.html", "VALIDATIONSTATE": 3, "created_user": "AC_owner", "last_edited_user": "AC_owner", "last_edited_date": 1789875254325, "created_date": 1789875254325, "PARK_SAPSITEID": null, "TRACK_ID": null, "KAURIDIEBACK_TRACK": null, "KAURIDIEBACK_MITIGATED": null, "SegmentID": null, "GlobalID": "cbe98f80-50da-4ad3-a757-49e84f33a921", "Shape__Length": 709.1970767308486}}]}