{"type": "FeatureCollection", "features": [{"type": "Feature", "id": 298, "geometry": {"type": "LineString", "coordinates": [[175.218776169159, -37.0361484098459], [175.219023319696, -37.0359930336286], [175.219425718202, -37.0356742750806], [175.219874807143, -37.0350619782686], [175.220382107911, -37.0344939949791], [175.220907584686, -37.034050834851], [175.221258101484, -37.0334633516478], [175.221370629098, -37.0329830496779], [175.221810954119, -37.0325416607661], [175.222065928719, -37.0311539242863], [175.223183141611, -37.0302377757028], [175.223288403006, -37.0283007637241], [175.223768323061, -37.0270414435939], [175.224160261816, -37.0268491939197], [175.22449100388, -37.02696166798], [175.225266995126, -37.0270412743294], [175.225803526461, -37.0270780539128], [175.226281473796, -37.0271399129746], [175.226701441306, -37.0272506068427], [175.227003251504, -37.0273875811993], [175.227305051524, -37.0275245549597], [175.227603110405, -37.027542290727], [175.227992548316, -37.0276297693527], [175.228293563479, -37.0277428721732], [175.228712043471, -37.0278059286728], [175.229153436826, -37.0276538212903], [175.229534556736, -37.0274790613251], [175.230007955063, -37.0273978903698], [175.230367760646, -37.0274860084179], [175.230609305902, -37.027600322753], [175.230999543724, -37.027711560364], [175.231296806957, -37.0277055178091], [175.231648986315, -37.0275552597696], [175.231999666139, -37.0273572807335], [175.232446396322, -37.0273720261925], [175.232900568432, -37.0276251454296], [175.233294661562, -37.0278556101862], [175.233832787695, -37.0279399992899], [175.234397576901, -37.0279284594126], [175.234955605635, -37.0277024028484], [175.235306987792, -37.0275282749802], [175.235597499035, -37.0273077165355], [175.235919930016, -37.0271580066537], [175.236272083464, -37.0270076543985], [175.236926074228, -37.0269943305585], [175.237711884896, -37.0268903019989], [175.238411251882, -37.026562993195], [175.238837300612, -37.0265936063756], [175.239114856959, -37.0265918817472]]}, "properties": {"OBJECTID": 298, "TRACKNAME": "Kohukohunui Track", "CONDITIONSOFUSE": "Hunua Ranges Regional Park", "STATUS": "Temp Closed", "WEBLINK": "https://www.aucklandcouncil.govt.nz/en/parks-recreation/find-park-beach/park-detail/213.html", "VALIDATIONSTATE": 3, "created_user": "AC_owner", "last_edited_user": "AC_owner", "last_edited_date": 1789875254325, "created_date": 1789875254325, "PARK_SAPSITEID": null, "TRACK_ID": null, "KAURIDIEBACK_TRACK": null, "KAURIDIEBACK_MITIGATED": null, "SegmentID": null, "GlobalID": "52f4ee3d-bb64-4c57-8ee1-257e2e554a69", "Shape__Length": 2627.9533654121924}}, {"type": "Feature", "id": 1273, "geometry": {"type": "LineString", "coordinates": [[175.184437200469, -37.0409199087282], [175.18446472287, -37.0409222677671], [175.184790451224, -37.0409502357898], [175.185181289615, -37.040946549806], [175.185570296057, -37.0407272709659], [175.185753311899, -37.0406244174532], [175.186342668194, -37.0401985257663], [175.186807277373, -37.0399131480336], [175.187613819885, -37.0395519929185], [175.188001003254, -37.0395442193786], [175.188474177426, -37.0395347676593], [175.189026914957, -37.0393166920556], [175.189578565599, -37.0390640257903], [175.189834557058, -37.0390037909593], [175.190219547084, -37.0389131532946], [175.190645371415, -37.0388887143354], [175.190829244534, -37.0389095525035], [175.191043625699, -37.0389501951084], [175.191273875948, -37.0390457820045], [175.191517567737, -37.0391286827458], [175.191681714749, -37.0391953884343], [175.192084299521, -37.0393588797407], [175.192691948576, -37.0395192092784], [175.19311561558, -37.0393036813192], [175.193280944618, -37.0391664541402], [175.193526548471, -37.0390676585549], [175.193969447708, -37.0390794737346], [175.19444054073, -37.0390010096807], [175.194906107025, -37.0387501910995], [175.194986747814, -37.0385760543936], [175.195047054977, -37.038316963251], [175.195211211615, -37.0382036293558], [175.195400793016, -37.0381556972439], [175.195567273197, -37.0382327187678], [175.195695184457, -37.0382446806147], [175.19587534732, -37.0381753821527], [175.196199583443, -37.0380519719422], [175.196394472642, -37.0378726543104], [175.196507309157, -37.0376482702661], [175.196802987261, -37.0374698791294], [175.197227813484, -37.0372887341307], [175.197483751781, -37.0372146045964], [175.197640593695, -37.037224045546], [175.197914905051, -37.0372405021149], [175.198350507015, -37.0374042614761], [175.199126937465, -37.0374576229868], [175.199395896384, -37.0374521847745], [175.19955709417, -37.0374489248473], [175.199999135066, -37.0378196306096], [175.200539703209, -37.0381446154845], [175.200817017563, -37.0384027616803], [175.200928202251, -37.0384875611038], [175.201281010579, -37.0387565621369], [175.20144282065, -37.0388798872372], [175.201587667508, -37.0390643525678], [175.202028629756, -37.0394005524411], [175.2023813537, -37.0396694614877], [175.202384274494, -37.0396709393758], [175.202643834936, -37.0398021809485], [175.203076101581, -37.0398625387031], [175.203462195297, -37.0398202259022], [175.203799852621, -37.0396063482812], [175.204136423003, -37.0393580620779], [175.204566898855, -37.0391964331993], [175.205106318719, -37.0389266276667], [175.205661204492, -37.0387687109459], [175.20601750588, -37.0384594162939], [175.206538813205, -37.0382590492816], [175.207151500664, -37.0380549966358], [175.20783542144, -37.0379031491348], [175.208346189384, -37.0377203556268], [175.20902473528, -37.0373960477386], [175.209492420264, -37.0372141419603], [175.209872035103, -37.0369648666065], [175.210210664, -37.0367855520028], [175.21033649255, -37.036633445959], [175.21050093008, -37.0364345842325], [175.211063410921, -37.0365267244944], [175.211845212704, -37.0367524651052], [175.212408799728, -37.0368790962119], [175.212929312214, -37.0370066184823], [175.213316385971, -37.0369987644404], [175.213916491237, -37.036917545209], [175.214256291557, -37.0367727062086], [175.214768046572, -37.0366243036707], [175.215037659453, -37.0365239340826], [175.215148645155, -37.0364095833083], [175.215749735033, -37.0363628543906], [175.216232735346, -37.03666361642], [175.216451329496, -37.0367213481019], [175.216717976254, -37.0366972579283], [175.216953253296, -37.0367066492083], [175.217181215554, -37.0367134640071], [175.217565085292, -37.0366021293622], [175.217987657683, -37.0363520161363], [175.218776169159, -37.0361484098459]]}, "properties": {"OBJECTID": 1273, "TRACKNAME": "Kohukohunui Track", "CONDITIONSOFUSE": "Hunua Ranges Regional Park", "STATUS": "Open", "WEBLINK": "https://www.aucklandcouncil.govt.nz/en/parks-recreation/find-park-beach/park-detail/213.html", "VALIDATIONSTATE": 3, "created_user": "AC_owner", "last_edited_user": "AC_owner", "last_edited_date": 1789875254325, "created_date": 1789875254325, "PARK_SAPSITEID": null, "TRACK_ID": null, "KAURIDIEBACK_TRACK": null, "KAURIDIEBACK_MITIGATED": null, "SegmentID": null, "GlobalID": "041f51e9-8d1d-4f75-a195-574952dce185", "Shape__Length": 3532.4537946888513}}, {"type": "Feature", "id": 2775, "geometry": {"type": "LineString", "coordinates": [[175.239114855809, -37.0265918808677], [175.239140603029, -37.026616444089], [175.239171074894, -37.0266504695361], [175.239202292731, -37.0266814184503], [175.239225267717, -37.0267030598707], [175.239254636763, -37.0267310695556], [175.239277193482, -37.026751098418], [175.239301291219, -37.0267700148813], [175.239328353571, -37.0267951859059], [175.239347856226, -37.0268217577967], [175.239369459946, -37.0268503646877], [175.239390928275, -37.0268839291924], [175.239414031707, -37.0269162930006], [175.239438423611, -37.026948360299], [175.239452614511, -37.0269739527679], [175.239471926027, -37.027006566607], [175.239489014906, -37.0270330056008], [175.239515825207, -37.027059080784], [175.239546769118, -37.0270712022953], [175.239584270149, -37.0270762603743], [175.239621767712, -37.0270779856918], [175.239666056977, -37.0270774197537], [175.239707771788, -37.0270744690443], [175.239744098451, -37.0270710793203], [175.239777024659, -37.0270655024823], [175.239819118128, -37.0270628149576], [175.239853867569, -37.027062519228], [175.239901280869, -37.0270610830824], [175.23993468094, -37.0270590103163], [175.23997077361, -37.0270570687413], [175.240011316767, -37.0270615284832], [175.240050353678, -37.0270683599034], [175.24008469189, -37.0270761813015], [175.240129033278, -37.0270868780022], [175.240160595278, -37.0270979963048], [175.240189838568, -37.027112220834], [175.240218779546, -37.0271287041856], [175.240251289876, -37.0271499850476], [175.240284321358, -37.0271732406045], [175.240312006032, -37.0271911896586], [175.240347317882, -37.027216383067], [175.240376084002, -37.0272395371132], [175.240404343717, -37.027267567456], [175.240424559274, -37.0272931361242], [175.240446915472, -37.0273190248515], [175.240468555302, -37.0273394312973], [175.240491481988, -37.027365759863], [175.240525335602, -37.0273823305856], [175.240559353893, -37.0273823188331], [175.240594833825, -37.0273784942183], [175.240632476284, -37.0273662489379], [175.240662919245, -37.0273550409039], [175.240693874874, -37.0273423829829], [175.240723031428, -37.0273284053682], [175.240756267746, -37.0273081356654], [175.240785599647, -37.0272906398565], [175.240815754589, -37.0272727697944], [175.240843971186, -37.0272520541558], [175.240869691705, -37.0272284097497], [175.24089597478, -37.0272049367616], [175.240920351224, -37.0271796972958], [175.240946552682, -37.0271565845355], [175.24098436353, -37.0271311813516], [175.241019318058, -37.0271158341724], [175.241052892978, -37.0271070903566], [175.241088100648, -37.0270971440582], [175.241124317653, -37.0270837539363], [175.241175115289, -37.0270712599125], [175.241216069662, -37.0270676038462], [175.241591178515, -37.0272158577594], [175.241848149861, -37.0274409523879], [175.241986489907, -37.0276633338991], [175.242161729846, -37.0277157075159], [175.242388926757, -37.0279620870525], [175.242535525385, -37.0282192729167], [175.242636258561, -37.0284958861172], [175.242608615642, -37.0287378042789], [175.242792320349, -37.0290779058592], [175.243123470093, -37.029313038822], [175.243402934042, -37.029363439315], [175.243810409416, -37.0294392587415], [175.244049671606, -37.0293047992312], [175.244302057095, -37.0292256852374], [175.244633593106, -37.029080197424], [175.244909411969, -37.0290100098285], [175.244995765505, -37.0287948248796], [175.245037712716, -37.0286454441101], [175.245327841903, -37.0286677950834], [175.245668116643, -37.0288192187603], [175.246031004789, -37.0289515628055], [175.246414777136, -37.0290093501873], [175.246796726025, -37.0290021152814], [175.247239033993, -37.0290772648335], [175.247794494424, -37.0290667389804], [175.24811052468, -37.0291814908811], [175.248522745725, -37.0294149816528], [175.248964420762, -37.0294716647569], [175.249382479346, -37.0295101401169], [175.249732974863, -37.0296148646065], [175.250036965039, -37.0296575741661], [175.250321492763, -37.0300866684077], [175.250345861827, -37.0308494061476], [175.250617213943, -37.0318931844665], [175.251012118259, -37.0330776139273], [175.252018389035, -37.0347741313869], [175.25258097168, -37.0356211690797], [175.253408176566, -37.0361592457848], [175.253428435095, -37.0361829186738], [175.25345386574, -37.0362121711227], [175.253493905772, -37.0362496158605], [175.253525653732, -37.0362793773225], [175.253545474614, -37.0363007170732], [175.253572583308, -37.0363302963038], [175.253600535331, -37.0363570674472], [175.253637657332, -37.0363898811126], [175.253632957466, -37.0364252919935], [175.253618943732, -37.03645610507], [175.253611245689, -37.0364904914299], [175.253612244191, -37.0365242619103], [175.253610088501, -37.0365704375739], [175.253609885206, -37.0366043210156], [175.253610379187, -37.0366461221575], [175.253610547615, -37.0366894597985], [175.253619093471, -37.0367370525404], [175.253628941868, -37.0367785857971], [175.253637987682, -37.0368054458237], [175.253654145505, -37.0368409091651], [175.253674606715, -37.0368714276112], [175.2537005155, -37.0368980573048], [175.253731183992, -37.036938291849], [175.253770927939, -37.0369781754682], [175.253800257822, -37.037010776658], [175.253820379296, -37.0370329199614], [175.25384641604, -37.0370638731616], [175.253855258942, -37.0370964130617], [175.253861798304, -37.0371357560712], [175.25387223032, -37.0371624996077], [175.253884825532, -37.0371997429843], [175.2538942326, -37.0372356968864], [175.25391283693, -37.0372723772354], [175.25394190866, -37.0373181396558], [175.253964085401, -37.0373502458788], [175.253994478862, -37.0373780520096], [175.254033262143, -37.0374074110367], [175.254063762153, -37.037438818298], [175.254085649774, -37.0374642625872], [175.254116158417, -37.0375053111801], [175.254152701651, -37.0375498500396], [175.254190372203, -37.0375917556536], [175.254215657107, -37.0376160538493], [175.254243804795, -37.0376368728955], [175.254280593692, -37.0376552763709], [175.254315886856, -37.0376763218747], [175.254349855671, -37.0376933369437], [175.25437872261, -37.0377102687372], [175.254405353798, -37.0377267924019], [175.254436286646, -37.0377477387048], [175.254473447003, -37.0377818130992], [175.254494176856, -37.0378056588807], [175.254515739663, -37.0378264227912], [175.254509579941, -37.0378532113071], [175.254503637577, -37.0378842315377], [175.254489558479, -37.0379096384878], [175.254470732195, -37.0379470303001], [175.254462483166, -37.0379783629493], [175.2544644756, -37.0380238288849], [175.254464706385, -37.0380504057895], [175.254461918735, -37.0380783919407], [175.254457388532, -37.0381227201299], [175.254457944744, -37.0381540656386], [175.254460481702, -37.0381865469127], [175.254462279706, -37.0382191305561], [175.254463922752, -37.0382527085135], [175.254471026246, -37.0383016822611], [175.254480028805, -37.0383302553965], [175.254499098821, -37.0383669249844], [175.254518697317, -37.0384026850804], [175.254534370198, -37.0384405025386], [175.254557160741, -37.0384871051937], [175.254588397197, -37.0385308435448], [175.254622806017, -37.0385627170822], [175.254650775287, -37.0385837214654], [175.254682166151, -37.038604478739], [175.254717680317, -37.0386236272982], [175.254754605696, -37.0386403156569], [175.254790657411, -37.038655668749], [175.254827134335, -37.0386696618794], [175.254883966657, -37.0386886754307], [175.254921475333, -37.0387031896604], [175.254956015372, -37.0387206443051], [175.254990646457, -37.0387412515617], [175.25502653797, -37.0387637256505], [175.255079513635, -37.038799662095], [175.255109278411, -37.0388249563917], [175.255134972129, -37.0388505083443], [175.255164354398, -37.0388722968517], [175.255199718034, -37.0388894653882], [175.255252627581, -37.0389106244137], [175.255287009488, -37.0389259207835], [175.255320462844, -37.0389411428749], [175.255355820056, -37.0389549768838], [175.255393819666, -37.0389672303167], [175.255451505796, -37.0389837038692], [175.255488884099, -37.0389938043], [175.255523955849, -37.0390042207633], [175.255560208113, -37.0390138036439], [175.255596788521, -37.039021938282], [175.255651137601, -37.0390321683026], [175.255687317913, -37.0390393191544], [175.255723767812, -37.039049348847], [175.25576126189, -37.0390601679835], [175.255799289762, -37.0390702577619], [175.255855791699, -37.0390843202822], [175.255890658354, -37.0390941096662], [175.255923245063, -37.039105114027], [175.255952991801, -37.0391172520931], [175.25598245195, -37.0391291270328], [175.25602928224, -37.0391453561895], [175.256059552125, -37.0391564045863], [175.256089916401, -37.0391674511795]]}, "properties": {"OBJECTID": 2775, "TRACKNAME": "Kohukohunui Track", "CONDITIONSOFUSE": "Hunua Ranges Regional Park", "STATUS": "Temp Closed", "WEBLINK": "https://www.aucklandcouncil.govt.nz/en/parks-recreation/find-park-beach/park-detail/213.html", "VALIDATIONSTATE": 3, "created_user": "AC_owner", "last_edited_user": "AC_owner", "last_edited_date": 1789875254325, "created_date": 1789875254325, "PARK_SAPSITEID": null, "TRACK_ID": null, "KAURIDIEBACK_TRACK": null, "KAURIDIEBACK_MITIGATED": null, "SegmentID": null, "GlobalID": "bc3bf084-5286-4bab-ab2e-1eba11f615dd", "Shape__Length": 2501.167171874093}}]}