{"type": "FeatureCollection", "features": [{"type": "Feature", "id": 806, "geometry": {"type": "LineString", "coordinates": [[175.218776169159, -37.0361484098459], [175.218865731155, -37.0362827058764], [175.219100862167, -37.0366025943743], [175.219424716629, -37.0368846097828], [175.219634946775, -37.037240652632], [175.219760097413, -37.0375271879204], [175.219860253933, -37.0378498803911], [175.219621133477, -37.0382942561045], [175.219700492919, -37.0384919019489], [175.219757270097, -37.038633299818], [175.219849412257, -37.0389324393632], [175.220356731498, -37.0393189603611], [175.220770558035, -37.039599197088], [175.221119354476, -37.0400107546516], [175.221191354869, -37.0400957278049], [175.221559125435, -37.0403407832849], [175.221704315546, -37.0406625311514], [175.221984407826, -37.0409815800546], [175.222127306741, -37.0412311982295], [175.222366685216, -37.0416224600511], [175.22223892397, -37.0419143714465], [175.222224035789, -37.0420970271814]]}, "properties": {"OBJECTID": 806, "TRACKNAME": "Kohukohunui Trig Track", "CONDITIONSOFUSE": "Hunua Ranges Regional Park", "STATUS": "Open", "WEBLINK": "https://www.aucklandcouncil.govt.nz/en/parks-recreation/find-park-beach/park-detail/213.html", "VALIDATIONSTATE": 3, "created_user": "AC_owner", "last_edited_user": "AC_owner", "last_edited_date": 1789875254325, "created_date": 1789875254325, "PARK_SAPSITEID": null, "TRACK_ID": null, "KAURIDIEBACK_TRACK": null, "KAURIDIEBACK_MITIGATED": null, "SegmentID": null, "GlobalID": "7851406a-ede7-4f0b-a521-34000b27d6ae", "Shape__Length": 776.8347356258319}}]}