{"type": "FeatureCollection", "features": [{"type": "Feature", "id": 11259, "geometry": {"type": "LineString", "coordinates": [[175.00912770245, -36.777060261547], [175.009144903268, -36.7770512345083], [175.0091623177, -36.7770395171443], [175.009199426905, -36.7770068406108], [175.009232379246, -36.776971408393], [175.009319972707, -36.776868797514], [175.009369169917, -36.7768142400567], [175.009424754737, -36.7767579402118], [175.009481770244, -36.7767060619667], [175.009544338686, -36.7766552541568], [175.009610452132, -36.7766075434946], [175.009680508042, -36.7765626444329], [175.009754699359, -36.7765204357851], [175.009850293697, -36.7764844582864], [175.009892134704, -36.7764197556931], [175.009928610684, -36.7763872559417], [175.009968572705, -36.7763567026912], [175.009982091249, -36.7763347700428], [175.009999421881, -36.7763146469467], [175.010020197961, -36.7762967591156], [175.010043979959, -36.7762814849739], [175.010070264757, -36.7762691476523], [175.010073749935, -36.7762682321814], [175.010077379317, -36.7762678148466], [175.010081043752, -36.7762679081988], [175.010084633037, -36.7762685094306], [175.010088039226, -36.7762696004604], [175.010091159882, -36.7762711484765], [175.010093901154, -36.7762731069239], [175.010096180601, -36.7762754169041], [175.01009792967, -36.7762780089466], [175.01009909576, -36.7762808050982], [175.010099643803, -36.7762837212672], [175.010099557315, -36.7762866697525], [175.010098838897, -36.7762895618813], [175.010097510157, -36.7762923106754], [175.010043819479, -36.7764204023707], [175.010095451279, -36.7764476489658], [175.010015462772, -36.7765168405536], [175.010003322787, -36.7765233946084], [175.009992743004, -36.7765315121529], [175.009984030866, -36.7765409572955], [175.009977439547, -36.7765514555651], [175.009973160586, -36.7765627018868], [175.009971318329, -36.7765743694479], [175.009971966313, -36.7765861191943], [175.009975085709, -36.7765976096838], [175.010015428228, -36.7766109613215], [175.010035717398, -36.7766335398081]]}, "properties": {"OBJECTID": 11259, "TRACKNAME": "Korora Reserve Track", "CONDITIONSOFUSE": "Korora Road Reserve", "STATUS": "Open", "WEBLINK": "https://www.aucklandcouncil.govt.nz/en/parks-recreation/find-park-beach/park-detail/197.html", "VALIDATIONSTATE": 3, "created_user": "AC_owner", "last_edited_user": "AC_owner", "last_edited_date": 1789875254325, "created_date": 1789875254325, "PARK_SAPSITEID": null, "TRACK_ID": null, "KAURIDIEBACK_TRACK": null, "KAURIDIEBACK_MITIGATED": null, "SegmentID": null, "GlobalID": "238edede-7d81-41f9-9af8-682841cc42ff", "Shape__Length": 176.50014760204022}}]}