{"type": "FeatureCollection", "features": [{"type": "Feature", "id": 1066, "geometry": {"type": "LineString", "coordinates": [[175.072736273662, -36.814141253919], [175.07276079925, -36.8143805910095], [175.072784177621, -36.814542481059], [175.072777151022, -36.8146102914749], [175.072765480629, -36.814724122302], [175.072723459034, -36.8148634845292], [175.072678954703, -36.8150226015374], [175.072621567738, -36.8152215284006], [175.072563165565, -36.8153865659031], [175.072497749321, -36.8155517346834], [175.07237779116, -36.8157744742284], [175.072334043056, -36.8158403020366], [175.072286689855, -36.8159033896262], [175.072239184006, -36.8159608196735], [175.072191328376, -36.8160069444431], [175.07212992478, -36.8160702949376], [175.072040922948, -36.8161511340843], [175.07195192093, -36.8162319731691], [175.071897389523, -36.8162895345587], [175.071849533729, -36.8163356682099], [175.071808212487, -36.8163647254171], [175.071759854645, -36.8163939052544], [175.071718707796, -36.8164286015505], [175.071629203199, -36.8164924866293], [175.071560446647, -36.816544671655], [175.071485155546, -36.8166139420631], [175.071403340793, -36.8167002886387], [175.071349135833, -36.8167691554514], [175.071273844083, -36.8168384167272], [175.071212286817, -36.8168961182644], [175.071185668977, -36.8169474967032], [175.071138161919, -36.8170049353555], [175.071077094782, -36.817079581801], [175.071036601065, -36.8171368711752], [175.070995617187, -36.8171772245727], [175.070953956832, -36.8171949760406]]}, "properties": {"OBJECTID": 1066, "TRACKNAME": "Kowhai Track", "CONDITIONSOFUSE": "Whakanewha Regional Park", "STATUS": "Open", "WEBLINK": "https://www.aucklandcouncil.govt.nz/en/parks-recreation/find-park-beach/park-detail/3422.html", "VALIDATIONSTATE": 3, "created_user": "AC_owner", "last_edited_user": "AC_owner", "last_edited_date": 1789875254325, "created_date": 1789875254325, "PARK_SAPSITEID": null, "TRACK_ID": null, "KAURIDIEBACK_TRACK": null, "KAURIDIEBACK_MITIGATED": null, "SegmentID": null, "GlobalID": "eb36c857-c6dc-4aec-a054-d8eaa8c1ea19", "Shape__Length": 390.93063156932874}}, {"type": "Feature", "id": 2635, "geometry": {"type": "LineString", "coordinates": [[175.082548754946, -36.9077356434507], [175.082551961514, -36.9076591668767], [175.082555744738, -36.907603896546], [175.082560000947, -36.907565607229], [175.08257146646, -36.9074040573013], [175.082599244636, -36.9072592106084], [175.082613260168, -36.9071910256092], [175.082648756605, -36.9071352081312], [175.082688717456, -36.9070495878165], [175.08275558032, -36.9069804759798], [175.082827830858, -36.9069155146883], [175.082851720997, -36.9068216860288], [175.082865609629, -36.906749258151], [175.082894667883, -36.9066510937644], [175.0829395766, -36.9065526423492], [175.082975292103, -36.9065053110819], [175.083016302365, -36.9064578869333], [175.083045470637, -36.9064042172506], [175.083113711604, -36.9063457793534], [175.083145424285, -36.906345223079], [175.083206529705, -36.9062592316904], [175.083251438055, -36.9061607891794], [175.083306797748, -36.906057909222], [175.083330802496, -36.9059683235297], [175.083317811163, -36.9058793868444], [175.083320093157, -36.9057689478383], [175.083348561965, -36.9056495592944], [175.083394508826, -36.9055893131932], [175.083450329879, -36.9055034143859], [175.083476065903, -36.9054774834199], [175.083533502996, -36.905450996279], [175.083580026738, -36.9054119653593], [175.08362620414, -36.905360205275], [175.08367180407, -36.9052872209197], [175.083717288479, -36.9052099934997], [175.083752656592, -36.9051499328757], [175.083793203674, -36.9050855272817], [175.083817553917, -36.9050086706515], [175.083873489537, -36.9049270147142], [175.083888185288, -36.904884297087], [175.083886568838, -36.9048248853938], [175.083869101749, -36.9047657428197], [175.083835195888, -36.9046856633162], [175.083806469337, -36.9046012478479], [175.083756944388, -36.9045299415395], [175.083713279893, -36.9044797487451], [175.08370753472, -36.9044628692479], [175.083669846561, -36.9044380510407], [175.083604702383, -36.9043755088568], [175.083597917926, -36.9043204238854], [175.083596763432, -36.9042779843759], [175.083631334235, -36.9041882132337], [175.083665662887, -36.9040899561794], [175.083674970744, -36.9040430790173], [175.083688973889, -36.9039749031101], [175.083686433731, -36.903881528982], [175.083678725858, -36.9037924996098], [175.083660901708, -36.903720628029], [175.083599656254, -36.9036070675039], [175.083449236736, -36.9033252232825], [175.083354790749, -36.9031570320278], [175.083309128052, -36.9030799165281]]}, "properties": {"OBJECTID": 2635, "TRACKNAME": "Kowhai Track", "CONDITIONSOFUSE": "Duder Regional Park", "STATUS": "Open", "WEBLINK": "https://www.aucklandcouncil.govt.nz/en/parks-recreation/find-park-beach/park-detail/211.html", "VALIDATIONSTATE": 3, "created_user": "AC_owner", "last_edited_user": "AC_owner", "last_edited_date": 1789875254325, "created_date": 1789875254325, "PARK_SAPSITEID": null, "TRACK_ID": null, "KAURIDIEBACK_TRACK": null, "KAURIDIEBACK_MITIGATED": null, "SegmentID": null, "GlobalID": "6e9c37c4-2ba7-4a88-a65b-17f01618a9d9", "Shape__Length": 565.0734487427405}}]}