{"type": "FeatureCollection", "features": [{"type": "Feature", "id": 280, "geometry": {"type": "LineString", "coordinates": [[174.479091582804, -36.9014691199625], [174.479060959351, -36.9014618395893], [174.479035448826, -36.9014583714532], [174.479009239832, -36.9014559305601], [174.478985614485, -36.9014530248342], [174.478972678694, -36.9014509504844], [174.478629277162, -36.9013859459069], [174.475905719562, -36.9032307028071], [174.475583709508, -36.9046804702209], [174.473900576623, -36.9056073190303], [174.472504319487, -36.9064268943129], [174.470886489176, -36.9074044138207], [174.470377469344, -36.9076437840885], [174.469990017849, -36.9077275669928], [174.469503733638, -36.9080073041292], [174.469490602702, -36.9080372299322], [174.469478508751, -36.9080644568116], [174.469467440393, -36.9080889758951], [174.469457409024, -36.9081107960557], [174.469448403771, -36.9081299354556], [174.469440636526, -36.9081486629352], [174.469434225241, -36.9081684462744], [174.469429169746, -36.9081892764616], [174.469425481781, -36.9082111803932], [174.46942312699, -36.9082341224392], [174.469420010687, -36.9082577409219], [174.469414667811, -36.9082817294709], [174.469407110101, -36.9083061149817], [174.469397325987, -36.9083308795696], [174.469385337738, -36.9083560139448], [174.469374427065, -36.9083788094452], [174.469366991419, -36.9083972714193], [174.469363041682, -36.9084113817057], [174.469362578202, -36.908421158328], [174.469365589757, -36.9084266014251], [174.469367888619, -36.9084311699923], [174.469366204638, -36.9084375905757], [174.469360548691, -36.9084458450131], [174.469350920776, -36.9084559333039], [174.469337309841, -36.9084678645978], [174.469321171092, -36.908481431604], [174.46930372425, -36.9084964389591], [174.469284969486, -36.908512895674], [174.469264906799, -36.9085308017484], [174.469243536186, -36.9085501571814], [174.469219881835, -36.908569829298], [174.469193094316, -36.9085888370926], [174.469163173107, -36.9086071535282], [174.469130118552, -36.9086247966257], [174.469093930651, -36.9086417663826], [174.469056199277, -36.9086578538444], [174.469018447148, -36.9086728599028], [174.468980685832, -36.9086868024421], [174.468942892543, -36.9086996637167], [174.468905078675, -36.9087114525993], [174.468869251921, -36.9087226760729], [174.468837442588, -36.9087338498566], [174.468809639456, -36.9087449740924], [174.468785853748, -36.9087560486445], [174.468766074245, -36.9087670736537], [174.468747512728, -36.9087772272943], [174.468727132541, -36.9087856096865], [174.468704933684, -36.9087922208295], [174.468680927553, -36.908797069595], [174.46865509136, -36.9088001382363], [174.468629724394, -36.9088019211199], [174.468607463288, -36.9088029444984], [174.468588308217, -36.9088032173852], [174.468572259009, -36.9088027307701], [174.468559327059, -36.9088014935273], [174.468546922027, -36.90880080862], [174.468531887478, -36.9088023105041], [174.468514234288, -36.9088059810163], [174.468493929305, -36.9088118476068], [174.468470994627, -36.9088198919735], [174.46844442647, -36.9088281074475], [174.46841291788, -36.9088338962002], [174.468376446071, -36.9088372404817], [174.46833503349, -36.9088381400101], [174.468288657695, -36.9088365950574], [174.468240355017, -36.9088352451656], [174.46819432697, -36.9088377881137], [174.468150607556, -36.9088442415115], [174.468109196771, -36.9088546053617], [174.468070083387, -36.9088688798055], [174.468031660245, -36.9088863726231], [174.467991505301, -36.9089060411145], [174.467949618377, -36.9089278762662], [174.467905977198, -36.9089518873654], [174.467860604028, -36.9089780651216], [174.467815368259, -36.9090055571681], [174.467773207611, -36.9090330292258], [174.46773417785, -36.9090604625813], [174.467698267758, -36.9090878573764], [174.46766547734, -36.9091152136138], [174.467635980107, -36.9091427995642], [174.4676100649, -36.9091710443205], [174.467587720844, -36.909199966047], [174.467568970216, -36.9092295554566], [174.467553790748, -36.9092598218398], [174.467541061454, -36.9092902562511], [174.467528812623, -36.9093199906673], [174.467516987628, -36.9093489987469], [174.467505597863, -36.9093772893628], [174.467494643158, -36.9094048535038], [174.467485506924, -36.9094324222184], [174.467480807687, -36.909461333244], [174.467480579807, -36.9094916222116], [174.467484856957, -36.9095232887052], [174.467493605475, -36.9095563331399], [174.467504475479, -36.9095899642972], [174.467512778069, -36.9096225815801], [174.46751837823, -36.9096541686298], [174.467521287009, -36.9096847162964], [174.46752150423, -36.9097142155687], [174.467520006378, -36.909742663396], [174.467518869529, -36.9097700341285], [174.467518160843, -36.9097963179227], [174.467517880664, -36.9098215328019], [174.467518017426, -36.9098456608814], [174.467518460291, -36.9098693615334], [174.467518934062, -36.9098940893693], [174.46751942838, -36.9099198895857], [174.467519943417, -36.9099467711942], [174.467520478828, -36.9099747161716], [174.467520101972, -36.910002501159], [174.467516635762, -36.9100272235903], [174.467509988002, -36.9100487584122], [174.46750014764, -36.9100671147744], [174.467487136947, -36.9100822833873], [174.467471093178, -36.9100961554385], [174.467452431724, -36.9101134219507], [174.467431156896, -36.9101343082128], [174.46740727974, -36.9101588050733], [174.467380789199, -36.9101869216809], [174.467354051577, -36.9102173758923], [174.467333199499, -36.9102468560177], [174.467318577576, -36.9102751865419], [174.467310174594, -36.9103023676059], [174.467307990388, -36.9103283901991], [174.467310341127, -36.9103538339742], [174.467312542353, -36.9103802620932], [174.467314326634, -36.9104077770109], [174.467315671181, -36.9104363609812], [174.467316598782, -36.9104660317503], [174.467317074908, -36.9104955728904], [174.467317042246, -36.910521406657], [174.467316485255, -36.9105433078987], [174.467315403935, -36.9105612766156], [174.467313798114, -36.9105753037962], [174.467311584573, -36.910586318883], [174.467308502955, -36.9105971373775], [174.467304534786, -36.9106079668237], [174.467299668843, -36.9106188073601], [174.467293905125, -36.9106296589867], [174.467287658162, -36.9106410664204], [174.4672822532, -36.9106548250509], [174.467277782953, -36.9106710869664], [174.467274247075, -36.9106898341439], [174.467271657133, -36.9107110844679], [174.467269170084, -36.9107353621356], [174.467263925475, -36.910764523256], [174.467255634807, -36.9107987426537], [174.467244331568, -36.9108380109004], [174.467230004528, -36.9108823281342], [174.467213137968, -36.9109294349382], [174.467195523139, -36.9109708813439], [174.467177347373, -36.9110058988696], [174.467158599103, -36.9110344696307], [174.467139278509, -36.9110566026383], [174.467120246592, -36.9110732967956], [174.467104867077, -36.9110884585708], [174.467093473352, -36.911102498479], [174.467086076642, -36.9111154163829], [174.467082665726, -36.9111272124217], [174.46708261855, -36.9111376418945], [174.467083266128, -36.9111456651328], [174.467084303386, -36.91115117774], [174.467085741547, -36.9111541795775], [174.467087569388, -36.9111546707837], [174.467089826617, -36.9111535522418], [174.467092567083, -36.9111548073568], [174.467095811502, -36.9111589316282], [174.467099559531, -36.9111659070328], [174.46710380012, -36.9111757427207], [174.467108193323, -36.9111882716297], [174.467111051835, -36.9112027213924], [174.467112160189, -36.9112189774918], [174.467111518384, -36.9112370399278], [174.467109126764, -36.9112569267237], [174.467105041095, -36.9112780332704], [174.467099541599, -36.9112974086156], [174.467092654519, -36.9113146648445], [174.467084401953, -36.9113297836564], [174.467074761457, -36.9113427653284], [174.467063634445, -36.9113543231626], [174.467050419387, -36.9113682143015], [174.467035025981, -36.9113849987112], [174.467017465447, -36.9114046762523], [174.466997726387, -36.9114272380508], [174.466976428962, -36.9114516578945], [174.466957152075, -36.9114719785723], [174.466940450119, -36.91148725581], [174.466926334146, -36.9114974804585], [174.466914793112, -36.9115026616688], [174.466905260716, -36.9115042937016], [174.466894231057, -36.9115115597806], [174.466881105198, -36.9115260086507], [174.466865894529, -36.9115476491844], [174.466848587821, -36.9115764815193], [174.466829793665, -36.9116120474523], [174.466813461641, -36.9116513326898], [174.46680031119, -36.911693805552], [174.466790353539, -36.9117394659011], [174.466783566076, -36.9117883050033], [174.466779424988, -36.9118393468306], [174.466774126995, -36.9118856617204], [174.466766916927, -36.9119259159517], [174.466757817055, -36.9119601002358], [174.466746805105, -36.911988223861], [174.466734008835, -36.9120110964853], [174.466720196839, -36.9120348559829], [174.466705528118, -36.9120607713266], [174.466690025287, -36.9120888512504], [174.466673654676, -36.9121190961698], [174.466656435967, -36.9121513616217], [174.466638348967, -36.9121845932483], [174.466619377792, -36.9122185478745], [174.466599522615, -36.9122532345115], [174.466578805704, -36.9122886438702], [174.466556932514, -36.9123246353673], [174.46653157691, -36.9123599036902], [174.466502183121, -36.912394149232], [174.46646875097, -36.9124273629781], [174.466431292021, -36.9124595628099], [174.466390045392, -36.9124909260461], [174.466347358446, -36.9125232805326], [174.466303800927, -36.912557069921], [174.466259373178, -36.9125923122336], [174.466214097467, -36.9126289981808], [174.466168452733, -36.9126669325612], [174.466127656244, -36.9127042302007], [174.466093089934, -36.9127403692775], [174.466064742763, -36.912775358947], [174.466042614742, -36.9128091992134], [174.466026507326, -36.9128420728055], [174.466014182547, -36.9128761075477], [174.466005023163, -36.9129118969521], [174.46599900656, -36.912949432285], [174.46599615536, -36.9129887222811], [174.465996088002, -36.91302977165], [174.46599427059, -36.9130726363515], [174.465989367468, -36.9131173238571], [174.465981367406, -36.913163834305], [174.46597029319, -36.9132121854408], [174.465956319888, -36.9132621407459], [174.465941952247, -36.9133108480074], [174.465928003662, -36.9133574048268], [174.465914451516, -36.9134018024696], [174.465901295984, -36.9134440499475], [174.465888537238, -36.9134841562724], [174.465875843779, -36.9135223959476], [174.465863115811, -36.9135588333008], [174.465850353679, -36.9135934863553], [174.465837557213, -36.9136263460995], [174.465824455689, -36.9136573437645], [174.465806603078, -36.9136852632827], [174.465782442204, -36.9137096821961], [174.465751972892, -36.9137305914892], [174.465715184089, -36.9137480003074], [174.465672554046, -36.9137622632925], [174.465632646697, -36.9137797826777], [174.465598651286, -36.9138029708479], [174.465570556243, -36.9138318099233], [174.465548361742, -36.9138663089197], [174.465532039132, -36.9139061436995], [174.465520511366, -36.9139448917497], [174.465513370353, -36.9139799982073], [174.46551062732, -36.9140114629345], [174.465512271397, -36.9140393040932], [174.46551822403, -36.9140635226524], [174.465526665581, -36.9140846458325], [174.465536836704, -36.9141028813044], [174.465548737399, -36.9141182290678], [174.465562367665, -36.9141306891222], [174.46557779501, -36.9141402696477], [174.465596505656, -36.9141472046892], [174.465619185912, -36.9141515759138], [174.465645835946, -36.9141533923308], [174.465676444535, -36.9141526540762], [174.465711012364, -36.9141493971933], [174.465749259358, -36.9141448239613], [174.465791061361, -36.9141394857464], [174.465836418544, -36.9141333915565], [174.465885330905, -36.9141265413876], [174.465937675165, -36.9141189457705], [174.465989379894, -36.9141113670377], [174.466038409292, -36.9141041818534], [174.466084774584, -36.9140973900823], [174.466128464376, -36.9140909828545], [174.466169489203, -36.9140849239879], [174.466207809038, -36.9140771227939], [174.466243391781, -36.91406648901], [174.466276248652, -36.9140530225001], [174.466306368427, -36.9140367234051], [174.466333786151, -36.9140176634042], [174.466359397524, -36.9139992386315], [174.466383721357, -36.9139833355663], [174.466406757654, -36.9139699542093], [174.466428495366, -36.9139591037115], [174.466449068306, -36.9139507373527], [174.466475378081, -36.9139429942169], [174.466511489544, -36.9139347695052], [174.466557402863, -36.9139260722203], [174.466613117861, -36.9139168933395], [174.466678488984, -36.9139072526736], [174.466742098644, -36.9138988325501], [174.466796827367, -36.913892667335], [174.466842686555, -36.9138887659133], [174.466879664819, -36.9138871194221], [174.466907818103, -36.9138877181651], [174.466933017929, -36.9138894260121], [174.466959099854, -36.9138914744947], [174.466986086496, -36.9138938723465], [174.467013977856, -36.9138966195671], [174.467042785157, -36.9138997160171], [174.467075912657, -36.9139033179495], [174.467115754062, -36.9139075670542], [174.467162286581, -36.9139124455787], [174.467215521441, -36.9139179533762], [174.467275424975, -36.9139240908537], [174.4673353722, -36.9139307505574], [174.467390421872, -36.9139378222726], [174.467440573991, -36.913945306006], [174.467485828903, -36.9139532197872], [174.467526197483, -36.9139615454597], [174.46756315007, -36.9139702738751], [174.467597887489, -36.9139793901991], [174.467630398343, -36.9139888855606], [174.467660682805, -36.9139987689731], [174.467688752097, -36.9140090402996], [174.467716981612, -36.9140177142095], [174.467747382785, -36.9140231433752], [174.467779944389, -36.914025327934], [174.467814677471, -36.9140242587339], [174.467851582025, -36.914019935773], [174.467890926027, -36.9140146271972], [174.467932972792, -36.9140103578388], [174.4679777111, -36.9140071278336], [174.46802514095, -36.9140049371786], [174.468075273741, -36.9140037947433], [174.468125107997, -36.9140017185492], [174.468171767415, -36.9139968152126], [174.468215240768, -36.9139890848761], [174.468255539274, -36.9139785274046], [174.468292674328, -36.9139651516742], [174.468327329329, -36.9139512297129], [174.4683602343, -36.9139391231082], [174.468391389246, -36.9139288318618], [174.468420793995, -36.9139203469633], [174.468448448724, -36.9139136774255], [174.468475180091, -36.9139074429426], [174.46850189089, -36.9139001360743], [174.468528581121, -36.9138917568207], [174.468555250609, -36.9138822961702], [174.468581899699, -36.913871772146], [174.468609157904, -36.9138608169392], [174.468637758506, -36.9138502056767], [174.468667701506, -36.9138399383576], [174.468698997951, -36.9138300058305], [174.468731625744, -36.9138204263951], [174.46876462233, -36.9138113471591], [174.468796734926, -36.9138029999438], [174.468827974754, -36.9137953846112], [174.46885833042, -36.9137884922892], [174.468887813149, -36.9137823228396], [174.46891679293, -36.9137762677675], [174.468945747655, -36.9137694919], [174.468974688892, -36.9137620131215], [174.469003627344, -36.9137538042585], [174.469032541085, -36.9137448926233], [174.469061269898, -36.9137357038429], [174.469089556542, -36.91372687206], [174.469117412412, -36.9137184061477], [174.469144826286, -36.9137103062451], [174.469171798165, -36.9137025723526], [174.469198333237, -36.9136954748181], [174.469224451367, -36.9136894640824], [174.469250141162, -36.9136845312732], [174.469275402624, -36.9136806763907], [174.469300235926, -36.9136779084467], [174.469325839624, -36.9136755095437], [174.469354078367, -36.9136723749667], [174.469384974427, -36.9136684954244], [174.469418527628, -36.9136638619032], [174.469454749365, -36.9136584832737], [174.469491198506, -36.9136538409455], [174.469523747105, -36.9136524287107], [174.469552351143, -36.9136542921858], [174.469576999227, -36.9136594225009], [174.469597702755, -36.9136678285312], [174.469616035313, -36.9136796170006], [174.46963482932, -36.9136949782072], [174.469654140894, -36.9137139114565], [174.469673958813, -36.9137364168868], [174.469694305528, -36.9137624942202], [174.469714957206, -36.9137898387118], [174.469735560111, -36.9138140560397], [174.469756101114, -36.9138350472155], [174.469776580387, -36.913852821251], [174.469796997753, -36.9138673691347], [174.469817391606, -36.9138806914388], [174.469837838389, -36.9138967712848], [174.469858340009, -36.9139157077998], [174.469878896813, -36.9139375190071], [174.469899508458, -36.9139621868833], [174.469919583719, -36.9139881503567], [174.469937880393, -36.9140120987359], [174.469954340115, -36.9140339155655], [174.469968985501, -36.9140536095802], [174.469981805325, -36.9140711809197], [174.46999349476, -36.9140883426027], [174.47000565412, -36.9141089326981], [174.470018319842, -36.9141330949745], [174.470031503152, -36.9141608292927], [174.470045193002, -36.9141921448028], [174.470059761756, -36.9142253873842], [174.470076031808, -36.9142566168729], [174.470094044937, -36.9142856705043], [174.470113801489, -36.9143125663006], [174.470135301116, -36.9143372862379], [174.470158078567, -36.9143613233388], [174.470180970445, -36.9143883966442], [174.470203935497, -36.9144186959531], [174.47022695128, -36.9144522215429], [174.470250029021, -36.9144889732748], [174.470273743456, -36.9145278984417], [174.470299590557, -36.9145662293386], [174.470327645942, -36.9146038117946], [174.470357932234, -36.9146406545417], [174.470390415766, -36.9146767579951], [174.470424111336, -36.9147116746497], [174.470456144143, -36.9147441781741], [174.470486344456, -36.9147741985613], [174.470514712268, -36.9148017358128], [174.470541247576, -36.91482678993], [174.470566167613, -36.9148501514324], [174.470590100434, -36.9148741290721], [174.470613094389, -36.9148989025255], [174.47063516053, -36.9149244626425], [174.470656276409, -36.9149508097017], [174.470675809744, -36.9149777532306], [174.470691716922, -36.9150046785603], [174.47070385135, -36.9150315514525], [174.470712212679, -36.9150583538854], [174.470716790027, -36.9150851040219], [174.470717584577, -36.915111279052], [174.470714462435, -36.915135168026], [174.470707432226, -36.9151566356311], [174.470696482551, -36.915175672994], [174.470681636026, -36.9151922888475], [174.470662212187, -36.9152061220529], [174.470635884742, -36.9152158673808], [174.470602471878, -36.9152214098993], [174.470561951327, -36.9152227588919], [174.470514334144, -36.9152199052005], [174.470461628084, -36.9152145185399], [174.470411405706, -36.9152127877212], [174.470364397029, -36.9152153166434], [174.470320579599, -36.9152221055885], [174.47027996446, -36.9152331454095], [174.470241641324, -36.9152477983897], [174.470201923128, -36.9152634601357], [174.470160434153, -36.9152798558713], [174.470117174569, -36.9152969946063], [174.470072155424, -36.9153148671882], [174.470025985343, -36.9153336012882], [174.469981322947, -36.9153536867968], [174.469938483686, -36.9153751829079], [174.469897444939, -36.9153980808896], [174.469858229498, -36.9154223984891], [174.469820070577, -36.915447955909], [174.469779653261, -36.9154739919501], [174.469736571793, -36.9155004214937], [174.469690814949, -36.9155272446759], [174.469642393946, -36.9155544613548], [174.46959261961, -36.9155819381296], [174.46954781144, -36.9156090649996], [174.469508798552, -36.9156357596022], [174.469475569729, -36.9156620220818], [174.469448136375, -36.9156878613159], [174.469424785197, -36.9157134968069], [174.469396884094, -36.9157401169965], [174.469363201306, -36.9157678813396], [174.469323737, -36.915796798843], [174.469278502042, -36.915826851339], [174.469229336292, -36.9158579800071], [174.469186245403, -36.9158897906635], [174.469150766231, -36.9159222282498], [174.469122876166, -36.9159552840387], [174.469102575391, -36.9159889670469], [174.469088601601, -36.9160235993583], [174.469073651472, -36.9160611732046], [174.469056529852, -36.9161020008209], [174.469037236561, -36.9161460731947], [174.46901578299, -36.9161933991977], [174.468992085889, -36.9162431505959], [174.468965721943, -36.9162902308554], [174.468936618267, -36.9163337665446], [174.468904763637, -36.9163737578004], [174.468870169103, -36.9164101954703], [174.468833775324, -36.9164429597542], [174.468801930019, -36.9164711519022], [174.468775786578, -36.9164946224488], [174.468755356059, -36.9165133622471], [174.468740638646, -36.9165273803116], [174.468731177678, -36.9165380343501], [174.468723835913, -36.9165549988301], [174.46871798766, -36.9165801833851], [174.46871363292, -36.9166135880151], [174.468710782916, -36.9166552125813], [174.46870921402, -36.9167033472416], [174.468707350776, -36.9167449145365], [174.468704871288, -36.9167771782746], [174.468701764161, -36.9168001295832], [174.468698029739, -36.9168137864854], [174.468693656996, -36.9168193299155], [174.468688487277, -36.9168266318631], [174.468682517516, -36.9168378736871], [174.468675725609, -36.9168530736882], [174.468668111557, -36.9168722318662], [174.468659604735, -36.9168951778336], [174.468649529141, -36.9169206129591], [174.468637698983, -36.9169482150456], [174.468624136875, -36.9169779928268], [174.468608820197, -36.917009937568], [174.468592034522, -36.9170437212433], [174.46857634522, -36.9170761393013], [174.468562399073, -36.9171063815238], [174.468550196257, -36.9171344569227], [174.468539736776, -36.9171603654988], [174.468530614363, -36.9171845809893], [174.468518682597, -36.9172121572788], [174.468502833515, -36.9172444420966], [174.46848304449, -36.9172814267071], [174.468459337959, -36.917323110831], [174.468432098599, -36.9173690660649], [174.468405799005, -36.9174142705486], [174.468381668869, -36.9174572849114], [174.468359742384, -36.9174981357732], [174.468339996765, -36.9175368053893], [174.468322233627, -36.9175734855016], [174.468303916571, -36.9176105510355], [174.468284284502, -36.9176487054562], [174.468263337416, -36.9176879487632], [174.468241064261, -36.9177282901062], [174.46821787459, -36.9177694269687], [174.468199137877, -36.9178074441148], [174.468186558834, -36.9178410855936], [174.468180148695, -36.9178703512682], [174.468179885022, -36.917895241417], [174.468185431123, -36.9179157602019], [174.46819137758, -36.9179319835053], [174.468195905883, -36.9179439157796], [174.468199005152, -36.9179515751868], [174.468200686439, -36.9179549525768], [174.46820161554, -36.9179542290074], [174.468212871724, -36.9179522961302], [174.46823839246, -36.9179501779003], [174.468278178091, -36.9179478923317], [174.468332250888, -36.9179454301211], [174.468399766343, -36.9179426574702], [174.468465749863, -36.9179372717148], [174.468524526789, -36.9179283965806], [174.468576096943, -36.9179160230668], [174.468620460496, -36.9179001601945], [174.468657730196, -36.9178808336187], [174.468690058839, -36.9178584944522], [174.468718325984, -36.9178333481518], [174.468742520236, -36.9178053858475], [174.468762652821, -36.917774607403], [174.468779018309, -36.9177411533968], [174.468799011135, -36.9177083576006], [174.468825734275, -36.9176776328474], [174.468859187553, -36.9176489701213], [174.468899370962, -36.9176223694169], [174.468946153623, -36.9175980306479], [174.468996018832, -36.9175810630145], [174.469047416131, -36.9175737391208], [174.469100334488, -36.9175760681148], [174.469154773925, -36.917588049994], [174.469210718224, -36.9176094235587], [174.46926742232, -36.9176323650988], [174.469324522653, -36.9176531384162], [174.469382030787, -36.9176717613948], [174.469439935495, -36.917688234173], [174.469498225203, -36.9177025388659], [174.469555541017, -36.9177140613263], [174.469611237502, -36.9177225120892], [174.469665314476, -36.9177278821455], [174.469717772107, -36.9177301805091], [174.469768678938, -36.91772946943], [174.469821111256, -36.9177286943822], [174.469876693026, -36.9177294126668], [174.469935435647, -36.9177316331522], [174.4699973279, -36.9177353559724], [174.470062223194, -36.9177405468821], [174.470121876921, -36.9177457846082], [174.470171693234, -36.9177502517167], [174.470211672304, -36.9177539572315], [174.470241802905, -36.9177569013015], [174.470262163772, -36.9177590919734], [174.470277796215, -36.9177611609015], [174.470291670944, -36.9177634769299], [174.470303799527, -36.9177660579433], [174.470314170396, -36.9177688860581], [174.470322874548, -36.9177720232443], [174.470336058505, -36.9177798732297], [174.470357636868, -36.9177951908177], [174.470387587719, -36.9178180033161], [174.470425933003, -36.9178482834055], [174.470472581917, -36.9178859781193], [174.470520347808, -36.9179227936674], [174.470564421019, -36.9179532101071], [174.470604812758, -36.9179772273039], [174.470641511787, -36.917994845401], [174.470674518788, -36.9180061004484], [174.470704187772, -36.9180159816665], [174.470730789298, -36.9180280551407], [174.470754300745, -36.9180423121393], [174.470774733512, -36.9180587615368], [174.47079209882, -36.9180774031957], [174.470808182087, -36.9180994318596], [174.47082434793, -36.9181257590428], [174.470840607403, -36.9181563755946], [174.470856938409, -36.9181912998161], [174.470873351655, -36.9182305045332], [174.470888544207, -36.9182704454628], [174.470901462146, -36.9183082692948], [174.470912105294, -36.9183439670185], [174.47092048487, -36.9183775384957], [174.470926589992, -36.9184090018891], [174.470934513148, -36.9184375133073], [174.470947709697, -36.9184623719542], [174.470966179989, -36.9184835958512], [174.470989946125, -36.9185011666946], [174.471018985833, -36.9185150937708], [174.47104939508, -36.918527850121], [174.471077591676, -36.9185417155155], [174.471103575447, -36.9185566809443], [174.47112735779, -36.9185727552814], [174.471148927135, -36.918589920644], [174.471165803476, -36.91860822578], [174.471175562402, -36.9186276917086], [174.471178203907, -36.9186483184317], [174.471173739209, -36.9186701058106], [174.471162157253, -36.9186930629956], [174.47114998856, -36.9187158652001], [174.471144043899, -36.9187371661414], [174.471144311879, -36.9187569569478], [174.471150792332, -36.9187752286075], [174.471163485608, -36.9187919991426], [174.471178361949, -36.9188061196429], [174.47119094041, -36.9188163296102], [174.47120119854, -36.9188226293234], [174.471209170009, -36.918825018366], [174.471214832367, -36.9188234970167], [174.471219325844, -36.9188201513478], [174.471224034155, -36.9188174700327], [174.471228957125, -36.9188154440598], [174.471234083705, -36.9188140825796], [174.471239413895, -36.9188133855922], [174.47124508875, -36.9188130989661], [174.471251270733, -36.9188129142222], [174.471257937224, -36.9188128226271], [174.471265122066, -36.918812832775], [174.471272802641, -36.9188129359325], [174.471281617465, -36.9188130610935], [174.471292406732, -36.9188131167261], [174.471305170267, -36.9188130938183], [174.471319908071, -36.9188129923694], [174.471336631541, -36.9188128212513], [174.471354498861, -36.9188114191083], [174.471372322682, -36.9188071691667], [174.471390091434, -36.9188000535422], [174.471407794065, -36.9187900813857], [174.471425452672, -36.9187772343959], [174.471443235463, -36.9187620873668], [174.471461439646, -36.9187455019332], [174.471480065045, -36.9187274690833], [174.471499100783, -36.9187080069792], [174.471518557908, -36.9186871064699], [174.471537954923, -36.9186659993868], [174.471556499056, -36.9186466605427], [174.471574179953, -36.9186291351352], [174.471591008493, -36.9186134050022], [174.471606973626, -36.9185994792949], [174.47162305639, -36.9185864174448], [174.471640876821, -36.9185726490189], [174.471660467894, -36.9185581375531], [174.471681818559, -36.9185428921971], [174.471704951259, -36.9185269126719], [174.471728602437, -36.9185104580041], [174.471750502599, -36.918494016016], [174.471770629472, -36.9184775959982], [174.471788971833, -36.9184611980908], [174.471805529685, -36.9184448222944], [174.471821048058, -36.9184280988286], [174.471836961247, -36.9184103068492], [174.471853302746, -36.9183914369275], [174.471870061332, -36.9183714892022], [174.471887248226, -36.9183504635342], [174.471905323307, -36.9183295079799], [174.471925196326, -36.9183109818722], [174.471946901819, -36.9182949298508], [174.47197043996, -36.9182813609261], [174.471995822146, -36.9182702839697], [174.472022064409, -36.9182624863552], [174.472047133548, -36.9182596518062], [174.472070963615, -36.9182618532503], [174.472093554442, -36.9182690816767], [174.472114906032, -36.918281337086], [174.472134442944, -36.918296715703], [174.472150880087, -36.9183108527906], [174.472164169795, -36.9183236047213], [174.47217431189, -36.9183349624848], [174.47218129515, -36.9183449262209], [174.472186961862, -36.9183553118929], [174.472195650543, -36.9183704824451], [174.472207555805, -36.9183906337663], [174.472222677479, -36.9184157568438], [174.472241026794, -36.918445851537], [174.472261574911, -36.9184793712246], [174.472281798571, -36.918512363121], [174.472301559801, -36.9185446576761], [174.472320858254, -36.9185762368669], [174.472339705153, -36.9186071005547], [174.472358087712, -36.9186371677748], [174.472376000906, -36.9186661771918], [174.472393444561, -36.9186941197944], [174.472410429724, -36.9187209864322], [174.472426945345, -36.9187467862561], [174.472443214329, -36.9187714353794], [174.472459859983, -36.9187946556632], [174.472476927027, -36.9188164375392], [174.47249441546, -36.9188367810072], [174.472512314058, -36.9188556862062], [174.472531151835, -36.9188726418091], [174.472552492871, -36.9188860870777], [174.472576447317, -36.9188959124802], [174.472603004294, -36.9189021361776], [174.472632163453, -36.918904740145], [174.47266295243, -36.9189051155358], [174.472692234528, -36.9189076909229], [174.472719791524, -36.9189127935069], [174.472745600973, -36.9189204235675], [174.472769685497, -36.918930589839], [174.472792422575, -36.9189436572036], [174.472815128029, -36.9189609163341], [174.472837916177, -36.9189824739772], [174.472860798245, -36.9190083299937], [174.472883751791, -36.9190384846616], [174.472904941601, -36.9190714915045], [174.472917757748, -36.9191022135556], [174.472921584797, -36.9191301717094], [174.472916445531, -36.9191553837118], [174.472902339768, -36.9191778405504], [174.472881770406, -36.9191986829659], [174.472864352427, -36.9192222805491], [174.472851014469, -36.9192490544435], [174.472841745139, -36.919278995778], [174.472836544441, -36.9193121045536], [174.472834016949, -36.9193470370041], [174.472828432609, -36.9193782937111], [174.472819207585, -36.919405287009], [174.472806319773, -36.9194280351988], [174.472789791619, -36.9194465380008], [174.472770344326, -36.9194626883644], [174.472751111048, -36.9194847130136], [174.472732457389, -36.919513526814], [174.472714383689, -36.9195491477889], [174.472696878376, -36.9195915580546], [174.472679548629, -36.9196384279299], [174.472660517106, -36.9196791174674], [174.47263955631, -36.9197123044712], [174.472616666416, -36.9197379979518], [174.472591847256, -36.9197561888965], [174.472565763745, -36.9197687619403], [174.472541564634, -36.919784754854], [174.472519699635, -36.9198053699009], [174.472500146473, -36.9198306163722], [174.472482905146, -36.9198604942689], [174.472467195301, -36.9198941209091], [174.472448922804, -36.9199270041387], [174.47242750243, -36.9199584841971], [174.472402923127, -36.9199885702333], [174.472375207512, -36.9200172709788], [174.472345313914, -36.920044799894], [174.472318610893, -36.9200724514961], [174.472295943856, -36.9201004045953], [174.472277290534, -36.9201286684836], [174.472262650931, -36.9201572431628], [174.472251526709, -36.9201859004552], [174.472240861873, -36.9202133442141], [174.472230169479, -36.9202393551329], [174.472219460577, -36.9202639240609], [174.472208713067, -36.9202870692995], [174.472197621316, -36.9203086594315], [174.472184160711, -36.9203279083188], [174.4721679695, -36.9203446852387], [174.472149058906, -36.9203589900512], [174.472127417531, -36.9203708138826], [174.472102769813, -36.9203804215446], [174.472073126003, -36.9203894241114], [174.472038121613, -36.9203981325632], [174.471997768039, -36.9204065557678], [174.471952053708, -36.9204146758356], [174.471902502811, -36.9204229425843], [174.471860198221, -36.9204344095162], [174.471827329956, -36.9204497075006], [174.471803909067, -36.9204688273945], [174.471789935558, -36.9204917692033], [174.471784307583, -36.9205178615424], [174.471778616796, -36.9205418544639], [174.471771090836, -36.9205626522304], [174.471761707083, -36.9205802461082], [174.471750476934, -36.9205946449694], [174.47173781535, -36.9206064115355], [174.471727125275, -36.9206202899202], [174.471719168426, -36.9206373613448], [174.471713944805, -36.9206576258097], [174.471711465463, -36.9206810741645], [174.471712044802, -36.9207071256358], [174.471718543834, -36.9207304356925], [174.471731656279, -36.9207497157896], [174.471751382486, -36.9207649839481], [174.471777733332, -36.9207762220025], [174.471810282492, -36.9207834442454], [174.471845101866, -36.9207867083655], [174.471881180975, -36.9207860088562], [174.471918519988, -36.9207813547282], [174.471957130122, -36.9207727458414], [174.471996607011, -36.9207607550702], [174.472032812979, -36.9207514728864], [174.47206465703, -36.9207465442978], [174.47209211655, -36.9207459605745], [174.472115203113, -36.9207497396033], [174.472134384303, -36.9207576772894], [174.472155142293, -36.9207676325267], [174.472179059056, -36.9207789727725], [174.472206112495, -36.9207917163261], [174.472236324713, -36.9208058448839], [174.472269660656, -36.9208212867683], [174.472305763692, -36.9208370098206], [174.472344560414, -36.9208526994681], [174.472386017153, -36.9208683561257], [174.472430156358, -36.9208839795122], [174.472476530126, -36.9208996292601], [174.472519081371, -36.9209161556448], [174.472555861858, -36.9209338261963], [174.472586849138, -36.9209526411984], [174.472612077053, -36.9209726092498], [174.472631432842, -36.9209937047112], [174.472643654599, -36.9210156908485], [174.472648314087, -36.9210384828367], [174.472645411471, -36.9210620896886], [174.472634935348, -36.9210865025313], [174.472617175619, -36.9211116186174], [174.472597149131, -36.9211356180651], [174.472576639019, -36.9211578207632], [174.472555645631, -36.9211782447346], [174.472534180018, -36.9211968808283], [174.472512291235, -36.921213944765], [174.472491324338, -36.9212334129431], [174.472471768786, -36.9212568026123], [174.472453624579, -36.9212841137733], [174.472436891714, -36.9213153464267], [174.47242150233, -36.9213504743733], [174.47240590422, -36.9213887597051], [174.472389463307, -36.9214299218443], [174.472372190813, -36.9214739606511], [174.47235407551, -36.9215208762646], [174.472335102012, -36.9215704525458], [174.472314538329, -36.9216173173821], [174.472292104918, -36.9216591937686], [174.472267790383, -36.9216960728319], [174.472241594899, -36.9217279635825], [174.47221349966, -36.9217550555403], [174.472183006673, -36.9217823935425], [174.472149879353, -36.9218122700029], [174.472114140314, -36.9218446936528], [174.472075755532, -36.9218796468842], [174.472034937385, -36.9219170819935], [174.471997541801, -36.9219550245056], [174.471966390909, -36.9219925290615], [174.471941473667, -36.9220296048165], [174.471922789912, -36.9220662427627], [174.471910125014, -36.9221023734533], [174.4718955907, -36.9221352823743], [174.471875153035, -36.922163613379], [174.471848845688, -36.9221873660475], [174.471816634812, -36.9222065317814], [174.471778543376, -36.9222211373325], [174.471734285837, -36.9222320966187], [174.471683725987, -36.9222399160888], [174.471626852607, -36.9222445958737], [174.471563676581, -36.9222461178019], [174.471494322589, -36.9222445434146], [174.471425282972, -36.9222418023229], [174.471360261494, -36.9222390114108], [174.471299247104, -36.9222361798357], [174.47124225068, -36.9222332894415], [174.47118925064, -36.92223038557], [174.471139193973, -36.9222299239865], [174.47109144652, -36.9222333727714], [174.471045997048, -36.9222407320668], [174.471002856777, -36.9222520017363], [174.470962036924, -36.9222671816436], [174.470924888676, -36.9222864803992], [174.470892290086, -36.9223100223377], [174.470864229758, -36.9223377985901], [174.470840719088, -36.9223698180323], [174.470821735284, -36.9224060629216], [174.470805639549, -36.9224442099899], [174.47079133532, -36.9224826954184], [174.470778822427, -36.9225215101959], [174.470768101219, -36.9225606723462], [174.470759193626, -36.922600154557], [174.470754130804, -36.9226393277565], [174.470754407932, -36.9226777137298], [174.470760025193, -36.9227153214881], [174.47077098242, -36.922752142019], [174.470787279794, -36.9227881843325], [174.470807399207, -36.9228244857766], [174.470830221762, -36.9228618263717], [174.470855747464, -36.9229002061163], [174.470883965096, -36.9229396251474], [174.470914852039, -36.9229800747294], [174.470942933507, -36.9230164938655], [174.470963718307, -36.9230447648352], [174.470977217648, -36.9230648875037], [174.470983409071, -36.9230768621518], [174.470982326417, -36.9230806973754], [174.470983665023, -36.923084340363], [174.47099584185, -36.9230946454492], [174.471018845853, -36.9231116217812], [174.471052699495, -36.9231352690741], [174.471097369122, -36.9231655877354], [174.471144548035, -36.9232037983495], [174.471186556335, -36.9232510236113], [174.471223382979, -36.9233072726766], [174.471255016571, -36.9233725366775], [174.471281490782, -36.9234468152007], [174.471306694993, -36.9235239397555], [174.4713345198, -36.9235978049289], [174.471364953984, -36.923668410858], [174.471397997719, -36.9237357665524], [174.471433662234, -36.9237998718711], [174.471467112202, -36.9238579834571], [174.471493262928, -36.9239072348571], [174.471512091764, -36.9239476173432], [174.471523621488, -36.9239791486645], [174.471527840343, -36.9240018019278], [174.471531999129, -36.9240219140688], [174.471544283757, -36.9240465766002], [174.471564671791, -36.9240757897973], [174.471593185865, -36.9241095623889], [174.471629814596, -36.9241478854964], [174.471668222602, -36.9241882416697], [174.471700840829, -36.9242275969454], [174.471727635595, -36.9242659517456], [174.471748607063, -36.9243033150863], [174.471763765929, -36.9243396597968], [174.471777835448, -36.9243771537324], [174.471796874079, -36.9244185070485], [174.471820882353, -36.9244637467771], [174.471849882558, -36.9245128636252], [174.471883852086, -36.9245658488552], [174.471919569613, -36.9246174873949], [174.471952632369, -36.9246606769264], [174.471983017197, -36.9246953816842], [174.47201072391, -36.9247215926595], [174.472035741444, -36.924739319005], [174.472058676825, -36.9247521046], [174.472080403292, -36.9247650764357], [174.472100932934, -36.9247782794314], [174.47212024313, -36.9247917048545], [174.472138356327, -36.9248053524274], [174.472151535115, -36.9248204492749], [174.472154078228, -36.9248388507851], [174.472145907609, -36.9248605849674], [174.472127056921, -36.9248856514026], [174.472097492304, -36.9249140414915], [174.472061427872, -36.924943629839], [174.472025645422, -36.9249709522397], [174.47199026773, -36.9249959711173], [174.471955272005, -36.9250186687271], [174.471920658596, -36.9250390630927], [174.471884921282, -36.9250582274858], [174.471845468758, -36.925078023803], [174.471802234196, -36.92509847991], [174.471755228814, -36.9251195956637], [174.471704452783, -36.9251413800713], [174.471653241748, -36.9251633140671], [174.471607685601, -36.9251844839141], [174.471567907297, -36.9252048610542], [174.471533929464, -36.9252244542264], [174.471505718433, -36.9252432638529], [174.471481361613, -36.9252616651697], [174.47145711221, -36.925280398658], [174.471432858672, -36.9252995017547], [174.471408611877, -36.9253189562975], [174.471384383223, -36.9253387711591], [174.471360298427, -36.92535906196], [174.471336664876, -36.9253800502349], [174.471313493968, -36.9254017448566], [174.471290774824, -36.9254241639875], [174.471268529372, -36.9254472803149], [174.47124685323, -36.9254702273388], [174.471226023789, -36.9254910817029], [174.471206039666, -36.9255097713153], [174.471186912261, -36.9255263050488], [174.471168630351, -36.9255406830429], [174.471150153887, -36.9255531164831], [174.471129056888, -36.9255641401886], [174.47110527218, -36.9255737640036], [174.471078777142, -36.9255819791931], [174.471049572122, -36.9255888037784], [174.47101868768, -36.925594116828], [174.470988532202, -36.9255976361262], [174.470959251434, -36.9255993508546], [174.470930823101, -36.9255992703035], [174.470903247033, -36.9255973854618], [174.470875795698, -36.9255932276142], [174.470846593014, -36.9255855670903], [174.470815525705, -36.9255743512095], [174.470782616224, -36.925559579692], [174.470747853179, -36.9255412436638], [174.470712651102, -36.9255210922928], [174.470680861902, -36.9255038551443], [174.470652704029, -36.9254897999273], [174.470628177304, -36.9254789176331], [174.470607281896, -36.9254712172755], [174.470588864006, -36.9254644957711], [174.470569659126, -36.9254524569065], [174.470549457433, -36.9254346976623], [174.470528236483, -36.9254112183159], [174.470506029954, -36.9253820184495], [174.470483676816, -36.9253486921149], [174.470463852134, -36.9253160735934], [174.470446708226, -36.9252844945077], [174.470432278933, -36.9252539634537], [174.470420530233, -36.9252244628262], [174.47040990959, -36.9251969943429], [174.47039531303, -36.9251747038857], [174.470376363777, -36.9251578485021], [174.470353050258, -36.9251464103057], [174.470325395092, -36.925140398028], [174.47029456275, -36.9251378953564], [174.470264671044, -36.9251323434113], [174.470236046321, -36.9251231973307], [174.470208688411, -36.9251104481038], [174.470182597491, -36.925094104743], [174.470157447763, -36.9250753250371], [174.470131995239, -36.9250583157612], [174.470106134943, -36.9250434567906], [174.470079878272, -36.9250307569975], [174.470053213824, -36.9250202075092], [174.470025900029, -36.9250120907407], [174.469996958173, -36.9250074734098], [174.46996630036, -36.9250064557544], [174.469933926759, -36.9250090467845], [174.469899848417, -36.9250152373485], [174.469865011951, -36.9250246281395], [174.469833349066, -36.9250355840836], [174.469805271601, -36.9250479198122], [174.469780802349, -36.9250616530731], [174.469759929915, -36.925076774996], [174.469739269198, -36.9250923990629], [174.469704174796, -36.925104731469], [174.469652942674, -36.9251133155619], [174.469585584402, -36.9251181692051], [174.46950209964, -36.9251192743478], [174.469407907512, -36.9251176185107], [174.469328029331, -36.925117696413], [174.469265596683, -36.9251200552323], [174.469220598687, -36.9251247131583], [174.469092024764, -36.9251684337893]]}, "properties": {"OBJECTID": 280, "TRACKNAME": "Kuataika Track", "CONDITIONSOFUSE": "Waitakere West Regional Park", "STATUS": "Open", "WEBLINK": "https://www.aucklandcouncil.govt.nz/en/parks-recreation/find-park-beach/park-detail/3451.html", "VALIDATIONSTATE": 3, "created_user": "AC_owner", "last_edited_user": "AC_owner", "last_edited_date": 1789875254325, "created_date": 1789875254325, "PARK_SAPSITEID": null, "TRACK_ID": null, "KAURIDIEBACK_TRACK": null, "KAURIDIEBACK_MITIGATED": null, "SegmentID": null, "GlobalID": "a1b5a8ae-6594-4ba2-b738-85931937b650", "Shape__Length": 4817.139070549509}}, {"type": "Feature", "id": 1356, "geometry": {"type": "LineString", "coordinates": [[174.469258471331, -36.9286222397619], [174.469256296371, -36.9285972536346], [174.469260229566, -36.9285605912971], [174.469272744783, -36.9285370188489], [174.469294600139, -36.9285057863689], [174.46933916662, -36.9284738672746], [174.469398205561, -36.9284361175015], [174.469498806966, -36.9283836748548], [174.469576329546, -36.9283385033393], [174.469645824661, -36.9283038689874], [174.469778416236, -36.9282340754363], [174.469847741417, -36.9281952787381], [174.469942488543, -36.928129171288], [174.469997956553, -36.9280779719009], [174.470096398369, -36.9279949719786], [174.470167942607, -36.9279337756066], [174.470219025701, -36.9278922029567], [174.470270665781, -36.9278457289468], [174.470371076115, -36.9277506801439], [174.470444803622, -36.9276804248414], [174.470481139199, -36.9276297866173], [174.470505925073, -36.9275822388768], [174.470523498384, -36.9275397109382], [174.470543799, -36.9274953825391], [174.470554441119, -36.9274520660923], [174.470560467378, -36.9274028307139], [174.470560332833, -36.9273455683003], [174.470559842333, -36.9272908161043], [174.470552020479, -36.9272401567758], [174.470534912281, -36.927189423147], [174.470509414298, -36.927144958776], [174.47047238564, -36.9270829432645], [174.470428045097, -36.9270114186748], [174.470377860652, -36.9269442659599], [174.470335645205, -36.9268810797421], [174.470304012652, -36.926836952671], [174.470267049795, -36.9267795152384], [174.470231883744, -36.9267291132824], [174.470179598395, -36.9266729741967], [174.470138945753, -36.9266227482967], [174.470090049301, -36.9265624209117], [174.47004056985, -36.9264997932123], [174.469985171119, -36.9264475504416], [174.4699217315, -36.9263840769361], [174.469827434175, -36.9261981014092], [174.469748505879, -36.9260793040614], [174.469678782951, -36.925986180963], [174.469602972518, -36.925919822746], [174.469500883868, -36.9258285332227], [174.469379783821, -36.9257060209801], [174.469285667042, -36.9256077191141], [174.469232377772, -36.925538972812], [174.469172534353, -36.9254726871845], [174.4691348216, -36.9254240650452], [174.469109257971, -36.9253831255207], [174.469085470416, -36.9253487350157], [174.46907122597, -36.9253085027513], [174.469062409678, -36.9252767483379], [174.469059367943, -36.9252539722598], [174.469057870938, -36.9252221813892], [174.469065652204, -36.9252000015426], [174.469077834885, -36.9251819405984], [174.469092024764, -36.9251684337893]]}, "properties": {"OBJECTID": 1356, "TRACKNAME": "Kuataika Track", "CONDITIONSOFUSE": "Waitakere West Regional Park", "STATUS": "Open", "WEBLINK": "https://www.aucklandcouncil.govt.nz/en/parks-recreation/find-park-beach/park-detail/3451.html", "VALIDATIONSTATE": 3, "created_user": "AC_owner", "last_edited_user": "AC_owner", "last_edited_date": 1789875254325, "created_date": 1789875254325, "PARK_SAPSITEID": null, "TRACK_ID": null, "KAURIDIEBACK_TRACK": null, "KAURIDIEBACK_MITIGATED": null, "SegmentID": null, "GlobalID": "5359284c-3cfa-4ca8-b9df-03928d70406b", "Shape__Length": 472.8178990991076}}]}