{"type": "FeatureCollection", "features": [{"type": "Feature", "id": 468, "geometry": {"type": "LineString", "coordinates": [[174.458171328983, -36.9330185663333], [174.458163690025, -36.9329759351336], [174.458133875875, -36.9329433380698], [174.457846804482, -36.9327740426748], [174.457707935229, -36.9327522125898], [174.457501927621, -36.932707085678], [174.457344490764, -36.9326476975616], [174.457326471445, -36.9326300985813], [174.457318586013, -36.9326075168451], [174.457307037697, -36.9324432844664]]}, "properties": {"OBJECTID": 468, "TRACKNAME": "Laird Thompson Track", "CONDITIONSOFUSE": null, "STATUS": "Open", "WEBLINK": null, "VALIDATIONSTATE": 3, "created_user": "AC_owner", "last_edited_user": "AC_owner", "last_edited_date": 1789875254325, "created_date": 1789875254325, "PARK_SAPSITEID": null, "TRACK_ID": null, "KAURIDIEBACK_TRACK": null, "KAURIDIEBACK_MITIGATED": null, "SegmentID": null, "GlobalID": "d467de88-32fc-451d-9e0e-1bd4b4ff6a24", "Shape__Length": 111.49470122245741}}, {"type": "Feature", "id": 662, "geometry": {"type": "LineString", "coordinates": [[174.45989039248, -36.934845255838], [174.459863463939, -36.9347090814858], [174.459841750037, -36.9346820386905], [174.459804703393, -36.9346603879919], [174.459762465379, -36.9346689654735], [174.459596313851, -36.9347695772182], [174.459541946618, -36.9347861483361], [174.45922363644, -36.9346761891201], [174.458809268848, -36.934642161608], [174.45875768636, -36.934615566655], [174.458535226986, -36.9344094911786], [174.458526962101, -36.9344211708013], [174.458533826098, -36.9345202102683], [174.458524525764, -36.9345598640389], [174.458361918151, -36.9347022784956], [174.458332352949, -36.9347213792798], [174.458312452241, -36.9347222275902], [174.458273515916, -36.9346787566917], [174.458210457406, -36.9345759283557], [174.458207888797, -36.9345342904145], [174.458225112622, -36.9344318544194], [174.458219186841, -36.9344001799954], [174.458080708636, -36.9342589544696], [174.458061308936, -36.934251734722], [174.45804354917, -36.9342616371117], [174.457950366769, -36.9343880041659], [174.457927467257, -36.9344001789017], [174.457846785619, -36.9341557206492], [174.457829569636, -36.9341299220336], [174.457803236939, -36.934150427], [174.457698429797, -36.9342787492248], [174.457755047533, -36.9339985912947], [174.457737617044, -36.9339764413441], [174.457678988494, -36.9339598069271], [174.457344989754, -36.9338920742301], [174.457200147174, -36.9339047276281], [174.456987681785, -36.9339034884507], [174.456902234962, -36.9338757749286], [174.456832618865, -36.9338101339296], [174.45678417472, -36.9338034721883], [174.456357292218, -36.9338278560292], [174.45602036584, -36.933933104326], [174.455708492525, -36.9339952222108]]}, "properties": {"OBJECTID": 662, "TRACKNAME": "Laird Thompson Track", "CONDITIONSOFUSE": "Waitakere West Regional Park", "STATUS": "Temp Closed", "WEBLINK": "https://www.aucklandcouncil.govt.nz/en/parks-recreation/find-park-beach/park-detail/3451.html", "VALIDATIONSTATE": 3, "created_user": "AC_owner", "last_edited_user": "AC_owner", "last_edited_date": 1789875254325, "created_date": 1789875254325, "PARK_SAPSITEID": null, "TRACK_ID": null, "KAURIDIEBACK_TRACK": null, "KAURIDIEBACK_MITIGATED": null, "SegmentID": null, "GlobalID": "cb3bd366-ef04-4c7e-97dd-2eb0b9d14c95", "Shape__Length": 553.8320580267209}}, {"type": "Feature", "id": 2032, "geometry": {"type": "LineString", "coordinates": [[174.455708492525, -36.9339952222108], [174.455916446606, -36.9338074175739], [174.455979915794, -36.9337939273722], [174.456128439331, -36.9337354983481], [174.456274409004, -36.9336398188356], [174.456329253448, -36.9336129857538], [174.457302987456, -36.9333237360632], [174.457671417506, -36.9331848720094], [174.45784696308, -36.9331020164036], [174.458171328983, -36.9330185663333]]}, "properties": {"OBJECTID": 2032, "TRACKNAME": "Laird Thompson Track", "CONDITIONSOFUSE": "Waitakere West Regional Park", "STATUS": "Open", "WEBLINK": "https://www.aucklandcouncil.govt.nz/en/parks-recreation/find-park-beach/park-detail/3451.html", "VALIDATIONSTATE": 3, "created_user": "AC_owner", "last_edited_user": "AC_owner", "last_edited_date": 1789875254325, "created_date": 1789875254325, "PARK_SAPSITEID": null, "TRACK_ID": null, "KAURIDIEBACK_TRACK": null, "KAURIDIEBACK_MITIGATED": null, "SegmentID": null, "GlobalID": "f213a97b-4d44-465f-b589-9b94b4ed0fb8", "Shape__Length": 248.17876868179079}}, {"type": "Feature", "id": 3030, "geometry": {"type": "LineString", "coordinates": [[174.455708492525, -36.9339952222108], [174.455612974673, -36.9340955096775], [174.455554754727, -36.93414485139], [174.455148184345, -36.9343566754082], [174.45509888933, -36.9343656270488], [174.454918789169, -36.9343420518165], [174.454747040852, -36.9343624285276], [174.454678441955, -36.9343843699777], [174.454631688211, -36.9344156704473], [174.454619903821, -36.9344389899608], [174.454636371479, -36.9344646368716], [174.454708119683, -36.9345302764816]]}, "properties": {"OBJECTID": 3030, "TRACKNAME": "Laird Thompson Track", "CONDITIONSOFUSE": "Waitakere West Regional Park", "STATUS": "Open", "WEBLINK": "https://www.aucklandcouncil.govt.nz/en/parks-recreation/find-park-beach/park-detail/3451.html", "VALIDATIONSTATE": 3, "created_user": "AC_owner", "last_edited_user": "AC_owner", "last_edited_date": 1789875254325, "created_date": 1789875254325, "PARK_SAPSITEID": null, "TRACK_ID": null, "KAURIDIEBACK_TRACK": null, "KAURIDIEBACK_MITIGATED": null, "SegmentID": null, "GlobalID": "ebf8eaf2-dc8a-498c-8ba1-8893c5521b32", "Shape__Length": 128.62203068653062}}]}