{"type": "FeatureCollection", "features": [{"type": "Feature", "id": 12196, "geometry": {"type": "LineString", "coordinates": [[174.466406856562, -36.8900565797254], [174.466160494372, -36.8900220329553], [174.465802255751, -36.8900059201053], [174.465378542803, -36.8899084623202], [174.465145562313, -36.8897573175571], [174.465104272191, -36.8896038085298], [174.465101721406, -36.8894703551134], [174.465111949142, -36.8893367441081], [174.465058088263, -36.8891936567564], [174.464889591524, -36.8890725252955], [174.464592122639, -36.888891365472], [174.464500308992, -36.8887692880879], [174.464406534419, -36.8885445499424], [174.464403592602, -36.8883905589165], [174.464362304788, -36.8882370495482], [174.46447478275, -36.8881021872262], [174.464651924786, -36.8880075853505], [174.4648664429, -36.8878611889586], [174.465053822989, -36.8876329843566], [174.465176907484, -36.8873850390342], [174.465299413662, -36.887106291649], [174.465412379271, -36.8867559040865], [174.465452111421, -36.8865636442385], [174.465497089992, -36.8864935716291], [174.465638779739, -36.8863041543855]]}, "properties": {"OBJECTID": 12196, "TRACKNAME": "Lake Wainamu Track", "CONDITIONSOFUSE": "Waitakere North Regional Park", "STATUS": "Temp Closed", "WEBLINK": "https://www.aucklandcouncil.govt.nz/en/parks-recreation/find-park-beach/park-detail/3407.html", "VALIDATIONSTATE": 3, "created_user": "AC_owner", "last_edited_user": "AC_owner", "last_edited_date": 1789875254325, "created_date": 1789875254325, "PARK_SAPSITEID": null, "TRACK_ID": null, "KAURIDIEBACK_TRACK": null, "KAURIDIEBACK_MITIGATED": null, "SegmentID": null, "GlobalID": "42ac1c72-532f-43d5-9155-e304b618ca76", "Shape__Length": 563.825483312235}}, {"type": "Feature", "id": 12197, "geometry": {"type": "LineString", "coordinates": [[174.470478043411, -36.8915643590308], [174.470607045429, -36.8915780675834], [174.470708646333, -36.891576142834], [174.470779287153, -36.8915889151394], [174.47079644966, -36.8915838622758], [174.470847563486, -36.8915831483363], [174.470927761015, -36.8915875005631], [174.471093491293, -36.8915865120964], [174.47114061545, -36.8915843241091], [174.471153177541, -36.891585151049], [174.471191153068, -36.8915910084377], [174.471243613055, -36.8916031312747], [174.471334805223, -36.8916190198823], [174.471367230142, -36.891629191437], [174.471404750823, -36.8916493502084], [174.471430351346, -36.891657109458], [174.471499075611, -36.8916594761545], [174.471525867236, -36.8916620557476], [174.47160175868, -36.8916770880737], [174.471657736586, -36.8916912403135], [174.471717327308, -36.891694251837], [174.471749067826, -36.8916880627837], [174.471771267265, -36.8916794139879], [174.471792292587, -36.8916733216131], [174.471836323078, -36.891666060876], [174.471944666519, -36.8916435812942], [174.471991407803, -36.8916273001985], [174.472054090585, -36.8916014111949], [174.472089239516, -36.8915927280762], [174.472149346894, -36.8915881704402], [174.472211440578, -36.8915894561143], [174.472250723192, -36.8915961712999], [174.472296961907, -36.891613905213], [174.472323231067, -36.8916290112076], [174.472340583932, -36.8916438040525], [174.472375583035, -36.8916781453614], [174.472388850187, -36.8916993164919], [174.472414547486, -36.8917769489604], [174.472465378322, -36.8918929299054], [174.472471517383, -36.8919104847203], [174.472528095471, -36.892161465515], [174.472576130438, -36.8922528104101], [174.472616766548, -36.8923153489016], [174.472642016024, -36.8923410315808], [174.472674591651, -36.8923666144242], [174.472732793207, -36.8924193625201], [174.472783736214, -36.8924920758992], [174.472764204592, -36.8925052437572], [174.472806205915, -36.8925640606011], [174.472837788569, -36.8926290638387], [174.472853487584, -36.8926535488646], [174.472875790568, -36.8926777266688], [174.472907700382, -36.892696097683], [174.472949545713, -36.8927146699977], [174.472980836099, -36.8927335083732], [174.473040502826, -36.8927772153771], [174.473071711664, -36.8927941438236], [174.473102842823, -36.8928081978376], [174.473134333979, -36.8928211296739], [174.473175113582, -36.8928321255427], [174.473218127802, -36.8928408582755], [174.473260142814, -36.8928472327671], [174.473293309342, -36.892855078055], [174.473323675436, -36.8928672756514], [174.473389208498, -36.8929003095503], [174.473423539116, -36.8929225894093], [174.473483741426, -36.8929725360731], [174.473545345839, -36.8930142718133], [174.473604552965, -36.893063230231], [174.473631488254, -36.8930825911673], [174.47366366686, -36.8930991649029], [174.473694706543, -36.8931125348484], [174.473767665022, -36.8931401042255], [174.473807406756, -36.8931572240731], [174.473835863306, -36.8931739881564], [174.473851450261, -36.8932013768622], [174.473873339589, -36.893225027793], [174.473904971524, -36.8932376782483], [174.473942541772, -36.8932329125606], [174.473976579981, -36.8932201323903], [174.474004229758, -36.8932031138881], [174.474033785533, -36.8931825022848], [174.47405657082, -36.8931611273897], [174.474079919127, -36.8931351845459], [174.474096881774, -36.893105147566], [174.474095703739, -36.8930771564573], [174.474086128541, -36.8930414275785], [174.474074587208, -36.8930149171213], [174.474059389294, -36.8929855856604], [174.474041915176, -36.892958103218], [174.474012375008, -36.8929322577526], [174.473982207762, -36.8929129009476], [174.473914963871, -36.8928772836302], [174.473841857478, -36.8928449298732], [174.473804139953, -36.8928216014888], [174.473777400127, -36.8928024815369], [174.473759280361, -36.8927764312332], [174.473733535826, -36.8927203605664], [174.473633171654, -36.8925450441711], [174.473602988359, -36.8924962395343], [174.473549396893, -36.8924153929044], [174.473521517293, -36.8923830908942], [174.473473263653, -36.8923405585818], [174.473456811907, -36.8923131174491], [174.473447031616, -36.8922760389913], [174.473446820577, -36.892247549134], [174.473451979117, -36.8922135033034], [174.473466509251, -36.8921806842874], [174.473491998029, -36.892160429728], [174.473513485289, -36.8921334194112], [174.473546551524, -36.8920706881855], [174.473566921313, -36.8920392569528], [174.473592038707, -36.8920113633157], [174.473607334822, -36.891981617485], [174.473619256314, -36.8919520397041], [174.473641569194, -36.891886845876], [174.473656749997, -36.8918575251156], [174.473704241122, -36.8918125522824], [174.473719143438, -36.8917594116172], [174.473772459637, -36.891752422566], [174.473787420244, -36.8916993983479], [174.473813416547, -36.8916740356396], [174.473831441329, -36.8916455539094], [174.473865744123, -36.8916004651979], [174.47388933519, -36.8915784133192], [174.473908111779, -36.8915633527437], [174.473924406827, -36.8915552184745], [174.473937183044, -36.8915525901953], [174.474000943191, -36.8915448314904], [174.474039072843, -36.8915417714515], [174.474111444586, -36.8915383225772], [174.474141698977, -36.8915400654026], [174.474192506521, -36.8915461862493], [174.47421798383, -36.8915428595076], [174.474281065096, -36.891522561932], [174.474348416297, -36.8915072229793], [174.474470896274, -36.8914682958379], [174.474626984902, -36.8914293119573], [174.474686395288, -36.8914083746875], [174.474762565054, -36.8913952786255], [174.474829499832, -36.8913793045946], [174.474965782467, -36.8913567097777], [174.475044298777, -36.8913256019654], [174.475065134662, -36.8913207642779], [174.475093493824, -36.8913173294575], [174.475113928596, -36.8913108922937], [174.475144581984, -36.8912978022865], [174.475210240643, -36.8912738396751], [174.475271383282, -36.8912467151978], [174.475320525257, -36.8912292762688], [174.475348516694, -36.8912218979307], [174.475377054965, -36.8912184427912], [174.475419230147, -36.8912162695005], [174.475460231517, -36.891216661665], [174.475491575801, -36.891220229417], [174.475521618357, -36.8912278785305], [174.475579789316, -36.8912556665291], [174.475701439869, -36.8913013605216], [174.47574544843, -36.8913227172757], [174.475772022733, -36.8913338256196], [174.475811960691, -36.8913541692915], [174.475847689743, -36.8913698149889], [174.475862571982, -36.8913739927647], [174.475909832046, -36.8913841229974], [174.475954954826, -36.8913899080945], [174.476004539111, -36.891390779332], [174.476051867073, -36.8913863694827], [174.476100413624, -36.8913770590203], [174.476157789762, -36.8913612300497], [174.476187399712, -36.8913493245278], [174.47620861254, -36.8913384247153], [174.476248047509, -36.8913122545175], [174.476292645423, -36.8912750594273], [174.476327412921, -36.8912407807449], [174.476362689981, -36.8911927587626], [174.476414576495, -36.8911174079772], [174.476428310834, -36.8911004446727], [174.47647078998, -36.8910552175536], [174.4765390965, -36.8909928137088], [174.476560835703, -36.8909795366754], [174.476586323295, -36.8909674389198], [174.476612124931, -36.8909576628033], [174.476631964744, -36.8909518096551], [174.476659522325, -36.8909487179344], [174.476700779173, -36.8909460688621], [174.476719158971, -36.8909483101687], [174.476730652615, -36.8909525119293], [174.476771453838, -36.8909792172708], [174.476792688817, -36.8909962687231], [174.476829818413, -36.8910211177834], [174.476869824827, -36.8910519973236], [174.476919824759, -36.8910773623895], [174.476945567425, -36.8910860741376], [174.476954253345, -36.8910872461064], [174.476961823841, -36.8910864399027], [174.476975251668, -36.8910797830642], [174.476981064823, -36.8910710575922], [174.476981549362, -36.8910595139669], [174.476978733246, -36.8910513915329], [174.47696773516, -36.8910356370206], [174.476914117569, -36.8909797693452], [174.476867327346, -36.8909264578004], [174.476846029637, -36.8909102273924], [174.476841342977, -36.8909046160033], [174.476836970548, -36.890893763718], [174.476827923371, -36.8908319066417], [174.476833261558, -36.8907857169153], [174.476859433958, -36.8907421886504], [174.476863931046, -36.8907263136116], [174.47686049058, -36.8907160716902], [174.476850281278, -36.890701064515], [174.476829217089, -36.890684137141], [174.476762108649, -36.8906432827439], [174.4767393514, -36.8906275932553], [174.476700526117, -36.8905927689892], [174.476666040757, -36.8905560429472], [174.476653889517, -36.8905468286931], [174.476598583983, -36.8905163195036], [174.476580791034, -36.8905084192605], [174.47654085395, -36.8904968462125], [174.476520095326, -36.8904934446266], [174.476447385458, -36.8904880206149], [174.476409549615, -36.8904870756643], [174.476338905425, -36.8904892695773], [174.476294886239, -36.8904929804157], [174.47626810646, -36.8904968285544], [174.476243560111, -36.8905018567773], [174.476208482467, -36.8905124421339], [174.476128792538, -36.8905448903114], [174.476024321248, -36.8905958090393], [174.476017689, -36.8906010473061], [174.475995969113, -36.8906258165356], [174.475964683835, -36.890656770855], [174.475944516623, -36.8906829179168], [174.475925775457, -36.8907108590233], [174.475901007303, -36.8907370091546], [174.475889108091, -36.8907461256642], [174.475867781454, -36.8907586853637], [174.475843526062, -36.8907660083972], [174.475816545135, -36.8907669925604], [174.47574490116, -36.8907644843495], [174.475688628203, -36.8907670672261], [174.4756199701, -36.8907663516429], [174.475565454801, -36.8907605568803], [174.475514837714, -36.8907596442002], [174.475472244905, -36.8907599298212], [174.47540462937, -36.8907632393266], [174.475364842774, -36.890756567496], [174.475259178778, -36.8907496410847], [174.475235904703, -36.8907490647744], [174.475175757061, -36.8907509023118], [174.475122368045, -36.8907470673723], [174.475069602146, -36.8907377082546], [174.475050690761, -36.8907329133857], [174.475007232185, -36.8907179493038], [174.474964040331, -36.8906976006832], [174.474916916216, -36.8906845929923], [174.47485774963, -36.8906720953332], [174.474789181578, -36.8906620579289], [174.474722388891, -36.8906474735421], [174.474664946729, -36.8906376945619], [174.474600894268, -36.8906243830868], [174.474551520817, -36.8906186952963], [174.47447459372, -36.8906174687469], [174.47438582572, -36.8906143970589], [174.474341573979, -36.8906112776347], [174.474288022191, -36.8906100583274], [174.474269876009, -36.8906071196847], [174.474263953299, -36.890604912702], [174.474248053986, -36.8905945188396], [174.474211789013, -36.890559725073], [174.47415977325, -36.8905170053461], [174.474128054501, -36.8904816954395], [174.474113546749, -36.8904602154001], [174.474093307131, -36.8904178585122], [174.474064152326, -36.8903297232082], [174.474055260537, -36.8903120043257], [174.47403396926, -36.8902843979649], [174.473995444831, -36.8902429709968], [174.473972386015, -36.8902226516414], [174.473954588188, -36.8902121460861], [174.473867689107, -36.8901749337524], [174.47377121729, -36.8901452764546], [174.473692697797, -36.8901119801755], [174.473656785694, -36.890102519524], [174.47360520057, -36.8900944250554], [174.473576063873, -36.8900883326071], [174.473466518634, -36.8900551596023], [174.473418864392, -36.8900320534629], [174.473362974963, -36.8900084455131], [174.473342565519, -36.8900039303462], [174.473319483357, -36.890002233572], [174.473268095615, -36.8900044031771], [174.47323325573, -36.8900040149667], [174.473182661829, -36.8900095368221], [174.473164633503, -36.890008633656], [174.473140732809, -36.8900034676866], [174.473107807666, -36.8899882641216], [174.473058686162, -36.889960624082], [174.473019890535, -36.8899348300061], [174.472956975864, -36.8898971753959], [174.472941404279, -36.8898892200192], [174.472925952964, -36.8898834354648], [174.472899323586, -36.8898770052954], [174.472874290177, -36.8898747917998], [174.47284338608, -36.8898783297472], [174.472809878153, -36.8898853522355], [174.472784702373, -36.8898920821336], [174.472667259031, -36.8899354970434], [174.472502945796, -36.8899866947674], [174.472428433673, -36.8900007423141], [174.472332070865, -36.8900158628371], [174.472306340587, -36.8900223561349], [174.472237568096, -36.8900460312356], [174.472153194417, -36.8900829966111], [174.472094307608, -36.8901066392679], [174.47206754645, -36.8901155519613], [174.4720293634, -36.8901257328922], [174.471981283503, -36.8901359553103], [174.471946659517, -36.8901398005143], [174.47189201865, -36.8901432086604], [174.471830221844, -36.8901427123404], [174.471794796393, -36.8901381305516], [174.471761549106, -36.8901318542233], [174.471737580541, -36.8901249040876], [174.47165284096, -36.890094901417], [174.471523947615, -36.8900423072737], [174.471483198887, -36.8900310760761], [174.471462422068, -36.8900226171089], [174.471304215687, -36.889933672742], [174.47127518353, -36.8899207369886], [174.471192531092, -36.889894800384], [174.471072221187, -36.8898514647458], [174.470991966471, -36.8898294192957], [174.470947810587, -36.8898131373243], [174.47090740808, -36.8898006397136], [174.47076456851, -36.889768588499], [174.470705308896, -36.8897529260773], [174.47064930115, -36.8897435690585], [174.470629076345, -36.8897416471001], [174.470596837685, -36.889741721672], [174.470539792888, -36.889746159478], [174.470505486145, -36.8897472331096], [174.470385886219, -36.8897443868073], [174.470286936778, -36.8897328930092], [174.470246098852, -36.8897234291841], [174.470178589257, -36.8897035600171], [174.47013963172, -36.8896891603858], [174.470079530997, -36.8896723452829], [174.470003045262, -36.8896554624755], [174.469907199551, -36.8896302560796], [174.469851013141, -36.8896121575443], [174.469823043217, -36.8896007586566], [174.469760481403, -36.8895708768434], [174.469691556533, -36.8895327810518], [174.469664766929, -36.8895138770887], [174.469638680982, -36.8894924585892], [174.469624575775, -36.8894790222936], [174.469594775764, -36.8894453279152], [174.469567751813, -36.8894259040301], [174.469539501069, -36.8894086315751], [174.469517055577, -36.8894003281099], [174.469479184092, -36.8893928103528], [174.469412672812, -36.889385187113], [174.469323871576, -36.8893680054971], [174.469286846517, -36.8893578091364], [174.469246064489, -36.8893489031256], [174.469191752892, -36.8893319979463], [174.469120746842, -36.8892988761096], [174.469096532013, -36.8892837349701], [174.469054100077, -36.8892537300489], [174.468948034804, -36.8891958661814], [174.468887990428, -36.8891579485517], [174.468744068079, -36.88904351346], [174.468725870211, -36.8890249627643], [174.468706462553, -36.889000081332], [174.468678542769, -36.8889701943209], [174.46865666073, -36.8889420894999], [174.468632428026, -36.8889066765293], [174.468612906005, -36.8888834369994], [174.468578702286, -36.8888512119539], [174.468556711431, -36.8888273809825], [174.46845211224, -36.8887505155492], [174.467472565498, -36.888361821829], [174.467340668211, -36.8882786223876], [174.467297603399, -36.8882293243622], [174.467247843218, -36.8881801090083], [174.467199860631, -36.8881379898514], [174.467131350758, -36.888083156963], [174.467078668821, -36.8880459091388], [174.466986344809, -36.8879906049632], [174.466955760228, -36.8879767462672], [174.466914681533, -36.8879630162349], [174.466749530078, -36.8879171434941], [174.466637191542, -36.8878893320498], [174.466597447446, -36.8878759676149], [174.466567633052, -36.8878614782614], [174.46654578334, -36.8878472646555], [174.466500497948, -36.8878116018264], [174.466444330278, -36.8877622263517], [174.466422658059, -36.8877467296752], [174.46640880859, -36.8877408082126], [174.466384674873, -36.8877385353631], [174.466352603736, -36.887731603009], [174.466340542305, -36.8877273477484], [174.466328503941, -36.8877200158028], [174.466318510858, -36.8877082634997], [174.466313410486, -36.8876931166167], [174.466314370921, -36.8876683538572], [174.466320248123, -36.8876379932565], [174.466333391834, -36.8875898904072], [174.466354970768, -36.8875242517192], [174.466377138779, -36.8874670597696], [174.466396288917, -36.8874257440582], [174.466420792161, -36.8873836925478], [174.466448757205, -36.8873456310627], [174.466483564056, -36.8873051135973], [174.466548548338, -36.8872357842748], [174.466587094007, -36.8871874633782], [174.466683097293, -36.8870296279626], [174.466695603014, -36.887005907981], [174.466703449712, -36.8869861809263], [174.466709132399, -36.8869571594484], [174.466710366716, -36.8869157511818], [174.466715473261, -36.8868864700084], [174.46673530771, -36.8868168335458], [174.466761333485, -36.8867424758482], [174.46676576103, -36.8867214010777], [174.466767415835, -36.8866995664256], [174.466764264173, -36.8866631085846], [174.466752814426, -36.8866266540372], [174.466732484219, -36.886591141093], [174.466704192821, -36.8865573443995], [174.466683980429, -36.8865383684557], [174.466657312117, -36.886517909218], [174.466633084519, -36.8865027911497], [174.466607298673, -36.8864896284696], [174.46658007988, -36.8864785187815], [174.466551426964, -36.8864694593948], [174.466521382001, -36.8864624795345], [174.46649219241, -36.8864590351254], [174.466465137589, -36.8864599567691], [174.466440215275, -36.8864652435938], [174.466372990624, -36.8864954437949], [174.466319722605, -36.8865161217233], [174.466281232027, -36.8865283597364], [174.466246225723, -36.8865345001873], [174.466215033986, -36.8865342694912], [174.46616671693, -36.8865245071424], [174.466118105031, -36.8865214474462], [174.46608244735, -36.886522455334], [174.465929828142, -36.8865340355677], [174.46590627324, -36.8865343721723], [174.465873300933, -36.8865295771496], [174.465847985855, -36.8865207233869], [174.465829149933, -36.886510460149], [174.465812015159, -36.8864984948516], [174.46578064982, -36.8864713429522], [174.465771148148, -36.8864593384596], [174.465742726185, -36.8864143453354], [174.465707515997, -36.8863655690413], [174.465686399853, -36.8863418592247], [174.465660936445, -36.8863196082807]]}, "properties": {"OBJECTID": 12197, "TRACKNAME": "Lake Wainamu Track", "CONDITIONSOFUSE": "Waitakere North Regional Park", "STATUS": "Temp Closed", "WEBLINK": "https://www.aucklandcouncil.govt.nz/en/parks-recreation/find-park-beach/park-detail/3407.html", "VALIDATIONSTATE": 3, "created_user": "AC_owner", "last_edited_user": "AC_owner", "last_edited_date": 1789875254325, "created_date": 1789875254325, "PARK_SAPSITEID": null, "TRACK_ID": null, "KAURIDIEBACK_TRACK": null, "KAURIDIEBACK_MITIGATED": null, "SegmentID": null, "GlobalID": "b678edf1-9e56-4fe3-8a37-947fabc9aaa2", "Shape__Length": 2337.644741783397}}, {"type": "Feature", "id": 12230, "geometry": {"type": "LineString", "coordinates": [[174.470095578251, -36.8926527894455], [174.470084833152, -36.8927075007074], [174.470082033051, -36.8927376232768], [174.470033357015, -36.8927765430845], [174.469994084769, -36.8927739012603], [174.469962088879, -36.892759785015], [174.469931201731, -36.8927414546316], [174.469905834, -36.8927124918257], [174.469886025063, -36.8926878228949], [174.469866834379, -36.8926614517248], [174.469844135154, -36.8926370438908], [174.469817817495, -36.8926170615061], [174.469785460723, -36.8926005069487], [174.469753401217, -36.8925772154279], [174.469721086063, -36.8925522955709], [174.469692085289, -36.8925328421079], [174.469656515754, -36.8925126045781], [174.469627503495, -36.8924954767905], [174.469581623986, -36.8924590158214], [174.469560353476, -36.8924464884175], [174.469556153701, -36.8924434216085], [174.469544972513, -36.8924338521019], [174.469537581129, -36.8924258672052], [174.469530073048, -36.8924170634996], [174.469522576361, -36.8924082686664], [174.469511041609, -36.8923948907104], [174.46949923849, -36.8923833188243], [174.469491277526, -36.8923760620706], [174.469479179781, -36.8923649264872], [174.469466517555, -36.8923506881382], [174.469461999281, -36.8923450563443], [174.469453193321, -36.8923329426106], [174.469444656966, -36.8923202576746], [174.469437066342, -36.8923083181961], [174.469430082619, -36.892297011187], [174.469423179174, -36.8922863792165], [174.469419898502, -36.8922809123884], [174.469413824263, -36.8922702160784], [174.469410882078, -36.8922648442147], [174.469402081245, -36.8922488995662], [174.469398971288, -36.8922435568186], [174.469390260897, -36.8922270612113], [174.469384313006, -36.8922159306765], [174.469377910995, -36.8922051122259], [174.469374362263, -36.8921991259139], [174.46936740236, -36.8921867189277], [174.46936411184, -36.8921801525411], [174.469360829948, -36.8921734508414], [174.469354902219, -36.8921598592996], [174.469349881205, -36.8921467342722], [174.469345183676, -36.8921346778809], [174.469343004412, -36.892128710685], [174.469335715989, -36.8921126301465], [174.469328675961, -36.8920972135534], [174.469325054497, -36.8920868474527], [174.469320043484, -36.8920724874152], [174.469314229663, -36.8920572269169], [174.469312024012, -36.8920522245189], [174.469305527019, -36.8920370355657], [174.469303450301, -36.8920317341189], [174.469297147689, -36.8920179038386], [174.469290137756, -36.8920052270533], [174.469287945574, -36.892000341667], [174.469283056316, -36.8919894053501], [174.46928038669, -36.8919836154789], [174.469277573803, -36.8919779625858], [174.469271609721, -36.8919665708458], [174.469262126623, -36.8919495710001], [174.469258846151, -36.8919441131782], [174.469255375122, -36.8919386667268], [174.469245736706, -36.8919229307266], [174.469242447436, -36.8919175992057], [174.469233931148, -36.891902444235], [174.469228424673, -36.8918920924293], [174.469225507891, -36.8918868734801], [174.4692225773, -36.8918815194952], [174.469216720954, -36.8918710638507], [174.469211356381, -36.8918616747614], [174.469203953945, -36.8918472541553], [174.469198731064, -36.8918364751942], [174.469195918189, -36.8918308222988], [174.469192755613, -36.8918250745766], [174.469186600826, -36.8918136851903], [174.469183438251, -36.8918079374678], [174.46918008011, -36.8918019397785], [174.469173743398, -36.8917904264486], [174.46917090567, -36.8917846476673], [174.469167936073, -36.8917790147367], [174.469162401996, -36.8917683928562], [174.469155323369, -36.8917527153297], [174.469152935636, -36.8917475799736], [174.469150382549, -36.8917425998962], [174.469144953951, -36.8917327969624], [174.469139665679, -36.8917227038527], [174.469135022087, -36.8917122872889], [174.469128484955, -36.8916979280868], [174.469098071105, -36.8916597613543], [174.469096239062, -36.891595795332], [174.469094420928, -36.8915899318301], [174.469091302304, -36.891578279549], [174.469088052159, -36.8915667911418], [174.469085101482, -36.891555118756], [174.469083812387, -36.8915493388495], [174.469081895447, -36.8915377348045], [174.46908041571, -36.8915255214311], [174.469079997501, -36.8915136554813], [174.469080392621, -36.8915026538087], [174.469080984704, -36.8914931459846], [174.46908108659, -36.8914838244973], [174.469080234219, -36.8914674570365], [174.469079182382, -36.8914559053898], [174.469078038882, -36.8914436698309], [174.46907678026, -36.8914318683559], [174.469076538366, -36.8914262738024], [174.46907564821, -36.8914108622671], [174.469073985843, -36.8913973171153], [174.469072911081, -36.8913880822881], [174.469071282427, -36.89137863798], [174.469070291782, -36.8913737918136], [174.469069290091, -36.8913689547975], [174.469065868169, -36.8913537728718], [174.469063241153, -36.891343178134], [174.469060302934, -36.8913327404781], [174.469057717351, -36.8913225508469], [174.469055722428, -36.8913127324897], [174.469054299338, -36.8913023031394], [174.469053553268, -36.8912967508752], [174.469052757311, -36.8912909378288], [174.469051369074, -36.891279399355], [174.469049157607, -36.8912617957867], [174.469048333685, -36.8912556946457], [174.469045928901, -36.8912379582614], [174.469045155212, -36.8912321359258], [174.469043154173, -36.8912161432182], [174.469042642854, -36.8912111288766], [174.469037481555, -36.8911918491695], [174.469030250979, -36.8911787784889], [174.469021185448, -36.8911659918967], [174.469011410527, -36.8911542506579], [174.469007979444, -36.8911502999882], [174.469004537314, -36.8911463584688], [174.468993092796, -36.8911347460383], [174.468988617283, -36.8911307541999], [174.468979364028, -36.8911228103147], [174.468963851563, -36.8911103197638], [174.468958483166, -36.8911059964417], [174.46895329376, -36.8911016438648], [174.468943471244, -36.8910921025661], [174.468925089504, -36.891072184094], [174.46892053373, -36.8910675172133], [174.468911124789, -36.8910584755687], [174.468906580236, -36.8910538085487], [174.468902038101, -36.8910492676913], [174.468893483039, -36.891040278584], [174.468889649447, -36.891035819103], [174.468879856042, -36.891019012348], [174.468876501682, -36.8910055962772], [174.468838924883, -36.8909736744316], [174.468825554384, -36.8909681340299], [174.468817508225, -36.8909640330969], [174.468810084302, -36.8909596089887], [174.468798768133, -36.8909529344926], [174.468790644299, -36.8909482936925], [174.468782743994, -36.8909441909538], [174.468773148015, -36.8909388562659], [174.468756761423, -36.8909311087183], [174.468750323268, -36.8909289348732], [174.468743017258, -36.8909265644404], [174.46871995158, -36.8909187101715], [174.468713954783, -36.8909173150652], [174.468694730267, -36.8909125591068], [174.468681622854, -36.8909090345186], [174.468668075478, -36.8909059750696], [174.468661417609, -36.8909046332018], [174.468648065969, -36.8909018327299], [174.468641562235, -36.8909003357215], [174.468620827962, -36.8908958508], [174.468613511784, -36.8908947063564], [174.468598907047, -36.8908926875392], [174.468584109511, -36.8908905629383], [174.468569036847, -36.8908887211632], [174.468553412713, -36.8908867960654], [174.46853790146, -36.8908843197309], [174.468522183081, -36.8908815755417], [174.468505820547, -36.8908791818357], [174.468497521047, -36.8908782568562], [174.468480913593, -36.89087655122], [174.468472628076, -36.890875770286], [174.468448008515, -36.890874082556], [174.468439739224, -36.8908735628182], [174.468431646852, -36.8908729056867], [174.468415764511, -36.890871560643], [174.468393392253, -36.8908688536108], [174.468385896745, -36.8908677203833], [174.468363338933, -36.8908635283682], [174.468355788191, -36.8908618549959], [174.468347699787, -36.8908602333371], [174.468323537969, -36.8908554932723], [174.468308789291, -36.8908524035607], [174.468279729143, -36.8908456148064], [174.468272181166, -36.8908440856147], [174.468250981243, -36.8908398948236], [174.468244312512, -36.8908385710939], [174.468224765619, -36.890833972277], [174.468218250852, -36.8908324843954], [174.468198822023, -36.8908276046885], [174.468192447756, -36.8908258356425], [174.468173403836, -36.8908199596608], [174.468153778243, -36.8908135951074], [174.46814735116, -36.8908114120786], [174.46812210248, -36.8908026562524], [174.468109986028, -36.8907975509601], [174.468103814748, -36.8907946616944], [174.468097466893, -36.8907919278444], [174.468077591728, -36.8907836644587], [174.468064301404, -36.8907787899977], [174.468050441833, -36.890774661698], [174.468035705781, -36.8907704721172], [174.468020966797, -36.8907661293368], [174.468006074025, -36.8907619597164], [174.467998974659, -36.8907598300555], [174.467978315716, -36.8907534151452], [174.467958342876, -36.8907470818911], [174.467951747861, -36.8907449189542], [174.467945166482, -36.8907428820411], [174.467931307097, -36.8907387627388], [174.467911163214, -36.8907322873699], [174.467898752324, -36.8907276273681], [174.467887049456, -36.8907230217132], [174.467875206435, -36.8907187152429], [174.467856473769, -36.8907126821301], [174.46783684926, -36.8907075433819], [174.467817651086, -36.8907018134685], [174.467811070059, -36.8906997945711], [174.467804475053, -36.8906976316258], [174.46778394525, -36.8906909266453], [174.467770512043, -36.8906862071504], [174.467756844444, -36.8906809677515], [174.467743333398, -36.8906756993756], [174.467730464442, -36.8906699723774], [174.467718245341, -36.8906641922805], [174.46770061738, -36.8906549005405], [174.467695043336, -36.8906515531869], [174.467679207707, -36.8906403373972], [174.467668612479, -36.8906326263163], [174.467653230978, -36.8906210984448], [174.467644145693, -36.8906131253367], [174.467635853006, -36.8906049351198], [174.467627891548, -36.8905964613838], [174.467619092274, -36.8905881872862], [174.46760963193, -36.8905799664232], [174.467594844727, -36.8905678272802], [174.467584908001, -36.8905599277817], [174.467568257026, -36.8905489113378], [174.467551031789, -36.8905401373984], [174.467539936373, -36.890533847645], [174.467528967481, -36.8905271326809], [174.467512270428, -36.8905172254909], [174.467506732476, -36.8905140038751], [174.467501147231, -36.8905106566504], [174.467490139512, -36.8905036717493], [174.467484719624, -36.8905001692473], [174.467479415039, -36.890496241674], [174.467468624466, -36.890488289616], [174.467462983997, -36.8904844022459], [174.467451652663, -36.8904763396869], [174.467439828548, -36.8904683282824], [174.467428200338, -36.8904605848698], [174.467422584727, -36.8904568233833], [174.467406740545, -36.8904457428683], [174.46740164033, -36.8904419389598], [174.467386325355, -36.8904309510568], [174.46738089167, -36.8904273135139], [174.467364618233, -36.8904166709556], [174.467359509562, -36.8904130113699], [174.467349404765, -36.8904051229406], [174.46734446145, -36.8904013080779], [174.467334423103, -36.8903939596524], [174.467329341876, -36.8903905611255], [174.467309472113, -36.8903784666928], [174.467295128724, -36.8903695759984], [174.467290742228, -36.8903661238206], [174.467282665358, -36.890358066119], [174.467278627533, -36.8903534829141], [174.467266112753, -36.8903404593558], [174.467247185112, -36.8903254057761], [174.467241866745, -36.8903213431556], [174.467231667912, -36.8903126446386], [174.467226932951, -36.8903079889176], [174.467222545268, -36.8903033018663], [174.467205437243, -36.8902865762887], [174.467196558991, -36.8902788619873], [174.46719209484, -36.8902748699389], [174.46718763069, -36.8902708778904], [174.46717901049, -36.8902625745061], [174.467166677836, -36.890249683894], [174.467154357426, -36.8902380190012], [174.467138918298, -36.8902234721618], [174.467135049797, -36.8902201127325], [174.467127609849, -36.8902130837372], [174.467123713736, -36.8902094542357], [174.467119960541, -36.8902056697351], [174.467112454151, -36.8901981007335], [174.467108687322, -36.8901941902082], [174.467104752379, -36.8901902907726], [174.467096677789, -36.8901823502085], [174.467092574905, -36.8901784708739], [174.467084123186, -36.8901701744157], [174.4670799561, -36.8901658722265], [174.467075632119, -36.8901615809884], [174.467066794295, -36.8901530459252], [174.467062459269, -36.8901487638367], [174.467057970107, -36.8901446368855], [174.467049347694, -36.8901362163398], [174.467045040109, -36.890132195311], [174.467036332594, -36.8901246050814], [174.467031946124, -36.8901211528934], [174.467027366514, -36.8901175768974], [174.467017274372, -36.8901109321819], [174.467011714031, -36.8901077108188], [174.467006192695, -36.8901047684003], [174.466994800161, -36.8900987797177], [174.466989146956, -36.890095983147], [174.466977845721, -36.8900906603538], [174.466972245327, -36.8900882777633], [174.466966815463, -36.8900860102458], [174.466955812819, -36.8900816302088], [174.466950264891, -36.890079643575], [174.466944537803, -36.8900776771808], [174.466933239125, -36.8900748331368], [174.466927667362, -36.8900739464755], [174.466917045592, -36.8900736359533], [174.46690690433, -36.890074392135], [174.466896993678, -36.8900742981747], [174.466887930526, -36.890072751547], [174.466857108962, -36.8900706533179], [174.466848361806, -36.8900715455157], [174.466838077454, -36.8900724476785], [174.466821121528, -36.890071872831], [174.466815384411, -36.8900711414399], [174.466797312493, -36.8900673714676], [174.466778463362, -36.8900628629458], [174.466772763718, -36.8900611576035], [174.466752398514, -36.8900530713033], [174.466740580855, -36.890048908625], [174.466734002153, -36.890047006817], [174.466720920169, -36.8900436259158], [174.466708470069, -36.8900410123959], [174.466690863677, -36.8900369392057], [174.466673684811, -36.8900335097261], [174.466656520764, -36.8900314411393], [174.466645846364, -36.8900307256231], [174.46662935579, -36.8900298385352], [174.466618110949, -36.8900286343016], [174.466406856562, -36.8900565797254]]}, "properties": {"OBJECTID": 12230, "TRACKNAME": "Lake Wainamu Track", "CONDITIONSOFUSE": "Waitakere North Regional Park", "STATUS": "Temp Closed", "WEBLINK": "https://www.aucklandcouncil.govt.nz/en/parks-recreation/find-park-beach/park-detail/3407.html", "VALIDATIONSTATE": 3, "created_user": "AC_owner", "last_edited_user": "AC_owner", "last_edited_date": 1789875254325, "created_date": 1789875254325, "PARK_SAPSITEID": null, "TRACK_ID": null, "KAURIDIEBACK_TRACK": null, "KAURIDIEBACK_MITIGATED": null, "SegmentID": null, "GlobalID": "78d5f6d8-6c1b-48c8-b52e-1b2695e43282", "Shape__Length": 503.64298775311937}}, {"type": "Feature", "id": 12245, "geometry": {"type": "LineString", "coordinates": [[174.470478043411, -36.8915643590308], [174.470464238806, -36.8915755104579], [174.470431733189, -36.8915986788401], [174.470393478517, -36.8916143017438], [174.470357746646, -36.8916124977603], [174.47030850042, -36.8915963200286], [174.470240136795, -36.8915737871062], [174.470197401033, -36.891564832605], [174.470151875562, -36.8915653599306], [174.470098762257, -36.8915811837388], [174.470050418429, -36.8916040360239], [174.470005216114, -36.8916301908179], [174.469968288032, -36.891659518815], [174.469940794375, -36.8916990327936], [174.469924244401, -36.8917460937866], [174.469901121372, -36.8918256748172], [174.469892755669, -36.8918557698014], [174.469884357598, -36.8918844698556], [174.469875933199, -36.8919117388502], [174.469867481316, -36.8919375749966], [174.469859000844, -36.8919619792099], [174.469852408097, -36.8919856903447], [174.469851112931, -36.8920100263893], [174.469855179787, -36.892035011785], [174.46986460981, -36.8920606474185], [174.469879404109, -36.8920869323733], [174.46989742398, -36.8921135271505], [174.469914640751, -36.8921397911414], [174.469930958693, -36.892165706602], [174.469946378977, -36.8921912762223], [174.469960900446, -36.8922164982141], [174.469974967417, -36.8922417195181], [174.469989469609, -36.8922676321984], [174.470004432086, -36.8922942557749], [174.470019853727, -36.8923215902615], [174.470035734517, -36.8923496347567], [174.470051084227, -36.8923778399564], [174.470063806665, -36.8924050410823], [174.470073832661, -36.8924312011335], [174.470081164475, -36.8924563209841], [174.470085799824, -36.8924803988602], [174.470088348328, -36.8925030387254], [174.470090166503, -36.8925233503607], [174.470091307579, -36.892541300658], [174.47009176931, -36.8925568896451], [174.470091551716, -36.8925701182231], [174.470090957737, -36.8925816271271], [174.470090696645, -36.8925929390172], [174.470090800011, -36.8926041202048], [174.470091266679, -36.8926151689014], [174.470092096665, -36.8926260860081], [174.470093266237, -36.8926368628048], [174.470094709941, -36.8926474802712]]}, "properties": {"OBJECTID": 12245, "TRACKNAME": "Lake Wainamu Track", "CONDITIONSOFUSE": "Waitakere North Regional Park", "STATUS": "Temp Closed", "WEBLINK": "https://www.aucklandcouncil.govt.nz/en/parks-recreation/find-park-beach/park-detail/3407.html", "VALIDATIONSTATE": 3, "created_user": "AC_owner", "last_edited_user": "AC_owner", "last_edited_date": 1789875254325, "created_date": 1789875254325, "PARK_SAPSITEID": null, "TRACK_ID": null, "KAURIDIEBACK_TRACK": null, "KAURIDIEBACK_MITIGATED": null, "SegmentID": null, "GlobalID": "32592b6b-b8b9-43dc-9b88-f74dc07fcca7", "Shape__Length": 167.19177453592815}}, {"type": "Feature", "id": 12268, "geometry": {"type": "LineString", "coordinates": [[174.465013816539, -36.8856930137966], [174.464993725909, -36.885683135458], [174.464962733319, -36.8856716987561], [174.464914075961, -36.8856591827725], [174.464880193179, -36.8856539308806], [174.464845154768, -36.8856511530857], [174.464756018747, -36.8856499400178], [174.464705936133, -36.8856466923551], [174.464643680578, -36.88563861643], [174.464586592521, -36.8856262601282], [174.464534671985, -36.885609624358], [174.464438234066, -36.8855697995235], [174.464361931557, -36.8855423159721], [174.464295374013, -36.885521260773], [174.464120478307, -36.8854709271931], [174.464033503646, -36.8854423301418], [174.46400642887, -36.8854280875964], [174.463988056645, -36.8854134628902], [174.463971342293, -36.8853954565164], [174.463956285851, -36.8853740702779], [174.463942887317, -36.8853493041753], [174.463931146659, -36.8853211564067], [174.463918127045, -36.8852813272208], [174.463906220713, -36.8852348060104], [174.46389834462, -36.8851839743289], [174.463897526608, -36.8851099308428], [174.463891876202, -36.885066354866], [174.463879322596, -36.8850220734368], [174.463857357521, -36.8849693097256], [174.463846557719, -36.8849378350874], [174.463836628145, -36.8848968708404], [174.463830666737, -36.8848541054234], [174.463828553957, -36.8847919949968], [174.463832048549, -36.8847232552568], [174.463841357564, -36.8846577906921], [174.463852023577, -36.8846169701944], [174.463865818475, -36.8845822278922], [174.463879257414, -36.884554936254], [174.46390129857, -36.8845169014673], [174.463920922455, -36.8844871395584], [174.464157912921, -36.8841663223121], [174.464312471871, -36.8839487421965], [174.464330397173, -36.8839195383759], [174.464344418862, -36.8838925162255], [174.464354540307, -36.8838676757051], [174.464360759272, -36.8838450168432], [174.464362935937, -36.8838280287936], [174.46436269752, -36.8838020342], [174.46435560679, -36.883755844869], [174.464343528076, -36.883710755401], [174.46430142051, -36.8835835545696], [174.464270533645, -36.8834781946246], [174.464254939831, -36.8834001598468], [174.46424744005, -36.8833282574392], [174.464246245722, -36.883291220128], [174.464247634971, -36.8832529187929], [174.464256370927, -36.8831827966186], [174.464267523769, -36.8831302972373], [174.464300052824, -36.8830013364409], [174.464309105049, -36.8829756257494], [174.464343391802, -36.8828872368219], [174.464357068423, -36.8828563745444], [174.464378050984, -36.8828188800191], [174.464402176584, -36.882785563396], [174.46443675004, -36.8827497924373], [174.464520758092, -36.8826873235551], [174.464552731789, -36.8826591985461], [174.464574859016, -36.8826363462783], [174.464647218362, -36.8825474906478], [174.464764664946, -36.88242053855], [174.464813097792, -36.8823636206572], [174.464865813764, -36.8822942659085], [174.46492561483, -36.8822050268204], [174.464961929182, -36.8821448231335], [174.464992208111, -36.8820866273091], [174.46502093354, -36.8820195369077], [174.465052077176, -36.8819316696689], [174.465074311926, -36.8818869810078], [174.465111348604, -36.8818297122676], [174.46517837193, -36.8817410708423], [174.465227825872, -36.8816710981542], [174.465271935606, -36.8816025470256], [174.465299992922, -36.8815514813773], [174.465319616549, -36.8815089728557], [174.465335824304, -36.881466506459], [174.465397992998, -36.8812675456608], [174.465399917164, -36.8812493375327], [174.465399295524, -36.8812294923531], [174.465393588392, -36.8811966534376], [174.465382151228, -36.8811601300525], [174.465357991163, -36.8811056999688], [174.465333186579, -36.8810605791464], [174.465293121988, -36.880997423359], [174.46525314249, -36.8809423572754], [174.465214218162, -36.8808967651673], [174.465176351234, -36.8808606470088], [174.465139538305, -36.8808340019415], [174.465019711474, -36.880772503835], [174.464910908539, -36.8807132177774], [174.464867717058, -36.880692627403], [174.464833341055, -36.8806785922167], [174.464784863583, -36.8806617563213], [174.464746523369, -36.8806505372119], [174.464692758777, -36.8806374557981], [174.464424892477, -36.8805825277086], [174.464379434745, -36.880576217676], [174.464317144343, -36.8805718565416], [174.464234374655, -36.8805717958453], [174.464112375059, -36.8805784948098], [174.464019384977, -36.8805812703495], [174.463926334514, -36.8805808836246], [174.46380454853, -36.8805771452883], [174.46375011527, -36.8805778104887], [174.463712764983, -36.8805798804848], [174.463657132576, -36.8805863229255], [174.463609738929, -36.8805965073283], [174.463558632135, -36.8806137303424], [174.463510582327, -36.8806364501416], [174.463480247425, -36.8806546494446], [174.46345838829, -36.8806699022977], [174.463407125848, -36.8807100158591], [174.463343798841, -36.8807625196053], [174.463223250031, -36.8808692536659], [174.463103077927, -36.880984692082], [174.463046007664, -36.8810339358582], [174.462990172589, -36.881079233488], [174.462923706847, -36.8811282792151], [174.462840968092, -36.8811820979515], [174.462777455662, -36.8812256872498], [174.462541199171, -36.8813951838862], [174.462513200885, -36.8814210844013], [174.462491839279, -36.8814445596352], [174.462440032609, -36.8815137272946], [174.462405301311, -36.8815530095917], [174.462351969154, -36.8816039151396], [174.46228592932, -36.8816589232965], [174.462217449395, -36.8817099557225], [174.462155646175, -36.8817498370206], [174.462109242381, -36.8817745550902], [174.462045715274, -36.8818022402667], [174.462014657571, -36.8818198243404], [174.461986434727, -36.8818422625984], [174.461957532967, -36.8818775268007], [174.461937175836, -36.8818954388897], [174.461906391669, -36.8819148376494], [174.461855242437, -36.8819395527161], [174.461834354416, -36.8819529860622], [174.461812788515, -36.8819695897793], [174.461790544748, -36.8819893647685], [174.461759832516, -36.8820206625997], [174.461680170416, -36.882113594945], [174.461619381261, -36.8821783911039], [174.461568874342, -36.8822258669585], [174.461499587666, -36.8822838386947], [174.46143942384, -36.8823284758611], [174.461384355637, -36.8823643024473], [174.461347502173, -36.8823847176556], [174.461299686214, -36.8824067297183], [174.461263858408, -36.8824255620854], [174.461205537622, -36.8824594104071], [174.46115066426, -36.8824938725074], [174.461083667402, -36.8825411985106], [174.461007441512, -36.8826024849349], [174.460942204014, -36.8826525267102], [174.460909100692, -36.8826853310841], [174.460881923599, -36.8827202862816], [174.460767211661, -36.882903618234], [174.460750042028, -36.8829351468108], [174.460732527018, -36.8829729306885], [174.460720772229, -36.8829874828348], [174.460695214582, -36.8830103891888], [174.460658360955, -36.8830373004199], [174.460623307536, -36.8830601107728], [174.460521018118, -36.88311997764], [174.460415671662, -36.8831762927091], [174.460377928108, -36.8831934871204], [174.460358391218, -36.8832000080598], [174.460337538158, -36.8832028783672], [174.460308823468, -36.8832020198493], [174.460281819462, -36.8831977186675], [174.460232621166, -36.8831863719673], [174.460204898886, -36.8831833000617], [174.460182702524, -36.8831826264075], [174.460143034398, -36.8831846120081], [174.460040634001, -36.8831971980384], [174.459977482154, -36.8831983165989], [174.459906180292, -36.883191403036], [174.459819283597, -36.8831791177361], [174.459797232507, -36.8831722245181], [174.459780554013, -36.8831603257333], [174.459773124791, -36.8831507821807], [174.459767630508, -36.8831394364349], [174.459761602669, -36.8831125610898], [174.459757458607, -36.8831022948301], [174.459748981821, -36.8830944839761], [174.459737134296, -36.8830933910432], [174.459726036809, -36.8830969796663], [174.459713041992, -36.8831043458391], [174.459554167011, -36.883219473806], [174.459485573905, -36.8832737474212], [174.459403352751, -36.8833476374337], [174.459374323173, -36.8833687915099], [174.459343046975, -36.8833868111392], [174.459309525283, -36.883401696306], [174.459282907734, -36.8834108026585], [174.45925502832, -36.8834181659145], [174.459215899383, -36.8834257322279], [174.45918508603, -36.8834298108242], [174.459142048632, -36.8834331201328], [174.459108304234, -36.8834340068703], [174.459061358404, -36.8834330600675], [174.458903896052, -36.8834226682294], [174.458410398288, -36.8833841159209], [174.458317770598, -36.8833718034226], [174.458165380142, -36.8833440590112], [174.458094321076, -36.8833353972133], [174.458029877015, -36.8833300559969], [174.457935098151, -36.8833254006668], [174.457847204696, -36.8833238886115], [174.457789380578, -36.8833247243061], [174.457673876351, -36.883329426081], [174.457594571482, -36.8833300474908], [174.457537290653, -36.8833285923047], [174.457488284066, -36.8833240087605], [174.457447050558, -36.8833172034932], [174.457404013621, -36.8833076107367], [174.457287860903, -36.8832732949107], [174.457209046067, -36.8832545917087], [174.457122435677, -36.8832399366046], [174.456978609785, -36.8832220025919], [174.456927848838, -36.88321266122], [174.456875812197, -36.8832009630407], [174.456822501005, -36.8831869089396], [174.456767915268, -36.8831704989148], [174.456636545005, -36.8831252370043], [174.456561888005, -36.8831017023836], [174.45648816614, -36.8830813191893], [174.45641537826, -36.8830640865359], [174.456325707687, -36.883046976047], [174.456242611367, -36.8830352391535], [174.456171922606, -36.8830293884693], [174.45611364701, -36.8830294248495], [174.456084639235, -36.8830322717643], [174.456027987714, -36.8830437933958], [174.455985471983, -36.8830501075741], [174.455930790719, -36.8830548293516], [174.455845125387, -36.8830580694196], [174.455820510299, -36.8830606677471], [174.455791933158, -36.8830659259101], [174.45577368419, -36.8830712134568], [174.455758162441, -36.8830776537995], [174.455705692724, -36.8831102090894], [174.455658788143, -36.8831326403932], [174.455606619622, -36.8831513359568], [174.455527683795, -36.8831740487615], [174.455490567552, -36.8831888822479], [174.455416419002, -36.8832292979999], [174.455286082861, -36.8832964743207], [174.455251069403, -36.8833165748722], [174.455220027966, -36.8833369638794], [174.455167680868, -36.8833803168502], [174.455071427602, -36.8834725033896], [174.454981343419, -36.8835537553956], [174.454923796047, -36.883601293948], [174.454878200056, -36.8836332265798], [174.454849808607, -36.8836479304958], [174.454806690618, -36.8836630355655], [174.454750159796, -36.8836772277023], [174.454683221275, -36.8836898661697], [174.454638585723, -36.8836958993551], [174.454605792215, -36.883698713841], [174.4545755882, -36.883699738927], [174.454528179195, -36.8836988122283], [174.454495814196, -36.8837015610455], [174.454470466023, -36.8837065197668], [174.454451773263, -36.8837118495015], [174.454396059029, -36.8837326566077], [174.454369074928, -36.8837376795008], [174.45433278294, -36.8837385537032], [174.454301698516, -36.8837349293685], [174.454268924391, -36.8837275867888], [174.454157828372, -36.8836981734992], [174.454130567484, -36.8836897863086], [174.454108241267, -36.8836806744012], [174.4540769137, -36.8836642281659], [174.454045587826, -36.8836436698116], [174.454006863631, -36.8836147470563], [174.453953847334, -36.8835705531613], [174.453921915208, -36.8835495596154], [174.453901891702, -36.8835390340703], [174.453875045879, -36.8835273823551], [174.453833006506, -36.8835121532934], [174.453796293883, -36.8835010765894], [174.453776015288, -36.8834962697872], [174.453759311776, -36.8834940728966], [174.453720759007, -36.8834950124314], [174.453687340785, -36.8835003843076], [174.453560348191, -36.8835274055814], [174.453535964086, -36.8835297707598], [174.453512200727, -36.8835288337995], [174.45347997453, -36.8835219746471], [174.45340325402, -36.8834947414869], [174.453327193675, -36.8834720242218], [174.453290384555, -36.8834634291354], [174.453204650738, -36.8834468666499], [174.453099708214, -36.8834184163865], [174.45307034805, -36.8834142884016], [174.453051379562, -36.883414603312], [174.453028349822, -36.8834184481113], [174.452967697631, -36.8834395790435], [174.452943287274, -36.8834455914002], [174.452891821608, -36.8834550010928], [174.45286684809, -36.8834624417952], [174.452840934548, -36.8834722664164], [174.452799749198, -36.8834916728455], [174.452760799348, -36.883515478598], [174.452726633939, -36.8835418840044], [174.452682872532, -36.8835818571061], [174.452663493996, -36.8835953551285], [174.45265005857, -36.8836017749674], [174.452638225812, -36.8836050140741], [174.452628299703, -36.8836050669296], [174.452619131183, -36.8836011020896]]}, "properties": {"OBJECTID": 12268, "TRACKNAME": "Lake Wainamu Track", "CONDITIONSOFUSE": "Waitakere North Regional Park", "STATUS": "Open", "WEBLINK": "https://www.aucklandcouncil.govt.nz/en/parks-recreation/find-park-beach/park-detail/3407.html", "VALIDATIONSTATE": 3, "created_user": "AC_owner", "last_edited_user": "AC_owner", "last_edited_date": 1789875254325, "created_date": 1789875254325, "PARK_SAPSITEID": null, "TRACK_ID": null, "KAURIDIEBACK_TRACK": null, "KAURIDIEBACK_MITIGATED": null, "SegmentID": null, "GlobalID": "f6c9452a-fa08-45cf-bb34-5a1b1b5e0ab3", "Shape__Length": 1970.6141026584194}}, {"type": "Feature", "id": 12269, "geometry": {"type": "LineString", "coordinates": [[174.464988577243, -36.885681235745], [174.465063553515, -36.8857209191598], [174.465106144509, -36.8857536196157], [174.465167266379, -36.8858153925999], [174.465240939629, -36.8859006106154], [174.465293567165, -36.8859747064573], [174.465343948034, -36.8860607047263], [174.465388296679, -36.8861333874166], [174.465426054043, -36.886183410545], [174.465523016784, -36.886245397457], [174.465638783139, -36.8863041561463], [174.465686364472, -36.886341828113]]}, "properties": {"OBJECTID": 12269, "TRACKNAME": "Lake Wainamu Track", "CONDITIONSOFUSE": "Waitakere North Regional Park", "STATUS": "Open", "WEBLINK": "https://www.aucklandcouncil.govt.nz/en/parks-recreation/find-park-beach/park-detail/3407.html", "VALIDATIONSTATE": 3, "created_user": "AC_owner", "last_edited_user": "AC_owner", "last_edited_date": 1789875254325, "created_date": 1789875254325, "PARK_SAPSITEID": null, "TRACK_ID": null, "KAURIDIEBACK_TRACK": null, "KAURIDIEBACK_MITIGATED": null, "SegmentID": null, "GlobalID": "20cf9971-f8d0-428c-8eb0-d90806ac0a05", "Shape__Length": 98.20773828497558}}, {"type": "Feature", "id": 12271, "geometry": {"type": "LineString", "coordinates": [[174.452049607249, -36.8837079006035], [174.452191064403, -36.8837093139123], [174.452327882525, -36.8836722074441], [174.452464701631, -36.8836351008073], [174.452565596233, -36.8836192767117], [174.452619131183, -36.8836011020896]]}, "properties": {"OBJECTID": 12271, "TRACKNAME": "Lake Wainamu Track", "CONDITIONSOFUSE": "Waitakere North Regional Park", "STATUS": "Open", "WEBLINK": "https://www.aucklandcouncil.govt.nz/en/parks-recreation/find-park-beach/park-detail/3407.html", "VALIDATIONSTATE": 3, "created_user": "AC_owner", "last_edited_user": "AC_owner", "last_edited_date": 1789875254325, "created_date": 1789875254325, "PARK_SAPSITEID": null, "TRACK_ID": null, "KAURIDIEBACK_TRACK": null, "KAURIDIEBACK_MITIGATED": null, "SegmentID": null, "GlobalID": "4f69302f-a4d2-4b8c-8226-d3bcd92119a4", "Shape__Length": 52.69346871314952}}]}