{"type": "FeatureCollection", "features": [{"type": "Feature", "id": 10172, "geometry": {"type": "MultiLineString", "coordinates": [[[174.649502159621, -36.9491342070814], [174.649510471533, -36.9491283437166], [174.649509961998, -36.9491286707737], [174.649509470659, -36.9491290083941], [174.649502159621, -36.9491342070814]], [[174.649501870199, -36.9491342136752], [174.649502159621, -36.9491342070814], [174.649501986747, -36.9491342103846], [174.649501870199, -36.9491342136752]], [[174.649501855432, -36.9491342140116], [174.649501861046, -36.9491342139337], [174.649501870199, -36.9491342136752], [174.649501855432, -36.9491342140116]], [[174.649494114845, -36.9491352733754], [174.649502159621, -36.9491342070814], [174.649494287077, -36.9491352403368], [174.649494229995, -36.949135249242], [174.649494184121, -36.9491352570901], [174.64949412489, -36.9491352705319], [174.649494114845, -36.9491352733754]], [[174.649541454165, -36.9491443123502], [174.64954617702, -36.9491394957368], [174.649545631314, -36.9491394474352], [174.649541454165, -36.9491443123502]], [[174.64947952184, -36.9491395727373], [174.649466320538, -36.9491470615546], [174.649486686711, -36.9491372297439], [174.649486760225, -36.9491372016822], [174.649486784729, -36.9491371923283], [174.649502159621, -36.9491342070814], [174.649541454165, -36.9491443123502], [174.649517726974, -36.949133688847], [174.649517672867, -36.9491336274059], [174.649541454165, -36.9491443123502], [174.649524571339, -36.9491361157214], [174.649525536224, -36.9491362816837], [174.649541454165, -36.9491443123502], [174.649542163546, -36.9491391404849]], [[174.650034530112, -36.9492167989788], [174.650033745488, -36.9492138489615], [174.650031518677, -36.9492073487557], [174.650006564247, -36.9491853917562], [174.650002096852, -36.9491688375272], [174.649986398393, -36.9491731171617], [174.649976437829, -36.9491711680699], [174.64997331727, -36.9491705579614], [174.649961946976, -36.9491683328182], [174.649958889589, -36.9491680481187], [174.64992840125, -36.9491652098454], [174.649777946815, -36.9491512025629], [174.649679298052, -36.9491420185482], [174.649679228309, -36.9491420132078], [174.649679132706, -36.9491420064241], [174.649656406415, -36.9491407169022], [174.649656253594, -36.9491407127162], [174.649656035852, -36.9491407184457], [174.649633344858, -36.9491417421845], [174.649633268554, -36.9491417450474], [174.649633227015, -36.9491417456246], [174.649633211297, -36.949141745843], [174.649541454165, -36.9491443123502], [174.649567418666, -36.9491438046859], [174.649567258267, -36.94914391778], [174.649541454165, -36.9491443123502]], [[174.648877610268, -36.9495712977634], [174.648855666458, -36.9495491130315], [174.648852206023, -36.9495512305806], [174.648877610268, -36.9495712977634]], [[174.648877610268, -36.9495712977634], [174.648880765707, -36.9495546168927], [174.648879442177, -36.9495581829726], [174.648877610268, -36.9495712977634]], [[174.649466320538, -36.9491470615546], [174.649446596721, -36.949156788895], [174.649446576765, -36.9491568008897], [174.649443481616, -36.9491590350627], [174.64944339444, -36.9491591065788], [174.649426184963, -36.949174505407], [174.649426154131, -36.9491745337771], [174.64942365948, -36.9491767532975], [174.649405957304, -36.9491925312237], [174.64939824712, -36.9491991145095], [174.649397721587, -36.9491991164024], [174.649396355776, -36.9492001998666], [174.649396069568, -36.9492004156591], [174.649367920487, -36.9492280408893], [174.649356670558, -36.949228792965], [174.649355963744, -36.9492287207617], [174.64932454878, -36.9492472796435], [174.649324488893, -36.9492473147266], [174.649298388148, -36.9492623368052], [174.649272776731, -36.949275053648], [174.649269938375, -36.949276333329], [174.649232894676, -36.9492912937868], [174.649232695577, -36.9492913308036], [174.649159407322, -36.9492906615141], [174.649158214689, -36.9492907664123], [174.649120659029, -36.9492965681574], [174.649080010734, -36.9493053467285], [174.649079320862, -36.9493055915621], [174.649042102505, -36.9493231313354], [174.649041007975, -36.9493237756775], [174.64900910531, -36.949347117484], [174.649009083304, -36.9493471385207], [174.648986843045, -36.9493754774816], [174.648986374395, -36.949376398857], [174.648978124717, -36.9494059342773], [174.648954899211, -36.9494431128981], [174.64895483807, -36.949443193967], [174.648931375676, -36.949472511628], [174.648931189233, -36.9494727711011], [174.648929127056, -36.9494766115347], [174.648929105321, -36.9494766451864], [174.64890992158, -36.9495035121474], [174.648885136268, -36.9495489272868], [174.648877610268, -36.9495712977634], [174.648875838491, -36.9495890248087], [174.648875803747, -36.9495892884843], [174.648873638014, -36.9496024421624], [174.648873636157, -36.9496024602151], [174.648872025552, -36.9496325073252], [174.648872025206, -36.9496325433838], [174.648873586304, -36.9496464033353], [174.648873651999, -36.9496466376743], [174.648888980369, -36.9496769092195], [174.648889171298, -36.9496773265951], [174.648895072077, -36.9496909919749], [174.648895219664, -36.9496913784054], [174.648906717639, -36.9497234319274], [174.648906966312, -36.9497241315237], [174.648910234031, -36.949733077068], [174.648911079651, -36.949735784685], [174.648911848718, -36.9497385357284], [174.648911996403, -36.9497391871532], [174.648917022036, -36.9497704436398], [174.648917076795, -36.9497711603508], [174.64891727033, -36.9497828454182], [174.648916877561, -36.9497862967194], [174.648916695548, -36.9497870221269], [174.648909340319, -36.9498145531437], [174.64890868007, -36.9498164326067], [174.648908447958, -36.9498168657725], [174.648900666759, -36.9498260981677], [174.648900648003, -36.9498261137511], [174.648868946195, -36.9498423230834], [174.648753884104, -36.9498759332301], [174.648727701445, -36.9498840970786], [174.648725912285, -36.949884505898], [174.648725027707, -36.9498846272449], [174.648682607679, -36.9498896906016], [174.648678524155, -36.9498900988325], [174.648677655251, -36.9498901658807], [174.648638566271, -36.9498930999542], [174.648637815192, -36.9498931626619], [174.648595304157, -36.949896922102], [174.648594730172, -36.9498969688301], [174.648542228877, -36.9499012599604], [174.648472166281, -36.9499074056089], [174.648419704507, -36.9499196270814], [174.648419551785, -36.9499196796772], [174.648408131144, -36.9499243963521], [174.64840790791, -36.9499245121198], [174.648372905021, -36.9499473749226], [174.64837252847, -36.9499476199087], [174.64835725603, -36.9499576088511], [174.648357164011, -36.9499576642094], [174.648321357708, -36.9499770165921], [174.648320619163, -36.9499772440702], [174.648306651916, -36.9499783339216], [174.648259529326, -36.9499797858241], [174.64825860767, -36.9499798022248], [174.648250592311, -36.9499801541609], [174.648250000013, -36.9499801849174], [174.64821503614, -36.9499808388638], [174.648214895881, -36.9499808444163], [174.648188282922, -36.9499823342437], [174.648126205017, -36.9499882210213]]]}, "properties": {"OBJECTID": 10172, "TRACKNAME": "Landing Road Walkway", "CONDITIONSOFUSE": "LANDING ROAD WALKWAY", "STATUS": "Open", "WEBLINK": null, "VALIDATIONSTATE": 3, "created_user": "AC_owner", "last_edited_user": "AC_owner", "last_edited_date": 1789875254325, "created_date": 1789875254325, "PARK_SAPSITEID": null, "TRACK_ID": null, "KAURIDIEBACK_TRACK": null, "KAURIDIEBACK_MITIGATED": null, "SegmentID": null, "GlobalID": "b2bc7c27-4933-4c04-8d9e-136fe9700ebd", "Shape__Length": 263.2762734445047}}]}