{"type": "FeatureCollection", "features": [{"type": "Feature", "id": 3310, "geometry": {"type": "LineString", "coordinates": [[174.547197792162, -36.9209462179997], [174.54807441691, -36.9203134401692]]}, "properties": {"OBJECTID": 3310, "TRACKNAME": "Large Kauri Track", "CONDITIONSOFUSE": "Waitakere North Regional Park", "STATUS": "Open", "WEBLINK": "https://www.aucklandcouncil.govt.nz/en/parks-recreation/find-park-beach/park-detail/3407.html", "VALIDATIONSTATE": 3, "created_user": "AC_owner", "last_edited_user": "AC_owner", "last_edited_date": 1789875254325, "created_date": 1789875254325, "PARK_SAPSITEID": null, "TRACK_ID": null, "KAURIDIEBACK_TRACK": null, "KAURIDIEBACK_MITIGATED": null, "SegmentID": null, "GlobalID": "28d5ca2d-94ac-47c9-a25b-59c5681d8dbe", "Shape__Length": 105.0188161905514}}]}