{"type": "FeatureCollection", "features": [{"type": "Feature", "id": 722, "geometry": {"type": "LineString", "coordinates": [[175.184040827814, -37.0703394045599], [175.183921076403, -37.070381229529], [175.183926992079, -37.0705643089803], [175.183949382648, -37.0707386852804], [175.18395545897, -37.0707619157674], [175.183969830413, -37.0707931948399], [175.183985881594, -37.0708398994333], [175.184078471147, -37.070981519836], [175.184088800086, -37.0710055732245], [175.184098195498, -37.0710335462289], [175.184101657067, -37.071053841733], [175.184109267346, -37.0710917253397], [175.184131001774, -37.0712126334037], [175.184136042455, -37.071238965238], [175.184150814622, -37.0712700927014], [175.18416928349, -37.0712952128114], [175.184203095735, -37.0713278550855], [175.184246324082, -37.0713593955836], [175.184532726346, -37.0714872515889], [175.184699280314, -37.071561870441], [175.184717117698, -37.0715720323113], [175.184741159502, -37.0715918494115], [175.184762073616, -37.0716092817519], [175.184777688184, -37.0716289927768], [175.184783336452, -37.0716357291887], [175.184790802581, -37.0716532921801], [175.184796225902, -37.0716831498352], [175.184796613056, -37.0716978150734], [175.18479471154, -37.071727573386], [175.184770128067, -37.0717927362615], [175.184748311029, -37.0718755216923], [175.184741227474, -37.0718932356409], [175.184727823133, -37.0719329033871], [175.184724991889, -37.0719604437272], [175.184729595651, -37.0720048536712], [175.184738400584, -37.0720475098692], [175.184753672966, -37.0720909571489], [175.18476668627, -37.0721266231946], [175.184781458287, -37.0721734053079], [175.184792589782, -37.0722093403536], [175.184817385648, -37.0722515035827], [175.184859751986, -37.0722996157139], [175.184971470561, -37.0723716577032], [175.184999797571, -37.0723879349639], [175.185021244302, -37.0724125494216], [175.18503591812, -37.0724449313129], [175.185043853716, -37.072489424032], [175.185033528439, -37.0725286024597], [175.185005375927, -37.0725732646022], [175.184974111719, -37.0726290334266], [175.18495509292, -37.0726557004747], [175.184935239036, -37.0727030395886], [175.184931901607, -37.0727497768976], [175.184932695293, -37.0728005477777], [175.184951724768, -37.0728675115265], [175.185007780473, -37.0729650212317], [175.185158666257, -37.0730974820356], [175.185179649337, -37.0731200411392], [175.185179718662, -37.0731201444066]]}, "properties": {"OBJECTID": 722, "TRACKNAME": "Lilburne Road Track", "CONDITIONSOFUSE": "Hunua Ranges Regional Park", "STATUS": "Open", "WEBLINK": "https://www.aucklandcouncil.govt.nz/en/parks-recreation/find-park-beach/park-detail/213.html", "VALIDATIONSTATE": 3, "created_user": "AC_owner", "last_edited_user": "AC_owner", "last_edited_date": 1789875254325, "created_date": 1789875254325, "PARK_SAPSITEID": null, "TRACK_ID": null, "KAURIDIEBACK_TRACK": null, "KAURIDIEBACK_MITIGATED": null, "SegmentID": null, "GlobalID": "d1b64dae-adc1-401e-ac88-0e7f23a31c8a", "Shape__Length": 368.2681922642645}}, {"type": "Feature", "id": 1887, "geometry": {"type": "LineString", "coordinates": [[175.152944298026, -37.089479485871], [175.152951308082, -37.089485892645], [175.152966638457, -37.0894905440677], [175.152983916589, -37.0894884908302], [175.152993302422, -37.0894774782683], [175.152992939098, -37.089454304607], [175.152923619252, -37.0891649902231], [175.15291844143, -37.0891307014101], [175.152908632678, -37.0890802561005], [175.152902336456, -37.0890406341477], [175.152899744239, -37.0890034954724], [175.152898221071, -37.0889687527425], [175.152899419101, -37.0889395303423], [175.152900785763, -37.0889071234513], [175.152909977937, -37.0888403718296], [175.152919210543, -37.0888052625142], [175.152933633466, -37.0887643359652], [175.152954680493, -37.0887114105724], [175.152973024682, -37.088671503317], [175.152988712091, -37.08864027833], [175.153004474772, -37.0886105210185], [175.153030226893, -37.0885716057738], [175.153059702196, -37.0885342631817], [175.1530883738, -37.088500323897], [175.153113705525, -37.0884755749771], [175.153152438648, -37.0884501320028], [175.153212528575, -37.0884200832124], [175.153257843671, -37.0884034160269], [175.153334280507, -37.0883896983787], [175.153503759389, -37.0883960647355], [175.15374724295, -37.0884108919296], [175.153911846954, -37.0884195092827], [175.153964321776, -37.0884252701282], [175.154020876065, -37.0884324709283], [175.154100408624, -37.0884434630003], [175.15414768247, -37.0884514812861], [175.154216245352, -37.0884838881487], [175.154276015768, -37.0885053422961], [175.154329440195, -37.0885323192697], [175.154369617315, -37.0885554993607], [175.154411224343, -37.0885767337782], [175.154466307577, -37.088599516746], [175.154520666435, -37.0886157877734], [175.154566416568, -37.0886244193992], [175.154612151794, -37.0886297436754], [175.154655605406, -37.0886264032913], [175.1547070221, -37.0886178350722], [175.154739720174, -37.0886104993299], [175.154779788502, -37.0885968650262], [175.154817079841, -37.0885821005465], [175.154852089582, -37.0885630424986], [175.154919643264, -37.0885244574831], [175.155035528463, -37.0884359114809], [175.155217529031, -37.0882520723909], [175.155317486633, -37.0881370214199], [175.155357644605, -37.0880892367773], [175.155396053444, -37.088051586984], [175.155442670079, -37.0880074250808], [175.155482092069, -37.0879698019006], [175.155535061756, -37.0879239472459], [175.155601060912, -37.0878825421552], [175.155677259618, -37.0878386173001], [175.155782474684, -37.0877963998172], [175.156043127037, -37.0876926475243], [175.156096959657, -37.0876732918218], [175.156147478191, -37.0876509230993], [175.156196676307, -37.0876284071352], [175.156247592566, -37.0876002270604], [175.156300644459, -37.0875684121127], [175.156343646485, -37.0875396369319], [175.156388006294, -37.087506375829], [175.156417408651, -37.0874824083596], [175.156469142378, -37.0874267160614], [175.156509445734, -37.0873872740054], [175.156552022928, -37.0873451048324], [175.156590457228, -37.0873028307646], [175.156618170291, -37.0872684844961], [175.15664811596, -37.0872359091234], [175.156677787948, -37.0872020138791], [175.156711707766, -37.0871687533343], [175.156753421746, -37.0871274920373], [175.15679280932, -37.0870942491515], [175.156831371121, -37.0870652121087], [175.15685416829, -37.0870491335228], [175.15687778368, -37.0870337430229], [175.156894772025, -37.0870226819559], [175.156917809508, -37.0870130970265], [175.156950585219, -37.0869998019828], [175.15702561604, -37.0869798168078], [175.15711828594, -37.0869665674237], [175.157168385372, -37.0869603924211], [175.157216901953, -37.0869555259827], [175.157257491865, -37.0869531921002], [175.157279559121, -37.0869522407452], [175.157345886387, -37.0869470681493]]}, "properties": {"OBJECTID": 1887, "TRACKNAME": "Lilburne Road Track", "CONDITIONSOFUSE": "Hunua Ranges Regional Park", "STATUS": "Open", "WEBLINK": "https://www.aucklandcouncil.govt.nz/en/parks-recreation/find-park-beach/park-detail/213.html", "VALIDATIONSTATE": 3, "created_user": "AC_owner", "last_edited_user": "AC_owner", "last_edited_date": 1789875254325, "created_date": 1789875254325, "PARK_SAPSITEID": null, "TRACK_ID": null, "KAURIDIEBACK_TRACK": null, "KAURIDIEBACK_MITIGATED": null, "SegmentID": null, "GlobalID": "c643964e-0270-4a82-ac83-809cc29d8161", "Shape__Length": 580.6057358225974}}, {"type": "Feature", "id": 2666, "geometry": {"type": "LineString", "coordinates": [[175.177817935126, -37.0850718194076], [175.177864502831, -37.0850677373954], [175.177909151263, -37.0850528035171], [175.177947859021, -37.0850327244766], [175.177996458795, -37.085000206666], [175.178138956991, -37.0848525771921], [175.178156206721, -37.0848370200882], [175.178193323175, -37.084805371111], [175.178235501519, -37.0847760714994], [175.178286725134, -37.0847389450301], [175.178352044222, -37.0847132217053], [175.178584233049, -37.0846171263185], [175.178631523682, -37.0845970515472], [175.178685874425, -37.0845705382456], [175.178763811187, -37.0845442943973], [175.179026315658, -37.0844627369138], [175.179064468144, -37.0844496073518], [175.179110788629, -37.0844298386254], [175.179143128249, -37.0844156352546], [175.179180710825, -37.0843967481279], [175.179224788305, -37.0843717212368], [175.179267204931, -37.0843452648363], [175.179458343101, -37.0841988936069], [175.179642162371, -37.0840633004178], [175.179675986727, -37.0840384979347], [175.179720370865, -37.0840084813083], [175.179877877121, -37.0839262750013], [175.179910710443, -37.0839088989565], [175.179952990895, -37.0838761360652], [175.179996173812, -37.0838505305178], [175.180025493484, -37.0838220255246], [175.180046935151, -37.0837969279301], [175.180061678824, -37.0837543881361], [175.180091330591, -37.0836491355298], [175.180102729291, -37.0836072430594], [175.180113282599, -37.0835794256449], [175.180129347002, -37.0835539312399], [175.180141215172, -37.0835303886069], [175.180156108464, -37.0835048526487], [175.180188232696, -37.0834721592971], [175.180222454959, -37.0834365253237], [175.180430622436, -37.0832458763597], [175.180493270735, -37.0831961105718], [175.18052672352, -37.0831787770413], [175.180556954145, -37.0831553832798], [175.180599645111, -37.0831299037298], [175.180639845715, -37.0831097693289], [175.180684287046, -37.0830845279261], [175.180725926495, -37.0830557240349], [175.18076283208, -37.0830305220917], [175.18079769129, -37.083004961233], [175.180831132785, -37.0829687916886], [175.180861124882, -37.0829351189701], [175.180882541941, -37.0829036858895], [175.180898045292, -37.0828719740634], [175.180906931643, -37.082844881211], [175.180914450586, -37.0827983374894], [175.180915231855, -37.08274395968], [175.180905991666, -37.0826998332076], [175.180896950028, -37.0826504668151], [175.180885614073, -37.0826046484952], [175.180863422601, -37.0825584260442], [175.180833298479, -37.0824983891502], [175.180784398622, -37.0824245660409], [175.180718791221, -37.0823427857877], [175.180698089519, -37.0823049716027], [175.180678640053, -37.0822712080315], [175.180663840818, -37.0822328887116], [175.180661049967, -37.0821975208967], [175.18067168254, -37.0821614915802], [175.180704800763, -37.0821191544507], [175.180743125018, -37.0820928359059], [175.180923759509, -37.0820249562645], [175.180948137291, -37.0820144137685], [175.180987111171, -37.0819880020822], [175.181012170832, -37.0819745630259], [175.181039814657, -37.081944926008], [175.181069236412, -37.0819102092686], [175.181093572043, -37.0818730806236], [175.181110838581, -37.0818408857033], [175.181128030068, -37.0817986161788], [175.18114452861, -37.0817478696198], [175.181154225067, -37.0817105867219], [175.181160665808, -37.0816798076684], [175.181160468596, -37.0816540896019], [175.181160276102, -37.0816261814094], [175.181158049264, -37.0815908753286], [175.181153515819, -37.0815563326879], [175.181139339671, -37.0815169925597], [175.181097181978, -37.0814358445216], [175.181087701934, -37.0814159210499], [175.181074538112, -37.0813883506468], [175.181062325794, -37.0813527686416], [175.181059883688, -37.0813185840684], [175.181065940946, -37.0812861988349], [175.181079842279, -37.081237852331], [175.181102810201, -37.0811930431532], [175.181151967642, -37.0811020136339]]}, "properties": {"OBJECTID": 2666, "TRACKNAME": "Lilburne Road Track", "CONDITIONSOFUSE": "Hunua Ranges Regional Park", "STATUS": "Open", "WEBLINK": "https://www.aucklandcouncil.govt.nz/en/parks-recreation/find-park-beach/park-detail/213.html", "VALIDATIONSTATE": 3, "created_user": "AC_owner", "last_edited_user": "AC_owner", "last_edited_date": 1789875254325, "created_date": 1789875254325, "PARK_SAPSITEID": null, "TRACK_ID": null, "KAURIDIEBACK_TRACK": null, "KAURIDIEBACK_MITIGATED": null, "SegmentID": null, "GlobalID": "55db786d-2d05-4f22-9624-e5f94a02acdc", "Shape__Length": 603.3144088724703}}, {"type": "Feature", "id": 3117, "geometry": {"type": "LineString", "coordinates": [[175.157345886387, -37.0869470681493], [175.157428476814, -37.0869389858947], [175.157510242492, -37.0869395075431], [175.15758381908, -37.0869424313206], [175.15764483424, -37.0869518564184], [175.15769917644, -37.0869647826484], [175.157744379517, -37.0869743783435], [175.15779318953, -37.0869885858718], [175.157848255177, -37.0870071857755], [175.15789416884, -37.0870350909676], [175.157922301782, -37.0870520631629], [175.157986486184, -37.0870819970013], [175.158035795862, -37.0871031079482], [175.158069453927, -37.0871185465292], [175.158098221459, -37.0871325059536], [175.158119052155, -37.0871403101028], [175.15814744305, -37.0871489229246], [175.158175020311, -37.0871554235937], [175.158198054821, -37.0871592220893], [175.158234426556, -37.0871644360617], [175.158263790581, -37.0871676957157], [175.158295372967, -37.0871690493771], [175.158330839841, -37.0871709181184], [175.15838171332, -37.0871718033502], [175.158423212763, -37.087169010892], [175.158883199372, -37.0871361113376], [175.159028778348, -37.0871173905937], [175.159076145665, -37.087108497697], [175.159119871249, -37.0870993196235], [175.159167718142, -37.0870855241484], [175.159197260117, -37.0870740448332], [175.159235522132, -37.087059450563], [175.159277190731, -37.0870431990094], [175.159307532727, -37.087028199218], [175.159334079404, -37.0870122591501], [175.159398694998, -37.0869757169104], [175.159499358268, -37.0869143463299], [175.159558147169, -37.086881001451], [175.159604782367, -37.0868542498249], [175.159643030808, -37.0868340318503], [175.159684533051, -37.0868154940024], [175.159723854197, -37.0867946255812], [175.159767758735, -37.0867763053003], [175.159969687982, -37.0866863310482], [175.160103067173, -37.0866155585886], [175.160140222623, -37.0865822110843], [175.160164414629, -37.0865530833405], [175.160177134152, -37.0865335376914], [175.16018778493, -37.0865076939276], [175.160192793497, -37.0864859905972], [175.160194549505, -37.0864511611992], [175.160192497351, -37.0864220700822], [175.160186787152, -37.086392513886], [175.160174927455, -37.0863535885639], [175.160161172347, -37.0863216013821], [175.160146100637, -37.0862749387451], [175.160130572811, -37.0862395500865], [175.160120419185, -37.086202468276], [175.160114417447, -37.0861721513217], [175.160114668314, -37.0861461185474], [175.160122771507, -37.0861157338307], [175.160137926011, -37.0860856712478], [175.160153731949, -37.0860591387185], [175.1601795744, -37.0860338652993], [175.160208850833, -37.0860122604864], [175.160240962182, -37.08599065808], [175.160278610242, -37.085969126004], [175.160329996685, -37.0859457122781], [175.160391264313, -37.0859165036399], [175.16043189521, -37.0858962239725], [175.160473104572, -37.0858741312416], [175.160510181374, -37.0858522940659], [175.160546809844, -37.0858269501613], [175.160588677445, -37.0857975362278], [175.160646531958, -37.0857614410035], [175.16070912617, -37.0857274584183], [175.160757281354, -37.0857055454128], [175.160803635859, -37.0856954896571], [175.160848442187, -37.0856895447826], [175.160895844971, -37.0856902578869], [175.160956541887, -37.0857019672602], [175.160993878493, -37.0857150307469], [175.161037700449, -37.0857377996562], [175.161090450071, -37.0857667506175], [175.161181130921, -37.0858122690288], [175.161213624522, -37.0858278991857], [175.161241088966, -37.0858379611527], [175.16126467463, -37.0858413704807], [175.161289929049, -37.0858405585505], [175.161324387454, -37.0858346669725], [175.161364563625, -37.0858257150223], [175.161407519602, -37.0858124494453], [175.16155440259, -37.0857621309531], [175.161608506265, -37.0857547905545], [175.161679192829, -37.0857621445913], [175.16173419976, -37.0857830329441], [175.161762291675, -37.0857949849916], [175.161791656601, -37.085822442412], [175.161808435113, -37.0858448119641], [175.161826465313, -37.0858684745168], [175.161827384861, -37.085905589384], [175.161822541903, -37.085939438653], [175.161804420509, -37.0859743321913], [175.16178238191, -37.0860079542952], [175.161766896227, -37.0860342558805], [175.161747482028, -37.0860751212581], [175.161736793744, -37.0861063553344], [175.16172607297, -37.0861427812212], [175.161720741991, -37.0861733137606], [175.161718180257, -37.0861975771523], [175.16172081487, -37.0862566513238], [175.161727141531, -37.0862928384335], [175.161732070191, -37.0863241662438], [175.16174037594, -37.0863587400682], [175.161741123845, -37.0863632867709], [175.161743431288, -37.0863965910631], [175.161744287175, -37.0864334457261], [175.161743970053, -37.0864741521064], [175.161743475761, -37.0865129780981], [175.161746969091, -37.0865444672694], [175.161756488807, -37.0865817767879], [175.161766827914, -37.0866217931475], [175.161779909716, -37.0866613358995], [175.161794935225, -37.0866964360749], [175.161820501677, -37.0867465842065], [175.161861248171, -37.0868115334571], [175.161892300747, -37.0868528393636], [175.161938952231, -37.0869034951676], [175.161979092569, -37.0869372089817], [175.162024086204, -37.0869663370109], [175.162074243825, -37.08698993628], [175.162135616231, -37.0870103298022], [175.162189137787, -37.0870224578004], [175.162243704969, -37.0870333770474], [175.162313251875, -37.0870425449686], [175.162365718747, -37.0870476443257], [175.162406841058, -37.0870462362705], [175.162435762521, -37.0870390664505], [175.162458417225, -37.0870294964476], [175.162481679278, -37.0870139851158], [175.162501166291, -37.0869950818345], [175.162525991074, -37.086972413074], [175.16254387919, -37.0869542509443], [175.16257499347, -37.0869252848383], [175.162603827997, -37.0869091220584], [175.16271652029, -37.0868653741368], [175.162758863052, -37.0868657462004], [175.162805713016, -37.0868790410954], [175.162845380308, -37.0868972887272], [175.163097477017, -37.0870276334262], [175.163214144497, -37.0870742442157], [175.163270847391, -37.0870890534754], [175.163312240701, -37.0871015284676], [175.163366367997, -37.0871040915947], [175.163405928166, -37.0871062986879], [175.163613569361, -37.0871389826933], [175.163648607822, -37.0871495186992], [175.16367082032, -37.0871584232084], [175.163695176705, -37.0871730926499], [175.16371923594, -37.087195509272], [175.163738375757, -37.0872178083957], [175.163751767095, -37.0872460435504], [175.163760414951, -37.0872759965555], [175.163763375276, -37.0872958331695], [175.16378871901, -37.087423141169], [175.163817479733, -37.0874870557534], [175.163845250328, -37.0875339547259], [175.163875930459, -37.0875724009037], [175.163901828562, -37.0876060676021], [175.163940229609, -37.0876430569906], [175.163972286269, -37.0876757099956], [175.164005698212, -37.0877030118464], [175.164052593183, -37.0877241913758], [175.164089604954, -37.0877372507789], [175.164256887152, -37.0878060265627], [175.164360359166, -37.0878486322083], [175.164453570431, -37.0878591692843], [175.164501355508, -37.0878562689347], [175.164547012119, -37.087849730321], [175.164882982224, -37.0877701609448], [175.1649359215, -37.0877523046351], [175.164981318202, -37.0877350547091], [175.165012927056, -37.0877088638117], [175.165046130069, -37.0876809764727], [175.165067704537, -37.087652427299], [175.16508253243, -37.0876125283998], [175.16509717025, -37.0875244429955], [175.165115350773, -37.0874869252518], [175.165134114146, -37.0874548674627], [175.165167607893, -37.0874221801168], [175.165196411171, -37.0873954455897], [175.165227008557, -37.0873740407378], [175.165566806361, -37.0872650277185], [175.165845343831, -37.0871838912206], [175.165902682583, -37.0871605556008], [175.165955079652, -37.087109055982], [175.166025021846, -37.0870427886728], [175.166076974697, -37.0869768770786], [175.166107226298, -37.0869366241202], [175.166142191772, -37.0869034950359], [175.166163801315, -37.0868742240251], [175.166225295066, -37.0868261450456], [175.166296238534, -37.0867922953594], [175.166371895855, -37.0867655695043], [175.166479128478, -37.0867427187163], [175.166663302347, -37.0866939925412], [175.166735466606, -37.0866615442611], [175.166804029535, -37.0866156159424], [175.166837734083, -37.0865879983328], [175.166873545527, -37.08655812512], [175.166975710893, -37.0864924578877], [175.167139440404, -37.0863784574871], [175.167214525153, -37.0863411338286], [175.167291049729, -37.0863121023584], [175.167356880523, -37.0862919183827], [175.167432117675, -37.0862721932604], [175.16751856548, -37.0862546604371], [175.167603015789, -37.0862420398517], [175.167713015988, -37.0862295017545], [175.167952197625, -37.0862143307104], [175.168176489194, -37.0862147077566], [175.16822970456, -37.0862184479617], [175.168252756438, -37.0862192970859], [175.16834555232, -37.0862236020525], [175.168421944015, -37.0862222948068], [175.168474558219, -37.0862171775767], [175.168625175908, -37.0862108082179], [175.168692448321, -37.0862064862075], [175.16874463731, -37.0862128946395], [175.168802981671, -37.0862229216154], [175.168852388448, -37.0862390693626], [175.1691192571, -37.0863281509361], [175.169233624762, -37.0863551685753], [175.169292398969, -37.0863660616559], [175.169350020348, -37.0863708472906], [175.16940189056, -37.0863771170638], [175.169451227555, -37.0863758175957], [175.169476486343, -37.0863751570508], [175.169538529009, -37.0863744271278], [175.169693954415, -37.0863741149539], [175.170250226557, -37.0863976298536], [175.170317969318, -37.0864023018136], [175.170375142018, -37.0864134399757], [175.170434037887, -37.0864281966294], [175.170498083789, -37.0864503663839], [175.170644019851, -37.0865149005401], [175.170710572573, -37.0865362131476], [175.170766531176, -37.0865509242826], [175.1708374842, -37.0865651985742], [175.17123920417, -37.0866369260449], [175.17132391281, -37.0866471628316], [175.171408369031, -37.0866501310803], [175.171484542027, -37.0866474559567], [175.171566527297, -37.0866407088013], [175.171632458438, -37.086625648744], [175.17168999647, -37.0866168619124], [175.172083320875, -37.0865394840422], [175.172308704454, -37.0865008541078], [175.172693332441, -37.0864538345281], [175.172790351098, -37.0864373929094], [175.172859230035, -37.0864215751667], [175.172942595853, -37.0863989757825], [175.173019477566, -37.0863734669979], [175.173247272986, -37.0862791027529], [175.173522640438, -37.0861531872286], [175.173594613662, -37.0861074809073], [175.173632897812, -37.086075271169], [175.173661799227, -37.0860434317429], [175.173699784772, -37.0859968344747], [175.17374189064, -37.0859558575474], [175.173788206829, -37.0859232571354], [175.173847554016, -37.0858931665572], [175.173909050945, -37.0858528794235], [175.173975988642, -37.0858049760423], [175.17418029643, -37.0856316225119], [175.174236479169, -37.0856026081959], [175.174313645013, -37.085585511061], [175.174385803291, -37.0855778066424], [175.174442427941, -37.0855741002732], [175.1745194228, -37.085560863497], [175.174612968911, -37.0855383015199], [175.174705641517, -37.0855060400058], [175.174806199238, -37.0854639182694], [175.174881352312, -37.0854248221017], [175.174968494244, -37.0853753938818], [175.175175345398, -37.0852446932888], [175.175335847011, -37.0851450167873], [175.175398655923, -37.0851148619199], [175.1754511489, -37.0850937466214], [175.175505770819, -37.0850754852457], [175.175559007128, -37.0850591238772], [175.1756155303, -37.0850471633543], [175.175677444712, -37.0850364827707], [175.175740890793, -37.0850349127292], [175.17578931004, -37.0850334201896], [175.175872439335, -37.0850388249847], [175.175955554551, -37.0850496374863], [175.17607066668, -37.0850664867655], [175.176134606284, -37.0850817788736], [175.176177092608, -37.0851045125669], [175.176237705658, -37.0851336818653], [175.176353746204, -37.085215232659], [175.176383583318, -37.085229528471], [175.17642222031, -37.0852419593465], [175.176461587105, -37.0852543407597], [175.176495635676, -37.0852577712451], [175.176538367099, -37.0852497406087], [175.17660002779, -37.0852262574244], [175.176654716529, -37.085189104074], [175.176768733522, -37.0850764359755], [175.17678924211, -37.0850607471249], [175.176812065611, -37.085041041245], [175.176850459992, -37.0850013480802], [175.176895600613, -37.0849815928633], [175.176977243169, -37.084957445128], [175.177047405045, -37.0849444764057], [175.177264833444, -37.084937094406], [175.177318456574, -37.0849370197641], [175.177389560973, -37.0849444108111], [175.177462931702, -37.0849610250449], [175.177514721626, -37.084975115601], [175.177551621349, -37.0849928773746], [175.177610535863, -37.0850224286534], [175.17765561887, -37.0850435098832], [175.177684143862, -37.0850583341699], [175.177715551537, -37.0850681486128], [175.177761683743, -37.0850728257869], [175.177817935126, -37.0850718194076]]}, "properties": {"OBJECTID": 3117, "TRACKNAME": "Lilburne Road Track", "CONDITIONSOFUSE": "Hunua Ranges Regional Park", "STATUS": "Open", "WEBLINK": "https://www.aucklandcouncil.govt.nz/en/parks-recreation/find-park-beach/park-detail/213.html", "VALIDATIONSTATE": 3, "created_user": "AC_owner", "last_edited_user": "AC_owner", "last_edited_date": 1789875254325, "created_date": 1789875254325, "PARK_SAPSITEID": null, "TRACK_ID": null, "KAURIDIEBACK_TRACK": null, "KAURIDIEBACK_MITIGATED": null, "SegmentID": null, "GlobalID": "109a212f-f4f0-455d-95d0-e07d8cb2384b", "Shape__Length": 2254.238098104186}}, {"type": "Feature", "id": 3151, "geometry": {"type": "LineString", "coordinates": [[175.185179720988, -37.0731201470675], [175.185201087036, -37.0731517756086], [175.185215123714, -37.0731717499742], [175.185229776494, -37.0731920284198], [175.185234482109, -37.0732231249745], [175.185239982339, -37.073265445484], [175.185238727448, -37.0733094947316], [175.185233927555, -37.0733452457106], [175.185214244255, -37.0733855970264], [175.185169782827, -37.0734373191934], [175.185019562245, -37.0735933276359], [175.184820595431, -37.0737983700567], [175.184604670895, -37.0739859429474], [175.184568671429, -37.0740162664771], [175.184520350523, -37.0740750171829], [175.184491430588, -37.0741102121841], [175.184460608904, -37.0741528234665], [175.1844350178, -37.0741934908001], [175.184418719725, -37.0742369880669], [175.184399203854, -37.0742894670064], [175.18438448504, -37.0743531141829], [175.184373719146, -37.0744141920588], [175.184370744193, -37.0744449615105], [175.184367469275, -37.0744856592636], [175.184366718818, -37.0745230029116], [175.18436573717, -37.074557385703], [175.1843703665, -37.0745964147049], [175.184391539009, -37.0746569221337], [175.184443197571, -37.0746956433717], [175.184603692136, -37.074799907872], [175.184707184055, -37.0748791133628], [175.184769295745, -37.0749363788303], [175.184804213898, -37.0749643770917], [175.184832863448, -37.0749961679708], [175.184857575131, -37.0750357551353], [175.184874003158, -37.0750673206112], [175.184882035471, -37.0751422107336], [175.184868401268, -37.0753161240458], [175.184862292658, -37.0753862277697], [175.184849395372, -37.0754224163567], [175.184837543132, -37.0754460312578], [175.18481820663, -37.0754706673115], [175.184790011579, -37.075501739321], [175.184756442094, -37.0755328833294], [175.184710365352, -37.0755632574261], [175.184673313796, -37.07558516467], [175.184635093903, -37.075602028402], [175.184590331056, -37.0756186161394], [175.184546126257, -37.0756330936625], [175.184496667455, -37.0756479203316], [175.184432597069, -37.0756611596344], [175.184353061283, -37.0756799020988], [175.184230977718, -37.0756869911591], [175.184121312089, -37.075696050369], [175.183987866878, -37.0757078006763], [175.183854862003, -37.0757254909792], [175.183786818111, -37.0757472568652], [175.18368810624, -37.0757848818367], [175.18352307641, -37.0758522978584], [175.183485812718, -37.0758676114859], [175.18345539437, -37.0758741380044], [175.183424846935, -37.075878909453], [175.183398711015, -37.0758806255179], [175.183376218662, -37.0758811388975], [175.183244492359, -37.0758908739632], [175.183183764554, -37.0758994907085], [175.183140933712, -37.0759077688403], [175.183111754737, -37.0759190761166], [175.1830908208, -37.0759280415176], [175.182942013548, -37.0759991235125], [175.182783485151, -37.0761034512142], [175.182722108023, -37.0761541500852], [175.182680901456, -37.0761959337035], [175.18264597399, -37.0762456588901], [175.182517463726, -37.0764628920909], [175.182497277044, -37.0765085155419], [175.182481604528, -37.0765515233705], [175.182471681612, -37.0765863591525], [175.182414298882, -37.0767673593243], [175.18240312214, -37.0768071119757], [175.182382382049, -37.0768491315777], [175.182362275112, -37.0768912656959], [175.182339807358, -37.0769303069155], [175.182196952411, -37.0771435679567], [175.18216723079, -37.0771920706166], [175.182147372242, -37.0772291441083], [175.182132006533, -37.0772797257654], [175.182054501843, -37.0775282844097], [175.182034068442, -37.0775625745849], [175.182001751942, -37.07759865165], [175.181967529307, -37.0776270941428], [175.181926204679, -37.0776542073115], [175.181482007871, -37.0779082882961], [175.181403616841, -37.0779706102812], [175.181358961666, -37.078018891842], [175.181322946307, -37.0780683933285], [175.181303268435, -37.0781267058478], [175.181292520307, -37.0781763372358], [175.181297953529, -37.0782293299699], [175.181300052273, -37.0782491819658], [175.181323858488, -37.0783015482364], [175.181348511454, -37.0783434263831], [175.181390170575, -37.0783876142425], [175.181454703768, -37.0784335892443], [175.181704653153, -37.0785948919119], [175.18193245493, -37.078784026734], [175.181951383285, -37.0788078679267], [175.181966676019, -37.0788410408915], [175.181977175288, -37.0788714090653], [175.181976961133, -37.0789039571781], [175.181970916696, -37.0789355941871], [175.181953255107, -37.0789653541132], [175.181930408101, -37.0789915864471], [175.181902402379, -37.0790222847902], [175.181684834092, -37.0792399845551], [175.181437774474, -37.0795825902267], [175.181396552272, -37.0796600181748], [175.181378984005, -37.0797213020576], [175.181368317948, -37.0797706615581], [175.181365641432, -37.0798075719701], [175.181365156325, -37.0798440184706], [175.181385681392, -37.0799361181486], [175.181399917094, -37.079968517531], [175.181414718296, -37.0800010236681], [175.181453358736, -37.0800956559642], [175.181475191226, -37.0801639024901], [175.181487818728, -37.0802088678524], [175.181497350001, -37.080243922355], [175.181497745428, -37.0802785140977], [175.181499732143, -37.0803179973871], [175.181499984296, -37.0803562238068], [175.18150035784, -37.0804124189335], [175.181497232889, -37.0804721392419], [175.181485415037, -37.0805362553937], [175.181473420518, -37.080585576257], [175.181457425216, -37.0806173693118], [175.181434533306, -37.0806605008316], [175.181418286003, -37.0806819341344], [175.18139455188, -37.080706281053], [175.181380356292, -37.0807274783218], [175.18129271512, -37.0808239115655], [175.18126972394, -37.080867116981], [175.181251700701, -37.0809023360258], [175.181235214487, -37.0809370220866], [175.18115465422, -37.0810909599314]]}, "properties": {"OBJECTID": 3151, "TRACKNAME": "Lilburne Road Track", "CONDITIONSOFUSE": "Hunua Ranges Regional Park", "STATUS": "Open", "WEBLINK": "https://www.aucklandcouncil.govt.nz/en/parks-recreation/find-park-beach/park-detail/213.html", "VALIDATIONSTATE": 3, "created_user": "AC_owner", "last_edited_user": "AC_owner", "last_edited_date": 1789875254325, "created_date": 1789875254325, "PARK_SAPSITEID": null, "TRACK_ID": null, "KAURIDIEBACK_TRACK": null, "KAURIDIEBACK_MITIGATED": null, "SegmentID": null, "GlobalID": "2d37ad73-fed1-4504-b5dc-97ec412c013d", "Shape__Length": 1152.4622843099078}}]}