{"type": "FeatureCollection", "features": [{"type": "Feature", "id": 395, "geometry": {"type": "LineString", "coordinates": [[174.466571738996, -36.9535471651377], [174.466577233456, -36.9535402649029], [174.466586330845, -36.9535098215142], [174.46661072635, -36.9534952605338], [174.466643867163, -36.9534898756025], [174.46667416146, -36.9534830565969], [174.466708003082, -36.9534767345821], [174.466741876066, -36.9534802460887], [174.466757623969, -36.9535049382952], [174.4667616384, -36.9535374010231], [174.46676149931, -36.9535670397014], [174.466763166234, -36.9535766547256], [174.466794421386, -36.9536339831491], [174.466821815591, -36.9536504552122], [174.466851894935, -36.9536640457738], [174.466877043331, -36.9536694136833], [174.466905869689, -36.9536768183042], [174.466938664612, -36.9536896992663], [174.466966985449, -36.9537041227561], [174.467000093665, -36.9537105009715], [174.467040710313, -36.9537066550322], [174.467081188783, -36.9537043881792], [174.467115534689, -36.9537079568299], [174.467151373204, -36.9537167349564], [174.467182168266, -36.9537272339128], [174.467221775869, -36.9537316749327], [174.467251563977, -36.9537201298565], [174.467276033265, -36.9537006373493], [174.467301673546, -36.9536789580701], [174.46733213333, -36.9536713977302], [174.467367770881, -36.9536673608319], [174.467400821228, -36.9536549191013], [174.467423699748, -36.9536409085108], [174.467445719962, -36.9536219690315], [174.467464246176, -36.9536012159171], [174.467488876614, -36.9535766647041], [174.467454508895, -36.9535596660577], [174.467419327837, -36.9535570542624], [174.467373049318, -36.9535573107551], [174.467361880678, -36.9535412512184], [174.467387032808, -36.9535251574178], [174.467417692657, -36.9535046148942], [174.467438491435, -36.9534899179253], [174.467466748082, -36.9534810958262], [174.46750153372, -36.9534765646524], [174.467536924478, -36.9534719628932], [174.467569255796, -36.9534700489604], [174.467601967999, -36.9534833003225], [174.467621482304, -36.9534970663516], [174.467655569801, -36.9535047302484]]}, "properties": {"OBJECTID": 395, "TRACKNAME": "Lion Rock Track", "CONDITIONSOFUSE": "Waitakere West Regional Park", "STATUS": "Temp Closed", "WEBLINK": "https://www.aucklandcouncil.govt.nz/en/parks-recreation/find-park-beach/park-detail/3451.html", "VALIDATIONSTATE": 3, "created_user": "AC_owner", "last_edited_user": "AC_owner", "last_edited_date": 1789875254325, "created_date": 1789875254325, "PARK_SAPSITEID": null, "TRACK_ID": null, "KAURIDIEBACK_TRACK": null, "KAURIDIEBACK_MITIGATED": null, "SegmentID": null, "GlobalID": "0853928a-9dcf-446f-a5d4-9f9f4b48f4e3", "Shape__Length": 150.49777993450462}}]}