{"type": "FeatureCollection", "features": [{"type": "Feature", "id": 10080, "geometry": {"type": "MultiLineString", "coordinates": [[[175.017757691124, -36.7850506303883], [175.017761526434, -36.7850612125532]], [[175.01850077847, -36.7852050899096], [175.018469308616, -36.7852120009364], [175.018468769047, -36.7852120641747], [175.018392174507, -36.7852133400335], [175.018389838205, -36.7852130858625], [175.018210409213, -36.7851689574965], [175.018210027009, -36.7851688684442], [175.018066093428, -36.7851375760055], [175.018064288138, -36.7851370604472], [175.017953304686, -36.7850952220558], [175.017944459891, -36.7850917515736], [175.017871377546, -36.785063347538], [175.017870269207, -36.7850630869389], [175.017783700749, -36.7850532120338], [175.017765985336, -36.7850485752453], [175.017757691124, -36.7850506303883], [175.017686933348, -36.7850178424473], [175.01768151155, -36.7850188889421], [175.017680670068, -36.7850192754645], [175.017665995389, -36.7850167574329], [175.017616138163, -36.7850092184833], [175.017614691806, -36.7850087590185], [175.017513195254, -36.7849816147276], [175.017513161416, -36.7849816062886], [175.01751303512, -36.7849815759841], [175.017436793855, -36.7849632001417], [175.017339258549, -36.7849345166419], [175.017339254045, -36.784934515817], [175.017320949822, -36.784928746082], [175.017269508467, -36.7849125415675], [175.017256987047, -36.7849085953221], [175.017256983639, -36.7849085935772], [175.017181267168, -36.7848802698513], [175.017147733963, -36.7848679336728], [175.017147728292, -36.784867931065], [175.017115966841, -36.7848509852331], [175.017115964553, -36.7848509834692], [175.017076542732, -36.7848318890484], [175.017065045443, -36.7848249483618], [175.017044700197, -36.7848126615382], [175.017009914955, -36.7847896668618], [175.016970297784, -36.7847637176027], [175.016970289825, -36.7847637132311], [175.016930829381, -36.7847430997964], [175.016930820326, -36.7847430963448], [175.016898376048, -36.7847353203104], [175.016898368184, -36.7847353195425], [175.016855539713, -36.7847292500682], [175.016855530729, -36.7847292493193], [175.016817891073, -36.7847293604753], [175.016807199683, -36.7847293939996], [175.016807196299, -36.7847293931556], [175.016749309645, -36.784727416853], [175.016749300685, -36.784727417005], [175.016708497549, -36.7847258972211], [175.016708488589, -36.7847258973731], [175.016662025494, -36.784725229773], [175.016605002317, -36.7847202004178], [175.016604993309, -36.7847201987679], [175.016553540585, -36.7847112443206], [175.016553536081, -36.7847112434957], [175.016519742643, -36.7847072694574], [175.016519282529, -36.7847067301614], [175.016505146884, -36.7847050654033], [175.016504570956, -36.7847045109463], [175.016484666742, -36.7847021625719], [175.016484658855, -36.784702160903], [175.01643467423, -36.7846946659751], [175.016434664102, -36.7846946643443], [175.01639717123, -36.7846890459131], [175.016397165606, -36.7846890451071], [175.016357192663, -36.784688203335], [175.016348938417, -36.7846880638978], [175.016327709493, -36.7846878443371], [175.016254201369, -36.7846877081896], [175.016246810107, -36.7846909953382]]]}, "properties": {"OBJECTID": 10080, "TRACKNAME": "Little Oneroa footpath", "CONDITIONSOFUSE": "Little Oneroa Reserve", "STATUS": "Open", "WEBLINK": "https://www.aucklandcouncil.govt.nz/en/parks-recreation/find-park-beach/park-detail/92.html", "VALIDATIONSTATE": 3, "created_user": "AC_owner", "last_edited_user": "AC_owner", "last_edited_date": 1789875254325, "created_date": 1789875254325, "PARK_SAPSITEID": null, "TRACK_ID": null, "KAURIDIEBACK_TRACK": null, "KAURIDIEBACK_MITIGATED": null, "SegmentID": null, "GlobalID": "99a6b6ef-7365-4ebb-9b52-40ff9b2a2dee", "Shape__Length": 214.94170882221388}}]}