{"type": "FeatureCollection", "features": [{"type": "Feature", "id": 1862, "geometry": {"type": "LineString", "coordinates": [[174.468210120784, -36.9698806926041], [174.468235747903, -36.9698324554761], [174.468266208499, -36.9697988814536], [174.468300649072, -36.9697689898461], [174.468342967065, -36.9697427504688], [174.468390004295, -36.9697183275403], [174.468445395994, -36.9697019225454], [174.468495781761, -36.9696880762319], [174.468563424842, -36.969679631909], [174.468634332365, -36.969677384606], [174.468707551994, -36.9696738647709], [174.46882055228, -36.9696716644223], [174.468909527369, -36.9696760617982], [174.468983449505, -36.969668765395], [174.469069683556, -36.9696725746284], [174.469118818598, -36.9696731473398], [174.469297124924, -36.969661899829], [174.469490399838, -36.9696579570975], [174.469623325338, -36.9696573571275], [174.4697356573, -36.9696595448145], [174.469936785408, -36.9696579918919], [174.470224766683, -36.9696527219728], [174.47037827368, -36.9696487114741], [174.470538036597, -36.9696452271944], [174.4707924582, -36.9696379379386], [174.470928827996, -36.9696347790243], [174.471083955073, -36.9696332353049], [174.471201661596, -36.9696315963095], [174.471371947485, -36.9696279714783], [174.471494290647, -36.9696250218256], [174.471602630826, -36.9696235075495], [174.471726558076, -36.9696211509478], [174.472088849789, -36.9696087186563], [174.472175410328, -36.9696098796833], [174.472311064703, -36.9696092428604], [174.47241423272, -36.9696203119448], [174.472486237859, -36.9696330654587], [174.472569326444, -36.9696531898059], [174.47282380165, -36.9697384656559], [174.473051619321, -36.9698178613489], [174.473156588373, -36.9698401744891], [174.473269243686, -36.9698573715438], [174.473408176387, -36.9698641921267], [174.473601618568, -36.9698677489832], [174.473814569688, -36.9698722801557], [174.473984629841, -36.9698761537237], [174.474123538452, -36.9698817208707], [174.474251399202, -36.9698811876195], [174.474385385162, -36.9698755665691], [174.47444766425, -36.9698709351931], [174.474495726053, -36.9698583771163], [174.474498250663, -36.9698577012823]]}, "properties": {"OBJECTID": 1862, "TRACKNAME": "Log Race Road", "CONDITIONSOFUSE": null, "STATUS": "Open", "WEBLINK": null, "VALIDATIONSTATE": 3, "created_user": "AC_owner", "last_edited_user": "AC_owner", "last_edited_date": 1789875254325, "created_date": 1789875254325, "PARK_SAPSITEID": null, "TRACK_ID": null, "KAURIDIEBACK_TRACK": null, "KAURIDIEBACK_MITIGATED": null, "SegmentID": null, "GlobalID": "63ff4961-6567-42c3-9cea-5783e4387bd6", "Shape__Length": 574.529983528714}}]}