{"type": "FeatureCollection", "features": [{"type": "Feature", "id": 1331, "geometry": {"type": "LineString", "coordinates": [[174.479801790307, -36.9868017986918], [174.479869608937, -36.9868788929114], [174.479951840378, -36.9869937501715], [174.48020446247, -36.9870708264382], [174.480407825475, -36.9871289056731], [174.480761433927, -36.9872564222508], [174.480877520985, -36.9872292165854]]}, "properties": {"OBJECTID": 1331, "TRACKNAME": "Lone Kauri Road", "CONDITIONSOFUSE": null, "STATUS": "Open", "WEBLINK": null, "VALIDATIONSTATE": 3, "created_user": "AC_owner", "last_edited_user": "AC_owner", "last_edited_date": 1789875254325, "created_date": 1789875254325, "PARK_SAPSITEID": null, "TRACK_ID": null, "KAURIDIEBACK_TRACK": null, "KAURIDIEBACK_MITIGATED": null, "SegmentID": null, "GlobalID": "3ad90228-4bc3-4f70-8aa4-7a4df15333b6", "Shape__Length": 113.71125845298175}}]}