{"type": "FeatureCollection", "features": [{"type": "Feature", "id": 2661, "geometry": {"type": "LineString", "coordinates": [[174.497020044015, -36.8864044062896], [174.497086439794, -36.8863037263159], [174.497176066658, -36.8861837417852], [174.497480718287, -36.8859171212334], [174.498208831066, -36.8853638023346], [174.4984382876, -36.8850271083523], [174.498643001628, -36.8847359641658], [174.498666773454, -36.8846408596429], [174.498814887071, -36.884346374732], [174.499113782594, -36.8838892145959], [174.499141464428, -36.8834642245966], [174.499234599393, -36.8832446916204], [174.499338979203, -36.8830702548062], [174.499178611367, -36.8827425343367], [174.499178148547, -36.8824539779877], [174.49911363631, -36.8822019187863], [174.499020225786, -36.8819861799454], [174.499010210188, -36.8817389296562], [174.499202287284, -36.8815922250161], [174.499452182763, -36.8812511266076], [174.49956137143, -36.8809347814718], [174.499578173574, -36.8806065359844], [174.499440439933, -36.8803856799655], [174.499223909647, -36.880180688943], [174.499166180795, -36.8800058657439], [174.4991981753, -36.8796736427826], [174.499257656078, -36.8794318233223], [174.499441872054, -36.8790490159911], [174.499470534878, -36.8790150402167], [174.499482986601, -36.8790029137247], [174.499735428826, -36.8787570523856], [174.499868277763, -36.8785430080662], [174.499891931058, -36.8784645495129], [174.499922691448, -36.8782915200853], [174.499951139378, -36.8781141941439], [174.500002090553, -36.8779841613422], [174.500050892874, -36.8778963976531], [174.500146367858, -36.8777328682553], [174.500235192319, -36.8775527031605], [174.500249125308, -36.8774698937419], [174.50025313821, -36.8772749361882], [174.500257228261, -36.8769926200513], [174.500232009428, -36.8767478998323], [174.500182097235, -36.8764755370469], [174.500157575533, -36.8762726822421]]}, "properties": {"OBJECTID": 2661, "TRACKNAME": "Long Road", "CONDITIONSOFUSE": "Waitakere North Regional Park", "STATUS": "Open", "WEBLINK": "https://www.aucklandcouncil.govt.nz/en/parks-recreation/find-park-beach/park-detail/3407.html", "VALIDATIONSTATE": 3, "created_user": "AC_owner", "last_edited_user": "AC_owner", "last_edited_date": 1789875254325, "created_date": 1789875254325, "PARK_SAPSITEID": null, "TRACK_ID": null, "KAURIDIEBACK_TRACK": null, "KAURIDIEBACK_MITIGATED": null, "SegmentID": null, "GlobalID": "649eb95c-eb3c-463a-bc0d-5dd216920107", "Shape__Length": 1241.4472454857632}}]}