{"type": "FeatureCollection", "features": [{"type": "Feature", "id": 135, "geometry": {"type": "LineString", "coordinates": [[174.498723206622, -36.8924619117416], [174.498709626506, -36.8924830760255], [174.498698288316, -36.8925023912529], [174.498689214668, -36.8925198661527], [174.498682383126, -36.8925355010086], [174.498677815954, -36.8925492865263], [174.498675490716, -36.8925612229892], [174.498674648783, -36.8925721131752], [174.498674101725, -36.8925831618884], [174.498673849542, -36.8925943691286], [174.498673892411, -36.8926057439075], [174.498674207892, -36.892617286508], [174.498674818425, -36.8926289966472], [174.49867572401, -36.8926408743249], [174.498676913428, -36.8926529196827], [174.498678397721, -36.8926651235676], [174.498680166024, -36.8926775041441], [174.498682229203, -36.8926900432476], [174.498684564995, -36.8927027501727], [174.49868720706, -36.8927156244947], [174.498690132959, -36.8927286664968], [174.498693342514, -36.8927418671673], [174.4986968473, -36.8927552443877], [174.498700635743, -36.8927687802765], [174.498704719416, -36.8927824927152], [174.498709097966, -36.8927963636807], [174.498713749132, -36.8928104024676], [174.498718706395, -36.8928245996396], [174.498723922588, -36.8928388386134], [174.498729391542, -36.8928528039865], [174.498735102038, -36.8928664959004], [174.498741053724, -36.8928798963319], [174.498747246953, -36.8928930233042], [174.498753681548, -36.8929058678056], [174.498760357685, -36.8929184388476], [174.498767275012, -36.8929307184072], [174.498774433882, -36.8929427245073], [174.498781834295, -36.8929544571478], [174.498789475898, -36.8929658983059], [174.498797359043, -36.8929770660043], [174.498805483555, -36.8929879512316], [174.498813860653, -36.8929985538461], [174.498822467898, -36.8930088741309], [174.498831327904, -36.8930189208144], [174.498840418058, -36.8930286851681], [174.498849749579, -36.8930381670504], [174.498859333861, -36.8930473753311], [174.498869159334, -36.8930562921288], [174.498879215129, -36.893064935608], [174.498889366439, -36.8930732984559], [174.498899062452, -36.8930813335395], [174.498908269864, -36.8930890593069], [174.49891699954, -36.8930964575935], [174.498925251833, -36.8931035464225], [174.498933015347, -36.893110316924], [174.498940290082, -36.893116769098], [174.498947076037, -36.8931229029448], [174.498953384432, -36.8931287183229], [174.498959204224, -36.8931342243853], [174.498964546278, -36.8931394029677], [174.498969399553, -36.8931442632231], [174.498973764223, -36.893148814163], [174.498977651333, -36.8931530466346], [174.498981049485, -36.8931569517678], [174.498983959033, -36.8931605475859], [174.49898639102, -36.8931638249356], [174.498988334226, -36.8931667839587], [174.498989800046, -36.893169433525], [174.498990776909, -36.8931717557533], [174.498991264991, -36.8931737596549], [174.49899134459, -36.8931755343539], [174.498991382661, -36.8931774808376], [174.498991424961, -36.8931796435973], [174.498991471668, -36.8931820316446], [174.498991522605, -36.8931846359677], [174.498991577948, -36.8931874655784], [174.498991637698, -36.8931905204765], [174.498991701854, -36.893193800662], [174.498991770239, -36.8931972971236], [174.498991843032, -36.8932010188726], [174.49899192023, -36.8932049659091], [174.498992001659, -36.8932091292215], [174.498992087494, -36.8932135178214], [174.498992177735, -36.8932181317088], [174.498992272206, -36.8932229618722], [174.498992371084, -36.893228017323], [174.498992474368, -36.8932332980613], [174.498992582058, -36.893238804087], [174.498992693978, -36.8932445263887], [174.498992810305, -36.8932504739779], [174.498992930862, -36.893256637843], [174.49899302252, -36.8932630454433], [174.49899281742, -36.8932697722684], [174.498992271392, -36.8932768549304], [174.498991384258, -36.893284284418], [174.498990144798, -36.8932920608727], [174.498988553013, -36.8933001842943], [174.498986631341, -36.8933086543999], [174.498984357344, -36.8933174714726], [174.498981731197, -36.8933266445237], [174.498978763943, -36.8933361644003], [174.498975455583, -36.8933460311023], [174.49897179472, -36.8933562357597], [174.498967793102, -36.8933668052655], [174.498963438982, -36.8933777127267], [174.498958743754, -36.8933889670131], [174.498953696375, -36.8934005772778], [174.498948319108, -36.8934125342262], [174.498942578117, -36.8934248292713], [174.498936507414, -36.8934374800116], [174.498930084559, -36.8934504867299], [174.498923309199, -36.8934638314033], [174.498916259695, -36.8934775040293], [174.49890976012, -36.89349117873], [174.49890405554, -36.8935047622762], [174.498899157351, -36.8935182635378], [174.498895065203, -36.8935316644922], [174.498891779447, -36.8935449831622], [174.498889299732, -36.8935582015249], [174.498887626234, -36.893571328592], [174.498886747911, -36.8935843735164], [174.498886675629, -36.8935973181337], [174.498887409742, -36.8936101804667], [174.498888938679, -36.8936229426342], [174.49889128523, -36.8936356223758], [174.498894426782, -36.8936482109632], [174.498898374377, -36.8936606992432], [174.498903128369, -36.8936731052387], [174.498908688582, -36.8936854199382], [174.498915043621, -36.8936976344716], [174.498922216276, -36.8937097665786], [174.498930183934, -36.8937218075306], [174.498938957815, -36.8937337571861], [174.498948492863, -36.8937456070994], [174.498957947968, -36.8937573859109], [174.498966930269, -36.8937690895638], [174.498975417327, -36.8937807183414], [174.498983431581, -36.8937922719607], [174.498990961811, -36.8938037505633], [174.498998019236, -36.8938151540078], [174.499004592637, -36.8938264824358], [174.499010693233, -36.8938377357059], [174.499016298585, -36.8938489141012], [174.499021431131, -36.8938600173388], [174.499026090871, -36.8938710454185], [174.499030266586, -36.8938819984822], [174.499033958275, -36.8938928765299], [174.499037177157, -36.8939036794199], [174.49903991219, -36.8939144163056], [174.49904216302, -36.8939250691638], [174.499043941043, -36.8939356468645], [174.499045235039, -36.8939461495494], [174.499046045184, -36.89395658623], [174.499046382346, -36.8939669387416], [174.499046246699, -36.8939772160959], [174.499045766596, -36.8939876690575], [174.499045034787, -36.8939984496891], [174.499044062494, -36.8940095578492], [174.499042849539, -36.8940209845263], [174.499041384879, -36.8940327388735], [174.49903967991, -36.8940448297607], [174.499037723059, -36.8940572393065], [174.499035525723, -36.8940699763808], [174.499033076681, -36.8940830411251], [174.499030387153, -36.8940964333978], [174.499027457139, -36.894110153199], [174.499024275243, -36.8941241916586], [174.499020841817, -36.8941385667997], [174.499017178947, -36.8941532603162], [174.499013253328, -36.8941682906556], [174.499009098265, -36.8941836393703], [174.499004691495, -36.8941993157549], [174.499000033018, -36.8942153198094], [174.498995134053, -36.8942316513921], [174.4989899946, -36.894248310503], [174.49898460344, -36.8942652972838], [174.498979156532, -36.8942823027951], [174.498973816353, -36.8942990275341], [174.498968605168, -36.8943154622061], [174.498963523152, -36.8943316158227], [174.49895854769, -36.8943474796555], [174.498953701397, -36.8943630624329], [174.498948972878, -36.8943783552849], [174.498944362486, -36.8943933762346], [174.498939869691, -36.8944080982476], [174.498935495024, -36.8944225483582], [174.49893124935, -36.8944367084019], [174.49892712145, -36.8944505785204], [174.498923111501, -36.8944641677252], [174.498919230723, -36.8944774758746], [174.498915456499, -36.8944904942404], [174.498911811447, -36.8945032315509], [174.498908284169, -36.8945156789362], [174.498904886062, -36.8945278452661], [174.498901594687, -36.894539730824], [174.498898432306, -36.8945513263151], [174.498895387878, -36.8945626408926], [174.498892932802, -36.8945736776223], [174.498891808105, -36.8945844541957], [174.498892013788, -36.8945949706128], [174.498893550028, -36.8946052358852], [174.498896416472, -36.8946152319897], [174.498900602254, -36.8946249770908], [174.498906129461, -36.8946344528823], [174.498912976007, -36.89464367767], [174.498921164155, -36.8946526421592], [174.49893067129, -36.8946613376211], [174.498941508984, -36.8946697819369], [174.498953677062, -36.8946779660946], [174.498967175524, -36.894685890094], [174.49898201559, -36.8946935537929], [174.498998163601, -36.8947009576155], [174.499015653392, -36.8947081101481], [174.499034473391, -36.8947149935087], [174.499054623776, -36.8947216167082], [174.499076093502, -36.8947279888989], [174.499098904657, -36.8947340917739], [174.499123035153, -36.8947399436387], [174.499147869848, -36.8947456514062], [174.499171966868, -36.8947515126971], [174.499195292379, -36.8947575189253], [174.49921783516, -36.8947636702327], [174.499239606784, -36.8947699845013], [174.499260595679, -36.8947764438499], [174.499280813063, -36.8947830481376], [174.499300248071, -36.8947898155292], [174.499318900348, -36.8947967280021], [174.499336781292, -36.8948037944266], [174.499353890902, -36.8948110148031], [174.499370217782, -36.894818380262], [174.499385762108, -36.8948258998151], [174.499400535099, -36.8948335733211], [174.49941452536, -36.8948413919104], [174.499427744287, -36.8948493644532], [174.499440180659, -36.8948574910914], [174.4994518343, -36.8948657628137], [174.499462716783, -36.8948741975017], [174.499472827753, -36.8948827771327], [174.499482144773, -36.8948915019901], [174.499490880134, -36.8949003243258], [174.499499579193, -36.8949090119133], [174.499508309268, -36.8949175639028], [174.499517058964, -36.8949259714244], [174.499525828279, -36.8949342344782], [174.499534628611, -36.894942361934], [174.499543448386, -36.8949503359105], [174.499552288134, -36.8949581834421], [174.499561147326, -36.8949658774943], [174.499570026313, -36.8949734360902], [174.499578936141, -36.8949808500766], [174.499587865588, -36.8949881195951], [174.499596814831, -36.8949952536572], [174.499605783694, -36.8950022432514], [174.499614783396, -36.8950090882362], [174.499623802895, -36.8950157977646], [174.499632841836, -36.8950223538135], [174.499641911969, -36.8950287832759], [174.499650990326, -36.8950350594006], [174.499660099699, -36.8950411999272], [174.49966922869, -36.895047195986], [174.499678377478, -36.8950530565883], [174.499687468933, -36.8950588548176], [174.499696514453, -36.8950645995438], [174.499705513685, -36.8950702727438], [174.499714455762, -36.8950758925824], [174.499723340507, -36.8950814500481], [174.499732190535, -36.895086953869], [174.499740971836, -36.8950923864472], [174.499749707201, -36.8950977655222], [174.499758396454, -36.8951030820828], [174.499767028552, -36.8951083452819], [174.499775614537, -36.8951135459665], [174.49978414319, -36.8951186842783], [174.499792614511, -36.8951237602172], [174.499801051116, -36.8951287825115], [174.499809418993, -36.8951337335631], [174.499817752153, -36.8951386309701], [174.499826016938, -36.8951434751574], [174.499834246654, -36.8951482476772], [174.499842407995, -36.8951529669772], [174.499850534442, -36.8951576236213], [174.499858604087, -36.8951622449271], [174.499866742814, -36.8951669554972], [174.499874962374, -36.8951717822246], [174.499883251722, -36.8951767342624], [174.499891621902, -36.8951818024573], [174.499900072914, -36.8951869868094], [174.499908604935, -36.8951922963301], [174.499917206744, -36.8951977311612], [174.499925889386, -36.8952032821493], [174.49993465286, -36.8952089492945], [174.499943486123, -36.89521474175], [174.499952400395, -36.895220659374], [174.499961395499, -36.895226693155], [174.499970471436, -36.8952328430931], [174.499979617162, -36.8952391183413], [174.499988843721, -36.8952455097464], [174.499998151289, -36.8952520263201], [174.500007539689, -36.8952586590506], [174.500016997703, -36.8952654080798], [174.500026536902, -36.8952722912888], [174.500036156758, -36.8952792816432], [174.500045835008, -36.8952863884378], [174.500055334096, -36.8952935155213], [174.500064574603, -36.895300618828], [174.500073579143, -36.8953077070862], [174.500082313882, -36.8953147717095], [174.500090801612, -36.8953218304374], [174.50009904198, -36.8953288652471], [174.500107023941, -36.8953358852919], [174.500114758717, -36.89534289043], [174.500122246131, -36.8953498716501], [174.500129475138, -36.8953568381054], [174.50013644574, -36.8953637897958], [174.500143169155, -36.8953707265799], [174.500149645208, -36.8953776394461], [174.500155863031, -36.8953845465591], [174.500161833491, -36.8953914297543], [174.500167545368, -36.8953982891735], [174.500173010235, -36.895405142698], [174.500178227739, -36.8954119723048], [174.500183186837, -36.8954187871471], [174.500187898748, -36.8954255870834], [174.500192363295, -36.895432363102], [174.500197004184, -36.8954389746467], [174.500201988477, -36.8954453565115], [174.50020731635, -36.895451517708], [174.500212998846, -36.895457449083], [174.500219024745, -36.8954631507779], [174.500225405445, -36.8954686316627], [174.500232129548, -36.8954738828675], [174.500239208274, -36.8954789042505], [174.50024663058, -36.8954837049648], [174.50025439629, -36.8954882759988], [174.500262516624, -36.8954926172109], [174.500270980537, -36.8954967377541], [174.500279787854, -36.8955006286169], [174.500288949794, -36.8955042896574], [174.500298466358, -36.8955077208757], [174.500308326502, -36.8955109314248], [174.500318530048, -36.8955139122931], [174.500329088395, -36.8955166723504], [174.500339990145, -36.8955192027267], [174.500351235298, -36.8955215034219], [174.500362835074, -36.8955235742944], [174.500374252864, -36.8955255212721], [174.500385175219, -36.8955273843689], [174.500395591098, -36.895529172738], [174.500405500675, -36.8955308953912], [174.500414903598, -36.8955325343055], [174.500423811439, -36.8955341073623], [174.500432201406, -36.8955355968222], [174.500440085072, -36.8955370205666], [174.500447473303, -36.8955383604308], [174.500454355233, -36.8955396345798], [174.500460730685, -36.895540834002], [174.500466599482, -36.8955419496861], [174.500471961978, -36.8955429996551], [174.500476817819, -36.8955439658861], [174.500481178578, -36.8955448662604], [174.50048502164, -36.8955456920501], [174.500488369443, -36.8955464429717], [174.500491210591, -36.8955471101555], [174.500493545437, -36.8955477116246], [174.500495373805, -36.8955482383674], [174.500496695695, -36.8955486903841], [174.500497818452, -36.8955492891354], [174.500499049068, -36.8955502380594], [174.500500399293, -36.8955515640487], [174.500501846334, -36.8955532493638], [174.500503401411, -36.895555293863], [174.500505064524, -36.8955576975464], [174.500506835849, -36.8955604694252], [174.50050871521, -36.8955636004882], [174.500510702784, -36.8955670997466], [174.500512798394, -36.8955709581892], [174.50051500204, -36.8955751758158], [174.500517313899, -36.895579761638], [174.500519733971, -36.8955847156556], [174.500522261902, -36.8955900198458], [174.500524898047, -36.8955956922315], [174.500527642227, -36.8956017238012], [174.500530483401, -36.8956081237081], [174.500533443832, -36.8956148826573], [174.500536512475, -36.895622009802], [174.500539689155, -36.8956294961306], [174.500542973872, -36.8956373416432], [174.500546508249, -36.8956453282216], [174.500550554855, -36.8956531100279], [174.500555091074, -36.895660678334], [174.500560139524, -36.895668041868], [174.500565677764, -36.8956752009131], [174.500571716838, -36.8956821463162], [174.500578256922, -36.8956888870886], [174.50058529784, -36.8956954142187], [174.500592828548, -36.8957017368597], [174.500600871311, -36.8957078457165], [174.500609403864, -36.8957137500841], [174.500618437251, -36.8957194408089], [174.500627982869, -36.8957249267607], [174.500638018277, -36.8957302082229], [174.50064855452, -36.8957352760421], [174.500659580554, -36.8957401393714], [174.500671118641, -36.8957447889156], [174.50068314652, -36.8957492339696], [174.500695686453, -36.8957534652384], [174.500708716176, -36.8957574920166], [174.50072224691, -36.8957613141624], [174.500736044097, -36.895764988721], [174.500749594273, -36.8957686573849], [174.500762852735, -36.8957723297324], [174.500775830703, -36.8957760056221], [174.500788550793, -36.8957796937819], [174.500800978992, -36.8957833766142], [174.500813137917, -36.8957870628471], [174.500825005304, -36.8957907617756], [174.50083661446, -36.8957944549517], [174.500847931902, -36.8957981518121], [174.500858980245, -36.895801861085], [174.500869747918, -36.8958055648891], [174.500880246316, -36.8958092720943], [174.500890464396, -36.8958129918539], [174.500900401805, -36.8958167061449], [174.500910069939, -36.8958204238373], [174.500919446535, -36.895824154226], [174.500928564899, -36.8958278788629], [174.500937391549, -36.8958316071848], [174.500945949101, -36.8958353479197], [174.500954225981, -36.8958390831866], [174.500962256732, -36.8958428576175], [174.500970122011, -36.8958467783581], [174.500977844433, -36.8958508541363], [174.500985401559, -36.8958550852357], [174.500992815828, -36.8958594713728], [174.501000076022, -36.8958640126894], [174.501007182139, -36.8958687091855], [174.5010141454, -36.8958735607194], [174.501020943188, -36.8958785585632], [174.501027598297, -36.8958837204563], [174.50103409933, -36.895889037529], [174.50104044611, -36.8958945007698], [174.501046638991, -36.8959001282019], [174.501052688838, -36.8959059016603], [174.501058573567, -36.8959118394517], [174.501064315263, -36.8959179232696], [174.501069902882, -36.8959241622673], [174.501075336602, -36.8959305654563], [174.50108061607, -36.8959371148135], [174.501085752681, -36.8959438192088], [174.501090723997, -36.8959506789258], [174.501095585939, -36.895957684244], [174.50110048313, -36.89596477024], [174.50110543801, -36.8959719366303], [174.501110461799, -36.8959791832731], [174.501115543277, -36.8959865103101], [174.501120682267, -36.8959939087299], [174.501125878946, -36.8960013875439], [174.501131133314, -36.8960089467522], [174.501136456414, -36.8960165772014], [174.50114183738, -36.8960242970562], [174.501147275858, -36.8960320882938], [174.501152771849, -36.8960399509141], [174.501158336926, -36.8960479027983], [174.501163948295, -36.8960559262069], [174.501169628574, -36.896064029868], [174.501175366365, -36.8960722049117], [174.501181173241, -36.8960804692192], [174.501187037631, -36.8960888049094], [174.50119294849, -36.8960972211354], [174.501198928082, -36.8961057086024], [174.501204976583, -36.8961142763216], [174.501211037894, -36.8961229250021], [174.501216830636, -36.896131613131], [174.501222287313, -36.8961403325477], [174.501227419321, -36.8961490921218], [174.501232215264, -36.8961578829837], [174.501236686538, -36.8961667140032], [174.501240832966, -36.8961755761689], [174.501244632285, -36.8961844787757], [174.501248106758, -36.8961934125288], [174.501251256386, -36.896202377428], [174.5012540703, -36.8962113916383], [174.501256559192, -36.8962204279834], [174.501258712194, -36.896229504628], [174.501260529306, -36.8962386215722], [174.501262021572, -36.8962477696628], [174.501263189168, -36.8962569579112], [174.501264020697, -36.8962661774477], [174.50126451616, -36.8962754282724], [174.501264686952, -36.896284719255], [174.501264521853, -36.8962940505372], [174.501264031908, -36.8963034129659], [174.501263216938, -36.8963127975293], [174.501262253815, -36.8963220667868], [174.501261175491, -36.896331184267], [174.501260004054, -36.8963401316632], [174.50125872846, -36.8963489181288], [174.501257348885, -36.8963575526753], [174.501255864976, -36.8963660172796], [174.501254276911, -36.8963743209533], [174.501252584865, -36.8963824727079], [174.501250788485, -36.8963904545203], [174.501248888125, -36.8963982844136], [174.501246883607, -36.8964059533763], [174.501244774756, -36.8964134523968], [174.501242561924, -36.8964207994981], [174.501240244934, -36.8964279856688], [174.501237823788, -36.8964350109088], [174.501235309704, -36.8964418750763], [174.501232680242, -36.896448578455], [174.501229946624, -36.896455120903], [174.501227108848, -36.8964615024202], [174.501224166915, -36.8964677230068], [174.501221132044, -36.8964737825209], [174.501217962005, -36.8964798167019], [174.501214680118, -36.8964858703237], [174.501211263946, -36.8964919436698], [174.501207724883, -36.8964980456099], [174.501204062753, -36.8965041671326], [174.501200266337, -36.8965103083795], [174.501196358075, -36.8965164690672], [174.501192315525, -36.8965226494791], [174.501188150086, -36.8965288584849], [174.50118386158, -36.8965350870733], [174.501179438786, -36.8965413353858], [174.501174893103, -36.8965476122923], [174.501170224353, -36.8965539087812], [174.501165432359, -36.896560215841], [174.501160517651, -36.8965665605061], [174.50115546848, -36.896572915884], [174.501150296419, -36.8965792998557], [174.50114500129, -36.8965857034097], [174.501139583095, -36.8965921265461], [174.501134041832, -36.8965985692648], [174.501128366458, -36.896605040719], [174.501122679864, -36.8966115123148], [174.501117038325, -36.8966179923547], [174.501111452708, -36.896624462674], [174.501105912147, -36.8966309414373], [174.501100416464, -36.8966374196334], [174.501094987924, -36.896643887967], [174.501089593219, -36.8966503648866], [174.501084254437, -36.8966568320856], [174.501078971929, -36.8966633075869], [174.501073734124, -36.8966697735095], [174.501068541375, -36.8966762478762], [174.501063415768, -36.8966827123806], [174.501058323996, -36.896689185471], [174.501053288147, -36.8966956488408], [174.501048308573, -36.896702120513], [174.501043373702, -36.8967085826065], [174.501038483886, -36.8967150531441], [174.501033649993, -36.8967215139613], [174.501028872375, -36.8967279830808], [174.501024139459, -36.8967344426216], [174.501019451599, -36.8967409106067], [174.501014864365, -36.8967473592927], [174.501010434033, -36.8967537969823], [174.501006160074, -36.8967601966411], [174.501002020577, -36.8967665855869], [174.500998049026, -36.8967729543832], [174.500994211584, -36.8967792944437], [174.500990542088, -36.8967856143546], [174.500987006701, -36.8967919055297], [174.500983628217, -36.8967981857086], [174.500980406282, -36.8968044368681], [174.500977329854, -36.8968106681617], [174.500974410151, -36.8968168794475], [174.500971624558, -36.8968230619975], [174.500969006911, -36.8968292243981], [174.50096653477, -36.8968353669327], [174.500964208136, -36.8968414896014], [174.500962038227, -36.8968475922623], [174.500960013649, -36.8968536660458], [174.500958145797, -36.8968597198216], [174.500956423451, -36.8968657537315], [174.500954857655, -36.8968717586222], [174.500953390544, -36.8968776450877], [174.500951940401, -36.8968832519137], [174.50095050705, -36.8968885700885], [174.50094909049, -36.8968935996123], [174.500947702295, -36.8968983583662], [174.500946330892, -36.8969028284691], [174.50094497628, -36.8969070099209], [174.500943649856, -36.8969109115913], [174.5009423404, -36.8969145336222], [174.500941036517, -36.8969178671438], [174.500939772041, -36.8969209207422], [174.500938513137, -36.8969236858314], [174.500937282421, -36.8969261711393], [174.500936068674, -36.8969283768075], [174.500934871718, -36.8969302938247], [174.50093369173, -36.8969319312023], [174.500932539754, -36.8969332797871], [174.500931404747, -36.8969343487324], [174.500930286531, -36.8969351290265], [174.500929185284, -36.8969356296811], [174.500928112225, -36.8969358505544], [174.500927127161, -36.8969359801787], [174.50092639582, -36.8969364581322], [174.500925918379, -36.8969372934263], [174.500925706058, -36.8969384859193], [174.500925759033, -36.8969400446228], [174.500926054688, -36.8969419608086], [174.500926615639, -36.8969442432048], [174.50092744171, -36.8969468827999], [174.500928521681, -36.8969498797356], [174.500929855729, -36.8969532430235], [174.500931454897, -36.8969569635102], [174.500933307964, -36.8969610413375], [174.500935426329, -36.8969654853752], [174.500937798593, -36.8969702867534], [174.500940436155, -36.8969754543419], [174.500943327617, -36.896980979271], [174.500946484199, -36.8969868613988], [174.500949883639, -36.8969931100204], [174.500953559419, -36.8969997156989], [174.500957489277, -36.8970066877293], [174.500961673035, -36.8970140171002], [174.500965998142, -36.8970216872061], [174.500970104498, -36.8970296485147], [174.500973947223, -36.897037901593], [174.500977525964, -36.897046428418], [174.500980852295, -36.8970552468711], [174.500983914818, -36.8970643480825], [174.50098671371, -36.8970737410637], [174.500989259837, -36.8970834076501], [174.500991553554, -36.8970933658645], [174.50099358364, -36.8971036158488], [174.500995349741, -36.89711413958], [174.500996852211, -36.8971249550811], [174.500998113313, -36.8971360530571], [174.500999099387, -36.8971474339332], [174.500999832873, -36.8971590974261], [174.501000302727, -36.8971710526889], [174.501000519993, -36.8971832905684], [174.501000500793, -36.8971891857804], [174.501000994835, -36.8971932086685], [174.501000977423, -36.8971980492534], [174.50100075934, -36.8972046770893], [174.50100031797, -36.8972130834483], [174.500999664709, -36.8972232772002], [174.50099879638, -36.8972350961381], [174.500998787984, -36.8972352404637], [174.500997768553, -36.8972485125189], [174.500996808245, -36.8972607923184], [174.500995946116, -36.8972717819162], [174.500995193385, -36.8972814811705], [174.500994527437, -36.8972898813532], [174.500993982108, -36.8972969910508], [174.500993523737, -36.8973028106884], [174.500993174766, -36.8973073399825], [174.500992716395, -36.8973131596201], [174.500991798925, -36.8973259075914], [174.500987090359, -36.8973851781765], [174.500979536827, -36.8974407259888], [174.500972542693, -36.8974921745058], [174.500966108134, -36.8975395327392], [174.500960221934, -36.8975828008309], [174.500954895312, -36.8976219786392], [174.500950128272, -36.8976570661643], [174.500945909417, -36.8976880545365], [174.500945330392, -36.8976922982981], [174.500942250146, -36.8977149526256], [174.500941760275, -36.8977185913418], [174.500939150459, -36.8977377604317], [174.500938738523, -36.8977407942444], [174.500936599138, -36.8977564780967], [174.500936276356, -36.8977589068641], [174.500934618623, -36.8977711053371], [174.500934373598, -36.8977729201894], [174.500933186297, -36.8977816334249], [174.500933019384, -36.8977828523852], [174.500932302516, -36.8977880803832], [174.500932224581, -36.8977886852867], [174.500931989365, -36.8977904279054], [174.500922214896, -36.8978712511853], [174.500918853256, -36.8979322534058], [174.500922468969, -36.8980394979567], [174.500940061165, -36.8981624120221], [174.500950497639, -36.8982305500224], [174.500962081317, -36.898263862565], [174.500963435936, -36.8982648369576]]}, "properties": {"OBJECTID": 135, "TRACKNAME": "Long Road Track", "CONDITIONSOFUSE": "Waitakere West Regional Park", "STATUS": "Open", "WEBLINK": "https://www.aucklandcouncil.govt.nz/en/parks-recreation/find-park-beach/park-detail/3451.html", "VALIDATIONSTATE": 3, "created_user": "AC_owner", "last_edited_user": "AC_owner", "last_edited_date": 1789875254325, "created_date": 1789875254325, "PARK_SAPSITEID": null, "TRACK_ID": null, "KAURIDIEBACK_TRACK": null, "KAURIDIEBACK_MITIGATED": null, "SegmentID": null, "GlobalID": "8cf27dc2-9e78-45b6-abb5-ae03a94b7ccb", "Shape__Length": 777.0047896321897}}, {"type": "Feature", "id": 1544, "geometry": {"type": "LineString", "coordinates": [[174.50117729834, -36.8983884617593], [174.501463442707, -36.8984483749522], [174.501711347054, -36.8984342815515], [174.501762740433, -36.8984372012803], [174.501900815198, -36.8985048017574], [174.502227653301, -36.8985835699614], [174.502263318298, -36.8986117050248], [174.502360183349, -36.8987694259903], [174.50250337495, -36.8988961063043], [174.502552552429, -36.8989251979822], [174.502623326427, -36.8989174307119], [174.50295976915, -36.8988293343617], [174.502992357433, -36.8987976336569], [174.503060355042, -36.898682893192], [174.5031158745, -36.898629816533]]}, "properties": {"OBJECTID": 1544, "TRACKNAME": "Long Road Track", "CONDITIONSOFUSE": "Waitakere West Regional Park", "STATUS": "Open", "WEBLINK": "https://www.aucklandcouncil.govt.nz/en/parks-recreation/find-park-beach/park-detail/3451.html", "VALIDATIONSTATE": 3, "created_user": "AC_owner", "last_edited_user": "AC_owner", "last_edited_date": 1789875254325, "created_date": 1789875254325, "PARK_SAPSITEID": null, "TRACK_ID": null, "KAURIDIEBACK_TRACK": null, "KAURIDIEBACK_MITIGATED": null, "SegmentID": null, "GlobalID": "4e627b6d-a9fa-4072-9642-806c97a7a594", "Shape__Length": 210.55699132115632}}, {"type": "Feature", "id": 1548, "geometry": {"type": "LineString", "coordinates": [[174.51197125063, -36.9077826134684], [174.512099220879, -36.9077446547862], [174.512151326038, -36.9077027853966], [174.512184991377, -36.907661575286], [174.512186343009, -36.9076221277049], [174.512115252909, -36.907390774342], [174.512106564552, -36.9073326808629], [174.512131113753, -36.9073003012495], [174.512260390457, -36.9072091684474], [174.512282837154, -36.9071724628614], [174.512285195329, -36.9071414185418], [174.512258303805, -36.9070947157732], [174.512040361434, -36.9068040145249], [174.511925090931, -36.906686680497], [174.511773485467, -36.906598783306], [174.511753942141, -36.9065742227607], [174.51174954702, -36.906539883362], [174.511571775033, -36.9062471448195], [174.511536479313, -36.9060579874009], [174.511539711908, -36.9059123679598], [174.511531735338, -36.9058714301319], [174.511323917602, -36.9056013138771], [174.511260321799, -36.9055418322378], [174.511103397911, -36.9054587619408], [174.510977726313, -36.9054457367938], [174.510789119821, -36.9054483178801], [174.510763142494, -36.9054391857057], [174.510725351584, -36.9054104006942], [174.51056746679, -36.9052652934455], [174.510465136509, -36.9051489831726], [174.510418865556, -36.905035231957], [174.510417431208, -36.90488847663], [174.510402844618, -36.9048129903518], [174.510360136866, -36.9047638192726], [174.5101855442, -36.9046069348091], [174.510137243837, -36.9045893637472], [174.509913622236, -36.9045420687254], [174.509713246561, -36.9043813730947], [174.509400971376, -36.9042811180455], [174.509140251671, -36.9041481184179], [174.509081791378, -36.9041271516447], [174.508734706026, -36.9041207468875], [174.507823470505, -36.9041658212603], [174.507783334265, -36.9041643441129], [174.507760891031, -36.9041545300451], [174.507695182832, -36.9040022231603], [174.507642602839, -36.9039094338069], [174.507613251384, -36.9038849005889], [174.507476587382, -36.9038085809217], [174.50743661128, -36.9037784407674], [174.507243932629, -36.9035585511951], [174.507161365104, -36.903429031815], [174.507055349382, -36.9033530907415], [174.50699043188, -36.9031114620561], [174.506948728474, -36.903031308596], [174.506727778398, -36.9027737407686], [174.506276491208, -36.9022213412141], [174.506221825976, -36.9021659114691], [174.505994283651, -36.9019873055915], [174.505857663728, -36.9017944813242], [174.50581613591, -36.9017707320553], [174.505648933526, -36.9017277982888], [174.505416634538, -36.901613081196], [174.505387961283, -36.9016140151397], [174.505308625292, -36.9016406491921]]}, "properties": {"OBJECTID": 1548, "TRACKNAME": "Long Road Track", "CONDITIONSOFUSE": "Waitakere West Regional Park", "STATUS": "Open", "WEBLINK": "https://www.aucklandcouncil.govt.nz/en/parks-recreation/find-park-beach/park-detail/3451.html", "VALIDATIONSTATE": 3, "created_user": "AC_owner", "last_edited_user": "AC_owner", "last_edited_date": 1789875254325, "created_date": 1789875254325, "PARK_SAPSITEID": null, "TRACK_ID": null, "KAURIDIEBACK_TRACK": null, "KAURIDIEBACK_MITIGATED": null, "SegmentID": null, "GlobalID": "3614bb44-277f-4dcd-845a-92bc36f04439", "Shape__Length": 1055.8007787605043}}, {"type": "Feature", "id": 2561, "geometry": {"type": "LineString", "coordinates": [[174.500963435936, -36.8982648369576], [174.501081470803, -36.8983503548781], [174.50117729834, -36.8983884617593]]}, "properties": {"OBJECTID": 2561, "TRACKNAME": "Long Road Track", "CONDITIONSOFUSE": "Waitakere West Regional Park", "STATUS": "Closed upgrade", "WEBLINK": "https://www.aucklandcouncil.govt.nz/en/parks-recreation/find-park-beach/park-detail/3451.html", "VALIDATIONSTATE": 3, "created_user": "AC_owner", "last_edited_user": "AC_owner", "last_edited_date": 1789875254325, "created_date": 1789875254325, "PARK_SAPSITEID": null, "TRACK_ID": null, "KAURIDIEBACK_TRACK": null, "KAURIDIEBACK_MITIGATED": null, "SegmentID": null, "GlobalID": "f8088361-462d-43e6-a158-7c7b1190dfea", "Shape__Length": 23.695009094532047}}, {"type": "Feature", "id": 2710, "geometry": {"type": "LineString", "coordinates": [[174.505210309584, -36.9016482181425], [174.505151228035, -36.9016328394547], [174.505104376722, -36.9016006078884], [174.504995605552, -36.9014543199186], [174.504975871073, -36.9014159056601], [174.50498754039, -36.9013782689193], [174.505261693794, -36.9010617438691], [174.505293294957, -36.9009995670987], [174.505291183071, -36.9008648227536], [174.50525918619, -36.9006565185829], [174.505241308404, -36.9006066352329], [174.505133411108, -36.9004419239859], [174.505141773981, -36.9002881424571], [174.505131250473, -36.9002497755554], [174.505086705598, -36.9002129889612], [174.504666667581, -36.8999309180558], [174.504533093534, -36.8997682458648], [174.504352955475, -36.8995972405363], [174.504053659028, -36.8993642592423], [174.503894618308, -36.8991232821549], [174.50379237308, -36.8988787726907], [174.503763495765, -36.8988347736725], [174.503708016326, -36.8988125532012], [174.503411261165, -36.8987386958205]]}, "properties": {"OBJECTID": 2710, "TRACKNAME": "Long Road Track", "CONDITIONSOFUSE": "Waitakere West Regional Park", "STATUS": "Open", "WEBLINK": "https://www.aucklandcouncil.govt.nz/en/parks-recreation/find-park-beach/park-detail/3451.html", "VALIDATIONSTATE": 3, "created_user": "AC_owner", "last_edited_user": "AC_owner", "last_edited_date": 1789875254325, "created_date": 1789875254325, "PARK_SAPSITEID": null, "TRACK_ID": null, "KAURIDIEBACK_TRACK": null, "KAURIDIEBACK_MITIGATED": null, "SegmentID": null, "GlobalID": "fd40f86e-6ba4-48e7-86b8-8291c9a19cac", "Shape__Length": 410.88435125035994}}, {"type": "Feature", "id": 2718, "geometry": {"type": "LineString", "coordinates": [[174.500964410179, -36.8907790304983], [174.500935764053, -36.8908244700505], [174.500779868654, -36.8910794457488], [174.500755174491, -36.8911198327167], [174.500692966114, -36.8912215812686], [174.500372647191, -36.8914514479351], [174.499756870819, -36.8917666182311], [174.499408533629, -36.891870706992], [174.499201235473, -36.8919318402796], [174.499149859318, -36.8919719146428], [174.499104745608, -36.89201890461], [174.49906188515, -36.8920640543694], [174.499021277774, -36.8921073549116], [174.498982912269, -36.8921488063805], [174.498946811254, -36.8921884175065], [174.498912952299, -36.8922261885746], [174.49888135767, -36.8922621102922], [174.498852004934, -36.892296182944], [174.498824905493, -36.8923284154015], [174.498800059351, -36.8923588076662], [174.498777466336, -36.892387350728], [174.498757126628, -36.8924140535995], [174.498739040056, -36.8924389072704], [174.498723206622, -36.8924619117416]]}, "properties": {"OBJECTID": 2718, "TRACKNAME": "Long Road Track", "CONDITIONSOFUSE": "Waitakere North Regional Park", "STATUS": "Open", "WEBLINK": "https://www.aucklandcouncil.govt.nz/en/parks-recreation/find-park-beach/park-detail/3407.html", "VALIDATIONSTATE": 3, "created_user": "AC_owner", "last_edited_user": "AC_owner", "last_edited_date": 1789875254325, "created_date": 1789875254325, "PARK_SAPSITEID": null, "TRACK_ID": null, "KAURIDIEBACK_TRACK": null, "KAURIDIEBACK_MITIGATED": null, "SegmentID": null, "GlobalID": "03f1120c-651e-450f-afae-dfa26172584e", "Shape__Length": 283.6859444589817}}, {"type": "Feature", "id": 2873, "geometry": {"type": "LineString", "coordinates": [[174.497020044015, -36.8864044062896], [174.49705100994, -36.8867018722501], [174.497067475586, -36.8867520695704], [174.497350537021, -36.8871458376858], [174.497398205519, -36.8872343196175], [174.497498289257, -36.8875152420602], [174.497523276228, -36.8878017170267], [174.497733980846, -36.8880917449093], [174.497730182943, -36.8881380070907], [174.497654138607, -36.8882800576705], [174.497644088049, -36.8883710058226], [174.497655200499, -36.888410797469], [174.497739616415, -36.8885317963274], [174.497758847828, -36.8886844447792], [174.497781875509, -36.8887287192522], [174.497877852306, -36.8888061810539], [174.498263472454, -36.8890278876342], [174.498314422661, -36.8890292461236], [174.498530023622, -36.88898792914], [174.498594814862, -36.8889855164463], [174.499149907691, -36.8891091410232], [174.499198478732, -36.8891276994056], [174.499312817354, -36.8891926065445], [174.499361767455, -36.8892075915403], [174.49954312467, -36.8892267471323], [174.499780674193, -36.8892106245367], [174.49984115692, -36.8892168376072], [174.500069418588, -36.8893671971488], [174.500541395085, -36.8896213918498], [174.500591840322, -36.8896680127521], [174.500800463713, -36.8899242426344], [174.5008519968, -36.8900126481241], [174.500988049706, -36.8904097946909], [174.501044563378, -36.8906441955434], [174.500964939954, -36.8907792076849]]}, "properties": {"OBJECTID": 2873, "TRACKNAME": "Long Road Track", "CONDITIONSOFUSE": "Waitakere North Regional Park", "STATUS": "Open", "WEBLINK": "https://www.aucklandcouncil.govt.nz/en/parks-recreation/find-park-beach/park-detail/3407.html", "VALIDATIONSTATE": 3, "created_user": "AC_owner", "last_edited_user": "AC_owner", "last_edited_date": 1789875254325, "created_date": 1789875254325, "PARK_SAPSITEID": null, "TRACK_ID": null, "KAURIDIEBACK_TRACK": null, "KAURIDIEBACK_MITIGATED": null, "SegmentID": null, "GlobalID": "fc8e1f20-0ce6-4b39-a9be-ba3684bfdbd5", "Shape__Length": 694.3813441883127}}]}