{"type": "FeatureCollection", "features": [{"type": "Feature", "id": 73, "geometry": {"type": "LineString", "coordinates": [[174.769204058819, -36.444159011254], [174.769026194309, -36.4440787371876], [174.76879272942, -36.4440227233348], [174.768604439637, -36.4439770907043], [174.768476403465, -36.443941120299], [174.768321354753, -36.443894724201], [174.768206579614, -36.4438531486072], [174.768151684453, -36.4437944605354], [174.768123556117, -36.443735366855], [174.768135232389, -36.4436594582352], [174.768160158225, -36.4435779449085], [174.768210389045, -36.4434311378209], [174.768292861725, -36.4432297509556], [174.768323139776, -36.4430886478587], [174.76841627514, -36.4428552113792], [174.768485905265, -36.4426921439007], [174.768525204577, -36.4426344217822], [174.768580949835, -36.4425610329778], [174.768628548259, -36.442517511085], [174.768679160598, -36.4424775050369], [174.768712685233, -36.442462739027], [174.768750707136, -36.442451466885], [174.76880489575, -36.442438765273], [174.768855832018, -36.4424130325271], [174.768982272163, -36.4423409844114], [174.769216521866, -36.4422185632146], [174.769321187177, -36.4421599168623], [174.769377714539, -36.4421210126774], [174.769402027786, -36.4420897251718], [174.769403013888, -36.4420683023012], [174.769397976324, -36.4420410194983], [174.769395991116, -36.4420184508326], [174.769398260272, -36.4419886800027], [174.769405053924, -36.4419636014838], [174.76942364061, -36.4419395379652], [174.76943948304, -36.4419238350538], [174.769452570478, -36.441916510938], [174.769475140699, -36.4419032862756]]}, "properties": {"OBJECTID": 73, "TRACKNAME": "Lookout Track", "CONDITIONSOFUSE": "Scandrett Regional Park", "STATUS": "Open", "WEBLINK": "https://www.aucklandcouncil.govt.nz/en/parks-recreation/find-park-beach/park-detail/225.html", "VALIDATIONSTATE": 3, "created_user": "AC_owner", "last_edited_user": "AC_owner", "last_edited_date": 1789875254325, "created_date": 1789875254325, "PARK_SAPSITEID": null, "TRACK_ID": null, "KAURIDIEBACK_TRACK": null, "KAURIDIEBACK_MITIGATED": null, "SegmentID": null, "GlobalID": "a01df314-d970-4183-94a5-0c94a0e9406d", "Shape__Length": 363.28217233058155}}, {"type": "Feature", "id": 130, "geometry": {"type": "LineString", "coordinates": [[174.430638817311, -36.8309007925906], [174.430678110017, -36.8309105144138], [174.430758940865, -36.8309228821342], [174.430826906709, -36.8309296447729], [174.430857673149, -36.8309313115918]]}, "properties": {"OBJECTID": 130, "TRACKNAME": "Lookout Track", "CONDITIONSOFUSE": "Muriwai Regional Park", "STATUS": "Open", "WEBLINK": "https://www.aucklandcouncil.govt.nz/en/parks-recreation/find-park-beach/park-detail/220.html", "VALIDATIONSTATE": 3, "created_user": "AC_owner", "last_edited_user": "AC_owner", "last_edited_date": 1789875254325, "created_date": 1789875254325, "PARK_SAPSITEID": null, "TRACK_ID": null, "KAURIDIEBACK_TRACK": null, "KAURIDIEBACK_MITIGATED": null, "SegmentID": null, "GlobalID": "8c7ac359-3b36-4a36-ae4c-a68e68c31bcd", "Shape__Length": 19.864042114868504}}, {"type": "Feature", "id": 1521, "geometry": {"type": "LineString", "coordinates": [[174.430857673149, -36.8309313115918], [174.43093593196, -36.8310072580644], [174.431042285756, -36.8310443859843], [174.431168341528, -36.8311043972355], [174.431275348806, -36.8311723716148], [174.431458804052, -36.8312238763991], [174.431536713634, -36.8312768232284], [174.431528745591, -36.8313540870727], [174.431453294912, -36.8314168489453], [174.431416538357, -36.8314945045098], [174.431438997775, -36.8316485067441], [174.431479486451, -36.8317482536118], [174.431529427936, -36.8318401707422], [174.431503242078, -36.8319639763263]]}, "properties": {"OBJECTID": 1521, "TRACKNAME": "Lookout Track", "CONDITIONSOFUSE": "Muriwai Regional Park", "STATUS": "Open", "WEBLINK": "https://www.aucklandcouncil.govt.nz/en/parks-recreation/find-park-beach/park-detail/220.html", "VALIDATIONSTATE": 3, "created_user": "AC_owner", "last_edited_user": "AC_owner", "last_edited_date": 1789875254325, "created_date": 1789875254325, "PARK_SAPSITEID": null, "TRACK_ID": null, "KAURIDIEBACK_TRACK": null, "KAURIDIEBACK_MITIGATED": null, "SegmentID": null, "GlobalID": "987fcdf4-b569-49e2-a109-e6426509b1f6", "Shape__Length": 154.35753085433447}}, {"type": "Feature", "id": 1724, "geometry": {"type": "LineString", "coordinates": [[174.820362947667, -36.6091729187078], [174.820345786042, -36.6092865912909], [174.820479425524, -36.6094325991575], [174.82061512255, -36.6096570576807], [174.820635966543, -36.6100404612141], [174.820558136636, -36.6103732104544], [174.820611436407, -36.6107560728814], [174.820783923001, -36.6111456135535], [174.820922818792, -36.6114921222298], [174.821004211678, -36.6117087841252], [174.821158583994, -36.6118195371053], [174.821343104698, -36.6118425583669], [174.821505988411, -36.6118659552493], [174.821615051221, -36.611898990303], [174.821637359634, -36.6119247708569], [174.821616415981, -36.611951293919], [174.821582962768, -36.6119983251253], [174.821619933734, -36.6120247738304]]}, "properties": {"OBJECTID": 1724, "TRACKNAME": "Lookout Track", "CONDITIONSOFUSE": "Shakespear Regional Park", "STATUS": "Open", "WEBLINK": "https://www.aucklandcouncil.govt.nz/en/parks-recreation/find-park-beach/park-detail/226.html", "VALIDATIONSTATE": 3, "created_user": "AC_owner", "last_edited_user": "AC_owner", "last_edited_date": 1789875254325, "created_date": 1789875254325, "PARK_SAPSITEID": null, "TRACK_ID": null, "KAURIDIEBACK_TRACK": null, "KAURIDIEBACK_MITIGATED": null, "SegmentID": null, "GlobalID": "e033b12d-10a0-45d1-988b-31916747b964", "Shape__Length": 372.7041386341872}}, {"type": "Feature", "id": 1941, "geometry": {"type": "LineString", "coordinates": [[174.431503242078, -36.8319639763263], [174.431569202529, -36.832094005942], [174.431686317876, -36.832185005854], [174.43184162941, -36.8322677485661], [174.432140242354, -36.832317675831], [174.432303522142, -36.8323231630755], [174.432436561737, -36.8322596256088], [174.43251348671, -36.8322662973379], [174.432629938056, -36.8323264317504]]}, "properties": {"OBJECTID": 1941, "TRACKNAME": "Lookout Track", "CONDITIONSOFUSE": "Muriwai Regional Park", "STATUS": "Open", "WEBLINK": "https://www.aucklandcouncil.govt.nz/en/parks-recreation/find-park-beach/park-detail/220.html", "VALIDATIONSTATE": 3, "created_user": "AC_owner", "last_edited_user": "AC_owner", "last_edited_date": 1789875254325, "created_date": 1789875254325, "PARK_SAPSITEID": null, "TRACK_ID": null, "KAURIDIEBACK_TRACK": null, "KAURIDIEBACK_MITIGATED": null, "SegmentID": null, "GlobalID": "006bc71b-be2f-4141-a033-f90fe1c09eb2", "Shape__Length": 121.55174398254987}}, {"type": "Feature", "id": 2130, "geometry": {"type": "LineString", "coordinates": [[174.768037426033, -36.4406859170283], [174.768053887062, -36.4406856731645], [174.768080597199, -36.4406852774593], [174.768103900456, -36.4406822370342], [174.768144132567, -36.44068973556], [174.768164284672, -36.4406948273703], [174.768187832715, -36.4407025730647], [174.768201733139, -36.4407266508441], [174.768199255418, -36.4407644562297], [174.768200234782, -36.4408076097832], [174.768207098759, -36.4408156026621], [174.768211412516, -36.4408586977988], [174.768218632639, -36.4408828745507], [174.768239519392, -36.4409203337633], [174.768259977716, -36.4409389149825], [174.768290206186, -36.440946561675], [174.768356569926, -36.4409242332047], [174.768403254325, -36.4409260022835], [174.768453696144, -36.4409414349792], [174.768490961173, -36.4409651665015], [174.768518333597, -36.4409944349809], [174.768539036844, -36.4410238022829], [174.768569938742, -36.4410611130215], [174.768587602484, -36.4411040193191], [174.768598841888, -36.4411578105793], [174.768599576434, -36.4411901689772], [174.768610632171, -36.4412358683828], [174.76862162676, -36.4412788735065], [174.768646950387, -36.4413648253197], [174.768654905272, -36.4414213604339], [174.768676037453, -36.4414696146999], [174.768690121667, -36.441501775252], [174.768700687777, -36.4415259023816], [174.7687181678, -36.4415607077897], [174.768742389608, -36.4415981174783], [174.768769590005, -36.4416193028832], [174.768790232352, -36.4416459758517], [174.768830771076, -36.4416669545398], [174.768894808214, -36.441692984312], [174.768928482858, -36.4417059701313], [174.768975028517, -36.441697185641], [174.76901768854, -36.4416641840236], [174.769037106209, -36.4416369172894], [174.769043602873, -36.4416287264155], [174.769095326112, -36.4416298165881]]}, "properties": {"OBJECTID": 2130, "TRACKNAME": "Lookout Track", "CONDITIONSOFUSE": "Scandrett Regional Park", "STATUS": "Open", "WEBLINK": "https://www.aucklandcouncil.govt.nz/en/parks-recreation/find-park-beach/park-detail/225.html", "VALIDATIONSTATE": 3, "created_user": "AC_owner", "last_edited_user": "AC_owner", "last_edited_date": 1789875254325, "created_date": 1789875254325, "PARK_SAPSITEID": null, "TRACK_ID": null, "KAURIDIEBACK_TRACK": null, "KAURIDIEBACK_MITIGATED": null, "SegmentID": null, "GlobalID": "70cca0a5-0cda-4131-b4b7-3ccb1f29ce62", "Shape__Length": 178.84625626876445}}, {"type": "Feature", "id": 2335, "geometry": {"type": "LineString", "coordinates": [[174.431487364018, -36.8298501133206], [174.43144199792, -36.8299741769291], [174.431361016342, -36.8302298935618], [174.43130605406, -36.8303540997018], [174.431326541558, -36.8304155440803], [174.431433238079, -36.8304680902968], [174.431491146491, -36.8304827346225], [174.431558960822, -36.830512673378], [174.431580268269, -36.8306126872771], [174.43153408223, -36.830698181341], [174.431421067674, -36.8308000380818], [174.431153851079, -36.8308731220782], [174.430953164516, -36.8309144419386], [174.430857673149, -36.8309313115918]]}, "properties": {"OBJECTID": 2335, "TRACKNAME": "Lookout Track", "CONDITIONSOFUSE": "Muriwai Regional Park", "STATUS": "Open", "WEBLINK": "https://www.aucklandcouncil.govt.nz/en/parks-recreation/find-park-beach/park-detail/220.html", "VALIDATIONSTATE": 3, "created_user": "AC_owner", "last_edited_user": "AC_owner", "last_edited_date": 1789875254325, "created_date": 1789875254325, "PARK_SAPSITEID": null, "TRACK_ID": null, "KAURIDIEBACK_TRACK": null, "KAURIDIEBACK_MITIGATED": null, "SegmentID": null, "GlobalID": "a359ef20-8909-48a3-af9e-a43d4d7766df", "Shape__Length": 177.90065258963332}}]}