{"type": "FeatureCollection", "features": [{"type": "Feature", "id": 12027, "geometry": {"type": "LineString", "coordinates": [[175.06712978045, -36.8053774854987], [175.067128076872, -36.8053703199991], [175.067010931779, -36.8053063975721], [175.06701092837, -36.8053063958288], [175.066861264142, -36.8052279904736], [175.066861259589, -36.8052279878488], [175.066752881873, -36.8051792727791], [175.066752875054, -36.8051792692924], [175.066708108172, -36.8051601503458], [175.066708101377, -36.80516014776], [175.066660872886, -36.8051431031331], [175.066660869501, -36.8051431022906], [175.066620250202, -36.8051360905501], [175.066620240071, -36.8051360889236], [175.066580187525, -36.8051341488781], [175.066580176321, -36.8051341490729], [175.066509623871, -36.8051398910657], [175.066509616053, -36.8051398921029], [175.066374274734, -36.8051617687814], [175.066264069501, -36.8051797780447], [175.06626406614, -36.8051797781031], [175.066102464704, -36.8051964047358], [175.066102456886, -36.805196405773], [175.065945126486, -36.805215311272], [175.065945120908, -36.8052153122702], [175.065893076208, -36.8052203681323], [175.065893065005, -36.805220368327], [175.065825873226, -36.8052260470067], [175.065825867649, -36.805226048005], [175.065764299646, -36.8052370439679], [175.065764294092, -36.805237045867], [175.065712584034, -36.8052535964974], [175.065712578481, -36.8052535983965], [175.065675088291, -36.8052671808754], [175.065675078329, -36.805267185555], [175.06559937993, -36.8052984143234], [175.065599376617, -36.8052984161836], [175.065471575774, -36.8053621337309], [175.065471572461, -36.805362135591], [175.065322222712, -36.8054374306122], [175.065322214966, -36.805437434352], [175.065200388954, -36.8055037418129], [175.06516811103, -36.8055229776073], [175.065168108838, -36.8055229794479], [175.065126345709, -36.8055573786388], [175.065126379778, -36.8055576871949]]}, "properties": {"OBJECTID": 12027, "TRACKNAME": "Loop to Pavilion Link", "CONDITIONSOFUSE": "Onetangi Sports Park (Rangihoua)", "STATUS": "Open", "WEBLINK": "https://www.aucklandcouncil.govt.nz/en/parks-recreation/find-park-beach/park-detail/120.html", "VALIDATIONSTATE": 3, "created_user": "AC_owner", "last_edited_user": "AC_owner", "last_edited_date": 1789875254325, "created_date": 1789875254325, "PARK_SAPSITEID": null, "TRACK_ID": null, "KAURIDIEBACK_TRACK": null, "KAURIDIEBACK_MITIGATED": null, "SegmentID": null, "GlobalID": "ba26b56a-94cf-451b-9c9a-97bd5af4bf2c", "Shape__Length": 198.12208604966287}}]}