{"type": "FeatureCollection", "features": [{"type": "Feature", "id": 12029, "geometry": {"type": "LineString", "coordinates": [[175.066564178181, -36.8068999063366], [175.066564180349, -36.8068999035949], [175.066594678806, -36.8068849714457], [175.066594685431, -36.8068849677253], [175.066635565745, -36.806868426515], [175.066635571274, -36.806868423715], [175.066737582084, -36.8068260734826], [175.066737584276, -36.8068260716419], [175.066832395029, -36.8067890326166], [175.066832405015, -36.8067890288378], [175.066989032299, -36.8067384886175], [175.067144687543, -36.8066864878562], [175.067144690879, -36.8066864868969], [175.067163204681, -36.8066804651062], [175.067163213619, -36.8066804640495], [175.067240984621, -36.8066827655547], [175.067244655629, -36.8066800221361]]}, "properties": {"OBJECTID": 12029, "TRACKNAME": "Loop Link", "CONDITIONSOFUSE": "Onetangi Sports Park (Rangihoua)", "STATUS": "Open", "WEBLINK": "https://www.aucklandcouncil.govt.nz/en/parks-recreation/find-park-beach/park-detail/120.html", "VALIDATIONSTATE": 3, "created_user": "AC_owner", "last_edited_user": "AC_owner", "last_edited_date": 1789875254325, "created_date": 1789875254325, "PARK_SAPSITEID": null, "TRACK_ID": null, "KAURIDIEBACK_TRACK": null, "KAURIDIEBACK_MITIGATED": null, "SegmentID": null, "GlobalID": "da75726b-5315-42dd-a476-5f4d203a6348", "Shape__Length": 66.20179127529619}}]}