{"type": "FeatureCollection", "features": [{"type": "Feature", "id": 2364, "geometry": {"type": "LineString", "coordinates": [[175.163865599496, -37.1351097058784], [175.163859562648, -37.1351419906296], [175.163844041841, -37.1351772334341], [175.163836504392, -37.1352058414655], [175.163828939918, -37.1352402179678], [175.163825200388, -37.1352685854022], [175.163823618616, -37.1353007797782], [175.163831469647, -37.1353321710153], [175.163852330118, -37.135353960714], [175.163875467521, -37.1353647947301], [175.163886386068, -37.13536991268], [175.163919630794, -37.135377146373], [175.163954247541, -37.1353835438766], [175.163988261668, -37.1353881498833], [175.164030626548, -37.1353926934854], [175.164068974256, -37.1353964993221], [175.164109420538, -37.1354052146594], [175.164149750427, -37.1354134003732], [175.164187747064, -37.135424242306], [175.164252786017, -37.1354363927657], [175.164299586763, -37.1354468845836], [175.164359250049, -37.1354655320281], [175.164414466864, -37.1354881270151], [175.164454791374, -37.1355024411976], [175.164510135429, -37.1355259440735], [175.164559157215, -37.1355491929115], [175.164593646392, -37.1355704631219], [175.16463302232, -37.1356004672465], [175.164673292616, -37.1356294636466], [175.164695921394, -37.1356516715079], [175.164717536067, -37.1356805581029], [175.164727095842, -37.1357094846894], [175.164726100971, -37.1357432996034], [175.16471901838, -37.1357712685021], [175.16470425055, -37.1358100125163], [175.164684346369, -37.1358510133598], [175.164669197253, -37.1358830951128], [175.164654232678, -37.1359279711902], [175.164641853351, -37.1359624447144], [175.164629451936, -37.136002857854], [175.164617875358, -37.1360852449886], [175.164609466292, -37.1361417174973], [175.164610319834, -37.1361752192536], [175.164599926419, -37.1362043301263], [175.164581636047, -37.1362403446149], [175.164572980213, -37.1362656475194], [175.164571971734, -37.1362950375598], [175.164586296173, -37.1363580343433], [175.164646399046, -37.1365322827771], [175.164802528291, -37.1366363811454], [175.164849387904, -37.1366556227578], [175.164866137595, -37.1366604961795], [175.164938619018, -37.1367155474676], [175.165008031693, -37.1368100004868], [175.165023959206, -37.1368948591825], [175.165002632686, -37.1370656384693], [175.164828348331, -37.1373151092179], [175.164681521062, -37.1374154896304], [175.164383499934, -37.1374611819644], [175.1638752708, -37.137434987406], [175.163875049434, -37.1374350013626], [175.163103725785, -37.1375017996115], [175.162438336407, -37.1374391511278], [175.161879391643, -37.1377536390347], [175.161417516877, -37.1381422295307], [175.160579084871, -37.1386139941575], [175.159084607855, -37.1393264103003], [175.157857894684, -37.1395023940258], [175.15738436978, -37.1395117292604], [175.155868802474, -37.1395416594101], [175.15520807251, -37.1396305475738], [175.154552118841, -37.1398711693572], [175.153983775656, -37.1398823143794], [175.15369493247, -37.1397362727924], [175.153466295327, -37.1392484465656], [175.1534499195, -37.1388639024138], [175.15320737761, -37.1382980278761], [175.152997097422, -37.1380516176827], [175.152730485635, -37.1379429318947], [175.152972882237, -37.1377374951313], [175.153398653072, -37.1371575823243], [175.153907260153, -37.1357215988001], [175.153881167092, -37.1351289887778], [175.153285179843, -37.1342356890495], [175.15330141787, -37.1330701427837], [175.15330312214, -37.1329499934063], [175.153680247931, -37.1322822987655], [175.153352080647, -37.1315862445008], [175.152821698114, -37.1308780914777], [175.152707457083, -37.1301646384435], [175.153011067648, -37.1297524696229], [175.152982716677, -37.1293740816361], [175.153186506825, -37.1289734595378], [175.153191066571, -37.1284631975782], [175.153065994439, -37.1282746217182], [175.152560939207, -37.1278861574378], [175.152380152378, -37.1274245860428], [175.153060255789, -37.1260744158419], [175.153607627874, -37.1255335608862], [175.153830631232, -37.1251695306684], [175.15389520511, -37.1247463829146], [175.15378753482, -37.1243563775032], [175.153818091006, -37.1240295517347], [175.154571867032, -37.1228085979136], [175.154610908482, -37.1221722726856], [175.154296116714, -37.1214916580892], [175.154129189444, -37.1208215940919], [175.15307066678, -37.1202944211662], [175.152691349015, -37.119965668708], [175.151491027964, -37.1199885487523], [175.151201830646, -37.119994069304], [175.150081091105, -37.1197493149772], [175.1499024651, -37.1197733656385], [175.149868312388, -37.1184642874047], [175.1496564495, -37.1172407889433], [175.149358881621, -37.1169531534803], [175.148497120735, -37.1165585304286], [175.147690094659, -37.1164386289381], [175.14810079502, -37.1160303895977], [175.148181409936, -37.1157601390486], [175.148071939916, -37.1138765424168], [175.147732478752, -37.1132685276782], [175.14729650307, -37.1124856512264], [175.147137685399, -37.111965009289], [175.147226786585, -37.1116406294926], [175.147555319409, -37.1111759392475], [175.147435725245, -37.1105260051528], [175.147470120026, -37.1101079217906], [175.14757192546, -37.1099553245489]]}, "properties": {"OBJECTID": 2364, "TRACKNAME": "Lower Mangatawhiri Track", "CONDITIONSOFUSE": "Hunua Ranges Regional Park", "STATUS": "Permanent", "WEBLINK": "https://www.aucklandcouncil.govt.nz/en/parks-recreation/find-park-beach/park-detail/213.html", "VALIDATIONSTATE": 3, "created_user": "AC_owner", "last_edited_user": "AC_owner", "last_edited_date": 1789875254325, "created_date": 1789875254325, "PARK_SAPSITEID": null, "TRACK_ID": null, "KAURIDIEBACK_TRACK": null, "KAURIDIEBACK_MITIGATED": null, "SegmentID": null, "GlobalID": "5a5d8d87-4573-4988-8bcb-b8ee721a7a4a", "Shape__Length": 5337.545695419816}}, {"type": "Feature", "id": 12191, "geometry": {"type": "LineString", "coordinates": [[175.147456930587, -37.1101004821089], [175.147279715561, -37.1100040055193], [175.147075196457, -37.1099862520358], [175.146830237343, -37.1099801719573], [175.146707928175, -37.1099825677009], [175.146490141498, -37.1099759586806], [175.146230266106, -37.1099266170091], [175.145901096123, -37.1098350620457], [175.145749603148, -37.109772698457], [175.145639550427, -37.1097312956121], [175.145557010772, -37.1097002366527], [175.145226842319, -37.1095760274445], [175.145089947896, -37.1095460511428], [175.144870502913, -37.1094850064199], [175.144759780825, -37.1094218405843], [175.144513153198, -37.1093613321676], [175.144361662238, -37.1092989667334], [175.144237354723, -37.1092360642289], [175.144084864295, -37.1091410370761], [175.143888617259, -37.1089488440475], [175.143762641237, -37.1088315265018], [175.143663836878, -37.1087136542647], [175.143604155231, -37.1085405755492], [175.143586230923, -37.1083993488956], [175.143608598307, -37.1081788582741], [175.143641341072, -37.1080303784899], [175.14366375243, -37.1079184889894], [175.143701322612, -37.1078404530604], [175.143727149661, -37.1077489782424], [175.143791894335, -37.1076272221361], [175.143853863068, -37.1075077909723], [175.143885881422, -37.1074344058397], [175.143895959429, -37.1073645773773], [175.143924969773, -37.1072304156448], [175.143928839491, -37.1071218347299]]}, "properties": {"OBJECTID": 12191, "TRACKNAME": "Lower Mangatawhiri Track", "CONDITIONSOFUSE": "Hunua Ranges Regional Park", "STATUS": "Temp Closed", "WEBLINK": "https://www.aucklandcouncil.govt.nz/en/parks-recreation/find-park-beach/park-detail/213.html", "VALIDATIONSTATE": 3, "created_user": "AC_owner", "last_edited_user": "AC_owner", "last_edited_date": 1789875254325, "created_date": 1789875254325, "PARK_SAPSITEID": null, "TRACK_ID": null, "KAURIDIEBACK_TRACK": null, "KAURIDIEBACK_MITIGATED": null, "SegmentID": null, "GlobalID": "609f85c9-2299-4429-8456-6846df05d364", "Shape__Length": 566.5768668202603}}]}