{"type": "FeatureCollection", "features": [{"type": "Feature", "id": 26, "geometry": {"type": "LineString", "coordinates": [[174.500964410179, -36.8907790304983], [174.501053330893, -36.8908127721017], [174.5012564749, -36.8908245280089], [174.501674948188, -36.8908891856328], [174.50173562905, -36.8908853899851], [174.501783734714, -36.8908606341197], [174.501829277263, -36.8908070126413], [174.501861085098, -36.8907866541547], [174.502200079769, -36.8906792511804], [174.502257345638, -36.8906552446146], [174.502510815606, -36.89038000504], [174.502961368579, -36.8901069048533], [174.503062192769, -36.8900741173115], [174.503270328488, -36.8900286416096], [174.503589647796, -36.8899270451359], [174.503973417462, -36.8897553524543], [174.504153366154, -36.8897226259123], [174.504341522802, -36.8897347556084], [174.50448456059, -36.8897807981438], [174.504540687857, -36.8898063353037], [174.504596234262, -36.8898697374212], [174.504610417325, -36.8899154105942], [174.504584364389, -36.8899607730973], [174.504406472257, -36.8901943540359], [174.504305559843, -36.8903638549335], [174.503991958731, -36.8907672053787], [174.503889516518, -36.8910384090686], [174.503839775637, -36.8912812103399], [174.503840801304, -36.8913146112158], [174.50385215508, -36.8913384890562], [174.503971271442, -36.891477802485], [174.504028374561, -36.8914935386166], [174.50415719336, -36.8914964956649], [174.504218513737, -36.8914778089976], [174.504295646059, -36.8914425531691], [174.504575404275, -36.8912519306958], [174.504672031634, -36.8911688082472], [174.50480994704, -36.8910063828411], [174.504886217695, -36.8909409956714], [174.504969302717, -36.8908820390482], [174.505172411232, -36.8907793775622], [174.50521989771, -36.8907591530475], [174.505261776247, -36.8907505100884], [174.505729646304, -36.8907218214087], [174.50577086695, -36.8907145386668], [174.505795757692, -36.8907008648503], [174.5059892001, -36.8904718530136], [174.50625323199, -36.8901860247914], [174.506388102532, -36.8899591430252], [174.506470958864, -36.8897670466227], [174.506770684556, -36.8893357429143], [174.506794901003, -36.8893083495494], [174.506818250172, -36.8892967772429], [174.506868202397, -36.8892970180011], [174.507041167775, -36.8893201705975], [174.507218591532, -36.8893583283025], [174.507331302346, -36.8893874638356], [174.507525845197, -36.8894624322291], [174.507742000795, -36.8895094178416], [174.508246135036, -36.8895693506642], [174.508443469333, -36.8896309958813], [174.508479881222, -36.8896365727409], [174.508506898696, -36.889612974297], [174.508584990835, -36.8894265525045], [174.508601671786, -36.8894068800694], [174.508625576449, -36.8893978872931], [174.508708356025, -36.8894034611618], [174.508786058722, -36.8894287493515], [174.50882943406, -36.8894619999163], [174.508886836142, -36.8895334256782], [174.508934416872, -36.8895619717135], [174.50898363575, -36.88957169431], [174.509088564976, -36.8895743094989], [174.509148632221, -36.8895610805092], [174.509302420128, -36.8894998436289], [174.509581232862, -36.8893630604324], [174.509676644787, -36.8893234586137], [174.509765497275, -36.8892932422325], [174.509901625781, -36.8892624249486], [174.510213299566, -36.889225626412], [174.510240529668, -36.8892327886862], [174.510301083228, -36.8892761590667], [174.510326676848, -36.8892799980366], [174.51047412007, -36.889239112155], [174.510548528773, -36.8892276290562], [174.510797441453, -36.889204588688], [174.510978157138, -36.8892092850569], [174.511138334115, -36.8892320354712], [174.511210171553, -36.8892495096732], [174.511362852295, -36.8893268790925], [174.51150591069, -36.8894153404251], [174.511557654195, -36.8894375588936], [174.511608314929, -36.8894401502346], [174.511867244633, -36.8894094987845], [174.51208092227, -36.8894496395578], [174.512158963193, -36.8894789323255], [174.512211121243, -36.8895085004197], [174.512334178379, -36.8896217055854], [174.512367329616, -36.8896428714112], [174.512511720032, -36.8896793234625], [174.512691799135, -36.8897051534554], [174.5127431441, -36.8896923672193], [174.512995520837, -36.8895997553701], [174.513026045584, -36.8895975728921], [174.513150170304, -36.8896175618262], [174.513385066206, -36.8895694471515], [174.513426324182, -36.8895442330168], [174.513517070088, -36.8894451610228], [174.513557567625, -36.8894161076762], [174.513673013892, -36.8893631595158], [174.513995908434, -36.8892735590136], [174.514024925254, -36.8892507180444], [174.514062311078, -36.8891885607686], [174.514080343174, -36.8891731698982], [174.514115173573, -36.8891725276954], [174.514304091729, -36.8892112764245], [174.514359370623, -36.8892062271968], [174.514395977668, -36.8891705530133], [174.514428361152, -36.8891159227427], [174.514540689424, -36.8888751226949], [174.514656115372, -36.888600310369], [174.51469016609, -36.888569310748], [174.51474428772, -36.8885505842731], [174.514767009123, -36.8885578570762], [174.514791939911, -36.8885826694269], [174.514817428813, -36.8886209591672], [174.514828302794, -36.8886550455763], [174.514853383002, -36.8888952386207], [174.514844635024, -36.8891135270216], [174.514939728087, -36.8892169275754], [174.514969283171, -36.8892724356932], [174.515010963141, -36.8894190620049], [174.515008383255, -36.8896263471224], [174.515142606958, -36.8898523577155], [174.515137944767, -36.88989296985], [174.515088133877, -36.8900088994494], [174.515089754231, -36.8900482957321], [174.515159899663, -36.8901413149656], [174.515191248839, -36.8901620973572], [174.515239154291, -36.8901796850388], [174.515339842013, -36.890203269606], [174.515491486937, -36.8901808380703], [174.515542495043, -36.8901913193027], [174.515560100884, -36.8902196411169], [174.515547329629, -36.890297348967]]}, "properties": {"OBJECTID": 26, "TRACKNAME": "Lower Kauri Track", "CONDITIONSOFUSE": "Waitakere North Regional Park", "STATUS": "Temp Closed", "WEBLINK": "https://www.aucklandcouncil.govt.nz/en/parks-recreation/find-park-beach/park-detail/3407.html", "VALIDATIONSTATE": 3, "created_user": "AC_owner", "last_edited_user": "AC_owner", "last_edited_date": 1789875254325, "created_date": 1789875254325, "PARK_SAPSITEID": null, "TRACK_ID": null, "KAURIDIEBACK_TRACK": null, "KAURIDIEBACK_MITIGATED": null, "SegmentID": null, "GlobalID": "4e1f2864-b5db-49a4-be7b-ce8a028baf99", "Shape__Length": 2020.453105536066}}]}