{"type": "FeatureCollection", "features": [{"type": "Feature", "id": 3232, "geometry": {"type": "LineString", "coordinates": [[174.588258447154, -36.9569807122385], [174.588277159617, -36.9569017593875], [174.588306005949, -36.9568238778673], [174.588335987256, -36.9567603559275], [174.588373469796, -36.9567133698864], [174.588420345767, -36.9566827429929], [174.588507214798, -36.9566591063616], [174.588585041975, -36.9566590681892], [174.588658049723, -36.9566760020306], [174.588680178191, -36.9566145581502], [174.588725045116, -36.9566969254516], [174.58878472449, -36.9567175285147], [174.588924960575, -36.9567684772719], [174.589049150306, -36.9568241717406], [174.589154014233, -36.9568888336382], [174.589255553019, -36.9569495658899], [174.589350081126, -36.9570160713302], [174.589451940928, -36.9570671609493], [174.589571495575, -36.957104614052], [174.589678163504, -36.9571353757909], [174.589782466521, -36.9571505973367], [174.589884093694, -36.9571535313348], [174.590008244783, -36.9571468670354], [174.590155703735, -36.9571307146492], [174.590263831699, -36.9571110238332], [174.590363389535, -36.9570777030025], [174.590441040024, -36.9570272506321], [174.590509617424, -36.9569761932761], [174.590577402121, -36.9569201845567], [174.590629357449, -36.9568820066208], [174.590692421951, -36.9568496702017], [174.590774134756, -36.9568343249423], [174.590858267421, -36.9568280256215], [174.591321104676, -36.9567917354882], [174.591950476069, -36.9567407088003], [174.592330617793, -36.956710842482], [174.592518154522, -36.9566856264339], [174.592584067224, -36.9566871966364], [174.592712551229, -36.9566888242224], [174.592851542781, -36.9566695606629], [174.593001874877, -36.9566619011079], [174.593187987367, -36.9566491489849], [174.593316569761, -36.9566286058422], [174.593640650883, -36.9566352632684]]}, "properties": {"OBJECTID": 3232, "TRACKNAME": "Lower Nihotapu Dam Road", "CONDITIONSOFUSE": "Waitakere Central Regional Park", "STATUS": "Temp Closed", "WEBLINK": "https://www.aucklandcouncil.govt.nz/en/parks-recreation/find-park-beach/park-detail/204.html", "VALIDATIONSTATE": 3, "created_user": "AC_owner", "last_edited_user": "AC_owner", "last_edited_date": 1789875254325, "created_date": 1789875254325, "PARK_SAPSITEID": null, "TRACK_ID": null, "KAURIDIEBACK_TRACK": null, "KAURIDIEBACK_MITIGATED": null, "SegmentID": null, "GlobalID": "006aaf77-5dcc-46c9-af51-48b164273b8e", "Shape__Length": 539.8911011512406}}, {"type": "Feature", "id": 3233, "geometry": {"type": "LineString", "coordinates": [[174.593640650883, -36.9566352632684], [174.593903135194, -36.9566406547725], [174.594535424929, -36.9565989033107], [174.594927305043, -36.9565566568089], [174.595186058528, -36.9566376550234], [174.595524850101, -36.9569114668096], [174.595846007326, -36.9570764150264], [174.596395432961, -36.9573106896406], [174.596699506725, -36.9573910119816], [174.597183422288, -36.9574080008272], [174.597454182123, -36.9573554234687], [174.597889955946, -36.9572518614953], [174.598129661891, -36.9571633851203], [174.598869358219, -36.9568058553088], [174.599244050752, -36.9566287314964]]}, "properties": {"OBJECTID": 3233, "TRACKNAME": "Lower Nihotapu Dam Road", "CONDITIONSOFUSE": "Waitakere Central Regional Park", "STATUS": "Closed Dieback", "WEBLINK": "https://www.aucklandcouncil.govt.nz/en/parks-recreation/find-park-beach/park-detail/204.html", "VALIDATIONSTATE": 3, "created_user": "AC_owner", "last_edited_user": "AC_owner", "last_edited_date": 1789875254325, "created_date": 1789875254325, "PARK_SAPSITEID": null, "TRACK_ID": null, "KAURIDIEBACK_TRACK": null, "KAURIDIEBACK_MITIGATED": null, "SegmentID": null, "GlobalID": "2ec67494-6256-44c5-9a78-4d543a6cffdf", "Shape__Length": 548.019007153019}}]}