{"type": "FeatureCollection", "features": [{"type": "Feature", "id": 9167, "geometry": {"type": "MultiLineString", "coordinates": [[[174.653727120767, -36.9463633466573], [174.653734019075, -36.9463608466839], [174.655562980672, -36.9468898232292]], [[174.656403013747, -36.94691162329], [174.656396778849, -36.9469076785552], [174.656052154156, -36.9469368556388], [174.656051884008, -36.9469368783351], [174.655881222121, -36.9469513267593]], [[174.655799548742, -36.946958240734], [174.655799674283, -36.9469582299697], [174.655831077217, -36.9469555720028], [174.655831265529, -36.9469555558563], [174.655881222121, -36.9469513267593]], [[174.655799548742, -36.946958240734], [174.655799548703, -36.9469582389318], [174.655799430084, -36.946958206335], [174.655776835635, -36.9469516721116], [174.655776633355, -36.9469516136411], [174.655744459378, -36.9469423088706], [174.655744380266, -36.9469422856375], [174.655669122713, -36.9469205202662]], [[174.655607056401, -36.9469025701733], [174.655669122713, -36.9469205202662]], [[174.655562980672, -36.9468898232292], [174.655607056401, -36.9469025701733]]]}, "properties": {"OBJECTID": 9167, "TRACKNAME": "Mahoe Walk", "CONDITIONSOFUSE": "MAHOE WALK", "STATUS": "Closed", "WEBLINK": null, "VALIDATIONSTATE": 3, "created_user": "AC_owner", "last_edited_user": "AC_owner", "last_edited_date": 1789875254325, "created_date": 1789875254325, "PARK_SAPSITEID": null, "TRACK_ID": null, "KAURIDIEBACK_TRACK": null, "KAURIDIEBACK_MITIGATED": null, "SegmentID": null, "GlobalID": "4bbb36cd-5efc-482d-a537-0f0af8c590f3", "Shape__Length": 250.4056100467974}}]}