{"type": "FeatureCollection", "features": [{"type": "Feature", "id": 12017, "geometry": {"type": "LineString", "coordinates": [[175.155021428475, -36.7856271029574], [175.155201609839, -36.7856583259546], [175.154859353479, -36.7865204653595], [175.15460594941, -36.7879108595756], [175.154325968088, -36.7878856964223]]}, "properties": {"OBJECTID": 12017, "TRACKNAME": "Man O'War beach", "CONDITIONSOFUSE": "Man O' War Bay", "STATUS": "Open", "WEBLINK": "https://www.aucklandcouncil.govt.nz/en/parks-recreation/find-park-beach/park-detail/107.html", "VALIDATIONSTATE": 3, "created_user": "AC_owner", "last_edited_user": "AC_owner", "last_edited_date": 1789875254325, "created_date": 1789875254325, "PARK_SAPSITEID": null, "TRACK_ID": null, "KAURIDIEBACK_TRACK": null, "KAURIDIEBACK_MITIGATED": null, "SegmentID": null, "GlobalID": "6337c836-228c-4fbb-85a3-eff9b4bc4b3e", "Shape__Length": 297.9948819803779}}]}