{"type": "FeatureCollection", "features": [{"type": "Feature", "id": 12016, "geometry": {"type": "LineString", "coordinates": [[175.087396710486, -36.7907056923265], [175.087789295371, -36.7905200850585], [175.08824483378, -36.790499544279], [175.088568659897, -36.7905095326581], [175.089250829727, -36.7902216375934], [175.089687153689, -36.7897326995258], [175.089637793041, -36.7892554252862], [175.090245279515, -36.7886584398304], [175.090893086641, -36.7886846735569], [175.091417041914, -36.7886002102827], [175.092252517746, -36.7889335335233], [175.092499178745, -36.78897308714], [175.093029220565, -36.7888258032442], [175.093475104734, -36.7888806596256], [175.095630624284, -36.7881591847098], [175.0960942789, -36.7881510117155], [175.097073503749, -36.7884660901941], [175.097259225595, -36.788701099016], [175.097105988812, -36.7893716276373], [175.094488139955, -36.7930139966106], [175.094702256084, -36.7937188087388], [175.09526955572, -36.7945921365684], [175.09616376688, -36.7949309977537], [175.097059470344, -36.7951541193041], [175.097518259797, -36.7961035889585], [175.098521687204, -36.7963976417994], [175.09822647013, -36.7973618760523], [175.099156259842, -36.7982237988567], [175.100186898644, -36.7985232925554], [175.101414589899, -36.7992304289268], [175.102179030111, -36.7991421620996], [175.103875318367, -36.798289884576], [175.104535884176, -36.7986519532187], [175.105257952478, -36.7987139199381], [175.105830737214, -36.7992644148037], [175.106125891931, -36.7993173363623], [175.106307910376, -36.799699756249], [175.106992129239, -36.8003397780036], [175.107386827291, -36.8003735415022], [175.108517143281, -36.8000775910184], [175.109285388353, -36.7993741930665], [175.109368825187, -36.7991469695984], [175.109905027046, -36.798654615823], [175.110766741906, -36.7980906381531], [175.111460727024, -36.79794976689], [175.112024482526, -36.7977516338482], [175.112395616199, -36.7977795291479], [175.112854028003, -36.7978623070414], [175.112958226477, -36.7976817419799], [175.112926923749, -36.7973938492521], [175.110990654788, -36.7943180097138], [175.10933494129, -36.7932218160445], [175.108735430987, -36.7926837697942], [175.108687414748, -36.7924965019916], [175.108739016226, -36.7921036715731], [175.109187594834, -36.7909764047387], [175.109365395525, -36.7899260526416], [175.109754306399, -36.7887559470227], [175.110265766495, -36.7877905974646], [175.11040836377, -36.7864524187669], [175.110703399674, -36.7856978391224], [175.110664174745, -36.7852627257156], [175.110808548439, -36.7845578500253], [175.110934558028, -36.7838940596978], [175.11082780615, -36.7829867103783], [175.110867962783, -36.7826034878877], [175.111273427022, -36.7810443030046], [175.111331548961, -36.7794693369294], [175.111647501985, -36.7791940885231], [175.111881273494, -36.7790488470702], [175.113456739465, -36.7772337204877], [175.114992329785, -36.7765229167173], [175.115045827112, -36.7759168475395], [175.115503390761, -36.7755481451714], [175.115878607924, -36.7753031850228], [175.116692122613, -36.7749814451906], [175.122518061469, -36.7738241300305], [175.122784595294, -36.7738789437998], [175.123323197683, -36.7741891308276], [175.123803289433, -36.7743561351749], [175.124040395816, -36.7743330882696], [175.126558597891, -36.7730809829456], [175.127920559173, -36.7711722920908], [175.128475851975, -36.7709585586737], [175.129775041541, -36.7704461875222], [175.130020175809, -36.7702913015734], [175.131294699084, -36.7701555944024], [175.132706518731, -36.7701929890308], [175.13283446653, -36.7703098370845], [175.132941526439, -36.7710792046698], [175.133039964173, -36.7712561522319], [175.133410205344, -36.7713968702664], [175.133849333181, -36.7713513675159], [175.134435597638, -36.7711307803577], [175.134641874387, -36.7711208064914], [175.135156452289, -36.7715473778996], [175.135445731989, -36.7714387180105], [175.135610637751, -36.7707804754128], [175.135789697802, -36.7704919462214], [175.136238398588, -36.7702299258427], [175.13694472358, -36.7701231758239], [175.13793670363, -36.7700583161677], [175.138714874407, -36.7694517485993], [175.139345064587, -36.7691300168166], [175.139753634476, -36.7686868575618], [175.140477297447, -36.7683634379765], [175.141091335333, -36.7683022196885], [175.142267988419, -36.7685726132185], [175.142545590551, -36.7686052349408], [175.144334181879, -36.7683190373469], [175.144765982841, -36.7681513494208], [175.145051986527, -36.7682057612658], [175.146088410312, -36.7687576886846], [175.147798944066, -36.7688867079941], [175.149760478473, -36.7694908679089], [175.150912486247, -36.7694355477452], [175.152476415967, -36.7693382739656], [175.15332164091, -36.7707150479653], [175.153622727378, -36.7710293969465], [175.15370668263, -36.7712442117699], [175.153564275106, -36.771447450833], [175.153242069876, -36.77163199807], [175.153166230649, -36.7718465719063], [175.15331128337, -36.7720163875946], [175.153683177834, -36.7720754942034], [175.153817072367, -36.7722643222733], [175.153709195096, -36.7724481242334], [175.153084766682, -36.7725566257987], [175.152970810784, -36.7729411962313], [175.153098341798, -36.7737383904333], [175.153193335194, -36.7750440922451], [175.152907237888, -36.7755446504872], [175.15296647168, -36.775850837708], [175.152751541508, -36.7763877306845], [175.153236642186, -36.7772881847054], [175.153178346502, -36.7774334646597], [175.151567427296, -36.7778075073909], [175.151229783546, -36.7779985991118], [175.151254127732, -36.7783116895636], [175.152139144469, -36.7785997986934], [175.15232050615, -36.7790918938947], [175.152987729137, -36.7793964800832], [175.153519849677, -36.7800264459512], [175.154178820083, -36.7804534515043], [175.15513877573, -36.7814675694937], [175.155014085825, -36.7823038194476], [175.154517600547, -36.7828081942126], [175.154151725984, -36.7832443594004], [175.153611265905, -36.784266851957], [175.153359449579, -36.7846006194598], [175.153858549203, -36.7850242500317], [175.154179966041, -36.7853664455307], [175.154347107367, -36.7854888295138], [175.155059686341, -36.7856013274306]]}, "properties": {"OBJECTID": 12016, "TRACKNAME": "Man O'War Bay Rd", "CONDITIONSOFUSE": "Man O' War Bay", "STATUS": "Open", "WEBLINK": "https://www.aucklandcouncil.govt.nz/en/parks-recreation/find-park-beach/park-detail/107.html", "VALIDATIONSTATE": 3, "created_user": "AC_owner", "last_edited_user": "AC_owner", "last_edited_date": 1789875254325, "created_date": 1789875254325, "PARK_SAPSITEID": null, "TRACK_ID": null, "KAURIDIEBACK_TRACK": null, "KAURIDIEBACK_MITIGATED": null, "SegmentID": null, "GlobalID": "7566cd5e-74a7-4974-8b9d-efd0477a18b3", "Shape__Length": 12955.979496164176}}]}