{"type": "FeatureCollection", "features": [{"type": "Feature", "id": 12761, "geometry": {"type": "LineString", "coordinates": [[175.164353316571, -37.1086302367304], [175.164972640071, -37.1091944396231], [175.165056498435, -37.1093402250935], [175.165188425632, -37.1096668224527], [175.165362273209, -37.1099582809592], [175.165570095128, -37.1101509065158], [175.16689455847, -37.1107994450354], [175.167122729107, -37.1110604429856], [175.167190168991, -37.1112752752321], [175.167165403619, -37.1114819717544], [175.167140079552, -37.1116690357599], [175.167012953695, -37.1119414412633], [175.167043203092, -37.112142221774], [175.167159669391, -37.1123561566086], [175.168284113084, -37.1135141241468], [175.169478455579, -37.1143270619348], [175.170291516064, -37.1146706454632], [175.171910905887, -37.1147057361588], [175.17255292199, -37.1147093136948], [175.172779890374, -37.1146054069847], [175.173446319781, -37.1137875476739], [175.1740076236, -37.1129792864543], [175.174334650687, -37.1126893956242], [175.174640189373, -37.112653098368], [175.17516969504, -37.1127431264705], [175.175360628157, -37.1130542041558], [175.175365099528, -37.1135451785121], [175.17549878267, -37.1151497035828], [175.175548531306, -37.1158166253152], [175.175553026968, -37.1159736806336], [175.175544001317, -37.1160867888162], [175.175696707734, -37.1162804076326], [175.176016432733, -37.1165249757881], [175.176144767741, -37.1167239514865], [175.176213080816, -37.1169682255242], [175.176181508318, -37.1171504948848], [175.176294214726, -37.1172319049326], [175.176510966809, -37.1173064930777], [175.176809783205, -37.1174630522966], [175.177026594532, -37.1177537032721], [175.177299269778, -37.1180678791905], [175.177379001471, -37.118282478189], [175.177499023497, -37.1186191009876], [175.177422782546, -37.1189544200161], [175.177273498751, -37.119094657982], [175.177014458958, -37.1192565548077], [175.176705261354, -37.119380087973], [175.176634948843, -37.1194943218917], [175.176747658194, -37.1195757313713], [175.176943501032, -37.1195623120298], [175.177203948154, -37.119449495708], [175.177704404993, -37.1193666410828], [175.178199435904, -37.1193084376431], [175.178602391889, -37.1192470140298], [175.178873186161, -37.1192813197505], [175.179148484306, -37.1194726796939], [175.179092325666, -37.119866556542], [175.179131165199, -37.1202586864615], [175.179335569412, -37.1203700183991], [175.179662488347, -37.1204100412908], [175.180060959372, -37.1202722749104], [175.180451392208, -37.1201883648533], [175.180915022225, -37.1203179417641], [175.181351904994, -37.1205170644375], [175.181735183415, -37.1205176807893], [175.182410705902, -37.1203517875988], [175.183104937507, -37.1201702004152], [175.183783539959, -37.1201116603441], [175.184055866273, -37.1202524233354], [175.184262701975, -37.1204481016544], [175.184457095852, -37.120544263646], [175.184678676912, -37.1205862152936], [175.184951668021, -37.1207499817081], [175.185360495805, -37.1209726244677], [175.185666943214, -37.1209669726321], [175.185954237512, -37.1209616733187], [175.18625640407, -37.1211402448546], [175.186921622656, -37.1217206078135], [175.187147709556, -37.1220780775095], [175.187549798059, -37.1222543930366], [175.187865205981, -37.1223467804185], [175.187953221641, -37.1226348774286], [175.188017286362, -37.1229430583146], [175.188268952371, -37.1231642953647], [175.188528021709, -37.1234295903265], [175.188763614394, -37.1235185393177], [175.189141310055, -37.1236441469988], [175.189642627375, -37.1235906893014], [175.190261291503, -37.1233533716102], [175.190558647668, -37.1232447538102], [175.190808950141, -37.123205752992], [175.191107578643, -37.1231413045916], [175.19130516751, -37.1229756036531], [175.191585831921, -37.122926217987], [175.191930051788, -37.1229542246627], [175.192302226653, -37.1228884137171], [175.192523904147, -37.1227075333969], [175.192808222567, -37.1221473813197], [175.193169871786, -37.1219295361476], [175.193683468593, -37.1216646810247], [175.194123372053, -37.1213962782591], [175.194619108807, -37.1213625456434], [175.195029496793, -37.1211339704848], [175.195297183979, -37.1210602648457], [175.195635408657, -37.1210932827883], [175.195924632801, -37.1209160546441], [175.196250345514, -37.120728328697], [175.197066108988, -37.120310543077], [175.19753535889, -37.1199973885945], [175.198065584975, -37.1198844335347], [175.198697443396, -37.1196812010599], [175.198934784232, -37.1194067181018], [175.199242379334, -37.1192291411068], [175.19936426501, -37.1189911733586], [175.199482294748, -37.1188318465065], [175.199955929798, -37.11867082745], [175.200477580372, -37.118685694588], [175.200814072991, -37.1188709571085], [175.201060359045, -37.1189056671028], [175.201436643537, -37.1187710028619], [175.201811375989, -37.1183711991048], [175.202091317114, -37.1180860967062], [175.202440093585, -37.1178488203435], [175.202524485052, -37.1175869937552], [175.202539895623, -37.1172724341511], [175.202782916171, -37.1169831055024], [175.203449800967, -37.1167202710621], [175.203632100676, -37.1164517123128], [175.203894638685, -37.1162013036663], [175.204303405355, -37.1159187111416], [175.204801104224, -37.1155313425286], [175.205076747228, -37.1153101500202], [175.205161695611, -37.1150679538371], [175.205209731658, -37.1148215336055], [175.205476816191, -37.1147281739569], [175.205800480052, -37.1146828656888], [175.206066423669, -37.1145502408087], [175.20624357873, -37.1143161482076], [175.20644795243, -37.1141748487847], [175.206637074983, -37.1141418640078], [175.20671319747, -37.1142162527506], [175.206675339218, -37.1145622290054]]}, "properties": {"OBJECTID": 12761, "TRACKNAME": "Mangatangi Hill Road", "CONDITIONSOFUSE": "Hunua Ranges Regional Park", "STATUS": "Open", "WEBLINK": "https://www.aucklandcouncil.govt.nz/en/parks-recreation/find-park-beach/park-detail/213.html", "VALIDATIONSTATE": 3, "created_user": "AC_owner", "last_edited_user": "AC_owner", "last_edited_date": 1789875254325, "created_date": 1789875254325, "PARK_SAPSITEID": null, "TRACK_ID": null, "KAURIDIEBACK_TRACK": null, "KAURIDIEBACK_MITIGATED": null, "SegmentID": null, "GlobalID": "b8cca958-92d7-4e2b-bb70-c38ac336ded8", "Shape__Length": 5831.2671144765345}}]}