{"type": "FeatureCollection", "features": [{"type": "Feature", "id": 968, "geometry": {"type": "LineString", "coordinates": [[174.479035831492, -36.9507084314827], [174.479044936112, -36.9506705625307], [174.479068853533, -36.9506587451233], [174.479215416459, -36.9506513307793], [174.479722532974, -36.9505454468287], [174.479776784827, -36.9505406244002]]}, "properties": {"OBJECTID": 968, "TRACKNAME": "Mangaroa Lookout Track", "CONDITIONSOFUSE": "Waitakere West Regional Park", "STATUS": "Open", "WEBLINK": "https://www.aucklandcouncil.govt.nz/en/parks-recreation/find-park-beach/park-detail/3451.html", "VALIDATIONSTATE": 3, "created_user": "AC_owner", "last_edited_user": "AC_owner", "last_edited_date": 1789875254325, "created_date": 1789875254325, "PARK_SAPSITEID": null, "TRACK_ID": null, "KAURIDIEBACK_TRACK": null, "KAURIDIEBACK_MITIGATED": null, "SegmentID": null, "GlobalID": "b2fc65a7-b8e1-43b4-8b60-f8b4f6dd46cb", "Shape__Length": 71.38221339332804}}, {"type": "Feature", "id": 1952, "geometry": {"type": "LineString", "coordinates": [[174.479776784827, -36.9505406244002], [174.479786684462, -36.9505397438702], [174.480014627424, -36.9505702082021], [174.480081203238, -36.9505859003416], [174.480330475776, -36.9507447141235]]}, "properties": {"OBJECTID": 1952, "TRACKNAME": "Mangaroa Lookout Track", "CONDITIONSOFUSE": "Waitakere West Regional Park", "STATUS": "Open", "WEBLINK": "https://www.aucklandcouncil.govt.nz/en/parks-recreation/find-park-beach/park-detail/3451.html", "VALIDATIONSTATE": 3, "created_user": "AC_owner", "last_edited_user": "AC_owner", "last_edited_date": 1789875254325, "created_date": 1789875254325, "PARK_SAPSITEID": null, "TRACK_ID": null, "KAURIDIEBACK_TRACK": null, "KAURIDIEBACK_MITIGATED": null, "SegmentID": null, "GlobalID": "c7b037f0-1bb7-4d9d-bda9-0eaa8b2a0386", "Shape__Length": 55.98675260592067}}, {"type": "Feature", "id": 2209, "geometry": {"type": "LineString", "coordinates": [[174.479035833842, -36.9507084368616], [174.479006186237, -36.9507027598138], [174.478956644387, -36.950710022711], [174.478922280506, -36.9507233105505], [174.478853434583, -36.9508061563718], [174.478746528435, -36.9509028677867], [174.478695142877, -36.950939375838], [174.478627655148, -36.9509642332335]]}, "properties": {"OBJECTID": 2209, "TRACKNAME": "Mangaroa Lookout Track", "CONDITIONSOFUSE": "Waitakere West Regional Park", "STATUS": "Open", "WEBLINK": "https://www.aucklandcouncil.govt.nz/en/parks-recreation/find-park-beach/park-detail/3451.html", "VALIDATIONSTATE": 3, "created_user": "AC_owner", "last_edited_user": "AC_owner", "last_edited_date": 1789875254325, "created_date": 1789875254325, "PARK_SAPSITEID": null, "TRACK_ID": null, "KAURIDIEBACK_TRACK": null, "KAURIDIEBACK_MITIGATED": null, "SegmentID": null, "GlobalID": "a446bba0-1da6-4ce8-8743-be059514f079", "Shape__Length": 48.71425810217434}}, {"type": "Feature", "id": 3152, "geometry": {"type": "LineString", "coordinates": [[174.479035831492, -36.9507084314827], [174.479006183904, -36.950702755336], [174.478956639931, -36.9507100245693], [174.478922283787, -36.9507233060028], [174.478853435619, -36.9508061518521], [174.478746525032, -36.9509028660264], [174.47869514279, -36.9509393713323], [174.478627655148, -36.9509642332335]]}, "properties": {"OBJECTID": 3152, "TRACKNAME": "Mangaroa Lookout Track", "CONDITIONSOFUSE": "Waitakere West Regional Park", "STATUS": "Open", "WEBLINK": "https://www.aucklandcouncil.govt.nz/en/parks-recreation/find-park-beach/park-detail/3451.html", "VALIDATIONSTATE": 3, "created_user": "AC_owner", "last_edited_user": "AC_owner", "last_edited_date": 1789875254325, "created_date": 1789875254325, "PARK_SAPSITEID": null, "TRACK_ID": null, "KAURIDIEBACK_TRACK": null, "KAURIDIEBACK_MITIGATED": null, "SegmentID": null, "GlobalID": "d418518b-b800-41e3-983e-70d741511418", "Shape__Length": 48.71399991506561}}]}