{"type": "FeatureCollection", "features": [{"type": "Feature", "id": 57, "geometry": {"type": "LineString", "coordinates": [[175.163819200453, -37.1348227789005], [175.16382183132, -37.1350035092042], [175.163828291723, -37.1350291578615], [175.16384462319, -37.1350788697804], [175.163861534578, -37.1351110058101], [175.16389262351, -37.1351539952838], [175.163930818118, -37.1351840392499], [175.163965465932, -37.1352021974515], [175.164015721111, -37.1352181779727], [175.164174808374, -37.1352851819822], [175.164315637974, -37.1353245536024], [175.164553467573, -37.1353971123871], [175.164658987751, -37.1354231503097], [175.164764718227, -37.1354561689541], [175.164817080027, -37.1354552122718], [175.164886903256, -37.1354539365224], [175.165035269166, -37.1354512255727], [175.165253458262, -37.1354472384724], [175.165349860931, -37.1354594640626], [175.165428801941, -37.135471999692], [175.165499422117, -37.135498674687], [175.165579757857, -37.1355601223936], [175.165615865139, -37.1356014154557], [175.165652769225, -37.1356706505989], [175.165673606633, -37.1357891170661], [175.165699026814, -37.1360682910856], [175.165730388435, -37.136249481158], [175.165739554391, -37.1365709052551], [175.165757451368, -37.1368921697411], [175.165767170539, -37.1371256130714], [175.165791025051, -37.1372132738225], [175.165810899952, -37.1372359914291], [175.165827985351, -37.1372647082468], [175.165830560636, -37.1372942220386], [175.165834853621, -37.1373322572551], [175.165838332817, -37.1373654406189], [175.165841454152, -37.1374073906346], [175.165844011434, -37.1374457459771], [175.165846175739, -37.1374786109026], [175.165844135296, -37.137522322579], [175.165840183428, -37.1375661142581], [175.165839351104, -37.1375973215938], [175.165841140394, -37.1376407199261], [175.165844228518, -37.1376866360289], [175.165846993013, -37.1377235726257], [175.16585155183, -37.1377721115064], [175.165857295939, -37.1378191867259], [175.165861359973, -37.1378677436625], [175.165867906815, -37.1379034935709], [175.165874502548, -37.1379492464141], [175.165878273751, -37.1379934556845], [175.165883105378, -37.1380278760646], [175.165896920099, -37.1380713699997], [175.165915208938, -37.1381103029515], [175.165930463874, -37.1381423247318], [175.165945034692, -37.1381716733035], [175.165960891255, -37.1382011065179], [175.16597446614, -37.1382346100103], [175.165984380884, -37.1382613489695], [175.166000168521, -37.1382875750028], [175.166015198787, -37.1383140852534], [175.166029889279, -37.1383543366992], [175.166047384371, -37.1383977993794], [175.166062198096, -37.1384281619012], [175.166087106553, -37.1384655227971], [175.166114313517, -37.1385057166392], [175.166140691752, -37.1385365887197], [175.166177062313, -37.1385752090683], [175.166198212135, -37.1386181362561], [175.166213644877, -37.1386528314434], [175.166238899578, -37.138692853661], [175.166269040261, -37.1387293347679], [175.166301636386, -37.1387642839159], [175.166328906993, -37.138789732161], [175.166362182863, -37.1388228573589], [175.166382668014, -37.1388566850694], [175.166386825167, -37.1388859986779], [175.166390170507, -37.1389286835905], [175.166397816746, -37.1389733627265], [175.166401300409, -37.1390066901792], [175.166404453227, -37.1390513072763], [175.166406741577, -37.1390948226351], [175.166407761663, -37.1391297903378], [175.166408299674, -37.1391735089376], [175.16640548311, -37.1392128907966], [175.166405517745, -37.1392429106544], [175.166403891689, -37.1392833792768], [175.166401692175, -37.1393246604932], [175.166400098908, -37.1393564134707], [175.16639679919, -37.1394005627398], [175.166390704562, -37.1394434202572], [175.16638560654, -37.1394868814107], [175.16638277237, -37.1395193330113], [175.166382142613, -37.139550924171], [175.166381172275, -37.1395918854994], [175.166383561289, -37.1396255123508], [175.166389162641, -37.1396683542816], [175.166398270889, -37.1397019303714], [175.16642287666, -37.139728265471], [175.166452850631, -37.1397466525569], [175.166499478872, -37.1397442858384], [175.166538401693, -37.1397373915524], [175.166570162306, -37.1397264644706], [175.166605648999, -37.1397139551504], [175.166646918574, -37.1396950133245], [175.166665746514, -37.1396735077711], [175.166680910357, -37.1396454991417], [175.166694003365, -37.1396155366281], [175.166710996901, -37.1395861606912], [175.166725562096, -37.1395565047122], [175.166741234923, -37.1395242419008], [175.166756457279, -37.1394927623966], [175.166766646636, -37.1394667733947], [175.166775120703, -37.1394394548807], [175.166785839032, -37.1394075440327], [175.166798320841, -37.1393778630591], [175.166803832916, -37.1393469486682], [175.166811777598, -37.1393211989877], [175.166820217901, -37.1392887530008], [175.166827357852, -37.1392561054832], [175.166829666446, -37.1392297018306], [175.166832687184, -37.1391978776806], [175.166835004681, -37.1391694190251], [175.166845220132, -37.1391439522614], [175.166855401071, -37.1391133310036], [175.166864090595, -37.1390734451793], [175.16686829149, -37.1390419509301], [175.166872514229, -37.1390112223398], [175.16687191676, -37.138982393409], [175.16686991729, -37.1389541398787], [175.166866538504, -37.1389154210758], [175.166859988122, -37.1388839071544], [175.166850795122, -37.1388536762686], [175.166840166062, -37.1388236158447], [175.166832127147, -37.138793589162], [175.166822800408, -37.1387614320537], [175.166806283493, -37.1387274146874], [175.166795062948, -37.1387022678518], [175.166783855175, -37.1386752011281], [175.166773119455, -37.1386481077454], [175.166760915352, -37.1386204463929], [175.16674745673, -37.1385910325273], [175.166738248709, -37.1385606667183], [175.166732300365, -37.1385309172311], [175.166729514973, -37.1384960268754], [175.166730710364, -37.1384653266128], [175.166736244093, -37.1384304373322], [175.166741290926, -37.1383954488059], [175.166742033918, -37.1383627019759], [175.166745044053, -37.138335240047], [175.166749325273, -37.1383073493122], [175.166753712949, -37.1382764825197], [175.166760489244, -37.1382385873905], [175.166767987703, -37.1382133776055], [175.166784310529, -37.1381881236029], [175.166812240469, -37.1381617200302], [175.166840962074, -37.138144125168], [175.166869578029, -37.1381228281114], [175.166901167826, -37.138102783466], [175.166929546799, -37.138087384876], [175.166959589526, -37.1380726948718], [175.166988907449, -37.138059036524], [175.167030424937, -37.1380389544697], [175.167076597829, -37.1380167233994], [175.167118895823, -37.1379940134264], [175.167150497202, -37.1379787180684], [175.167186908678, -37.1379611717297], [175.16722385472, -37.1379446069721], [175.167258790528, -37.1379309719726], [175.167291608968, -37.1379169070466], [175.167323633646, -37.1379077684201], [175.167354863528, -37.1378983919753], [175.167391354365, -37.1378954623269], [175.167431861703, -37.1378928467276], [175.167466094006, -37.1378876962459], [175.167505007148, -37.1378828656838], [175.167546196076, -37.1378761278966], [175.167579250763, -37.1378723147446], [175.167628597612, -37.1378654547201], [175.16766657885, -37.1378634710654], [175.167699689907, -37.1378490131384], [175.167714199288, -37.1378233415667], [175.167736129864, -37.1377957948121], [175.167768494136, -37.1377776554224], [175.167808902676, -37.1377668491805], [175.167863870982, -37.1377648700937], [175.167907256924, -37.1377664825794], [175.167967600546, -37.1377678568607], [175.168027522928, -37.1377655166752], [175.168069356652, -37.1377636246219], [175.168116059588, -37.1377647076865], [175.168167715192, -37.1377677459285], [175.168207660054, -37.137766330002], [175.168267995245, -37.1377630718825], [175.168322736223, -37.137748794742], [175.168365308938, -37.1377345419971], [175.168420536765, -37.1377203640514], [175.168464374521, -37.1377035015444], [175.168497158593, -37.1376846963658], [175.168551323332, -37.1376687713756], [175.16860418967, -37.1376550781773], [175.168639873328, -37.1376432045402], [175.168685310976, -37.1376263937808], [175.168731540671, -37.1376073604551], [175.168765869999, -37.1375922130122], [175.168810769817, -37.1375723388032], [175.168849663579, -37.1375514659882], [175.168881171319, -37.137530151569], [175.168904205029, -37.1375160219794], [175.168927817497, -37.137483135886], [175.1689488982, -37.1374593536512], [175.168968564034, -37.1374384542617], [175.168986436323, -37.1374146676673], [175.169004078982, -37.1373879652388], [175.16902456517, -37.1373512519901], [175.169045428683, -37.1373155322128], [175.169059309602, -37.1372875828236], [175.169074429828, -37.1372502107549], [175.169089237668, -37.1372149082552], [175.169095615336, -37.1371828062971], [175.169096175349, -37.1371476294478], [175.169093808028, -37.1371140112698], [175.169091414348, -37.1370802583873], [175.169089035837, -37.1370513719522], [175.169082471529, -37.1370174250479], [175.169072996822, -37.1369808997872], [175.169063080624, -37.1369494115575], [175.169056910693, -37.1369142948245], [175.169046751669, -37.1368817926309], [175.169035025991, -37.1368496165275], [175.169023428374, -37.1368215297328], [175.169007517242, -37.1367890336994], [175.168992700499, -37.1367562292308], [175.168976335373, -37.1367243904003], [175.168967480813, -37.13669656882], [175.168962232957, -37.1366610206274], [175.168996069923, -37.1366522990035], [175.169024824413, -37.1366670306967], [175.169051168236, -37.1366884036315], [175.169072494354, -37.1367157896024], [175.169096911585, -37.1367438039261], [175.169121306264, -37.1367714221092], [175.16914621952, -37.1367974896633], [175.169170596354, -37.1368296053771], [175.16919133542, -37.1368553527934], [175.169215300103, -37.136881708072], [175.169233036515, -37.1369036170734], [175.169257477888, -37.1369344428052], [175.169287891636, -37.1369611486422], [175.169312491877, -37.136984923714], [175.169345269783, -37.1370179400301], [175.169376605, -37.1370508926271], [175.169405090424, -37.1370755068], [175.169446871021, -37.1371064476075], [175.169489102223, -37.137141733164], [175.169520308435, -37.137166225389], [175.169551009866, -37.1372061471566], [175.16956438777, -37.1372500451885], [175.169563905919, -37.1372863741993], [175.169554196913, -37.1373346514471], [175.169541552383, -37.1373802606856], [175.169525599696, -37.1374129165157], [175.169506024352, -37.1374554983014], [175.169490380586, -37.1374969986993], [175.16947953367, -37.1375271186582], [175.169464617203, -37.1375676774527], [175.169449688014, -37.1376058211409], [175.169437864803, -37.137633291286], [175.169425563273, -37.1376700259775], [175.169408546652, -37.1377080005952], [175.169397195186, -37.1377468628518], [175.169394772917, -37.1377759543397], [175.169393154201, -37.1378142598665], [175.16939642432, -37.1378491322587], [175.169415425295, -37.1378798322506], [175.169445943609, -37.1378967846488], [175.169503257059, -37.137911876507], [175.169549724104, -37.1379188845049], [175.169602276541, -37.137925726976], [175.169637234506, -37.1379282502019], [175.169666746901, -37.1379423009278], [175.169699980014, -37.1379569504319], [175.169736618973, -37.1379674819523], [175.169768179393, -37.1379787463493], [175.169794678264, -37.1379885803272], [175.169825686092, -37.1380080831971], [175.169851341826, -37.1380285943337], [175.169889163983, -37.1380513790967], [175.169921621988, -37.1380708103196], [175.169954439055, -37.1380862604659], [175.169985138763, -37.1381012807348], [175.170011490196, -37.1381181651006], [175.170040853495, -37.1381368418492], [175.170073256199, -37.1381555169962], [175.170108652746, -37.1381576264877], [175.170147705033, -37.1381683029373], [175.170194656926, -37.1381729675732], [175.170235943355, -37.1381767355833], [175.170273425068, -37.1381765717433], [175.170298826918, -37.1381574686954], [175.17031634441, -37.138126397332], [175.17032104952, -37.1380956597985], [175.170324406049, -37.1380638204113], [175.170324214173, -37.1380204740357], [175.170326722207, -37.1379857301566], [175.170331779578, -37.1379598348683], [175.170335168067, -37.1379306896179], [175.170339102745, -37.1378867809793], [175.170368926607, -37.1377332933632], [175.170394045224, -37.1377168902074], [175.170418810274, -37.1377022960134], [175.170447879179, -37.1376850724492], [175.170475156309, -37.1376744788161], [175.170506691376, -37.137667132769], [175.170538467286, -37.137647732654], [175.170565361394, -37.1376268898475], [175.170574429221, -37.1375944050759], [175.170580444181, -37.1375661760341], [175.170588698327, -37.1375402762449], [175.170595917332, -37.1375155760501], [175.170600802064, -37.1374848262017], [175.170604555648, -37.1374586123139], [175.170603516896, -37.1374372357839], [175.170611343375, -37.1374121279112], [175.170628790935, -37.1373845275773], [175.170638945798, -37.1373629009147], [175.170646909898, -37.1373394578218], [175.170670581636, -37.1373118245643], [175.170692334997, -37.1372840281744], [175.170715848959, -37.1372630850378], [175.170758389608, -37.1372508868672], [175.17079559632, -37.1372356050127], [175.170831417269, -37.1372187082705], [175.170859446303, -37.1371981960906], [175.170884252179, -37.1371728311742], [175.170914515335, -37.137134388331], [175.170942882814, -37.1370890947015], [175.17096121598, -37.1370538896091], [175.170973990293, -37.1370148208909], [175.170984729738, -37.1369876588552], [175.170995687523, -37.136959077863], [175.171012556056, -37.1369167437131], [175.17102681045, -37.1368896794918], [175.171043620554, -37.136862234978], [175.171061119438, -37.1368356520487], [175.171078350642, -37.1368119129441], [175.171101941202, -37.1367763321078], [175.171134987207, -37.1367340439741], [175.171178298552, -37.1367007784471], [175.171218146757, -37.1366798603386], [175.171244507931, -37.1366652006775], [175.171285220788, -37.1366449967104], [175.171327404983, -37.1366274334513], [175.171381046969, -37.1366066590505], [175.171416171765, -37.136593776422], [175.171452743297, -37.1365807050447], [175.171487234661, -37.1365677168425], [175.171588092708, -37.1364329346804], [175.172041604492, -37.1361776445526], [175.172588755896, -37.135483883358], [175.172854087648, -37.1348715966437], [175.173408261424, -37.1344053214443], [175.174329521896, -37.1335523520069], [175.174876622894, -37.1328585814412], [175.175804894105, -37.132233099577], [175.17665494329, -37.1321403043894], [175.177500271097, -37.1318958473114], [175.178445003329, -37.1318011550816], [175.179484444889, -37.1317045781005], [175.180907443937, -37.1317520895366], [175.182422796992, -37.1317218718937], [175.183462241907, -37.1316252599914], [175.184776361047, -37.1312196302476], [175.185991019521, -37.130664222888]]}, "properties": {"OBJECTID": 57, "TRACKNAME": "Mangatangi Trig Track", "CONDITIONSOFUSE": "Hunua Ranges Regional Park", "STATUS": "Open", "WEBLINK": "https://www.aucklandcouncil.govt.nz/en/parks-recreation/find-park-beach/park-detail/213.html", "VALIDATIONSTATE": 3, "created_user": "AC_owner", "last_edited_user": "AC_owner", "last_edited_date": 1789875254325, "created_date": 1789875254325, "PARK_SAPSITEID": null, "TRACK_ID": null, "KAURIDIEBACK_TRACK": null, "KAURIDIEBACK_MITIGATED": null, "SegmentID": null, "GlobalID": "ba855406-63fb-4944-856e-1cbf325b1201", "Shape__Length": 3214.859425625716}}, {"type": "Feature", "id": 225, "geometry": {"type": "LineString", "coordinates": [[175.187147709556, -37.1220780775095], [175.187086406574, -37.122079308105], [175.187015797511, -37.1220845046611], [175.186926684373, -37.1221013893416], [175.18685217915, -37.1221331092309], [175.186763774382, -37.1221726560289], [175.186670765146, -37.1222160729556], [175.186600852829, -37.1222439227088], [175.186521525465, -37.122271955159], [175.186423563007, -37.1223079108611], [175.186367572301, -37.1223279241432], [175.186321715643, -37.1223703987005], [175.186302490265, -37.1224070915905], [175.186300503321, -37.1224463864621], [175.186302736157, -37.1225181203814], [175.186315691613, -37.1226312038386], [175.186325856744, -37.1227087215916], [175.186369959839, -37.1228920050812], [175.186389109733, -37.1229324781259], [175.186402443021, -37.1229628564017], [175.186418012359, -37.1229829372563], [175.186441006671, -37.1230072070819], [175.186470444352, -37.1230340166841], [175.186500522097, -37.1230572545526], [175.186539234837, -37.1230794047978], [175.186649360005, -37.1231379273143], [175.186774729756, -37.1232001519009], [175.186870369802, -37.1232387175924], [175.187004735028, -37.1232900781481], [175.187052484969, -37.1233157204809], [175.187091946928, -37.1233400377236], [175.187135031561, -37.1233756437662], [175.187188167226, -37.1234257275186], [175.187434225099, -37.1236717044621], [175.187622574681, -37.1238662848334], [175.18768250488, -37.1239342047094], [175.187737888935, -37.1239814348092], [175.187793815655, -37.1240338280037], [175.187939464447, -37.1241666228351], [175.187973571373, -37.1242097574855], [175.18800791927, -37.1242475793484], [175.188160971369, -37.1244595917241], [175.18817585602, -37.1245090204671], [175.188178363447, -37.1245448887364], [175.188179111696, -37.1245802487445], [175.18817636585, -37.1246169981038], [175.188172519781, -37.1246565796609], [175.188173474384, -37.1246932426616], [175.188180045479, -37.1247275668616], [175.188192725781, -37.1247688439984], [175.188245070228, -37.1248957368475], [175.188282015666, -37.1250417049812], [175.188300021988, -37.1250924369313], [175.188318188866, -37.1251272499464], [175.18834498648, -37.12517410641], [175.188461955009, -37.1253809626727], [175.188538509766, -37.125513302365], [175.18856776732, -37.1255822478849], [175.188588665333, -37.1256438764856], [175.188596508468, -37.125693435216], [175.188602699202, -37.1257411138287], [175.188607283799, -37.1257959419315], [175.188607206027, -37.1258616169982], [175.188602867966, -37.1259337335327], [175.18859638228, -37.1259883425183], [175.188587414387, -37.1260419609192], [175.188563775257, -37.1260946065782], [175.188536375223, -37.1261690777176], [175.188459271452, -37.1264072674941], [175.188455213648, -37.1264531706781], [175.188458706998, -37.1264849651232], [175.1884679718, -37.1265123720677], [175.188486390906, -37.1265434221995], [175.18858577358, -37.1267066872616], [175.188658666582, -37.1269360051842], [175.188689708038, -37.12739326444], [175.188685000836, -37.1275400008278], [175.188656338868, -37.1276418642563]]}, "properties": {"OBJECTID": 225, "TRACKNAME": "Mangatangi Trig Track", "CONDITIONSOFUSE": "Hunua Ranges Regional Park", "STATUS": "Open", "WEBLINK": "https://www.aucklandcouncil.govt.nz/en/parks-recreation/find-park-beach/park-detail/213.html", "VALIDATIONSTATE": 3, "created_user": "AC_owner", "last_edited_user": "AC_owner", "last_edited_date": 1789875254325, "created_date": 1789875254325, "PARK_SAPSITEID": null, "TRACK_ID": null, "KAURIDIEBACK_TRACK": null, "KAURIDIEBACK_MITIGATED": null, "SegmentID": null, "GlobalID": "e519b0f2-3927-4d15-8d1f-9721ad9bff36", "Shape__Length": 746.4322452355412}}, {"type": "Feature", "id": 1458, "geometry": {"type": "LineString", "coordinates": [[175.18861700164, -37.1284669221595], [175.188858348589, -37.1284064518055], [175.189798298206, -37.1281600066928], [175.190747708714, -37.1282168728792], [175.191427228205, -37.1287344096361], [175.192663137279, -37.1288614043788], [175.193595969494, -37.1283874430945], [175.194538272555, -37.1282168015903], [175.196063040773, -37.1284897292256], [175.197026719105, -37.129001524821], [175.198257878754, -37.1289767979147], [175.199302021093, -37.1290317025212], [175.19959564582, -37.1293293216692], [175.20055935771, -37.1298410963419], [175.202273592686, -37.1301101178114], [175.204257681621, -37.1299184362219], [175.205685422736, -37.1301173125695], [175.208045935122, -37.1298420896054], [175.20889352141, -37.1296732342119], [175.209831038598, -37.1293508006662], [175.210666669572, -37.1288027878305], [175.211225345195, -37.1284879876555], [175.211608943459, -37.1286320023863], [175.213413120362, -37.1287472977071], [175.214649066255, -37.1288740706154], [175.21579032057, -37.1290027365381], [175.216912411353, -37.1285247566989], [175.218228696645, -37.1281945842151], [175.219649257095, -37.1281658007373], [175.220700595487, -37.1284479983486], [175.221747145513, -37.1285785258493], [175.222601878503, -37.1286370644641], [175.22372873995, -37.1283106815351], [175.224391660849, -37.1282972200867], [175.224569066772, -37.1279142252324], [175.224272941523, -37.1275408410359], [175.22378260224, -37.1270196481047], [175.223394204245, -37.1267240306776], [175.223287493804, -37.1263467920544]]}, "properties": {"OBJECTID": 1458, "TRACKNAME": "Mangatangi Trig Track", "CONDITIONSOFUSE": "Hunua Ranges Regional Park", "STATUS": "Permanent", "WEBLINK": "https://www.aucklandcouncil.govt.nz/en/parks-recreation/find-park-beach/park-detail/213.html", "VALIDATIONSTATE": 3, "created_user": "AC_owner", "last_edited_user": "AC_owner", "last_edited_date": 1789875254325, "created_date": 1789875254325, "PARK_SAPSITEID": null, "TRACK_ID": null, "KAURIDIEBACK_TRACK": null, "KAURIDIEBACK_MITIGATED": null, "SegmentID": null, "GlobalID": "4315869e-69ea-41a8-a4cd-34141b242bb1", "Shape__Length": 3625.7935960536865}}, {"type": "Feature", "id": 12170, "geometry": {"type": "LineString", "coordinates": [[175.185991019521, -37.130664222888], [175.187002073031, -37.1296576137348], [175.187549028498, -37.1289637708306], [175.188200138905, -37.1285713696333], [175.188807628614, -37.1284298269841]]}, "properties": {"OBJECTID": 12170, "TRACKNAME": "Mangatangi Trig Track", "CONDITIONSOFUSE": "Hunua Ranges Regional Park", "STATUS": "Open", "WEBLINK": "https://www.aucklandcouncil.govt.nz/en/parks-recreation/find-park-beach/park-detail/213.html", "VALIDATIONSTATE": 3, "created_user": "AC_owner", "last_edited_user": "AC_owner", "last_edited_date": 1789875254325, "created_date": 1789875254325, "PARK_SAPSITEID": null, "TRACK_ID": null, "KAURIDIEBACK_TRACK": null, "KAURIDIEBACK_MITIGATED": null, "SegmentID": null, "GlobalID": "528fac45-bf2a-4166-b2fc-f330ff585436", "Shape__Length": 363.07786130592933}}, {"type": "Feature", "id": 12261, "geometry": {"type": "LineString", "coordinates": [[175.188656338868, -37.1276418642563], [175.188559298004, -37.1278859442354], [175.188568810422, -37.1280035556523], [175.188807628614, -37.1284298269841]]}, "properties": {"OBJECTID": 12261, "TRACKNAME": "Mangatangi Trig Track", "CONDITIONSOFUSE": "Hunua Ranges Regional Park", "STATUS": "Open", "WEBLINK": "https://www.aucklandcouncil.govt.nz/en/parks-recreation/find-park-beach/park-detail/213.html", "VALIDATIONSTATE": 3, "created_user": "AC_owner", "last_edited_user": "AC_owner", "last_edited_date": 1789875254325, "created_date": 1789875254325, "PARK_SAPSITEID": null, "TRACK_ID": null, "KAURIDIEBACK_TRACK": null, "KAURIDIEBACK_MITIGATED": null, "SegmentID": null, "GlobalID": "b48fd7ce-2c5a-41b4-a78d-cbc951ea2a50", "Shape__Length": 93.3630333677655}}]}