{"type": "FeatureCollection", "features": [{"type": "Feature", "id": 357, "geometry": {"type": "LineString", "coordinates": [[175.195245992421, -37.0698311246791], [175.195950340239, -37.0696247122986], [175.196914754722, -37.0693420223306], [175.199182362153, -37.0687292457858], [175.199038671953, -37.0667469521356], [175.199502192044, -37.0641633771365], [175.202551741328, -37.0633167107441], [175.204610231494, -37.0621189618009], [175.206011687362, -37.0608035609407], [175.207350160157, -37.0609511137306], [175.208416631441, -37.0611040801314], [175.209766689086, -37.0610976691117], [175.211278422119, -37.0605308270851], [175.212863801907, -37.0592730086572], [175.214165091989, -37.0580975153426], [175.215385275362, -37.057383336724], [175.21688231487, -37.0563570679288], [175.217901699725, -37.055340436958], [175.218338160849, -37.0540292424992], [175.218586133731, -37.0527984334068], [175.218736054632, -37.0514930487454], [175.219745688342, -37.0501701316383], [175.220855563226, -37.048998510431], [175.221497602554, -37.0481427284501], [175.221750250507, -37.047065006702], [175.221998058825, -37.0458341934233], [175.22196420625, -37.0447623797192], [175.221837246877, -37.0437689921455], [175.222269716984, -37.0428878453558]]}, "properties": {"OBJECTID": 357, "TRACKNAME": "Mangatangi Ridge Track", "CONDITIONSOFUSE": "Hunua Ranges Regional Park", "STATUS": "Open", "WEBLINK": "https://www.aucklandcouncil.govt.nz/en/parks-recreation/find-park-beach/park-detail/213.html", "VALIDATIONSTATE": 3, "created_user": "AC_owner", "last_edited_user": "AC_owner", "last_edited_date": 1789875254325, "created_date": 1789875254325, "PARK_SAPSITEID": null, "TRACK_ID": null, "KAURIDIEBACK_TRACK": null, "KAURIDIEBACK_MITIGATED": null, "SegmentID": null, "GlobalID": "33d26745-724b-440b-b855-45fbd42384d8", "Shape__Length": 4374.238065964761}}, {"type": "Feature", "id": 819, "geometry": {"type": "LineString", "coordinates": [[175.22222403464, -37.0420970263017], [175.223913389106, -37.0419146096638], [175.225216611603, -37.0420718170928], [175.226144029505, -37.0424202443377], [175.227220293208, -37.042643234172], [175.22919681366, -37.0423580336442], [175.230265273277, -37.042336322086], [175.23202639492, -37.0424840307129], [175.233316066587, -37.0422128588736], [175.234676134068, -37.0417565300867], [175.236650618778, -37.0414101522971], [175.237427462589, -37.0418227827608], [175.238593690456, -37.0424723356263], [175.239603277822, -37.043002651301], [175.240986764065, -37.0432804423678], [175.242053331171, -37.0431972978764], [175.243178552891, -37.0425621264774], [175.243994684741, -37.041810788553], [175.245051383084, -37.0414218043436], [175.246338993827, -37.0410892567249], [175.247399649272, -37.0408226308286], [175.248233259989, -37.0406218424551], [175.248923951651, -37.0407301187404], [175.249030428469, -37.0408009957537], [175.24954825777, -37.0411458318587], [175.249738039933, -37.0423050514355], [175.250276153324, -37.0424164843969], [175.251350603172, -37.0425758533635], [175.251385956424, -37.0425675234173], [175.251420898944, -37.0425578493925], [175.251451019145, -37.042544932309], [175.251483744794, -37.0425355707274], [175.251536001003, -37.0425188104266], [175.251587154821, -37.0424993673019], [175.251618420015, -37.0424812931488], [175.251660751306, -37.0424518352508], [175.251706858254, -37.0424184321007], [175.251740655825, -37.0423919300659], [175.251782592259, -37.0423616685034], [175.251825332922, -37.0423367089943], [175.25185755582, -37.0423196980867], [175.251887128143, -37.0423039974417], [175.251916517867, -37.04228523783], [175.251944349215, -37.0422702029043], [175.251970379964, -37.0422506959456], [175.251992148848, -37.042228117363], [175.252005003671, -37.0422020129558], [175.252014822016, -37.0421734427277], [175.252027992754, -37.0421485940602], [175.252044913084, -37.0421219618216], [175.252058201119, -37.0420947676892], [175.252073769252, -37.0420663586377], [175.252093625286, -37.0420261537847], [175.252110089819, -37.0419903393073], [175.252121484897, -37.0419649836049], [175.252133432386, -37.041939527286], [175.252146746981, -37.0419132338834], [175.25216063262, -37.0418874703808], [175.252181670186, -37.0418495863088], [175.252207233136, -37.0418017044073], [175.252228822093, -37.0417605671795], [175.252245132738, -37.041735298358], [175.252265518097, -37.0416973365338], [175.252289051687, -37.0416749046314], [175.25231250002, -37.0416495885608], [175.252355299483, -37.0416140849977], [175.252390769282, -37.041587731271], [175.252430663301, -37.0415479586969], [175.252463078573, -37.0415030108209], [175.252493581031, -37.041471704447], [175.252516780906, -37.0414505387783], [175.252538565796, -37.0414285906651], [175.252579478667, -37.041391951241], [175.252614103697, -37.0413715599028], [175.252662753833, -37.0413489212073], [175.25271063139, -37.0413283682266], [175.252746903394, -37.041316685828], [175.252794746748, -37.0413043329807], [175.252889736307, -37.0412844170651], [175.252947677536, -37.0412813353834], [175.253003831882, -37.0412836013551], [175.253045996871, -37.0412924417881], [175.253105405491, -37.0413107763469], [175.25313746595, -37.0413196284762], [175.253170115039, -37.0413264866763], [175.253217795105, -37.0413274733676], [175.253264534387, -37.0413155018065], [175.25330932874, -37.0413004146318], [175.253340380391, -37.0412908139809], [175.253389333771, -37.041278439803], [175.253422017086, -37.0412707908631], [175.25345526299, -37.04126330967], [175.253489174798, -37.041256448487], [175.253523399887, -37.0412507529582], [175.253588826714, -37.0412436515655], [175.253634483397, -37.0412420647361], [175.253689971122, -37.0412469566578], [175.253742772845, -37.0412581163792], [175.25378134027, -37.0412675656659], [175.253839309602, -37.0412842148448], [175.253898344007, -37.0412866978307], [175.253942533438, -37.0412856777126], [175.254002269481, -37.0412867954456], [175.254060578801, -37.0412773073934], [175.254107636451, -37.0412729882194], [175.254172470833, -37.0412709447303], [175.254237920931, -37.0412615912306], [175.254283076239, -37.0412555975878], [175.254336626456, -37.0412356571188], [175.254377687439, -37.0412103663359], [175.254417893448, -37.0411780656968], [175.254440314956, -37.041152500165], [175.25446160582, -37.0411264153772], [175.254483475307, -37.0411010405805], [175.254503038461, -37.0410760683205], [175.254534741183, -37.041028972259], [175.254558222111, -37.0409953654962], [175.254589396761, -37.0409492708279], [175.254603151955, -37.0409222477887], [175.254615909319, -37.0408928103607], [175.254637499366, -37.040845454109], [175.254652681087, -37.0408134489053], [175.254668172962, -37.0407824273684], [175.254683334056, -37.0407527657865], [175.254698430016, -37.0407240950066], [175.254720148969, -37.0406842148092], [175.25474188858, -37.0406356858809], [175.254758203924, -37.0405917644966], [175.254775860724, -37.0405681803041], [175.254801682336, -37.0405416488154], [175.254824550457, -37.0405218408784], [175.254853262669, -37.0404958852886], [175.254873733956, -37.0404734209869], [175.254898088315, -37.0404474581224], [175.254913293355, -37.0404224785383], [175.254932834946, -37.0403904805239], [175.254956442724, -37.0403518261105], [175.254974791514, -37.0403233638179], [175.254994257327, -37.0402919981051], [175.25501313341, -37.0402594719863], [175.255031364885, -37.0402270464438], [175.255056040057, -37.0401806228212], [175.255071401155, -37.040151498134], [175.255086144305, -37.0401233747612], [175.255099977995, -37.0400958995513], [175.255112021261, -37.0400705312468], [175.25512993103, -37.0400210819067], [175.255143419393, -37.0399850532461], [175.255166338666, -37.0399419074688], [175.255190386282, -37.0398992809761], [175.255209054348, -37.0398660377877], [175.255236121915, -37.0398189377623], [175.255268327705, -37.0397763363592], [175.255291154743, -37.039745806119], [175.255320168329, -37.0397049759701], [175.255351952661, -37.0396669789028], [175.255381373973, -37.039639928211], [175.255427570403, -37.0396095843712], [175.255456231844, -37.0395820073667], [175.255477554981, -37.0395475420243], [175.255496545647, -37.0395126704178], [175.255514125839, -37.0394896283217], [175.255536253019, -37.0394666817933], [175.255561365949, -37.0394444877899], [175.255598251678, -37.0394127906592], [175.255637814698, -37.0393744635159], [175.25566780339, -37.0393384814534], [175.255692686281, -37.0393146713622], [175.255709589997, -37.0393032663458], [175.255735495812, -37.0392858338166], [175.255782438956, -37.0392682714961], [175.255835172022, -37.0392615004654], [175.255888169271, -37.0392511212139], [175.255922689386, -37.0392428959113], [175.255953705306, -37.0392384323576], [175.255992447242, -37.0392319274083], [175.256031351746, -37.039224610037], [175.256089916401, -37.0391674511795]]}, "properties": {"OBJECTID": 819, "TRACKNAME": "Mangatangi Ridge Track", "CONDITIONSOFUSE": "Hunua Ranges Regional Park", "STATUS": "Temp Closed", "WEBLINK": "https://www.aucklandcouncil.govt.nz/en/parks-recreation/find-park-beach/park-detail/213.html", "VALIDATIONSTATE": 3, "created_user": "AC_owner", "last_edited_user": "AC_owner", "last_edited_date": 1789875254325, "created_date": 1789875254325, "PARK_SAPSITEID": null, "TRACK_ID": null, "KAURIDIEBACK_TRACK": null, "KAURIDIEBACK_MITIGATED": null, "SegmentID": null, "GlobalID": "b311c839-5eaf-429c-abc1-468492fe6b07", "Shape__Length": 3531.9860449442963}}, {"type": "Feature", "id": 1757, "geometry": {"type": "LineString", "coordinates": [[175.222269718134, -37.0428878462356], [175.222169453898, -37.0425651582944], [175.222206478038, -37.0423118985107], [175.222223431687, -37.0421044557808]]}, "properties": {"OBJECTID": 1757, "TRACKNAME": "Mangatangi Ridge Track", "CONDITIONSOFUSE": "Hunua Ranges Regional Park", "STATUS": "Open", "WEBLINK": "https://www.aucklandcouncil.govt.nz/en/parks-recreation/find-park-beach/park-detail/213.html", "VALIDATIONSTATE": 3, "created_user": "AC_owner", "last_edited_user": "AC_owner", "last_edited_date": 1789875254325, "created_date": 1789875254325, "PARK_SAPSITEID": null, "TRACK_ID": null, "KAURIDIEBACK_TRACK": null, "KAURIDIEBACK_MITIGATED": null, "SegmentID": null, "GlobalID": "46ceef68-1128-4d1d-a157-973d037a90e5", "Shape__Length": 88.2824208388605}}]}