{"type": "FeatureCollection", "features": [{"type": "Feature", "id": 62, "geometry": {"type": "LineString", "coordinates": [[174.562177817082, -37.0045705659465], [174.562317310937, -37.0045717489912], [174.56247571987, -37.0045757113476], [174.562615337508, -37.0045829404639], [174.562792700894, -37.0045927008476], [174.562876100402, -37.004599661419]]}, "properties": {"OBJECTID": 62, "TRACKNAME": "Manukau Timber Co Heritage Walk", "CONDITIONSOFUSE": "Waitakere South Regional Park", "STATUS": "Open", "WEBLINK": "https://www.aucklandcouncil.govt.nz/en/parks-recreation/find-park-beach/park-detail/212.html", "VALIDATIONSTATE": 3, "created_user": "AC_owner", "last_edited_user": "AC_owner", "last_edited_date": 1789875254325, "created_date": 1789875254325, "PARK_SAPSITEID": null, "TRACK_ID": null, "KAURIDIEBACK_TRACK": null, "KAURIDIEBACK_MITIGATED": null, "SegmentID": null, "GlobalID": "08dc479a-5380-435e-a879-3f59cbeb0bb2", "Shape__Length": 62.252178752802024}}, {"type": "Feature", "id": 3139, "geometry": {"type": "LineString", "coordinates": [[174.562876100402, -37.004599661419], [174.563011708798, -37.0046109800139], [174.563234418665, -37.0046261814739], [174.563476043732, -37.0046441618288], [174.563744224253, -37.0046708593179], [174.563925661434, -37.00469567994], [174.56407349972, -37.0047360587648], [174.564165555709, -37.0048134520003], [174.564239389151, -37.0049213076002], [174.564271330317, -37.005008560742], [174.564341152543, -37.0051043820622], [174.56446786152, -37.0052175975027], [174.564518098722, -37.005277397634], [174.564553060829, -37.0053283315748], [174.564595945114, -37.0053973051987], [174.564614109716, -37.0055482218693], [174.56454518059, -37.0056791322242], [174.56444911532, -37.005774121021], [174.56429627546, -37.0058577620986], [174.564061518239, -37.0059908491123], [174.563901273501, -37.0060806353381], [174.563737624827, -37.0061886103563], [174.56362951175, -37.0062474779792], [174.563479009886, -37.0062615481547], [174.563350877922, -37.0062632363364], [174.563184751897, -37.0062503092781], [174.563127482274, -37.006214784412], [174.563115188893, -37.006166579976], [174.563140022679, -37.0060906657347], [174.563261902179, -37.0057837192388], [174.563351531763, -37.0055588146371], [174.563382790142, -37.0054284102839], [174.563366894722, -37.0052048959033], [174.563295042141, -37.0050093394508], [174.563154978382, -37.0047965283394], [174.563085911891, -37.0047369756399], [174.562955864047, -37.0046449753506], [174.562876100402, -37.004599661419]]}, "properties": {"OBJECTID": 3139, "TRACKNAME": "Manukau Timber Co Heritage Walk", "CONDITIONSOFUSE": "Waitakere South Regional Park", "STATUS": "Open", "WEBLINK": "https://www.aucklandcouncil.govt.nz/en/parks-recreation/find-park-beach/park-detail/212.html", "VALIDATIONSTATE": 3, "created_user": "AC_owner", "last_edited_user": "AC_owner", "last_edited_date": 1789875254325, "created_date": 1789875254325, "PARK_SAPSITEID": null, "TRACK_ID": null, "KAURIDIEBACK_TRACK": null, "KAURIDIEBACK_MITIGATED": null, "SegmentID": null, "GlobalID": "e144beea-9f17-41fb-a0d9-d1fb8fc4f6e1", "Shape__Length": 576.2010474041522}}]}