{"type": "FeatureCollection", "features": [{"type": "Feature", "id": 1324, "geometry": {"type": "LineString", "coordinates": [[174.545097552294, -37.0218385479897], [174.545100735112, -37.0219374115317], [174.545111719966, -37.0219602799079], [174.545138052574, -37.0219849944676], [174.545294870929, -37.0220773683486], [174.545499232264, -37.0221405319384], [174.545551871961, -37.0221404140745], [174.545787860727, -37.0220879277399], [174.546236576713, -37.0220172016147], [174.546300410963, -37.0220253290803], [174.546563522172, -37.0220908708295], [174.546703803804, -37.0221404099836], [174.546850122043, -37.0222026964543], [174.546897746076, -37.0221969288362], [174.547014788904, -37.0221470634435]]}, "properties": {"OBJECTID": 1324, "TRACKNAME": "Manukau Bar View Walk", "CONDITIONSOFUSE": "Waitakere South Regional Park", "STATUS": "Temp Closed", "WEBLINK": "https://www.aucklandcouncil.govt.nz/en/parks-recreation/find-park-beach/park-detail/212.html", "VALIDATIONSTATE": 3, "created_user": "AC_owner", "last_edited_user": "AC_owner", "last_edited_date": 1789875254325, "created_date": 1789875254325, "PARK_SAPSITEID": null, "TRACK_ID": null, "KAURIDIEBACK_TRACK": null, "KAURIDIEBACK_MITIGATED": null, "SegmentID": null, "GlobalID": "919e78e7-8659-4da2-8f87-e34c82b3c71a", "Shape__Length": 195.97498451337958}}]}