{"type": "FeatureCollection", "features": [{"type": "Feature", "id": 823, "geometry": {"type": "LineString", "coordinates": [[174.427727138388, -36.8303244761159], [174.427734780035, -36.8304406094743], [174.427642820981, -36.8305986818235], [174.427626108093, -36.8306575269225], [174.427603344195, -36.8308668324703], [174.427612409365, -36.831118094018], [174.427957799705, -36.8316501369353], [174.428122101085, -36.8318843631734], [174.428142986849, -36.8319028070647], [174.428148662679, -36.8318878299011]]}, "properties": {"OBJECTID": 823, "TRACKNAME": "Maori Bay Track", "CONDITIONSOFUSE": "Muriwai Regional Park", "STATUS": "Open", "WEBLINK": "https://www.aucklandcouncil.govt.nz/en/parks-recreation/find-park-beach/park-detail/220.html", "VALIDATIONSTATE": 3, "created_user": "AC_owner", "last_edited_user": "AC_owner", "last_edited_date": 1789875254325, "created_date": 1789875254325, "PARK_SAPSITEID": null, "TRACK_ID": null, "KAURIDIEBACK_TRACK": null, "KAURIDIEBACK_MITIGATED": null, "SegmentID": null, "GlobalID": "abcefcbe-80f7-435a-83dd-72807f30fe39", "Shape__Length": 191.0880360577686}}]}