{"type": "FeatureCollection", "features": [{"type": "Feature", "id": 12660, "geometry": {"type": "LineString", "coordinates": [[174.466814313149, -36.9430000712958], [174.466858041836, -36.9429509725572], [174.466918938068, -36.9428825986655], [174.466980265303, -36.9428258146275], [174.467070096282, -36.9427837240403], [174.467110861794, -36.9427498805327], [174.467184062227, -36.9426353864693], [174.467178745044, -36.9423523321918], [174.467249379416, -36.9422177719686], [174.467352708485, -36.9421247456745], [174.467369650872, -36.9420980171309], [174.467353867477, -36.9420630416608], [174.467248242985, -36.9419405835047], [174.46723859647, -36.9419136255784], [174.467273696306, -36.9418787325232], [174.467502840299, -36.9417368916788], [174.467528022943, -36.9417088309039], [174.46751280683, -36.9416845783382], [174.467405252684, -36.9415941067059], [174.467326650705, -36.941475669174], [174.46727518662, -36.9413130689826], [174.467261290733, -36.9412356237987], [174.467280236186, -36.9411761012411], [174.467357879948, -36.9410101660021], [174.467398023299, -36.9409915379846], [174.467556310972, -36.9409828656917], [174.467565353156, -36.9409680742408], [174.467555905981, -36.9409289102361], [174.467518603933, -36.9408340929301], [174.46749157363, -36.9407979512846], [174.46716779468, -36.9406542818737], [174.467140816241, -36.9406348283548], [174.467180479115, -36.9406181469956], [174.467540822896, -36.9405349207176], [174.467563125324, -36.9405109823381], [174.467730868595, -36.940206379824], [174.467766306868, -36.9401658831347], [174.4677764576, -36.9401272872263], [174.467769733772, -36.940097736925], [174.46767344876, -36.9400140469114], [174.467661095831, -36.9399869557082], [174.467678893656, -36.9399500004251], [174.467755964811, -36.9398441149001], [174.467761118668, -36.9398217972899], [174.467723232182, -36.9398140964782], [174.467577078784, -36.9398152124521], [174.467537657364, -36.9398059342265]]}, "properties": {"OBJECTID": 12660, "TRACKNAME": "Marawhara Walk", "CONDITIONSOFUSE": "WAITAKERE WEST REGIONAL PARK", "STATUS": "Open", "WEBLINK": "https://www.aucklandcouncil.govt.nz/en/parks-recreation/find-park-beach/park-detail/3451.html", "VALIDATIONSTATE": 3, "created_user": "AC_owner", "last_edited_user": "AC_owner", "last_edited_date": 1789875254325, "created_date": 1789875254325, "PARK_SAPSITEID": null, "TRACK_ID": null, "KAURIDIEBACK_TRACK": null, "KAURIDIEBACK_MITIGATED": null, "SegmentID": null, "GlobalID": "814fe63c-e03e-45b7-9fa1-7a208f48d6a2", "Shape__Length": 485.58004743374903}}]}