{"type": "FeatureCollection", "features": [{"type": "Feature", "id": 12013, "geometry": {"type": "LineString", "coordinates": [[175.055910735813, -36.8090943284382], [175.053827727074, -36.808880456783], [175.053490601966, -36.8087882519724], [175.051541210035, -36.8074898640503], [175.051232272964, -36.8074682848232], [175.050771754586, -36.8074992955594], [175.049763914916, -36.8084296972941], [175.049460354417, -36.8086098461884], [175.049284670485, -36.8086551624728], [175.048487571347, -36.8085247393307], [175.048376633887, -36.8085810683462]]}, "properties": {"OBJECTID": 12013, "TRACKNAME": "Margaret Reeve Lane", "CONDITIONSOFUSE": "Okoka Bay Dead Dog Walkway", "STATUS": "Open", "WEBLINK": "https://www.aucklandcouncil.govt.nz/en/parks-recreation/find-park-beach/park-detail/1234.html", "VALIDATIONSTATE": 3, "created_user": "AC_owner", "last_edited_user": "AC_owner", "last_edited_date": 1789875254325, "created_date": 1789875254325, "PARK_SAPSITEID": null, "TRACK_ID": null, "KAURIDIEBACK_TRACK": null, "KAURIDIEBACK_MITIGATED": null, "SegmentID": null, "GlobalID": "c196d018-a693-4f4c-9e9d-2d353f2821a5", "Shape__Length": 785.3096056439883}}]}