{"type": "FeatureCollection", "features": [{"type": "Feature", "id": 428, "geometry": {"type": "MultiLineString", "coordinates": [[[175.0991451019, -37.071106784299], [175.099524668345, -37.0713000145996], [175.09990204004, -37.0714912042067], [175.100222304379, -37.0717510801979], [175.100650696613, -37.0720432786009], [175.101135852514, -37.0721412833192], [175.101629439154, -37.0722248064773], [175.10197235251, -37.0723469503978], [175.102120904209, -37.0724603724845], [175.102127728763, -37.0724655689447], [175.102266981153, -37.0726417846009], [175.102187322337, -37.0727732225014], [175.102058162468, -37.0729592443661], [175.102243847871, -37.0733118794581], [175.102562632081, -37.0736079969045], [175.103021058195, -37.0736206853934], [175.103313672761, -37.0734962843686], [175.103629009887, -37.0732311706289], [175.103917763896, -37.0729773519885], [175.104083395067, -37.0726611061326], [175.104263934125, -37.0728410929725], [175.104488255694, -37.0726856359107], [175.104653633524, -37.0724311213732], [175.105076182559, -37.0722298027908], [175.105393536169, -37.0720949444235], [175.105709071949, -37.0721961225417], [175.105924032638, -37.0725139927267], [175.106215149949, -37.0726943556364], [175.106631022631, -37.0728652009261], [175.10676394873, -37.0731273959643], [175.106748035534, -37.073192015456], [175.106716173484, -37.0733214317136], [175.106716209733, -37.0733214409833], [175.106913786846, -37.0733605399742], [175.107313877092, -37.0733027873179], [175.107695235964, -37.0732018533038], [175.108038003484, -37.0733316337717], [175.108344646343, -37.0734330529779], [175.108660691488, -37.073548625229], [175.108998853767, -37.0738068066611], [175.109324782498, -37.0739578913123], [175.109736423628, -37.0739857071914], [175.109998717374, -37.0738017240844], [175.110064765045, -37.0736215937783], [175.110050644496, -37.0734501904815], [175.109984523167, -37.073329813867], [175.110067770794, -37.0732147010132], [175.110404356193, -37.0732081693927], [175.110740243585, -37.0731801180644], [175.111052224127, -37.0732496206028], [175.111225647761, -37.0731922854944]], [[175.0991451019, -37.071106784299], [175.099022475227, -37.0710443760643], [175.098770868935, -37.070990224523]], [[175.098770868935, -37.070990224523], [175.099022455346, -37.071044348477], [175.0991451019, -37.071106784299]], [[175.091496984384, -37.0646390721742], [175.091773814156, -37.0647741285633], [175.09196246856, -37.0648697413709], [175.092124397891, -37.0652652534469], [175.092197033835, -37.0655630392843], [175.092342722434, -37.0658667460847], [175.092416855675, -37.0662156882765], [175.09247003787, -37.0664701237581], [175.092639590353, -37.0666566227937], [175.092888590117, -37.0667612631453], [175.093186804785, -37.0666825636473], [175.093454192108, -37.0664877116686], [175.093742886378, -37.0664235901384], [175.094055389684, -37.0665169223186], [175.09417537273, -37.0667452120555], [175.094128366192, -37.0668876943758], [175.094085155061, -37.0671003002938], [175.094292773166, -37.0672071015108], [175.094564406951, -37.067068942831], [175.094815879434, -37.0670977568956], [175.095095189769, -37.0671172371057], [175.095242889357, -37.0671734708425], [175.095247079624, -37.0672145756606], [175.095164834103, -37.0672620747273], [175.095007485192, -37.0673039610379], [175.094929794398, -37.0673584093437], [175.09494797081, -37.0673956619894], [175.095069222912, -37.0674545172559], [175.095223368538, -37.0674515230381], [175.095428610334, -37.0673946491711], [175.095572939047, -37.0674460662053], [175.095610681989, -37.0675301902669], [175.095536785472, -37.0676219654467], [175.09535090622, -37.0677420366084], [175.095219972315, -37.0679280826122], [175.095194140642, -37.0680945163051], [175.09515281405, -37.0683317839407], [175.095099101504, -37.0685975611716], [175.095066193892, -37.0688240360451], [175.095373465287, -37.0691714698809], [175.095567967426, -37.0694654862124], [175.095637022567, -37.0697943273523], [175.095921422968, -37.0700252967137], [175.096088921861, -37.0702851754248], [175.096088948163, -37.0702851911825], [175.096124690901, -37.070300838848], [175.096496063057, -37.0704634267498], [175.097074887184, -37.0707098167079], [175.097507944026, -37.0708588593286], [175.098460530287, -37.0709234595985], [175.098738564936, -37.0709832725924], [175.098770868935, -37.070990224523]]]}, "properties": {"OBJECTID": 428, "TRACKNAME": "Massey Track", "CONDITIONSOFUSE": "Hunua Ranges Regional Park", "STATUS": "Open", "WEBLINK": "https://www.aucklandcouncil.govt.nz/en/parks-recreation/find-park-beach/park-detail/213.html", "VALIDATIONSTATE": 3, "created_user": "AC_owner", "last_edited_user": "AC_owner", "last_edited_date": 1789875254325, "created_date": 1789875254325, "PARK_SAPSITEID": null, "TRACK_ID": null, "KAURIDIEBACK_TRACK": null, "KAURIDIEBACK_MITIGATED": null, "SegmentID": null, "GlobalID": "f4688a49-5fef-4ad2-a07d-b211180c2146", "Shape__Length": 2872.925759962971}}]}