{"type": "FeatureCollection", "features": [{"type": "Feature", "id": 12002, "geometry": {"type": "LineString", "coordinates": [[175.046797499859, -36.7792354598191], [175.046790436291, -36.7792109831547], [175.046786140512, -36.7791860943741], [175.046784647401, -36.7791609955729], [175.046785969078, -36.779135890552], [175.046790094809, -36.7791109831626], [175.046796991091, -36.7790864756508], [175.046806601924, -36.7790625670158], [175.046818849266, -36.7790394513933], [175.046833633668, -36.7790173164803], [175.046850835079, -36.7789963420097], [175.046870313824, -36.7789766982921], [175.046891911737, -36.778958544832], [175.046915453442, -36.7789420290334], [175.046940747785, -36.7789272850024], [175.046967589375, -36.7789144324584], [175.046995760264, -36.7789035757624], [175.047025031707, -36.778894803069], [175.047055166023, -36.7788881856113], [175.047085918526, -36.7788837771219], [175.047117039511, -36.778881613397], [175.047148276279, -36.7788817120056], [175.047179375193, -36.778884072147], [175.047210083735, -36.7788886746571], [175.047240152555, -36.7788954821642], [175.0472693375, -36.7789044393921], [175.04729740159, -36.7789154736095], [175.04732411695, -36.7789284952201], [175.047349266654, -36.77894339849], [175.047372646489, -36.7789600624068], [175.047394066613, -36.7789783516616], [175.047413353095, -36.7789981177479], [175.047430349329, -36.7790192001673], [175.047454845523, -36.77904953172], [175.04748209612, -36.7790783027819], [175.047511948145, -36.779105351841], [175.047544234022, -36.7791305270523], [175.047578772508, -36.7791536870894], [175.047615369718, -36.7791747019388], [175.047653820205, -36.7791934536291], [175.047693908121, -36.7792098368937], [175.047735408424, -36.7792237597617], [175.047778088143, -36.7792351440741], [175.047821707687, -36.7792439259224], [175.047866022187, -36.779250056008], [175.047910782874, -36.7792534999183], [175.047955738473, -36.7792542383202], [175.048000636616, -36.7792522670688], [175.048045225255, -36.7792475972302], [175.048109493018, -36.7792489787991], [175.048173395561, -36.7792546531946], [175.048236490521, -36.7792645811359], [175.048298341127, -36.7792786938967], [175.048358519219, -36.7792968937819], [175.048416608215, -36.7793190548031], [175.048472205996, -36.779345023551], [175.048524927683, -36.7793746202574], [175.048549204411, -36.7793861781908], [175.048572213485, -36.7793993072786], [175.048593798141, -36.7794139180719], [175.048613811322, -36.7794299110269], [175.048632116678, -36.779447177183], [175.048648589491, -36.7794655989053], [175.048663117531, -36.7794850506856], [175.048675601815, -36.779505399998], [175.048685957286, -36.7795265082015], [175.04869411339, -36.7795482314848], [175.048700014557, -36.7795704218456], [175.048703620579, -36.7795929280995], [175.048704906887, -36.7796155969097], [175.048703864715, -36.7796382738316], [175.048700501162, -36.7796608043655], [175.048694839141, -36.7796830350086], [175.048648504032, -36.7797805232477], [175.048596799929, -36.7798762486996], [175.048539830092, -36.7799700201476], [175.048477708303, -36.7800616502773], [175.048302117645, -36.7800764595446], [175.048126242448, -36.7800888939537], [175.047950132355, -36.7800989499946], [175.047773837073, -36.7801066248284], [175.047914194141, -36.780143897324], [175.048051531352, -36.7801878504228], [175.048185357791, -36.7802383270139], [175.04831519509, -36.7802951466683], [175.048440579138, -36.780358106283], [175.048561061737, -36.7804269808077], [175.048676212209, -36.7805015240484], [175.048785618931, -36.7805814695478], [175.048888890806, -36.7806665315372], [175.048985658665, -36.780756405958], [175.049075576583, -36.7808507715485], [175.049158323117, -36.7809492909917], [175.049233602457, -36.7810516121216], [175.049301145479, -36.781157369181], [175.049360710712, -36.7812661841295], [175.049412085198, -36.7813776679944], [175.049441930371, -36.7814306743907], [175.049469537069, -36.7814844599929], [175.049494873903, -36.7815389636552], [175.049517912064, -36.7815941234158], [175.049538625356, -36.7816498765665], [175.049556990228, -36.7817061597247], [175.049572985795, -36.7817629089049], [175.049586593867, -36.7818200595917], [175.04959779897, -36.7818775468132], [175.049606588359, -36.7819353052148], [175.049612952036, -36.7819932691333], [175.049616882762, -36.7820513726719], [175.049618376062, -36.7821095497746], [175.049617430233, -36.7821677343021], [175.049614046344, -36.7822258601061], [175.049608228238, -36.7822838611051], [175.049596925004, -36.7823118348653], [175.049583248369, -36.782339114363], [175.049567263563, -36.7823655694838], [175.049549046827, -36.7823910740453], [175.049528685047, -36.7824155063987], [175.049506275339, -36.7824387500093], [175.04948192459, -36.7824606940121], [175.049455748943, -36.7824812337409], [175.049427873247, -36.7825002712272], [175.04939843046, -36.7825177156678], [175.049367561014, -36.7825334838576], [175.049335412146, -36.782547500587], [175.049302137198, -36.782559699], [175.04926789488, -36.7825700209135], [175.049232848518, -36.7825784170949], [175.049197165275, -36.7825848474965], [175.049161015347, -36.7825892814472], [175.049124571162, -36.782591697798], [175.049088006547, -36.7825920850236], [175.049051495907, -36.7825904412769], [175.049015213385, -36.782586774398], [175.048979332042, -36.7825811018768], [175.048944023019, -36.7825734507697], [175.048909454733, -36.7825638575703], [175.048875792062, -36.7825523680352], [175.04884319557, -36.7825390369664], [175.048811820731, -36.7825239279492], [175.048781817193, -36.7825071130494], [175.048753328065, -36.782488672469], [175.04872648923, -36.7824686941643], [175.048701428699, -36.782447273426], [175.048678266004, -36.7824245124244], [175.048651516202, -36.7823901044579], [175.048622842457, -36.7823567141233], [175.048592304499, -36.7823244109751], [175.048559965943, -36.7822932623027], [175.048525894155, -36.782263332991], [175.04849016011, -36.7822346853846], [175.048452838247, -36.7822073791583], [175.04841400631, -36.7821814711924], [175.048373745189, -36.7821570154549], [175.048332138752, -36.7821340628884], [175.048289273669, -36.7821126613042], [175.048245239231, -36.7820928552832], [175.048200127163, -36.7820746860822], [175.048154031438, -36.7820581915487], [175.048107048075, -36.7820434060416], [175.048059274943, -36.7820303603598], [175.048000564598, -36.782051844878], [175.047943962377, -36.7820767220654], [175.047889770775, -36.7821048589738], [175.047838279407, -36.7821361052343], [175.047789763455, -36.7821702938609], [175.047744482202, -36.7822072421426], [175.047702677648, -36.78224675262], [175.047664573209, -36.7822886141405], [175.047630372532, -36.7823326029866], [175.0476002584, -36.7823784840713], [175.047574391758, -36.7824260121948], [175.047552910853, -36.7824749333545], [175.047535930491, -36.7825249861025], [175.047523541431, -36.7825759029429], [175.047515809892, -36.7826274117616], [175.047512777204, -36.7826792372796], [175.047229027592, -36.7834009361437], [175.0473962352, -36.7837646323486]]}, "properties": {"OBJECTID": 12002, "TRACKNAME": "Matapana-Hill Rd", "CONDITIONSOFUSE": null, "STATUS": "Open", "WEBLINK": null, "VALIDATIONSTATE": 3, "created_user": "AC_owner", "last_edited_user": "AC_owner", "last_edited_date": 1789875254325, "created_date": 1789875254325, "PARK_SAPSITEID": null, "TRACK_ID": null, "KAURIDIEBACK_TRACK": null, "KAURIDIEBACK_MITIGATED": null, "SegmentID": null, "GlobalID": "032ed65b-90be-4e85-a42b-41d7bbbda379", "Shape__Length": 1059.295993137412}}]}