{"type": "FeatureCollection", "features": [{"type": "Feature", "id": 6604, "geometry": {"type": "LineString", "coordinates": [[175.046788250306, -36.7792556308658], [175.046475210311, -36.7793567939606], [175.046287967124, -36.7794170756605], [175.046287503829, -36.7794171395144], [175.046223759945, -36.7794149664719], [175.046218268594, -36.7794552054193], [175.046215074266, -36.779478635923], [175.046215074505, -36.779478644932], [175.046221377688, -36.7795027240857], [175.04622994674, -36.7795354510962], [175.046231136093, -36.7795399795532], [175.04623169185, -36.7795409488149], [175.046273996992, -36.7795850070288], [175.046274558769, -36.7795860762324], [175.046283162173, -36.7796394742453], [175.046283410392, -36.7796400864715], [175.046316818126, -36.7796947250611], [175.046316853127, -36.7796948614583], [175.046306651976, -36.779782183993], [175.046306590422, -36.7797826501294], [175.046296809952, -36.7798414695336], [175.046296808928, -36.7798414731564], [175.046296647358, -36.779915429798], [175.046296650156, -36.7799154258582], [175.046296647323, -36.7799154457358], [175.046296647358, -36.779915429798], [175.046296646916, -36.7799154304205], [175.046296647155, -36.7799154394295], [175.046296647203, -36.7799154412313], [175.046296647323, -36.7799154457358], [175.046268577976, -36.7799055717886], [175.046268568825, -36.7799055647356], [175.046218732314, -36.7798253799352], [175.046218728858, -36.7798253763894], [175.046171500448, -36.7797704546356], [175.046171496969, -36.7797704501889], [175.046132973095, -36.7797292471271], [175.046132963992, -36.7797292418759], [175.04609609666, -36.7797210055392], [175.046088943903, -36.7797208068474], [175.046086656389, -36.7797215834819], [175.046084096294, -36.7797226856737], [175.04607384659, -36.7797305781732]]}, "properties": {"OBJECTID": 6604, "TRACKNAME": "Matapana Track", "CONDITIONSOFUSE": "Matapana Reserve", "STATUS": "Open", "WEBLINK": "https://www.aucklandcouncil.govt.nz/en/parks-recreation/find-park-beach/park-detail/164.html", "VALIDATIONSTATE": 3, "created_user": "AC_owner", "last_edited_user": "AC_owner", "last_edited_date": 1789875254325, "created_date": 1789875254325, "PARK_SAPSITEID": null, "TRACK_ID": null, "KAURIDIEBACK_TRACK": null, "KAURIDIEBACK_MITIGATED": null, "SegmentID": null, "GlobalID": "7d6efc0e-6783-462a-9c0a-3dab1ad2cd0a", "Shape__Length": 143.37298513716405}}]}