{"type": "FeatureCollection", "features": [{"type": "Feature", "id": 12532, "geometry": {"type": "LineString", "coordinates": [[174.999238047908, -36.7737944146548], [174.999217409952, -36.7738101444466], [174.999217117435, -36.7738108740259], [174.999212222487, -36.773823081782], [174.999206452038, -36.7738374710308], [174.999204312861, -36.7738428058567], [174.999184143901, -36.7738786614571], [174.999181640612, -36.7738828324895], [174.999064033549, -36.7740787701114], [174.998991975609, -36.7741569442525], [174.998989126955, -36.7741627011013], [174.998989537579, -36.7741659146172], [174.999004361346, -36.7742008025163], [174.999003449071, -36.7742033370422], [174.998984712818, -36.7742141271375], [174.998982071182, -36.7742153450613], [174.998928369962, -36.7742363751261], [174.998927607404, -36.7742367800184], [174.998813115123, -36.7743140034868], [174.998808084822, -36.7743161286259], [174.998716381928, -36.7743364750851], [174.9987122651, -36.774337664619], [174.998638763727, -36.7743625668241], [174.99857161143, -36.7743840102704], [174.998567320724, -36.7743860977329], [174.998476056497, -36.774446555317], [174.998474669577, -36.7744478981578], [174.998372584455, -36.7745898663722], [174.998369726193, -36.7745925372464], [174.998205434624, -36.7746982576028], [174.998200022197, -36.7747002954001], [174.998076033823, -36.7747220950942], [174.998053651956, -36.7747290183431], [174.998050402313, -36.7747313307509], [174.997944649264, -36.774848927235], [174.997858481236, -36.77495316691], [174.997758961646, -36.7750182827683], [174.99756387575, -36.7751646094143], [174.997390277893, -36.775267651237], [174.997092961614, -36.7753842281594], [174.996819460878, -36.7754778660264], [174.996632310907, -36.7755269676465], [174.996631851485, -36.7755270952358], [174.996318189674, -36.7756189312281], [174.996310210662, -36.775618220636]]}, "properties": {"OBJECTID": 12532, "TRACKNAME": "Matiatia Owhanake walkway", "CONDITIONSOFUSE": "Owhanake Matiatia Walkway", "STATUS": "Open", "WEBLINK": "https://www.aucklandcouncil.govt.nz/en/parks-recreation/find-park-beach/park-detail/1039.html", "VALIDATIONSTATE": 3, "created_user": "AC_owner", "last_edited_user": "AC_owner", "last_edited_date": 1789875254325, "created_date": 1789875254325, "PARK_SAPSITEID": null, "TRACK_ID": null, "KAURIDIEBACK_TRACK": null, "KAURIDIEBACK_MITIGATED": null, "SegmentID": null, "GlobalID": "16e17a84-deb6-4b34-a96e-b8d2ee6098ce", "Shape__Length": 347.3209942360424}}]}