{"type": "FeatureCollection", "features": [{"type": "Feature", "id": 10392, "geometry": {"type": "MultiLineString", "coordinates": [[[174.996261683224, -36.7776979051912], [174.996272794264, -36.7777098080799], [174.996282967174, -36.777720100734], [174.996634148525, -36.7780576529641], [174.996634158327, -36.7780576852471], [174.996614672442, -36.7781258683263], [174.996611998521, -36.7781283530962], [174.996415633645, -36.7781917310514], [174.996415573892, -36.7781917599955], [174.996387814065, -36.7782106995022], [174.996387815279, -36.7782107030871]], [[174.996441937158, -36.7783085800779], [174.996441930391, -36.7783085783888], [174.996441932654, -36.7783085792521], [174.996441937158, -36.7783085800779]], [[174.996441937158, -36.7783085800779], [174.996441941591, -36.7783085782008], [174.996544546876, -36.778259969755], [174.996544550166, -36.7782599669959], [174.996544552359, -36.7782599651564], [174.996543964512, -36.7782393383946], [174.996543963299, -36.7782393348096], [174.996543959939, -36.7782393348661], [174.996461143602, -36.7782245664196], [174.996461135739, -36.7782245656502], [174.996387815279, -36.7782107030871], [174.996387804196, -36.7782107077797]], [[174.996491309134, -36.7783348403571], [174.996491314734, -36.778334840263], [174.99649130209, -36.7783348387853], [174.996491309134, -36.7783348403571]], [[174.996457997314, -36.7783506670969], [174.996457984971, -36.7783506664028], [174.996457981611, -36.7783506664592], [174.996457997314, -36.7783506670969]], [[174.994641104496, -36.7807160096205], [174.994641118053, -36.7807160138997], [174.994676425772, -36.78069176018], [174.994677423849, -36.7806912305867], [174.994743790349, -36.7806650263591], [174.994743894741, -36.7806649470944], [174.994783661818, -36.7806083593817], [174.994784280112, -36.7806076162362], [174.994904667839, -36.7804840508943], [174.995129438047, -36.7803136582112], [174.995129444627, -36.7803136526929], [174.995511447924, -36.7800675555992], [174.99551145231, -36.7800675519203], [174.995672350186, -36.779930938985], [174.995777186911, -36.7797703659721], [174.995777190131, -36.7797703605102], [174.995863896505, -36.7796372809388], [174.995863898675, -36.7796372781984], [174.995897042814, -36.7795682224561], [174.995897044867, -36.7795682152111], [174.995917536363, -36.7794341856397], [174.995948632122, -36.7793879793854], [174.995948636438, -36.7793879730037], [174.995980807949, -36.7793319666553], [174.995980809023, -36.7793319648347], [174.99601929018, -36.7792606364783], [174.996019292233, -36.7792606292332], [174.99602939518, -36.7791887406905], [174.996029396206, -36.779188737068], [174.996029398399, -36.7791887352286], [174.996029403906, -36.7791887315308], [174.99607756762, -36.7791726303694], [174.996077568693, -36.7791726285488], [174.99612174973, -36.779064249447], [174.996121753953, -36.7790642394616], [174.996180349219, -36.778940379754], [174.996180351413, -36.7789403779145], [174.996272669453, -36.7788148019795], [174.996272672649, -36.7788147956166], [174.996300387543, -36.7787447502228], [174.996300390739, -36.7787447438599], [174.996380744338, -36.7786259158882], [174.996380745364, -36.7786259122657], [174.996364833008, -36.7785414552913], [174.996364832868, -36.7785414498858], [174.996410108084, -36.7784243554672], [174.996410115714, -36.7784243472273], [174.996506294542, -36.7783867202326], [174.996506294448, -36.7783867166289], [174.996506293235, -36.778386713044], [174.996457997314, -36.7783506670969], [174.99645799722, -36.7783506634932], [174.996491293525, -36.7783348433231], [174.996491294504, -36.7783348378987], [174.99649130209, -36.7783348387853], [174.996491297864, -36.7783348378423], [174.996491294504, -36.7783348378987], [174.996441937158, -36.7783085800779], [174.996441936108, -36.7783085827994]], [[174.994641118053, -36.7807160138997], [174.99464111698, -36.7807160157203], [174.994641118286, -36.780716022909], [174.994646871028, -36.7807527237169]]]}, "properties": {"OBJECTID": 10392, "TRACKNAME": "Matiatia to Delamore Dr.", "CONDITIONSOFUSE": "Matiatia Owhanake Walkway Link", "STATUS": "Open", "WEBLINK": null, "VALIDATIONSTATE": 3, "created_user": "AC_owner", "last_edited_user": "AC_owner", "last_edited_date": 1789875254325, "created_date": 1789875254325, "PARK_SAPSITEID": null, "TRACK_ID": null, "KAURIDIEBACK_TRACK": null, "KAURIDIEBACK_MITIGATED": null, "SegmentID": null, "GlobalID": "1875152b-93ce-4d10-bb89-2f7122cecefd", "Shape__Length": 449.28628755526137}}]}