{"type": "FeatureCollection", "features": [{"type": "Feature", "id": 386, "geometry": {"type": "LineString", "coordinates": [[174.714838333155, -36.5385000037041], [174.7149016723, -36.538383335578], [174.714961670946, -36.5382833371837], [174.714961664323, -36.5381166694365], [174.714934998792, -36.5380649974668], [174.714929999679, -36.5380450043325], [174.714943329274, -36.5379566652269], [174.714916667337, -36.5379066697932], [174.71490333795, -36.5378599980191], [174.714863333403, -36.5378016672965], [174.714853330818, -36.5377483314282], [174.71486166492, -36.5377150041791], [174.714851665236, -36.5376349960022], [174.714823334031, -36.5376049994572], [174.714831666959, -36.5376049967846], [174.71488833507, -36.5376283300639], [174.714955002895, -36.5376133364036], [174.715015004087, -36.5375600031395], [174.715040001362, -36.5375366670102], [174.715034996001, -36.537451665391], [174.715028334119, -36.5374099996096], [174.715029997753, -36.5373533320418], [174.714948332242, -36.5372066690248], [174.714826664332, -36.5370983317175], [174.714665000673, -36.5370033332426], [174.714615001731, -36.5369800030911], [174.714551665538, -36.5369566664117], [174.714438337235, -36.5369416653701], [174.714264994892, -36.5368149970132], [174.714209995105, -36.5367366633695], [174.714134995795, -36.5365083366902], [174.714099999338, -36.5364966710049], [174.714058330394, -36.5364716704532], [174.714019995998, -36.5364099982747], [174.713981663804, -36.5363833362283], [174.713936667764, -36.5362683341119], [174.713890001418, -36.5362466683878], [174.713836668659, -36.5361749989424], [174.713808329051, -36.5361516635676], [174.713823332319, -36.5360333381243], [174.713816670484, -36.5359799991915], [174.713780002046, -36.5359699979804], [174.713768337022, -36.5359000010694], [174.713764994685, -36.5358533298102], [174.713805004239, -36.535733337899], [174.713826665556, -36.5356666658311], [174.713915063978, -36.5357283755861], [174.713826672287, -36.5356133301917], [174.713690000195, -36.53561499724], [174.713608334234, -36.5356250046936], [174.713531671132, -36.5356800009288], [174.713411663426, -36.5357266691755], [174.713410003676, -36.5357916655828], [174.713328337273, -36.5358699985978], [174.713303332106, -36.5358950020679], [174.713230001911, -36.5359466691401], [174.713205000434, -36.5359850041696], [174.713104995124, -36.5359050000893], [174.713046670076, -36.535901664656], [174.713021661091, -36.5359133364896], [174.712998336676, -36.5359183318192], [174.712968334539, -36.5358899993553], [174.712953336999, -36.5358633352267], [174.712934999643, -36.53587666891], [174.712931668554, -36.535818333407], [174.712905004905, -36.5357950007746], [174.712781671256, -36.5358033347709], [174.712733332236, -36.5357599960332], [174.71264333231, -36.5357066643288], [174.712571668889, -36.5356566657384], [174.712526667755, -36.5355949986737], [174.712491663689, -36.535573336143], [174.712430004131, -36.5355783321206], [174.712343338838, -36.5355966672926], [174.712243337701, -36.5355983378303], [174.712163328395, -36.5355816662464], [174.712080002486, -36.5355883342875], [174.711918335483, -36.5356033293003], [174.711825005145, -36.5355716692601], [174.711734999496, -36.5356416658457], [174.711626667178, -36.5356499996061], [174.711544999029, -36.5356533353547], [174.7114933332, -36.5356566640273], [174.711426661166, -36.5357150039046], [174.711365002654, -36.5357033325182], [174.71132667132, -36.5356649965175], [174.711301666097, -36.5356383315942], [174.711333337134, -36.5356116644301], [174.711373331519, -36.535591665293], [174.711401669256, -36.5355683360498], [174.711456672171, -36.5355233330781], [174.711544995719, -36.5355133306795], [174.711600003811, -36.5354883295309], [174.711653328822, -36.5354766661289], [174.711713332833, -36.5354416688435], [174.711766667112, -36.5354233349329], [174.711778329994, -36.5354183360077], [174.711870003937, -36.5353333342471], [174.711913339168, -36.535308329289], [174.711948335637, -36.5352916647742], [174.71199666397, -36.5352666692175], [174.712026662604, -36.5352533304812], [174.712061665876, -36.5351999970747], [174.71208833236, -36.5351733294649], [174.712083328484, -36.5351216702423], [174.711826669454, -36.5350883352184], [174.711720000923, -36.5351133299955], [174.711663337963, -36.5351833345841], [174.71159000094, -36.5351683335534], [174.711455002429, -36.535128329536], [174.711436663661, -36.5352216708672], [174.711393338842, -36.5351483332654], [174.711198339496, -36.5352950038438], [174.711208328386, -36.5351116698863], [174.710936667876, -36.535031666667], [174.710891666826, -36.534963337645], [174.710799995076, -36.5349166627767], [174.710818334452, -36.5349216637743], [174.710783337328, -36.5348916627219], [174.710749998884, -36.5349050039984], [174.710721662129, -36.534876665082], [174.710765001016, -36.5348650011401], [174.71066666667, -36.5347283362926], [174.71067666944, -36.5346849978987], [174.710598334009, -36.5346899978213], [174.710518338463, -36.5346333299947], [174.710356663013, -36.5345616628156], [174.710224998313, -36.5345466683556], [174.710131669872, -36.5345499991131], [174.710051668505, -36.53452499708], [174.709983336651, -36.534510004386], [174.709849997938, -36.5345249959116], [174.709794996321, -36.5345183301301], [174.709730005691, -36.5345099957595], [174.709613089913, -36.5344865864202], [174.709545146041, -36.5344729760595], [174.709581664838, -36.5344133298867]]}, "properties": {"OBJECTID": 386, "TRACKNAME": "Maungatauhoro Te Hikoi Track", "CONDITIONSOFUSE": "Wenderholm Regional Park", "STATUS": "Open", "WEBLINK": "https://www.aucklandcouncil.govt.nz/en/parks-recreation/find-park-beach/park-detail/3411.html", "VALIDATIONSTATE": 3, "created_user": "AC_owner", "last_edited_user": "AC_owner", "last_edited_date": 1789875254325, "created_date": 1789875254325, "PARK_SAPSITEID": null, "TRACK_ID": null, "KAURIDIEBACK_TRACK": null, "KAURIDIEBACK_MITIGATED": null, "SegmentID": null, "GlobalID": "e6d65977-c366-4732-9388-6e72b0225af5", "Shape__Length": 1119.0843820120397}}]}