{"type": "FeatureCollection", "features": [{"type": "Feature", "id": 12205, "geometry": {"type": "LineString", "coordinates": [[174.50964219048, -36.938335706683], [174.509635053778, -36.9383234306914], [174.509752722385, -36.9380799543193], [174.509927425497, -36.9377957320152], [174.510088692055, -36.9375823383075], [174.510117280333, -36.9375578722534], [174.510143908863, -36.9375478980191], [174.510256422774, -36.9375354974608], [174.510315299455, -36.9375465384758], [174.510350474723, -36.9375633882661], [174.510491485885, -36.9376880110181], [174.510567007385, -36.9378090139734], [174.510697598565, -36.9379131367858], [174.510759118172, -36.9379232335743], [174.510972306286, -36.93791919604], [174.511013609005, -36.9379119733362], [174.511206874317, -36.93784411089], [174.511409009005, -36.9378097381102], [174.511805094676, -36.9378405793108], [174.511878223558, -36.9378386747712], [174.511923573013, -36.9378174741473], [174.512156429449, -36.9376660723695], [174.512378148797, -36.9375471889973], [174.512436309353, -36.9375231209193], [174.512650047265, -36.9374890218901], [174.512813800946, -36.9374836277744], [174.512948694228, -36.9374025710643], [174.513178821918, -36.9373291160076], [174.513260063315, -36.9373246735592], [174.51356626136, -36.9373367702743], [174.513778890669, -36.9373318244598], [174.514129115514, -36.9372735117375], [174.514172903087, -36.9372540067149], [174.514203976915, -36.9372207377204], [174.514229399369, -36.9371907045723], [174.514271173195, -36.9371727124439], [174.514559159047, -36.9371582052332], [174.514730163249, -36.9371419176595]]}, "properties": {"OBJECTID": 12205, "TRACKNAME": "McElwain Lookout Track", "CONDITIONSOFUSE": "Waitakere West Regional Park", "STATUS": "Open", "WEBLINK": "https://www.aucklandcouncil.govt.nz/en/parks-recreation/find-park-beach/park-detail/3451.html", "VALIDATIONSTATE": 3, "created_user": "AC_owner", "last_edited_user": "AC_owner", "last_edited_date": 1789875254325, "created_date": 1789875254325, "PARK_SAPSITEID": null, "TRACK_ID": null, "KAURIDIEBACK_TRACK": null, "KAURIDIEBACK_MITIGATED": null, "SegmentID": null, "GlobalID": "876ad021-d9a5-4719-b880-01dfe9ca97ee", "Shape__Length": 552.1672744104496}}]}