{"type": "FeatureCollection", "features": [{"type": "Feature", "id": 352, "geometry": {"type": "LineString", "coordinates": [[174.499418037551, -36.9415314090872], [174.499410576284, -36.9415367113943], [174.499185251467, -36.9416967185577], [174.499131538066, -36.9418701794438], [174.499043733556, -36.9420586187299], [174.499004276922, -36.9421098006193], [174.498804659237, -36.9422620642976], [174.498535478887, -36.9423469091142], [174.498481396957, -36.9423738033374], [174.498425116556, -36.9424260536466], [174.498384302689, -36.9424790642046], [174.498287344999, -36.9426199812833], [174.498254712921, -36.9427025885452], [174.498219168683, -36.9427465910102], [174.498168851135, -36.9427776469715], [174.498018637909, -36.9428260075422], [174.49798079577, -36.9428524532891], [174.497837825672, -36.9431187805614], [174.497786699278, -36.9432347281391], [174.497765956319, -36.9433189429574], [174.497760364646, -36.9434331173247], [174.49774000434, -36.9434714928846], [174.497709359594, -36.9434853007551], [174.49767139325, -36.9434870685896], [174.497461104634, -36.9434587949654], [174.49728377436, -36.9434958960271], [174.497159331101, -36.9435798319459], [174.497080188794, -36.9437005401465], [174.496999187677, -36.9437716064995], [174.496928195691, -36.9438112962773], [174.496701706988, -36.9439124182449], [174.496658339482, -36.9439475052072], [174.496502341158, -36.944183078275], [174.49636815617, -36.9443506476514], [174.496348336237, -36.9443885654836], [174.496346741492, -36.9445137131143], [174.496359647679, -36.9446315662267], [174.496441896048, -36.9450082287655], [174.496364668971, -36.9452889767833], [174.496281476038, -36.9455282740309], [174.496258215856, -36.94556026816], [174.496163671964, -36.9455918805944], [174.495915803081, -36.9457301543628], [174.495837132186, -36.945802245171], [174.495798107424, -36.945863083198], [174.495752877951, -36.9460465309561], [174.495694167071, -36.9461923813185], [174.495643657507, -36.9462769617053], [174.495587254912, -36.9463490512693], [174.495349026871, -36.946529142955], [174.495128871345, -36.9466152375817], [174.494939461922, -36.9466380564494], [174.494646600573, -36.9465936104713], [174.494422328726, -36.9466098907935], [174.494381521237, -36.9466289905484], [174.494310683834, -36.9467124381181], [174.494198729105, -36.9467979894897], [174.493853952303, -36.9468542464127], [174.493808469312, -36.946866265984], [174.493791668996, -36.9468777624416], [174.493791154733, -36.946896282954], [174.49380851351, -36.9469340841503], [174.493858746994, -36.9469985487476], [174.494006545511, -36.9470617406583], [174.494174715957, -36.9470979235011], [174.494241801142, -36.9471264818034], [174.49450226702, -36.9472796445582], [174.494555207483, -36.9473417943228], [174.494556672009, -36.947354674423], [174.494542592103, -36.9473714818381], [174.494376354965, -36.9474584377244], [174.494316729341, -36.9474754487788], [174.494124413928, -36.9474709284792], [174.493976970759, -36.9474369004337], [174.493926211838, -36.947441577215], [174.49356692342, -36.9475985271478], [174.493163221195, -36.9477475887552], [174.493030300838, -36.9478321948646], [174.492997818355, -36.9478434647658], [174.492963344188, -36.9478338209874], [174.492849309139, -36.9477663364282], [174.492803120797, -36.9477474296321], [174.492751808924, -36.9477473806979], [174.492624019562, -36.9477640400297], [174.492586279804, -36.9477608459003], [174.492546423012, -36.9477280054259], [174.492469492692, -36.9476265413018], [174.492426392064, -36.9475914791327], [174.492374428044, -36.9475672095313], [174.492216308608, -36.9475500338102], [174.492158068598, -36.9475316027124], [174.49211042488, -36.9475002480498], [174.492070810076, -36.9474251032923], [174.492062221839, -36.9475956594086], [174.492082655294, -36.947829685512], [174.492146503799, -36.948037161616], [174.492200475249, -36.9481648918316], [174.49222306712, -36.9482055839673], [174.492307106154, -36.9483064541286], [174.492313572334, -36.9484404419213]]}, "properties": {"OBJECTID": 352, "TRACKNAME": "McKenzie Track", "CONDITIONSOFUSE": "Waitakere West Regional Park", "STATUS": "Temp Closed", "WEBLINK": "https://www.aucklandcouncil.govt.nz/en/parks-recreation/find-park-beach/park-detail/3451.html", "VALIDATIONSTATE": 3, "created_user": "AC_owner", "last_edited_user": "AC_owner", "last_edited_date": 1789875254325, "created_date": 1789875254325, "PARK_SAPSITEID": null, "TRACK_ID": null, "KAURIDIEBACK_TRACK": null, "KAURIDIEBACK_MITIGATED": null, "SegmentID": null, "GlobalID": "de46d3a9-04e4-45ab-8b51-ddc961340bec", "Shape__Length": 1344.5650544452674}}]}