{"type": "FeatureCollection", "features": [{"type": "Feature", "id": 11999, "geometry": {"type": "LineString", "coordinates": [[175.03474573889, -36.7812776313557], [175.034459951656, -36.7812584508166], [175.034541452741, -36.7813982724368], [175.035202084459, -36.7818619677141], [175.037046467352, -36.7813730375413], [175.037552590773, -36.781802457559], [175.037922902621, -36.7819999120172], [175.038586431724, -36.7821955482654], [175.038984950818, -36.7821774822585], [175.039180069211, -36.7820874813562], [175.039398682289, -36.7818301846384], [175.039508266528, -36.7817496736583], [175.0396153516, -36.7817253698725], [175.039737031812, -36.7817248879007], [175.039903735472, -36.7818423823254], [175.040014482367, -36.7820314453837], [175.040075505212, -36.7822261753493], [175.040069277822, -36.7823674990048], [175.040048666508, -36.7824930215594], [175.039970612984, -36.7827093940992], [175.03990356061, -36.7831149355864], [175.039903747172, -36.7831446786306], [175.03989955717, -36.7831742304866], [175.039891049469, -36.7832031759518], [175.039878343598, -36.7832311083429], [175.039861618069, -36.7832576352096], [175.039841107872, -36.7832823838492], [175.039817101173, -36.7833050065425], [175.039789935264, -36.7833251854396]]}, "properties": {"OBJECTID": 11999, "TRACKNAME": "McKenzie Res to Miro Rd. Track", "CONDITIONSOFUSE": "Cory Road to Miro Road Track", "STATUS": "Open", "WEBLINK": null, "VALIDATIONSTATE": 3, "created_user": "AC_owner", "last_edited_user": "AC_owner", "last_edited_date": 1789875254325, "created_date": 1789875254325, "PARK_SAPSITEID": null, "TRACK_ID": null, "KAURIDIEBACK_TRACK": null, "KAURIDIEBACK_MITIGATED": null, "SegmentID": null, "GlobalID": "0e3ade48-797b-45bc-8081-36c0d23b91e1", "Shape__Length": 778.9354211592724}}]}