{"type": "FeatureCollection", "features": [{"type": "Feature", "id": 12362, "geometry": {"type": "LineString", "coordinates": [[175.034775456364, -36.7812508864887], [175.034807220131, -36.7812171196122], [175.034811777851, -36.7812121456823], [175.034812136966, -36.7812110651708], [175.034809141532, -36.7811973245232], [175.034806267262, -36.7811925291457], [175.034796241394, -36.7811846600878], [175.034767649991, -36.7811682713374], [175.034765405904, -36.7811667558725], [175.034752280296, -36.7811556491556], [175.034744434308, -36.7811484350007], [175.034724255729, -36.7811281537172], [175.034719323154, -36.7811222155407], [175.034707308694, -36.7811040604574], [175.034704361645, -36.7810972329583], [175.034699768817, -36.7810766858782], [175.034699675914, -36.7810753336943], [175.034702454418, -36.7810147746333], [175.034702437167, -36.781014503633], [175.034694694131, -36.7809658029334], [175.03468988498, -36.7809473713326], [175.034687195479, -36.7809422320936], [175.034674644427, -36.7809265377619], [175.034672642146, -36.7809251407362], [175.034629474501, -36.7809074411887], [175.034629111772, -36.7809072409944], [175.034620614319, -36.7809009401928], [175.03461807388, -36.7808989800401], [175.034609094573, -36.7808930588239], [175.034596439856, -36.7808854348204], [175.034593197349, -36.7808845520329], [175.034565821991, -36.7808820677259], [175.0345573718, -36.7808790793415], [175.034545925409, -36.7808680817699], [175.034541062022, -36.7808585299348], [175.034532245391, -36.7808300307164], [175.034523060048, -36.7807994945268], [175.034517520366, -36.7807810618974], [175.034506173157, -36.7807368212606], [175.034507492658, -36.7807339658544], [175.034541421579, -36.7807149624811], [175.034541482725, -36.7807149443099], [175.034572098881, -36.7807114272042], [175.034573674782, -36.780712039272], [175.034592146909, -36.7807355909076], [175.034593841188, -36.7807372050135], [175.034649870813, -36.7807778284399], [175.034662784239, -36.7807843042437], [175.034664086924, -36.7807834401263], [175.034661820084, -36.7807676320107], [175.034652307014, -36.7807305939517], [175.034652020544, -36.7807295488225], [175.034646941092, -36.7807125468216], [175.034643250209, -36.7806981402796], [175.034638924088, -36.7806832281539], [175.034632223647, -36.7806670867025], [175.034632006376, -36.7806662855467], [175.034627161823, -36.78064142908], [175.034625772445, -36.7806356673181], [175.034622935285, -36.7806274859647], [175.034616835997, -36.7806109421546], [175.034614687296, -36.7806057873509], [175.034603482169, -36.7805803105518], [175.034597942753, -36.7805679050082], [175.034589647996, -36.7805502847373], [175.034581716399, -36.7805328808766], [175.034581667073, -36.7805327951944], [175.034569346179, -36.7805146994159], [175.034569169439, -36.780514498743], [175.034543996448, -36.7804930067889], [175.034532434577, -36.780484334778], [175.034517073532, -36.7804731770495], [175.03451700836, -36.780473127691], [175.034487669121, -36.7804507759498], [175.034483716387, -36.7804487966941], [175.034443510857, -36.7804372555466], [175.034438254682, -36.7804360268517], [175.034402566339, -36.7804288699108], [175.034379356283, -36.7804244476742], [175.034377621796, -36.7804222871552], [175.034379292765, -36.7804209435503], [175.034404160449, -36.7804160169378], [175.034437980567, -36.7804107857332], [175.034439799789, -36.780410641944], [175.034481551209, -36.7804104738104], [175.034482559972, -36.7804105286563], [175.034523076904, -36.7804149476866], [175.034525099362, -36.7804152015036], [175.034534743692, -36.7804165705286], [175.034546989483, -36.7804183096467], [175.034558443476, -36.7804199361272], [175.034583650108, -36.7804229127091], [175.034593496796, -36.7804245189178], [175.034614493004, -36.7804292034194], [175.03461452465, -36.7804292136937], [175.03464822397, -36.7804419566991], [175.034648245511, -36.7804419662449], [175.034706503464, -36.7804723738822], [175.034741656746, -36.7804924295792], [175.034743304916, -36.7804936136439], [175.034772870845, -36.7805189835476], [175.034773103275, -36.7805192139119], [175.034838371501, -36.7805939966941], [175.034840840113, -36.7805962915577], [175.034860278482, -36.7806106196938], [175.034865228558, -36.7806135345585], [175.034867920265, -36.7806147746716]]}, "properties": {"OBJECTID": 12362, "TRACKNAME": "McKenzie Res Link", "CONDITIONSOFUSE": "Mckenzie Reserve", "STATUS": "Open pending closure", "WEBLINK": "https://www.aucklandcouncil.govt.nz/en/parks-recreation/find-park-beach/park-detail/1099.html", "VALIDATIONSTATE": 3, "created_user": "AC_owner", "last_edited_user": "AC_owner", "last_edited_date": 1789875254325, "created_date": 1789875254325, "PARK_SAPSITEID": null, "TRACK_ID": null, "KAURIDIEBACK_TRACK": null, "KAURIDIEBACK_MITIGATED": null, "SegmentID": null, "GlobalID": "5c00cb38-e3fd-42f6-92de-9c04b512a441", "Shape__Length": 192.75312753620466}}, {"type": "Feature", "id": 12711, "geometry": {"type": "LineString", "coordinates": [[175.034848589477, -36.7800394947642], [175.034855840564, -36.7800330308378], [175.034881353542, -36.7800103119602], [175.03491175568, -36.779983715779], [175.034924500391, -36.7799695813905], [175.034935791186, -36.7799406786133], [175.034941419082, -36.7799044882783], [175.034941481634, -36.7799043114516], [175.03494989862, -36.7798777895523], [175.034950409993, -36.7798772976967], [175.034952440872, -36.7798697784296], [175.034952837034, -36.7798685314418], [175.034952861649, -36.779868403034], [175.03495292132, -36.7798675664946], [175.034954449603, -36.7798571851431], [175.034953687717, -36.7798567628467], [175.034956447804, -36.779817884297], [175.03495648617, -36.7798176826474], [175.034965252671, -36.7797895486238], [175.034965271187, -36.7797894013927], [175.034961794909, -36.7797293891984], [175.034961813853, -36.7797293005454], [175.034986912788, -36.7796794501634], [175.034986914885, -36.7796794447196], [175.035005615331, -36.779624827724], [175.035005623433, -36.779624795138], [175.035045614829, -36.7794320199633], [175.035045678048, -36.7794318260001], [175.035057056316, -36.7794064043917], [175.035057087437, -36.7794063524842], [175.035087367533, -36.7793682900271], [175.035088205884, -36.7793670282606], [175.035100042855, -36.7793450976993], [175.035100091252, -36.7793449787989], [175.035106329668, -36.779318954744], [175.035123120795, -36.7792267657767], [175.035123149652, -36.7792266706449], [175.035175712956, -36.7791056871507], [175.03517612846, -36.779104112654], [175.035178018142, -36.7790835465728], [175.035177948968, -36.7790812701358], [175.035174845032, -36.7790617737549], [175.035173694221, -36.7790577456489], [175.035167352879, -36.7790430636144], [175.035165475765, -36.7790400853515], [175.035155062985, -36.7790279993817], [175.035152326319, -36.7790256081641], [175.035137939253, -36.7790162752263], [175.035130558091, -36.7790126061174], [175.035116185179, -36.7790075785126], [175.035099914708, -36.7790034170969], [175.035089709618, -36.7790018098508], [175.035063906218, -36.7789994258317]]}, "properties": {"OBJECTID": 12711, "TRACKNAME": "McKenzie Res Link", "CONDITIONSOFUSE": "Mckenzie Reserve", "STATUS": "Open pending closure", "WEBLINK": "https://www.aucklandcouncil.govt.nz/en/parks-recreation/find-park-beach/park-detail/1099.html", "VALIDATIONSTATE": 3, "created_user": "AC_owner", "last_edited_user": "AC_owner", "last_edited_date": 1789875254325, "created_date": 1789875254325, "PARK_SAPSITEID": null, "TRACK_ID": null, "KAURIDIEBACK_TRACK": null, "KAURIDIEBACK_MITIGATED": null, "SegmentID": null, "GlobalID": "e884b1e6-33be-4b72-bbde-2b8c2ec1466f", "Shape__Length": 127.82602231897133}}, {"type": "Feature", "id": 12712, "geometry": {"type": "LineString", "coordinates": [[175.034867920265, -36.7806147746716], [175.034886266541, -36.7806232277995], [175.034893204699, -36.7806258166157], [175.034932592377, -36.7806373553807], [175.034938141293, -36.7806381283866], [175.034960537014, -36.7806376423729], [175.034966263866, -36.7806375173276], [175.034969720834, -36.7806365956095], [175.034994406718, -36.7806231843105], [175.034995710993, -36.7806220840181], [175.035018500365, -36.7805927618271], [175.035019421966, -36.7805909190915], [175.035024552778, -36.7805698685224], [175.035024398795, -36.7805685372129], [175.0350159455, -36.7805510269427], [175.035015735731, -36.7805508061054], [175.03500024166, -36.7805412307207], [175.034999681386, -36.7805409753227], [175.034953508273, -36.7805265197789], [175.034953439002, -36.7805264849118], [175.034942763936, -36.7805174525622], [175.03493536728, -36.7805086696533], [175.03493533399, -36.7805085972166], [175.034934992659, -36.780490946316], [175.034935237532, -36.7804898677592], [175.034954746773, -36.7804490045057], [175.034954857341, -36.7804486520024], [175.034958408452, -36.7804275653775], [175.034958397062, -36.7804273465531], [175.034954374696, -36.7804129907593], [175.034954183015, -36.780412521751], [175.034923981321, -36.7803569705544], [175.034922424969, -36.7803549367843], [175.034903857647, -36.780337445461], [175.034902739178, -36.780336631787], [175.034847254293, -36.7803046508666], [175.034846990957, -36.7803044381562], [175.03483158163, -36.7802870487077], [175.034831531684, -36.7802869396021], [175.034828937099, -36.7802616624836], [175.0348289366, -36.7802613470322], [175.034835888438, -36.7801854798332], [175.034836138437, -36.7801666308803], [175.034836102146, -36.7801664449293], [175.03482821309, -36.780150523018], [175.034827783, -36.7801499787735], [175.034798232072, -36.780124239085], [175.034798186558, -36.7801241704626], [175.03479059002, -36.7800979974043], [175.034790759307, -36.7800968994108], [175.03480119783, -36.7800821185983], [175.034803293161, -36.7800798745236], [175.034848589477, -36.7800394947642]]}, "properties": {"OBJECTID": 12712, "TRACKNAME": "McKenzie Res Link", "CONDITIONSOFUSE": "Mckenzie Reserve", "STATUS": "Open", "WEBLINK": "https://www.aucklandcouncil.govt.nz/en/parks-recreation/find-park-beach/park-detail/1099.html", "VALIDATIONSTATE": 3, "created_user": "AC_owner", "last_edited_user": "AC_owner", "last_edited_date": 1789875254325, "created_date": 1789875254325, "PARK_SAPSITEID": null, "TRACK_ID": null, "KAURIDIEBACK_TRACK": null, "KAURIDIEBACK_MITIGATED": null, "SegmentID": null, "GlobalID": "fe52e810-be39-4b28-bd4f-cc6e90c3e113", "Shape__Length": 89.83867486012508}}]}