{"type": "FeatureCollection", "features": [{"type": "Feature", "id": 12770, "geometry": {"type": "LineString", "coordinates": [[175.149856298945, -37.0224033327269], [175.149869302945, -37.022864622382], [175.149477427991, -37.0232563295064], [175.148950011072, -37.0236043373449], [175.148139266014, -37.0241113173415], [175.147464482007, -37.0246773669417], [175.146734884309, -37.0246598046224], [175.146037879014, -37.0251185591204], [175.145065460992, -37.0253361437233], [175.144627840807, -37.0254671300564], [175.144229007228, -37.0256127982119], [175.143701549442, -37.025960784759], [175.143204662574, -37.0260313005058], [175.142527400059, -37.0258281572157], [175.142203542182, -37.0259109277749], [175.14196244153, -37.0262075817776], [175.1417043203, -37.0265814637438], [175.141325515631, -37.0267575288718], [175.140985065741, -37.0269329013995], [175.140842435875, -37.0273200805101], [175.140602188956, -37.0276474846739], [175.140111761403, -37.027948634404], [175.139774754387, -37.0282470144843], [175.139591602432, -37.0285580029451], [175.139174859123, -37.0287501302967], [175.139032217009, -37.0291373075195], [175.138657707602, -37.0294671290916], [175.138204323837, -37.0297214503076], [175.137767098076, -37.0298677891955], [175.137407446855, -37.0300434977429], [175.137129680499, -37.0304023394495], [175.136989611211, -37.0308817736611]]}, "properties": {"OBJECTID": 12770, "TRACKNAME": "Mead Road", "CONDITIONSOFUSE": "Hunua Ranges Regional Park", "STATUS": "Permanent", "WEBLINK": "https://www.aucklandcouncil.govt.nz/en/parks-recreation/find-park-beach/park-detail/213.html", "VALIDATIONSTATE": 3, "created_user": "AC_owner", "last_edited_user": "AC_owner", "last_edited_date": 1789875254325, "created_date": 1789875254325, "PARK_SAPSITEID": null, "TRACK_ID": null, "KAURIDIEBACK_TRACK": null, "KAURIDIEBACK_MITIGATED": null, "SegmentID": null, "GlobalID": "356eedec-b7be-4e58-825c-0e7ba3024561", "Shape__Length": 1615.9511170704825}}]}