{"type": "FeatureCollection", "features": [{"type": "Feature", "id": 12781, "geometry": {"type": "LineString", "coordinates": [[175.173048230365, -37.0269651793659], [175.173657841365, -37.0271591961187], [175.17411469347, -37.0271949323441], [175.174801498607, -37.0273020662801], [175.175422066562, -37.027456537502], [175.175605693596, -37.0275459242906], [175.175791620391, -37.0277159267407], [175.176144174513, -37.0280845140304], [175.176461310446, -37.0284456838689], [175.176669689067, -37.028873375231], [175.176868129732, -37.029305280794], [175.177132390681, -37.0297521094148], [175.177364684648, -37.0303124437449], [175.177421866391, -37.0305533646399], [175.177642651895, -37.0307106255062], [175.177844096743, -37.0307190252217], [175.177929372486, -37.0308868390518], [175.177992620738, -37.031163943676], [175.177955202583, -37.0314388646144], [175.177868622657, -37.0315775709183], [175.177729223864, -37.0318483151085], [175.177798905394, -37.0320864854044], [175.178018742965, -37.0323534053674], [175.178114511937, -37.0326793159713], [175.178151574919, -37.0331512340457], [175.178320268849, -37.0338286789498], [175.178506298247, -37.0345625157961], [175.178711693513, -37.0348738088539], [175.179245957762, -37.0351412513721], [175.179804873884, -37.0354460460611], [175.179962601178, -37.0357393090439], [175.179956976397, -37.036092286037], [175.18008717492, -37.036247425284], [175.180354097285, -37.0362362177333], [175.180791870725, -37.0361525524554], [175.181042720654, -37.0361290357232], [175.181434331575, -37.0363549821054], [175.181645797474, -37.0366031449493], [175.181988551342, -37.0370442330187], [175.182228457655, -37.0374620061459], [175.182417701683, -37.0380319436117], [175.182782491618, -37.0386931690942], [175.18282744485, -37.0391649396271], [175.182992146684, -37.0394265636718], [175.183328064481, -37.0396283230819], [175.183725752425, -37.0397911364514], [175.18416615254, -37.040072886432], [175.184215181781, -37.040412253395], [175.184160633021, -37.0407031180495], [175.184437200469, -37.0409199087282]]}, "properties": {"OBJECTID": 12781, "TRACKNAME": "Mine Road", "CONDITIONSOFUSE": "Hunua Ranges Regional Park", "STATUS": "Closed upgrade", "WEBLINK": "https://www.aucklandcouncil.govt.nz/en/parks-recreation/find-park-beach/park-detail/213.html", "VALIDATIONSTATE": 3, "created_user": "AC_owner", "last_edited_user": "AC_owner", "last_edited_date": 1789875254325, "created_date": 1789875254325, "PARK_SAPSITEID": null, "TRACK_ID": null, "KAURIDIEBACK_TRACK": null, "KAURIDIEBACK_MITIGATED": null, "SegmentID": null, "GlobalID": "d61b991c-abea-40cf-930e-da29f9e6c71f", "Shape__Length": 2086.7178185352263}}]}