{"type": "FeatureCollection", "features": [{"type": "Feature", "id": 2517, "geometry": {"type": "LineString", "coordinates": [[175.191146660469, -37.0559350815065], [175.190814239523, -37.0555316946897], [175.190452326152, -37.0552057014916], [175.190187807584, -37.054929000241], [175.189854557054, -37.0544999401568], [175.189588572982, -37.0541720914003], [175.189469446511, -37.0535989582204], [175.189110684478, -37.0532075796103], [175.188390872006, -37.0526837371375], [175.18815750509, -37.0523807794068], [175.188144709528, -37.0519709362194], [175.187619030836, -37.0515200947698], [175.187254664351, -37.0511172865063], [175.187020572556, -37.0507887440999], [175.187003835192, -37.0502507519236], [175.187086959105, -37.0498389680998], [175.18712898367, -37.0495038909086], [175.187091753358, -37.0492374999835], [175.186901009756, -37.0489491647222], [175.186720055881, -37.0490143998272], [175.186556400065, -37.0492110610196], [175.186370295591, -37.0492426025573], [175.186107726383, -37.0490423629791], [175.185940199569, -37.0490978952177], [175.185783789373, -37.0491689852522], [175.185544346865, -37.0492382798036], [175.185315845277, -37.0494691113343], [175.185063443518, -37.0496817268707], [175.184958856875, -37.0496654486468], [175.184842908174, -37.0496474059245], [175.184662789161, -37.0496709034843], [175.18446539962, -37.049697161319], [175.184542393152, -37.0495012883349], [175.184584351738, -37.0492893965377], [175.18451611245, -37.0491019670272], [175.184377996715, -37.0491158670789], [175.184259073527, -37.0493015169973], [175.183960677041, -37.0495073167551], [175.183685078662, -37.0495572656134], [175.183315330769, -37.0495090252314], [175.183006180092, -37.0495597705151], [175.182675927182, -37.0494108609321], [175.18235639993, -37.0493839451324], [175.181967648905, -37.0493583923466], [175.181160306155, -37.0493269294028], [175.181075622399, -37.0492285558487], [175.181026612523, -37.0491716958317], [175.180902610737, -37.049196327563], [175.180778496399, -37.0494110809732], [175.180724693265, -37.0495041606446], [175.180707235187, -37.0496747828297], [175.180731179753, -37.0499216828964], [175.180453732616, -37.0498883102225], [175.180390417792, -37.0499240826009], [175.180074335639, -37.0499626005337], [175.179952527084, -37.0501708216781], [175.179781972603, -37.0500524046545], [175.179727859248, -37.050014834645], [175.179677907465, -37.0499214995647], [175.179554356641, -37.0497351738437], [175.179476082772, -37.0494913449081], [175.17957564927, -37.0489041767004], [175.179522089261, -37.048697647097], [175.179440387237, -37.0483406113238], [175.179445176339, -37.0477364388719], [175.179411718008, -37.0474161888272], [175.179452293135, -37.0472077397848], [175.17921693943, -37.0472124255282], [175.179121625375, -37.0471766036978], [175.179092227943, -37.0469884570342], [175.179132905178, -37.0467800152156], [175.179198190558, -37.0466087846458], [175.179428315792, -37.0464343444317], [175.179845467885, -37.0462183429364], [175.179960639042, -37.0461308318717], [175.180031890898, -37.0460959142297], [175.18004859273, -37.0460646580791], [175.18012569685, -37.0460291551315], [175.180175574625, -37.0460103482419], [175.180264890951, -37.0459800192096], [175.180324455669, -37.0459657567397], [175.180479555361, -37.0459408512926], [175.180580598499, -37.0459309541651], [175.180661218897, -37.0459197201135], [175.18079279438, -37.0458907946315], [175.180860935752, -37.0458631076919], [175.180997623955, -37.0457445211984], [175.181163837093, -37.045577624973], [175.181296478383, -37.0454873759463], [175.181519786075, -37.0454132226769], [175.181662068692, -37.0453687508992], [175.181760334074, -37.0452964288592], [175.181957633581, -37.0450361213115], [175.182012940656, -37.0448716430018], [175.181999811863, -37.0448450632089], [175.181881016126, -37.044721028137], [175.181807735543, -37.0446630287104], [175.181745765868, -37.0445842184452], [175.181762655528, -37.0445222528321], [175.181828805241, -37.044444302928], [175.18198724986, -37.0443038922031], [175.182132252031, -37.0441879994312], [175.182238447273, -37.0440915216505], [175.182313770558, -37.0439507564101], [175.182337235654, -37.0438224004034], [175.182337116713, -37.043782522039], [175.182344556983, -37.0437482726019], [175.182372974931, -37.0436915743881], [175.182394221918, -37.0436589004157], [175.182411443301, -37.0436081492378], [175.182417984428, -37.0435299440889], [175.182407865454, -37.0434781188548], [175.182388964524, -37.0434207592967], [175.18238615491, -37.0433493504537], [175.182391546206, -37.0433020524892], [175.182406440122, -37.0432450173285], [175.182412476464, -37.0432037549164], [175.182433872932, -37.0431629578736], [175.18246813384, -37.0431120373064], [175.182509774497, -37.0430585204877], [175.182660571321, -37.0428796939284], [175.18274132296, -37.0428280257682], [175.182970364617, -37.042721616544], [175.183090146675, -37.0426297456898], [175.183161331043, -37.0425769375346], [175.183228079835, -37.0425357020022], [175.183290086008, -37.0425082708533], [175.183361673719, -37.0424856381995], [175.183756967735, -37.0424327473435], [175.183917208082, -37.0424345101214], [175.184076980438, -37.0424309278447], [175.184181447216, -37.042417882366], [175.184345727314, -37.0423436754535], [175.1845227226, -37.0421808209539], [175.184670895244, -37.0419883321483], [175.184697558474, -37.0418963905885], [175.184673229584, -37.041752484708], [175.184539300111, -37.0412746187768], [175.184504245742, -37.0412036507347], [175.184465200691, -37.0410734716055], [175.184448254281, -37.0409756820981], [175.184437200469, -37.0409199087282]]}, "properties": {"OBJECTID": 2517, "TRACKNAME": "Mine Road Track", "CONDITIONSOFUSE": "Hunua Ranges Regional Park", "STATUS": "Open", "WEBLINK": "https://www.aucklandcouncil.govt.nz/en/parks-recreation/find-park-beach/park-detail/213.html", "VALIDATIONSTATE": 3, "created_user": "AC_owner", "last_edited_user": "AC_owner", "last_edited_date": 1789875254325, "created_date": 1789875254325, "PARK_SAPSITEID": null, "TRACK_ID": null, "KAURIDIEBACK_TRACK": null, "KAURIDIEBACK_MITIGATED": null, "SegmentID": null, "GlobalID": "2b30e0ed-92b4-4dc4-a7ee-9fafeb212149", "Shape__Length": 3131.7225065378607}}]}