{"type": "FeatureCollection", "features": [{"type": "Feature", "id": 12000, "geometry": {"type": "LineString", "coordinates": [[175.041253817507, -36.7832077311109], [175.04218154149, -36.7803694534057]]}, "properties": {"OBJECTID": 12000, "TRACKNAME": "Miro Road", "CONDITIONSOFUSE": "Palm Beach Reserve", "STATUS": "Open", "WEBLINK": "https://www.aucklandcouncil.govt.nz/en/parks-recreation/find-park-beach/park-detail/194.html", "VALIDATIONSTATE": 3, "created_user": "AC_owner", "last_edited_user": "AC_owner", "last_edited_date": 1789875254325, "created_date": 1789875254325, "PARK_SAPSITEID": null, "TRACK_ID": null, "KAURIDIEBACK_TRACK": null, "KAURIDIEBACK_MITIGATED": null, "SegmentID": null, "GlobalID": "f19c2d8d-9352-4374-a343-280215a55329", "Shape__Length": 325.68155721905714}}]}