{"type": "FeatureCollection", "features": [{"type": "Feature", "id": 237, "geometry": {"type": "LineString", "coordinates": [[174.719653803467, -36.5074595801964], [174.719673639849, -36.5076601400844], [174.719614599131, -36.5078625196605], [174.71960217982, -36.5079688293357], [174.719491718229, -36.5081838757562], [174.719451743243, -36.5084467967776], [174.719378462032, -36.5086732316275], [174.719307870292, -36.5088877021625], [174.719322320766, -36.50893996331], [174.719378884252, -36.5089594193853], [174.719442198834, -36.5089501596171], [174.719556458513, -36.508906775694], [174.719779573698, -36.5088427420886], [174.719847581209, -36.5088453390252], [174.719897236718, -36.5088863594603], [174.71997916753, -36.5089173749093], [174.720042561127, -36.5089116904304], [174.720108221218, -36.5088749687484], [174.720391400513, -36.5084547105161], [174.720473120052, -36.5084094100277], [174.720564358885, -36.5083937840815], [174.720645867145, -36.508405725286]]}, "properties": {"OBJECTID": 237, "TRACKNAME": "Mita Bay Loop Track", "CONDITIONSOFUSE": "Mahurangi Regional Park", "STATUS": "Open", "WEBLINK": "https://www.aucklandcouncil.govt.nz/en/parks-recreation/find-park-beach/park-detail/216.html", "VALIDATIONSTATE": 3, "created_user": "AC_owner", "last_edited_user": "AC_owner", "last_edited_date": 1789875254325, "created_date": 1789875254325, "PARK_SAPSITEID": null, "TRACK_ID": null, "KAURIDIEBACK_TRACK": null, "KAURIDIEBACK_MITIGATED": null, "SegmentID": null, "GlobalID": "f9fc3fab-a72f-427d-914f-35f9249274f3", "Shape__Length": 323.9589492281833}}, {"type": "Feature", "id": 1786, "geometry": {"type": "LineString", "coordinates": [[174.721105019248, -36.5061049791773], [174.72096009203, -36.5061521801075], [174.720873866793, -36.506193968278], [174.720789486583, -36.5062524245601], [174.720584419388, -36.5064640667584], [174.72051256519, -36.5065545391764], [174.720407934127, -36.506632367227], [174.720260690116, -36.5067203493427], [174.720120064511, -36.5067736545859], [174.720001007528, -36.5068004134138], [174.719862182908, -36.5068633184129], [174.719653803467, -36.5074595801964]]}, "properties": {"OBJECTID": 1786, "TRACKNAME": "Mita Bay Loop Track", "CONDITIONSOFUSE": "Mahurangi Regional Park", "STATUS": "Open", "WEBLINK": "https://www.aucklandcouncil.govt.nz/en/parks-recreation/find-park-beach/park-detail/216.html", "VALIDATIONSTATE": 3, "created_user": "AC_owner", "last_edited_user": "AC_owner", "last_edited_date": 1789875254325, "created_date": 1789875254325, "PARK_SAPSITEID": null, "TRACK_ID": null, "KAURIDIEBACK_TRACK": null, "KAURIDIEBACK_MITIGATED": null, "SegmentID": null, "GlobalID": "ca06ef29-a6fd-442b-845c-14e5e7156ce3", "Shape__Length": 211.84556522646628}}, {"type": "Feature", "id": 2225, "geometry": {"type": "LineString", "coordinates": [[174.721105019248, -36.5061049791773], [174.720981352169, -36.5060494862205], [174.720816229291, -36.5059970151493], [174.720698675799, -36.5059581672382], [174.720543546326, -36.5058900484551], [174.720412175845, -36.5058275503908], [174.720191652597, -36.5057412954464], [174.719997657269, -36.5056522724124], [174.719615442044, -36.5055349585505], [174.719563969436, -36.5055452410959], [174.71948620893, -36.5055690188726], [174.719411163412, -36.5055820254087], [174.719367074439, -36.5055922014213], [174.719330026337, -36.5055867727652], [174.719314759067, -36.5055643362099], [174.719301179485, -36.5055514148223], [174.71928332789, -36.5055457094162], [174.719258356298, -36.5055520321466], [174.719225922998, -36.5055548838824], [174.719206621057, -36.5055503928233], [174.719169599351, -36.5055461562866], [174.719126749797, -36.5055455813935], [174.719092945241, -36.5055532239609], [174.7190703998, -36.5055356615803], [174.71901502563, -36.5055030701239], [174.718976449259, -36.5054952791858], [174.718921812193, -36.5054960666629], [174.718852040916, -36.50548037743], [174.718804366886, -36.5054619845997], [174.718746408441, -36.5054461250613], [174.718710283645, -36.5054156411535], [174.718686393394, -36.5054040608293], [174.718647736906, -36.5053926932875], [174.718596001773, -36.5053910536961], [174.718555974, -36.5053844760853], [174.718513046574, -36.5053803244418], [174.71848907729, -36.5053651675655], [174.71846328866, -36.5053345346467], [174.718428508998, -36.5052980694192], [174.718410025017, -36.5052637535881], [174.718394573585, -36.5052329717112], [174.71838220741, -36.5052081081309], [174.718394310943, -36.5051542716818], [174.718413719066, -36.5050967532349], [174.718448235955, -36.5050545193424], [174.718475474588, -36.5050171605127], [174.718490689629, -36.5049704345222], [174.718477611877, -36.5049133841472]]}, "properties": {"OBJECTID": 2225, "TRACKNAME": "Mita Bay Loop Track", "CONDITIONSOFUSE": "Mahurangi Regional Park", "STATUS": "Open", "WEBLINK": "https://www.aucklandcouncil.govt.nz/en/parks-recreation/find-park-beach/park-detail/216.html", "VALIDATIONSTATE": 3, "created_user": "AC_owner", "last_edited_user": "AC_owner", "last_edited_date": 1789875254325, "created_date": 1789875254325, "PARK_SAPSITEID": null, "TRACK_ID": null, "KAURIDIEBACK_TRACK": null, "KAURIDIEBACK_MITIGATED": null, "SegmentID": null, "GlobalID": "ae449b14-0647-4fd3-8d00-4f503b126dc5", "Shape__Length": 313.1801106201024}}]}