{"type": "FeatureCollection", "features": [{"type": "Feature", "id": 2350, "geometry": {"type": "LineString", "coordinates": [[174.602681913669, -37.015792788456], [174.602690376038, -37.0158275020282], [174.602685286856, -37.0158715022115], [174.60259915569, -37.0160604783806], [174.602571934945, -37.0161660327316], [174.602572397545, -37.016225515095], [174.60260072336, -37.0163898258159], [174.602624383603, -37.0164556287228], [174.602670931865, -37.0165290632895], [174.602896320251, -37.0167773128845], [174.602948165701, -37.0168048605332], [174.603189289302, -37.0168529161151], [174.60333949494, -37.0169086534593], [174.603408947751, -37.0169535481569], [174.603619161247, -37.017149191749], [174.603731224922, -37.0172346566019], [174.603804949343, -37.0172725890395], [174.604099025819, -37.0173943147274], [174.604527192024, -37.0174883849091], [174.604789260992, -37.0175894142499], [174.605091747856, -37.0175807707386], [174.605130440357, -37.0175707741849], [174.605210535398, -37.0175209189654], [174.60524761432, -37.0175084925538], [174.605729763719, -37.0174895838656], [174.605876275081, -37.0174636522883], [174.605978658591, -37.017433531715], [174.606041443224, -37.0173991789812], [174.60624713898, -37.0172346486353], [174.606379674099, -37.017066529668], [174.606578532402, -37.0169323403656], [174.606762168607, -37.0168556912408], [174.607130311695, -37.0167331071007]]}, "properties": {"OBJECTID": 2350, "TRACKNAME": "Monument Track", "CONDITIONSOFUSE": "Waitakere South Regional Park", "STATUS": "Open", "WEBLINK": "https://www.aucklandcouncil.govt.nz/en/parks-recreation/find-park-beach/park-detail/212.html", "VALIDATIONSTATE": 3, "created_user": "AC_owner", "last_edited_user": "AC_owner", "last_edited_date": 1789875254325, "created_date": 1789875254325, "PARK_SAPSITEID": null, "TRACK_ID": null, "KAURIDIEBACK_TRACK": null, "KAURIDIEBACK_MITIGATED": null, "SegmentID": null, "GlobalID": "e447bac7-b51b-48ee-996e-d0d10e4b1e0e", "Shape__Length": 555.1213029241762}}]}