{"type": "FeatureCollection", "features": [{"type": "Feature", "id": 2961, "geometry": {"type": "LineString", "coordinates": [[174.425744686923, -36.8310342572564], [174.42599862313, -36.8309092398677], [174.426414152573, -36.8307136125128], [174.426939631911, -36.8304989291397], [174.427438196906, -36.8303200345149], [174.427712745165, -36.8302546678182], [174.428021118131, -36.8302287968722], [174.42821402622, -36.8302220454424]]}, "properties": {"OBJECTID": 2961, "TRACKNAME": "Motutara Road", "CONDITIONSOFUSE": null, "STATUS": "Open", "WEBLINK": null, "VALIDATIONSTATE": 3, "created_user": "AC_owner", "last_edited_user": "AC_owner", "last_edited_date": 1789875254325, "created_date": 1789875254325, "PARK_SAPSITEID": null, "TRACK_ID": null, "KAURIDIEBACK_TRACK": null, "KAURIDIEBACK_MITIGATED": null, "SegmentID": null, "GlobalID": "19ce1cf6-cd03-44e5-a37f-e93b630096cd", "Shape__Length": 241.19248638154085}}]}