{"type": "FeatureCollection", "features": [{"type": "Feature", "id": 12777, "geometry": {"type": "LineString", "coordinates": [[175.141973310186, -37.0198896437712], [175.142451470141, -37.0199762938315], [175.142636900828, -37.0201430817521], [175.143046928023, -37.0201923868005], [175.143650953255, -37.0204335275711], [175.144052065297, -37.0204451821616], [175.144412665654, -37.0204134580748], [175.144857894648, -37.0203171889622], [175.14532934326, -37.0203149650168], [175.145799138817, -37.0205333166335], [175.146185550551, -37.0208602984282], [175.146587142567, -37.0211681001729], [175.146902390461, -37.0212002028835], [175.147193719117, -37.0212201353557], [175.14744701792, -37.0212848652701], [175.147654962102, -37.0214134294982], [175.147865035484, -37.0216175708454], [175.148184188482, -37.0217882291137], [175.148856980154, -37.0219587821934], [175.149335360528, -37.022202169574], [175.149856298945, -37.0224033327269], [175.150255602824, -37.0222296009059], [175.150589624845, -37.0220912173685], [175.151013599998, -37.0220772280926], [175.151279415515, -37.0220282978416], [175.15161165777, -37.0218269292028], [175.152061717065, -37.0216234230743]]}, "properties": {"OBJECTID": 12777, "TRACKNAME": "Moumoukai Hill Road", "CONDITIONSOFUSE": "Hunua Ranges Regional Park", "STATUS": "Open", "WEBLINK": "https://www.aucklandcouncil.govt.nz/en/parks-recreation/find-park-beach/park-detail/213.html", "VALIDATIONSTATE": 3, "created_user": "AC_owner", "last_edited_user": "AC_owner", "last_edited_date": 1789875254325, "created_date": 1789875254325, "PARK_SAPSITEID": null, "TRACK_ID": null, "KAURIDIEBACK_TRACK": null, "KAURIDIEBACK_MITIGATED": null, "SegmentID": null, "GlobalID": "010f05b3-2c5c-4b55-8235-c2220e2bace0", "Shape__Length": 1012.584765767288}}]}