{"type": "FeatureCollection", "features": [{"type": "Feature", "id": 708, "geometry": {"type": "LineString", "coordinates": [[175.263399666306, -36.981848570876], [175.263493737122, -36.9818754677295], [175.263591931356, -36.9819231903332], [175.263699235735, -36.9819864298118], [175.263756049808, -36.982019926878], [175.263861231832, -36.98207788031], [175.263922923064, -36.9821038489336], [175.263961464305, -36.9821109724806], [175.264036210989, -36.9821074373876], [175.264156606664, -36.9820881786186], [175.26440877789, -36.9820436034521], [175.264895155706, -36.9819627614688], [175.264982734801, -36.9819536634694], [175.265035503326, -36.9819533862082], [175.265089360256, -36.9819598835675], [175.265157277138, -36.9819726555723], [175.265217646682, -36.9819888972292], [175.265303583046, -36.9820304625433], [175.265355680923, -36.9820636252812], [175.265417516215, -36.9821042807334], [175.26550921581, -36.9821613725383], [175.265630931383, -36.9822138805944], [175.265797491859, -36.9822379539798], [175.265950686736, -36.9822026737419], [175.266074878396, -36.9821542392011], [175.266198787105, -36.9820966532441], [175.266381143078, -36.9820791108751], [175.266597322389, -36.9820471240156], [175.266767954693, -36.9820206573198], [175.266884970793, -36.9820177639478]]}, "properties": {"OBJECTID": 708, "TRACKNAME": "Mountain Bike Track", "CONDITIONSOFUSE": "Tapapakanga Regional Park", "STATUS": "Open", "WEBLINK": "https://www.aucklandcouncil.govt.nz/en/parks-recreation/find-park-beach/park-detail/227.html", "VALIDATIONSTATE": 3, "created_user": "AC_owner", "last_edited_user": "AC_owner", "last_edited_date": 1789875254325, "created_date": 1789875254325, "PARK_SAPSITEID": null, "TRACK_ID": null, "KAURIDIEBACK_TRACK": null, "KAURIDIEBACK_MITIGATED": null, "SegmentID": null, "GlobalID": "580f6e51-a25f-4d16-98cd-7952f4a2b42f", "Shape__Length": 333.1950756513823}}, {"type": "Feature", "id": 2105, "geometry": {"type": "LineString", "coordinates": [[175.266884970793, -36.9820177639478], [175.266898290613, -36.9820747162671], [175.266899392184, -36.982111827586], [175.266896210566, -36.9821779012599], [175.266902819312, -36.9822272851212], [175.266931333212, -36.9823216337878], [175.266942347557, -36.9823461779681], [175.266993012752, -36.9824937394495], [175.267047838873, -36.9826082140619], [175.26709067146, -36.9826651576504], [175.26717364367, -36.9826883269416], [175.267251353506, -36.9827074708076], [175.26728733239, -36.9827067833326], [175.2673756396, -36.9827524241219], [175.267421643009, -36.98278307975], [175.267439812478, -36.9828233247985], [175.267425126765, -36.9828913342849], [175.267370051604, -36.9829285898766], [175.267309362831, -36.9829659617215], [175.267280959989, -36.9829575280038], [175.267173977555, -36.9829552281432], [175.267096268834, -36.982988427847], [175.267070188278, -36.9830521667862], [175.267083470035, -36.983115090573], [175.267141292184, -36.9831635454728], [175.267192339762, -36.9831760347676], [175.267266165745, -36.9831970832611], [175.267272650016, -36.9832240238648], [175.267246290358, -36.9832787376589], [175.267225254112, -36.9833243192167], [175.267168631777, -36.98338568475], [175.267118824925, -36.9834402715235], [175.267029733733, -36.9835574967041], [175.266986044877, -36.9836449729715], [175.266987391377, -36.9836903314355], [175.266953125733, -36.983748748036], [175.266900103488, -36.9838317251072]]}, "properties": {"OBJECTID": 2105, "TRACKNAME": "Mountain Bike Track", "CONDITIONSOFUSE": "Tapapakanga Regional Park", "STATUS": "Open", "WEBLINK": "https://www.aucklandcouncil.govt.nz/en/parks-recreation/find-park-beach/park-detail/227.html", "VALIDATIONSTATE": 3, "created_user": "AC_owner", "last_edited_user": "AC_owner", "last_edited_date": 1789875254325, "created_date": 1789875254325, "PARK_SAPSITEID": null, "TRACK_ID": null, "KAURIDIEBACK_TRACK": null, "KAURIDIEBACK_MITIGATED": null, "SegmentID": null, "GlobalID": "4361e724-242b-4069-9d07-f87eac392a19", "Shape__Length": 266.5828969646272}}, {"type": "Feature", "id": 2387, "geometry": {"type": "LineString", "coordinates": [[175.262030404561, -36.9793898979929], [175.26204883768, -36.9794264266652], [175.262091472326, -36.9795080918282], [175.26212179648, -36.9795624945129], [175.262156659168, -36.9795801117566], [175.262202645752, -36.9795883376863], [175.262277498008, -36.9796051339287], [175.262330521462, -36.9796544758716], [175.262366712743, -36.9797133404739], [175.262415497782, -36.9798086413246], [175.262423575049, -36.9798818445778], [175.262444234858, -36.9799914842994], [175.262510609496, -36.9801001622495], [175.262609631916, -36.9801577386192], [175.262810880611, -36.98019484484], [175.26303498743, -36.9802314877408], [175.263174282541, -36.9802973891718], [175.263220868957, -36.9803239436938], [175.263280049224, -36.9803869208347], [175.263300427205, -36.9804873820178], [175.263234681516, -36.9805758770148], [175.263152380394, -36.9806830552065], [175.263092348565, -36.9807714231236], [175.263060425506, -36.9808454567912], [175.263052095404, -36.9809419322399], [175.26304946854, -36.9810382899035], [175.263041737697, -36.9811530943554], [175.26304699554, -36.9811716860014], [175.263054625857, -36.9811986906297], [175.263147347155, -36.9812380417475], [175.263213282943, -36.9813329745519], [175.263273493698, -36.9814280435515], [175.263297369648, -36.9814596455999], [175.263338389423, -36.9814909026121], [175.263362412521, -36.981527089201], [175.2633814676, -36.9815863073548], [175.263389240766, -36.9816503460917], [175.263415040169, -36.9817415381073], [175.263439188332, -36.9817948280119], [175.263464040143, -36.9818475997885], [175.263480687091, -36.9818575132258]]}, "properties": {"OBJECTID": 2387, "TRACKNAME": "Mountain Bike Track", "CONDITIONSOFUSE": "Tapapakanga Regional Park", "STATUS": "Open", "WEBLINK": "https://www.aucklandcouncil.govt.nz/en/parks-recreation/find-park-beach/park-detail/227.html", "VALIDATIONSTATE": 3, "created_user": "AC_owner", "last_edited_user": "AC_owner", "last_edited_date": 1789875254325, "created_date": 1789875254325, "PARK_SAPSITEID": null, "TRACK_ID": null, "KAURIDIEBACK_TRACK": null, "KAURIDIEBACK_MITIGATED": null, "SegmentID": null, "GlobalID": "0dc57dd6-fccb-413c-a895-328d066ca0a5", "Shape__Length": 354.9118556766001}}]}