{"type": "FeatureCollection", "features": [{"type": "Feature", "id": 12023, "geometry": {"type": "LineString", "coordinates": [[175.112815400865, -36.799612172392], [175.112486204937, -36.7992009076013], [175.112580815239, -36.7989906685294], [175.112914214997, -36.7986416334472], [175.112934726268, -36.7981703320622], [175.112834619408, -36.7978760939464]]}, "properties": {"OBJECTID": 12023, "TRACKNAME": "MoW B Rd to Orapui Rd Link", "CONDITIONSOFUSE": null, "STATUS": "Open", "WEBLINK": null, "VALIDATIONSTATE": 3, "created_user": "AC_owner", "last_edited_user": "AC_owner", "last_edited_date": 1789875254325, "created_date": 1789875254325, "PARK_SAPSITEID": null, "TRACK_ID": null, "KAURIDIEBACK_TRACK": null, "KAURIDIEBACK_MITIGATED": null, "SegmentID": null, "GlobalID": "31fd9178-bd1e-4520-a5e0-eecf0e4e7eb8", "Shape__Length": 214.1280966917417}}]}