{"type": "FeatureCollection", "features": [{"type": "Feature", "id": 12226, "geometry": {"type": "LineString", "coordinates": [[174.538110118747, -37.0143212233824], [174.538156361965, -37.0143397235405], [174.538203029821, -37.0143731535542], [174.53827923672, -37.014477407288], [174.538469529272, -37.0146730569352], [174.538511232062, -37.0147016027858], [174.538607040904, -37.0147472577116], [174.538703778029, -37.0147659231018], [174.538856713075, -37.0147593969236], [174.538926607923, -37.0147389942016], [174.539056123941, -37.014679790131], [174.539117557933, -37.0146667799545], [174.539193060384, -37.0146663864242], [174.539298380643, -37.0146876260109], [174.539703675084, -37.0147913316429], [174.53977388733, -37.0148451505032], [174.539816656306, -37.0149554615643], [174.539865882028, -37.0149963930029], [174.539969773861, -37.0150314772367], [174.540096008488, -37.0150235563862], [174.540179694028, -37.0150376398554], [174.540277662149, -37.0150882949204], [174.540432451218, -37.0151847128832], [174.540519659027, -37.0152518759601], [174.540570336683, -37.015304010057], [174.540722686955, -37.0155044931246], [174.54074643874, -37.0155585541386], [174.540726200856, -37.0156261838398], [174.540669257154, -37.015751931497], [174.540517540325, -37.0159252120055], [174.54046475062, -37.0159683509783], [174.540358810819, -37.0160150732783], [174.540297654336, -37.0160324069817], [174.540189694011, -37.0160397393224], [174.540047597246, -37.0160303709673], [174.539789397522, -37.0159969108677], [174.539717780601, -37.0159810390798], [174.539667694789, -37.0159504301983], [174.539576928614, -37.0158601119207], [174.539536222453, -37.0158019081209], [174.53951494007, -37.0157403967059], [174.539511297623, -37.0156646043593], [174.539530877577, -37.0156278185832], [174.539584092533, -37.0156001687134], [174.539913761373, -37.0154896664819], [174.539974691347, -37.0154778341545], [174.540034318617, -37.0154777542837]]}, "properties": {"OBJECTID": 12226, "TRACKNAME": "Mt Donald McLean Walk", "CONDITIONSOFUSE": "Waitakere South Regional Park", "STATUS": "Open", "WEBLINK": "https://www.aucklandcouncil.govt.nz/en/parks-recreation/find-park-beach/park-detail/212.html", "VALIDATIONSTATE": 3, "created_user": "AC_owner", "last_edited_user": "AC_owner", "last_edited_date": 1789875254325, "created_date": 1789875254325, "PARK_SAPSITEID": null, "TRACK_ID": null, "KAURIDIEBACK_TRACK": null, "KAURIDIEBACK_MITIGATED": null, "SegmentID": null, "GlobalID": "a206f97f-254b-4be5-859d-5693b34ead18", "Shape__Length": 518.7815023104343}}]}