{"type": "FeatureCollection", "features": [{"type": "Feature", "id": 12164, "geometry": {"type": "LineString", "coordinates": [[174.502504758599, -37.0189694512454], [174.502351696363, -37.0191081059129], [174.50232386643, -37.0191285900377], [174.502286771179, -37.0191403050203], [174.502173417251, -37.0191518822396], [174.50196036933, -37.0191336580344], [174.501913307492, -37.0191414078192], [174.501793569968, -37.0191789703987], [174.501725140948, -37.0191845118366], [174.501599448504, -37.0191761309573], [174.501427066902, -37.0191327535086], [174.501376482181, -37.0191307941072], [174.501294241069, -37.0191393313106], [174.501112898041, -37.0191859011585], [174.500998299075, -37.0191814597202], [174.500892557644, -37.0191535835853], [174.500676689227, -37.0190717337051], [174.500639249303, -37.0190453081236], [174.500577131443, -37.0189633854857], [174.500532055003, -37.0189352618524], [174.500482869161, -37.0189452669807], [174.500408396395, -37.0189944889051], [174.50038596782, -37.0189912311071], [174.500352730249, -37.0189320196113], [174.500336682524, -37.0188806659726], [174.500354946855, -37.0186485733357], [174.500415810249, -37.0185431663661], [174.500408566976, -37.0185161416179], [174.50037493032, -37.0184885826217], [174.500300749505, -37.0184575180546], [174.499932266753, -37.0183796821863], [174.499609685395, -37.018127581233], [174.499555523751, -37.0180992133037], [174.499442272132, -37.018063952229], [174.499441964481, -37.0180494425064], [174.499420230097, -37.0180297296346], [174.499345939346, -37.0179889104889], [174.499177693713, -37.0179554293147], [174.499132100886, -37.0179382667222], [174.499082400774, -37.0178862645689], [174.498978570625, -37.0177435732365], [174.498762280042, -37.0175459704574], [174.498607602981, -37.0174384429358], [174.49854799711, -37.0173581585649], [174.498321496569, -37.0172306010861], [174.497887872795, -37.0171061935187], [174.497834710005, -37.017094968564], [174.497795638034, -37.0170948416608], [174.497761274144, -37.0171033335586], [174.49774118488, -37.0171191183921], [174.497654987634, -37.0172938839861], [174.497640173386, -37.0173108109367], [174.497627504261, -37.0173136740108], [174.49758763489, -37.017296235769], [174.497317627492, -37.0171261668515], [174.497205002757, -37.0170759278], [174.497088105547, -37.0170348471337], [174.497051780332, -37.0169743188831], [174.497049085623, -37.0169504110923], [174.497070396108, -37.0169296634288], [174.497180858401, -37.0168637055866], [174.497261496483, -37.0167917955818], [174.49734442177, -37.0166596290223], [174.497375566108, -37.0165464891023], [174.49738286308, -37.016417953029], [174.497375202312, -37.0163682714756], [174.49719516677, -37.0161166118071], [174.497158980965, -37.0160508530573], [174.497147639638, -37.0160090416876], [174.497172530087, -37.0158825613449], [174.497185828458, -37.0156368211481], [174.497171364806, -37.0154680202937], [174.497185281427, -37.0154383550568], [174.497275268847, -37.0153419345969], [174.497296513422, -37.0153053094516], [174.497356958569, -37.0148791719294], [174.497350346481, -37.0148483803485], [174.497329500247, -37.0148246493377], [174.497188266078, -37.0147623749057], [174.497101807454, -37.0147032030009], [174.497060154241, -37.0146568697874], [174.497026116442, -37.0146000063889], [174.496981596774, -37.0144728739642], [174.496961922839, -37.0144929015148], [174.496937917679, -37.0144265085764], [174.496818137603, -37.0144233821727], [174.496789543871, -37.0144113961097], [174.496807514234, -37.0143734540073], [174.49685628582, -37.014316270595], [174.496855043508, -37.0143025045436], [174.496837162337, -37.0142860892934], [174.496791987414, -37.0142680308554], [174.49664958899, -37.0142578967322], [174.496490677063, -37.0142142501013], [174.496472912757, -37.0141969112345], [174.4965092282, -37.014168892477]]}, "properties": {"OBJECTID": 12164, "TRACKNAME": "Muir Track", "CONDITIONSOFUSE": "Waitakere South Regional Park", "STATUS": "Open", "WEBLINK": "https://www.aucklandcouncil.govt.nz/en/parks-recreation/find-park-beach/park-detail/212.html", "VALIDATIONSTATE": 3, "created_user": "AC_owner", "last_edited_user": "AC_owner", "last_edited_date": 1789875254325, "created_date": 1789875254325, "PARK_SAPSITEID": null, "TRACK_ID": null, "KAURIDIEBACK_TRACK": null, "KAURIDIEBACK_MITIGATED": null, "SegmentID": null, "GlobalID": "25d82f7a-2723-4f06-93be-84a1cc2321bd", "Shape__Length": 1043.3678675658532}}]}