{"type": "FeatureCollection", "features": [{"type": "Feature", "id": 81, "geometry": {"type": "LineString", "coordinates": [[174.779001713727, -36.4397932006792], [174.779000261175, -36.4397295835656], [174.778994436648, -36.4396313277609], [174.779024399432, -36.4395325294826], [174.77905456028, -36.4394424087161], [174.779101894038, -36.43932021256], [174.779145306415, -36.4391836073884], [174.779206893211, -36.4390583052217], [174.779254413521, -36.4389447866953], [174.779336609513, -36.4387815798582], [174.779377377109, -36.4386855138899], [174.779397524202, -36.4386273617183], [174.779414432675, -36.4385837162705], [174.779438687786, -36.4385486417566], [174.779476998116, -36.4385017927237], [174.779497882688, -36.4384754489259], [174.779504436633, -36.4384493097858], [174.779507356059, -36.4384203403604], [174.779505440958, -36.4383364847181], [174.779515123846, -36.4382900625142], [174.779525070756, -36.4382552013229], [174.779538718429, -36.4382260719323], [174.779574108947, -36.4382081832873], [174.779602351202, -36.4381904102348], [174.779615932773, -36.4381583883301], [174.77964039701, -36.4381319911305], [174.7796537143, -36.4380883991981], [174.779663859319, -36.4380622155144], [174.779681218833, -36.4380388177402], [174.779705749077, -36.4380153130342], [174.779744521258, -36.4379887024533], [174.779779713416, -36.4379621362335], [174.779814773821, -36.4379298030141], [174.779842938492, -36.4379091285577], [174.779874815285, -36.4378941947307], [174.779899268201, -36.4378677976479], [174.779909214892, -36.4378329364284], [174.779915383572, -36.4377894510789], [174.779928976102, -36.4377574289757], [174.779946269397, -36.4377311386602], [174.779962913293, -36.4376759321305]]}, "properties": {"OBJECTID": 81, "TRACKNAME": "Mullet Point Track", "CONDITIONSOFUSE": "Scandrett Regional Park", "STATUS": "Open", "WEBLINK": "https://www.aucklandcouncil.govt.nz/en/parks-recreation/find-park-beach/park-detail/225.html", "VALIDATIONSTATE": 3, "created_user": "AC_owner", "last_edited_user": "AC_owner", "last_edited_date": 1789875254325, "created_date": 1789875254325, "PARK_SAPSITEID": null, "TRACK_ID": null, "KAURIDIEBACK_TRACK": null, "KAURIDIEBACK_MITIGATED": null, "SegmentID": null, "GlobalID": "89056e26-1129-4e34-889d-e2c5146cd91c", "Shape__Length": 257.67123997954565}}, {"type": "Feature", "id": 141, "geometry": {"type": "LineString", "coordinates": [[174.771355857158, -36.444346185852], [174.771269064803, -36.4443474740749], [174.771061926442, -36.4443424537211], [174.770861468719, -36.4443373338746], [174.770734626054, -36.4443392160003], [174.770584417913, -36.4443414446549], [174.770454363155, -36.444348773522], [174.770317934079, -36.4443696817437], [174.77018465579, -36.4443824485057], [174.770057874224, -36.4443870241911], [174.769907420878, -36.4443784658774], [174.769736630367, -36.4443567150097], [174.769294060935, -36.4442769501639], [174.769211002316, -36.4442063489867], [174.769204058819, -36.444159011254]]}, "properties": {"OBJECTID": 141, "TRACKNAME": "Mullet Point Track", "CONDITIONSOFUSE": "Scandrett Regional Park", "STATUS": "Open", "WEBLINK": "https://www.aucklandcouncil.govt.nz/en/parks-recreation/find-park-beach/park-detail/225.html", "VALIDATIONSTATE": 3, "created_user": "AC_owner", "last_edited_user": "AC_owner", "last_edited_date": 1789875254325, "created_date": 1789875254325, "PARK_SAPSITEID": null, "TRACK_ID": null, "KAURIDIEBACK_TRACK": null, "KAURIDIEBACK_MITIGATED": null, "SegmentID": null, "GlobalID": "6feb1b9f-e691-4b82-b1b6-b5ba59190906", "Shape__Length": 202.49301074173175}}, {"type": "Feature", "id": 1733, "geometry": {"type": "LineString", "coordinates": [[174.774632138222, -36.4442273670293], [174.774890269957, -36.444272083884], [174.774946647536, -36.4442550652804], [174.774999679006, -36.4442380874048], [174.77504567225, -36.4442050250672], [174.775098100481, -36.4441610862655], [174.775163694088, -36.4441088480328], [174.775193237287, -36.4440868290889], [174.775229410605, -36.4440620073158], [174.775265880149, -36.4440506750669], [174.7753158227, -36.4440445417613], [174.775368988102, -36.4440329611107], [174.775425426594, -36.4440186275461], [174.775448238646, -36.4439940044827], [174.775490947299, -36.4439636950384], [174.775517166791, -36.4439417254642], [174.775626697904, -36.4439131169664], [174.775729928409, -36.4439007912428], [174.775939489076, -36.4438652946435], [174.776068804543, -36.4438256015801], [174.776208196771, -36.4437884625967], [174.776310934914, -36.4437545552], [174.77640353484, -36.4437154082605], [174.776502261644, -36.4436518863624], [174.776663357841, -36.4435415817312], [174.776787738361, -36.4434318145136], [174.776919229839, -36.443340834609], [174.776987541021, -36.4432615760622], [174.777085148328, -36.4431495120083], [174.777123425042, -36.4430707096326], [174.777234885009, -36.4429800186628], [174.777418174556, -36.4428181199778], [174.777581802386, -36.4426727029989], [174.777754778743, -36.4424974634807], [174.777832734324, -36.4424018806855], [174.777907097781, -36.4422955616111], [174.777955634472, -36.4422273958681], [174.777997798313, -36.4421728099759], [174.778026231933, -36.442102239508], [174.778050284732, -36.441985880146], [174.77807336375, -36.4418263672977], [174.778073066967, -36.441667202717], [174.778067701151, -36.4415782514988], [174.778049221007, -36.4415002944234], [174.778019813771, -36.4413820273308], [174.777997568321, -36.4412852420339], [174.778009809853, -36.4412364922849], [174.778028301085, -36.4411687741313], [174.778053657278, -36.4411090482586], [174.778085609752, -36.4410465199069], [174.778134391717, -36.4409891401804], [174.778173147576, -36.4409319098195], [174.778231871638, -36.4408716867379], [174.77827755385, -36.4408251428855], [174.778343265735, -36.440778300556], [174.778382155487, -36.4407264584989], [174.778441433148, -36.4406905017393], [174.778500587749, -36.4406491564192], [174.778559188134, -36.4405835356433], [174.778605127363, -36.4405477775825], [174.77865747828, -36.4405011342026], [174.778708855322, -36.4404113463355], [174.778747425745, -36.4403460239934], [174.778795591063, -36.4402616743233], [174.778827369023, -36.4401910538153], [174.778888503035, -36.4400903306992], [174.778933691662, -36.4400222054535], [174.778962258112, -36.4399570321594], [174.778990751847, -36.4398891647596], [174.778999023465, -36.4398659295918]]}, "properties": {"OBJECTID": 1733, "TRACKNAME": "Mullet Point Track", "CONDITIONSOFUSE": "Scandrett Regional Park", "STATUS": "Open", "WEBLINK": "https://www.aucklandcouncil.govt.nz/en/parks-recreation/find-park-beach/park-detail/225.html", "VALIDATIONSTATE": 3, "created_user": "AC_owner", "last_edited_user": "AC_owner", "last_edited_date": 1789875254325, "created_date": 1789875254325, "PARK_SAPSITEID": null, "TRACK_ID": null, "KAURIDIEBACK_TRACK": null, "KAURIDIEBACK_MITIGATED": null, "SegmentID": null, "GlobalID": "938830e9-4152-4993-9916-cb66cc3cf6a7", "Shape__Length": 685.9007592371104}}, {"type": "Feature", "id": 2897, "geometry": {"type": "LineString", "coordinates": [[174.774632138222, -36.4442273670293], [174.774550472301, -36.4442894718088], [174.774420687483, -36.4442937867045], [174.774342886602, -36.4443772249757], [174.77418555735, -36.4444034132582], [174.773855607903, -36.4445621472121], [174.773464684794, -36.4446359290313], [174.772598280936, -36.4445700973629], [174.772467220673, -36.4445183827833], [174.772011968892, -36.4444893687121], [174.771469719855, -36.4443362479349]]}, "properties": {"OBJECTID": 2897, "TRACKNAME": "Mullet Point Track", "CONDITIONSOFUSE": "Scandrett Regional Park", "STATUS": "Open", "WEBLINK": "https://www.aucklandcouncil.govt.nz/en/parks-recreation/find-park-beach/park-detail/225.html", "VALIDATIONSTATE": 3, "created_user": "AC_owner", "last_edited_user": "AC_owner", "last_edited_date": 1789875254325, "created_date": 1789875254325, "PARK_SAPSITEID": null, "TRACK_ID": null, "KAURIDIEBACK_TRACK": null, "KAURIDIEBACK_MITIGATED": null, "SegmentID": null, "GlobalID": "0bb59f34-be65-45ba-ae15-984cc996f86b", "Shape__Length": 301.6265770353599}}]}