{"type": "FeatureCollection", "features": [{"type": "Feature", "id": 5899, "geometry": {"type": "LineString", "coordinates": [[175.078836320495, -36.8117038361025], [175.078863333763, -36.8117669478967], [175.078884692496, -36.8118007815098], [175.078733025876, -36.8118989908797], [175.078494327828, -36.8119829607849], [175.078247644623, -36.8120237306742], [175.078047693015, -36.812104218317], [175.077868542896, -36.8121918624886], [175.077784908294, -36.8122179263678], [175.077611255878, -36.8122391895372], [175.077496032833, -36.8122872202712], [175.077375580218, -36.8123587959934], [175.077214482144, -36.8124222869537], [175.077018828152, -36.8124448269239], [175.076825386938, -36.8125023813914], [175.076761218295, -36.8125448029004], [175.076696174329, -36.812560725134], [175.076651708953, -36.8125989781319], [175.076563619052, -36.8126362086279], [175.07643259924, -36.812739199063], [175.076329833407, -36.812837616542], [175.076262104805, -36.8128715592215], [175.076006127279, -36.8130496444504], [175.075941832606, -36.8131050699255], [175.075863993921, -36.8131708895785], [175.075691932725, -36.8133169040008], [175.07556850975, -36.8134619030786], [175.075339428887, -36.8136501373127], [175.075403807567, -36.8139415465501], [175.075259653545, -36.8140641890251], [175.075198610442, -36.8141256294201], [175.075032787971, -36.814305911501], [175.074952792932, -36.8144395705439], [175.074878571867, -36.8146034161367], [175.07480713862, -36.8147058252694], [175.07480713655, -36.8147058316147], [175.074806425949, -36.8147141387104], [175.07480411592, -36.8147410946456], [175.074727940481, -36.8148845984999], [175.074710654221, -36.8149171614583], [175.074603714311, -36.814973429695], [175.074609619913, -36.8150502546443], [175.074529844739, -36.8150797513821], [175.074503200369, -36.8151478150235], [175.074437734858, -36.8152138711813]]}, "properties": {"OBJECTID": 5899, "TRACKNAME": "Musson Track", "CONDITIONSOFUSE": "Musson Track", "STATUS": "Open", "WEBLINK": null, "VALIDATIONSTATE": 3, "created_user": "AC_owner", "last_edited_user": "AC_owner", "last_edited_date": 1789875254325, "created_date": 1789875254325, "PARK_SAPSITEID": null, "TRACK_ID": null, "KAURIDIEBACK_TRACK": null, "KAURIDIEBACK_MITIGATED": null, "SegmentID": null, "GlobalID": "2087d00a-3c45-4675-86e9-3f143fce32d3", "Shape__Length": 603.9703510249747}}]}