{"type": "FeatureCollection", "features": [{"type": "Feature", "id": 12356, "geometry": {"type": "LineString", "coordinates": [[174.7462589909, -36.6803650990762], [174.746251189075, -36.6803594744925], [174.74624782807, -36.6803568827781], [174.746226484995, -36.6803477765277], [174.746225076496, -36.6803465578037], [174.746203576142, -36.6803096573899], [174.746200055678, -36.6803060512671], [174.746167117792, -36.6802837765986], [174.746165191861, -36.6802825393237], [174.746133917486, -36.680263505911], [174.746129877397, -36.6802604274986], [174.746106197407, -36.6802364080741], [174.746104500431, -36.6802341606091], [174.746088911431, -36.6802081629791], [174.746079979531, -36.6801795285448], [174.746079596381, -36.6801782722456], [174.746068009029, -36.6801503356602], [174.746067716164, -36.680149508892], [174.746060736409, -36.6801257952496], [174.746060472587, -36.6801249166773], [174.746049267335, -36.6800849727352], [174.746049222786, -36.6800848336762], [174.746030523022, -36.6800379067676], [174.746030073191, -36.6800370174027], [174.746016539904, -36.680013292613], [174.746015148973, -36.6800110686003], [174.746003209455, -36.6799943817714], [174.746002970833, -36.6799940238215], [174.746001498091, -36.6799916459729], [174.745996296953, -36.6799832448643], [174.745978685754, -36.6799695679667], [174.745928675302, -36.6799493643879], [174.745900113119, -36.6799403026579], [174.745852821029, -36.6799283707192], [174.745825846106, -36.6799247227616], [174.745819996747, -36.6799239324102], [174.745807111507, -36.679922189734], [174.745762722407, -36.6799213516221], [174.74571138692, -36.6799316895968], [174.745697826428, -36.6799250254116], [174.745686021322, -36.6799202725296], [174.745649535278, -36.6799055779906], [174.745636309854, -36.6798966563595], [174.745621220718, -36.6798864767003], [174.74561039533, -36.6798791720862], [174.745562169028, -36.679875613943], [174.745527954795, -36.6798805296275], [174.745519623481, -36.6798817262193], [174.745507555428, -36.6798834607347], [174.745489784027, -36.6798890826572], [174.745479539417, -36.6798923236657], [174.745454745665, -36.6799001667666], [174.745368943979, -36.6799028372007], [174.745274809436, -36.6799100040887], [174.745182017957, -36.6799317894752], [174.745169189615, -36.6799379130598], [174.745146351683, -36.6799488146205], [174.745076554664, -36.6799821311891], [174.744939098608, -36.6800443386847], [174.744929693837, -36.6800485958003], [174.744602200405, -36.6801968063972], [174.744562295776, -36.6802148651596], [174.744383607096, -36.6802957325168], [174.744367709961, -36.6803029889377], [174.744361048491, -36.6803060295227], [174.744352834056, -36.6803097779044], [174.74431289408, -36.6803278623406], [174.744231922994, -36.6803632395318], [174.744162182701, -36.6804054449605], [174.74408489532, -36.6804410132553], [174.744063023736, -36.6804457594135], [174.743964513752, -36.680465705915], [174.743929058988, -36.6804695711922], [174.743903497309, -36.6804782616948], [174.743868025412, -36.6804924208604]]}, "properties": {"OBJECTID": 12356, "TRACKNAME": "Nature Trail", "CONDITIONSOFUSE": "Long Bay Regional Park", "STATUS": "Open", "WEBLINK": "https://www.aucklandcouncil.govt.nz/en/parks-recreation/find-park-beach/park-detail/215.html", "VALIDATIONSTATE": 3, "created_user": "AC_owner", "last_edited_user": "AC_owner", "last_edited_date": 1789875254325, "created_date": 1789875254325, "PARK_SAPSITEID": null, "TRACK_ID": null, "KAURIDIEBACK_TRACK": null, "KAURIDIEBACK_MITIGATED": null, "SegmentID": null, "GlobalID": "2abe0050-dc8a-4cd4-8921-57209455ed6b", "Shape__Length": 260.78650937367115}}]}