{"type": "FeatureCollection", "features": [{"type": "Feature", "id": 11977, "geometry": {"type": "LineString", "coordinates": [[175.019732894537, -36.7826491830395], [175.019668283517, -36.7827403661239], [175.0196450704, -36.7827677097498], [175.019627800481, -36.7828026505692], [175.019554012832, -36.7828724308738], [175.019521130266, -36.7828960882797], [175.019427276451, -36.7829307902843], [175.01937637746, -36.7829609132175], [175.019365522324, -36.7829849662202], [175.019317594909, -36.7830188890866], [175.019269989497, -36.7830651247541], [175.019227269788, -36.7831151278598], [175.019206225953, -36.7831886315247], [175.01922909255, -36.7832575400115], [175.019232642825, -36.7833198462935], [175.019242768576, -36.7833774216681]]}, "properties": {"OBJECTID": 11977, "TRACKNAME": "Newton Res Alt.", "CONDITIONSOFUSE": "Newton Reserve", "STATUS": "Open", "WEBLINK": "https://www.aucklandcouncil.govt.nz/en/parks-recreation/find-park-beach/park-detail/1202.html", "VALIDATIONSTATE": 3, "created_user": "AC_owner", "last_edited_user": "AC_owner", "last_edited_date": 1789875254325, "created_date": 1789875254325, "PARK_SAPSITEID": null, "TRACK_ID": null, "KAURIDIEBACK_TRACK": null, "KAURIDIEBACK_MITIGATED": null, "SegmentID": null, "GlobalID": "7475cbf3-b6a9-45b4-abeb-636ea11b5424", "Shape__Length": 100.0528443499433}}]}