{"type": "FeatureCollection", "features": [{"type": "Feature", "id": 10005, "geometry": {"type": "MultiLineString", "coordinates": [[[175.024338145238, -36.7825464689101], [175.024323729525, -36.7825677510288], [175.024322970613, -36.7825689311521], [175.024305005803, -36.7825983314489], [175.024305003587, -36.782598332388], [175.024266673241, -36.7826016636278], [175.024266663161, -36.7826016637994], [175.024228336823, -36.7825983333362], [175.024193337083, -36.7825683339916], [175.024193334772, -36.782568331327], [175.024156667235, -36.782531668996], [175.02415666154, -36.7825316654877], [175.024136670211, -36.7825283347357], [175.024136663491, -36.7825283348501], [175.024088327742, -36.7825400004651], [175.024088323286, -36.7825400014423], [175.024056666337, -36.7825500041211], [175.024056662953, -36.7825500032774], [175.024043335281, -36.7825350006114], [175.024038335867, -36.782511672238], [175.024038332365, -36.7825116668897], [175.02401000289, -36.7824916667092], [175.024009999483, -36.7824916649645], [175.023961660923, -36.782481671063], [175.023920005206, -36.7824883350738], [175.023919995173, -36.7824883370472], [175.023871669305, -36.782498334071], [175.023871665945, -36.7824983341281], [175.023828333344, -36.7824950085261], [175.023828322073, -36.782495006014], [175.023691674383, -36.7824550095047], [175.023691666448, -36.7824550060344], [175.023660002592, -36.7824366731669], [175.023659999113, -36.7824366687195], [175.023648342121, -36.7824066667236], [175.023614994621, -36.7823783398674], [175.02361499119, -36.7823783372219], [175.02357585901, -36.782356121475], [175.023575856746, -36.7823561206122], [175.023440246311, -36.7823177159055], [175.023383105269, -36.782315223586], [175.023383100789, -36.7823152236623], [175.023321835308, -36.7823164869751]], [[175.019735681748, -36.7826466832159], [175.019744122147, -36.7826320683185], [175.019747184853, -36.7826287517294], [175.019771761214, -36.7826096752341], [175.019773157597, -36.7826079336068], [175.019784017273, -36.7825858102087], [175.019797153509, -36.7825599184936], [175.019797096477, -36.7825591118831], [175.019787938082, -36.782543516948], [175.019787871422, -36.7825424716523], [175.01980701897, -36.7825046624743], [175.01980702207, -36.7825046525072], [175.019817724034, -36.7824501880544], [175.01981757811, -36.7824494099933], [175.019777294867, -36.7823796807229], [175.019777548428, -36.7823755528945], [175.01979654873, -36.7823483979735], [175.019796554117, -36.7823483897702], [175.019804088945, -36.7823265130236], [175.019804091114, -36.7823265102828], [175.019821226134, -36.7823099126123], [175.019829139895, -36.7822766052448], [175.019829140968, -36.782276603424], [175.019863557339, -36.7822227348023], [175.019860359366, -36.7821526514026], [175.019860360438, -36.7821526495817], [175.019919215736, -36.7821288113688], [175.019919220121, -36.782128807689], [175.019985577957, -36.7820559185549], [175.019985584417, -36.7820559085307], [175.019995652926, -36.7820274704124], [175.019995652784, -36.7820274650069], [175.01998120273, -36.7819918290806], [175.019981200324, -36.7819918228123], [175.019964709038, -36.7819301221456], [175.019964708896, -36.7819301167401], [175.019971087048, -36.7818777158277]], [[175.018546136442, -36.784634074389], [175.018549041395, -36.7846229469989], [175.01855747248, -36.7846107794154], [175.018558925741, -36.7846086835205], [175.018591858503, -36.7845611920199], [175.01859341356, -36.7845582354423], [175.01859743661, -36.7845464599512], [175.018602069625, -36.7845329057229], [175.018602383521, -36.7845323559992], [175.018615609524, -36.7845154102532], [175.018698660934, -36.7844089942782], [175.01869927772, -36.7844078598658], [175.018716284088, -36.7843627613146], [175.018717041493, -36.7843607511395], [175.018721232907, -36.7843496280427], [175.018722563377, -36.784346098434], [175.018722868212, -36.7843460148442]], [[175.021146958454, -36.7809266213876], [175.021135995102, -36.7809414478112], [175.021134721505, -36.7809431693408], [175.021076833741, -36.7810214519245], [175.02107657508, -36.7810219277092], [175.021065507506, -36.7810514284236], [175.021058889288, -36.7810690661011], [175.021051661733, -36.7810883328986], [175.021051659541, -36.7810883347385], [175.020975002351, -36.781143332617], [175.020974997966, -36.7811433362968], [175.020945304028, -36.7811743180681], [175.020945301883, -36.7811743217099], [175.02090000663, -36.7812883382863], [175.020900003411, -36.7812883437488], [175.020846670898, -36.7813416616644], [175.020846670945, -36.7813416634662], [175.020845431711, -36.7813559136047], [175.020843761881, -36.7813751427208], [175.020842982292, -36.7813761771608], [175.020816530128, -36.781388655669]], [[175.020380085606, -36.7815682468306], [175.02035596384, -36.7816693490174], [175.020349009662, -36.781692890578]], [[175.020349009662, -36.781692890578], [175.020349427397, -36.7816932665398], [175.020361048744, -36.7816925643488], [175.020458328319, -36.7816866662651], [175.020458336253, -36.7816866697355], [175.020476672087, -36.7817133345738], [175.020476677735, -36.7817133362805], [175.020519951467, -36.7817033480691], [175.020520003421, -36.7817033210481], [175.020556891608, -36.7816701729488], [175.020595012255, -36.7816366812243], [175.020595050052, -36.7816366697663], [175.020701652525, -36.7816449944637], [175.020701664987, -36.7816449996598], [175.020734426237, -36.7816733706672], [175.020734427404, -36.78167337245], [175.020765005168, -36.781701671495], [175.020765007432, -36.7817016723579], [175.020838329462, -36.7817233314418], [175.020838337302, -36.7817233313086], [175.020881664263, -36.781706668717], [175.020881668743, -36.7817066686409], [175.020929998352, -36.7817083348993], [175.020930000615, -36.7817083357622], [175.020964996028, -36.7817283369677], [175.020965005177, -36.7817283440228], [175.021008368571, -36.7817718508245], [175.021071674373, -36.781816665361], [175.021159998928, -36.7818750024764], [175.021160001192, -36.7818750033392], [175.021334997819, -36.7819099975566], [175.02133500237, -36.7819100001832], [175.02139333615, -36.7819550036147], [175.021393338437, -36.7819550053785], [175.021421659292, -36.7819583338002], [175.021421662652, -36.7819583337431], [175.021648327749, -36.7819416617866], [175.021648334445, -36.7819416607715], [175.021908329839, -36.7819350021965], [175.021908338917, -36.7819350065487], [175.021923322856, -36.7819666637556], [175.021923322975, -36.7819666682602], [175.021915003995, -36.7820033238242], [175.021915005257, -36.7820033292106], [175.021961673754, -36.7820650004556], [175.021961676042, -36.7820650022193], [175.022026655003, -36.7820766680306], [175.02202666177, -36.7820766697182], [175.022139994776, -36.7821199966317], [175.02214000488, -36.7821199973612], [175.022186661058, -36.7821099951866], [175.022186663298, -36.7821099951485], [175.022243337222, -36.7821016711872], [175.022305001405, -36.7820566680057], [175.022305004741, -36.7820566670477], [175.022348331932, -36.7820450062225], [175.022348335339, -36.7820450079672], [175.022364997985, -36.7820799894594], [175.02236500032, -36.782079993025], [175.022414998327, -36.7821249998137], [175.022414999495, -36.7821250015964], [175.022469997499, -36.7821599998338], [175.022470000882, -36.7821600006776], [175.022549992728, -36.7821599929845], [175.022550000592, -36.7821599937521], [175.022648334195, -36.7821700075984], [175.022648337555, -36.7821700075412], [175.022720063276, -36.7821627919127], [175.022720072165, -36.7821627890575], [175.022763328519, -36.7821383333067], [175.022763339695, -36.7821383322152], [175.023014996906, -36.7822266657115], [175.023015003721, -36.7822266692008], [175.023038334258, -36.7822466699491], [175.023038344385, -36.7822466715794], [175.023089997101, -36.7822266641626], [175.023090006061, -36.7822266640102], [175.023145000358, -36.7822516636978], [175.023145009436, -36.7822516680499], [175.023198332932, -36.7822766618895], [175.023198340891, -36.7822766662607], [175.023233321555, -36.7822999946931], [175.023233324963, -36.7822999964377], [175.023264998977, -36.7823050014943], [175.023265003457, -36.7823050014181], [175.023321835308, -36.7823164869751]], [[175.020349009662, -36.781692890578], [175.020346024488, -36.7816948475814], [175.020345176544, -36.7816988692402], [175.020342424335, -36.7817505343792], [175.020339877687, -36.7817569021837], [175.020312398063, -36.7817917930418], [175.020312394751, -36.7817917949007], [175.020268019744, -36.781805718868], [175.020266998575, -36.7818057893952], [175.020211700839, -36.7817958148473], [175.0202101928, -36.7817947967439], [175.020196473564, -36.7817697127543], [175.020196436581, -36.7817695844944], [175.020196018628, -36.7817482898881], [175.020195515646, -36.7817479532293], [175.020170231735, -36.7817509929938], [175.020170229519, -36.7817509939328], [175.020061930628, -36.781796873894], [175.020061927339, -36.7817968766538], [175.020003494886, -36.7818370224763], [175.019971087048, -36.7818777158277]], [[175.020077642208, -36.7831504667176], [175.020002181934, -36.7831343469441], [175.020002063243, -36.7831343074999], [175.019750996062, -36.783026181826], [175.019750746694, -36.7830259877722], [175.019712016282, -36.7829698338744], [175.019711769296, -36.7829690476153], [175.019711262141, -36.7829689363545]], [[175.019711262141, -36.7829689363545], [175.019710378108, -36.7827583813899], [175.019710561152, -36.7827565612274], [175.019735681748, -36.7826466832159]], [[175.019711262141, -36.7829689363545], [175.019710359163, -36.7829715889429], [175.019611520294, -36.7831028508406], [175.01961127887, -36.7831030874806], [175.019569313088, -36.7831343791971], [175.019569308655, -36.783134381075], [175.019537286406, -36.7831461661592], [175.019536935166, -36.7831463172366], [175.019488221418, -36.7831713295956], [175.01948585203, -36.7831731850869], [175.019469096388, -36.7831926343408], [175.019444833809, -36.7831967381907], [175.019444828256, -36.7831967400877], [175.019432091682, -36.783209179143], [175.019432088417, -36.7832091828037], [175.01942193439, -36.7832397548405], [175.019421932197, -36.7832397566804], [175.019351892542, -36.7832764679153], [175.019351890349, -36.7832764697552], [175.019300490078, -36.7833103010736], [175.019281963785, -36.7833310683517], [175.019281957278, -36.7833310765741], [175.019259336624, -36.7833706733726], [175.019259331166, -36.7833706788732], [175.019241605479, -36.7833817767498], [175.019241601117, -36.7833817813305], [175.01921886618, -36.7834171105277], [175.019218864058, -36.7834171150703], [175.019172568376, -36.7835378141252], [175.019143133179, -36.7835735500128], [175.019143128865, -36.7835735563952], [175.019116069444, -36.7836461914736], [175.019116066226, -36.7836461969361], [175.0190845311, -36.7837098137274], [175.019084530099, -36.783709818251], [175.019083132674, -36.7837911064427], [175.019083131743, -36.783791113669], [175.01907676389, -36.7838986271295], [175.019061914852, -36.7839250246459], [175.019062187829, -36.7839256058662]], [[175.020380085606, -36.7815682468306], [175.02042362553, -36.7815203519839], [175.020651200091, -36.7814284011834], [175.020651206764, -36.7814283992673], [175.020713144953, -36.7814104515602], [175.020713148289, -36.7814104506022], [175.020759832998, -36.7813892992246], [175.020759838574, -36.7813892982285], [175.020816530128, -36.781388655669]], [[175.018980111998, -36.7840309861359], [175.018974706516, -36.7840287227789], [175.018973770693, -36.7840290577345], [175.0189255578, -36.7840463686323], [175.018925551293, -36.7840463768547], [175.018925191758, -36.7840619252539], [175.018924804918, -36.7840788242883], [175.018872598351, -36.7840878928391], [175.018848080602, -36.7840921487191], [175.018814171893, -36.7840980376865], [175.018813529737, -36.7840991445895], [175.018831612402, -36.7841242303581]], [[175.018831612402, -36.7841242303581], [175.018831523247, -36.7841245905956], [175.018829275498, -36.7841260870878], [175.018798904072, -36.784146314519], [175.018798903023, -36.7841463172408], [175.018807683944, -36.7841651201321], [175.018815538778, -36.7841819387254], [175.018822262195, -36.7841963357636], [175.018822261241, -36.784196342089], [175.018778791154, -36.7842328146018], [175.01877570138, -36.7842354024615], [175.018775698138, -36.7842354070231], [175.018770196082, -36.7842534195008], [175.0187523915, -36.7843116962342], [175.018751627797, -36.7843129539176], [175.018745565869, -36.7843190253494], [175.018730326977, -36.784334288276], [175.018722868212, -36.7843460148442]], [[175.018980111998, -36.7840309861359], [175.018971674155, -36.7840161197886], [175.018966406239, -36.7839942054046], [175.018966408385, -36.7839942017629], [175.019002638225, -36.7839652348002], [175.019002642681, -36.7839652338232], [175.0190355595, -36.783969415826], [175.019040559151, -36.7839700492812], [175.019042015765, -36.7839693629819], [175.019055769664, -36.7839374427722], [175.019062187829, -36.7839256058662]]]}, "properties": {"OBJECTID": 10005, "TRACKNAME": "Newton Reserve Track", "CONDITIONSOFUSE": "Newton Reserve", "STATUS": "Open", "WEBLINK": "https://www.aucklandcouncil.govt.nz/en/parks-recreation/find-park-beach/park-detail/1202.html", "VALIDATIONSTATE": 3, "created_user": "AC_owner", "last_edited_user": "AC_owner", "last_edited_date": 1789875254325, "created_date": 1789875254325, "PARK_SAPSITEID": null, "TRACK_ID": null, "KAURIDIEBACK_TRACK": null, "KAURIDIEBACK_MITIGATED": null, "SegmentID": null, "GlobalID": "dcf49aea-4715-4982-9cac-d8d27ae2774a", "Shape__Length": 998.3169716785301}}]}