{"type": "FeatureCollection", "features": [{"type": "Feature", "id": 12538, "geometry": {"type": "MultiLineString", "coordinates": [[[175.068487947857, -36.8095620356793], [175.068487994893, -36.8095619924995], [175.06842699239, -36.8095699985224], [175.068375005927, -36.8095519964133], [175.068339999349, -36.8095719988888], [175.068265000953, -36.8095839923689], [175.068230400459, -36.8095737669962], [175.068212291835, -36.8095684173571], [175.068207028787, -36.8095668604389], [175.068139907951, -36.8095470242012], [175.06811866595, -36.8095479471635]], [[175.070374860544, -36.8088238757711], [175.070280011979, -36.8089229983413], [175.070198994264, -36.8089989976534], [175.070006003056, -36.8090929945295], [175.069775002167, -36.8091890012586], [175.06971599393, -36.8092429938302], [175.069586991031, -36.8093510106295], [175.069557549729, -36.8093705407239], [175.069557163229, -36.8093685087016], [175.069482996388, -36.8094199881455], [175.069319012459, -36.8094669941447], [175.06925199535, -36.8094749989356], [175.06919699858, -36.8094780013173], [175.068930992942, -36.8094549909705], [175.068824998702, -36.8094470015524], [175.068772002003, -36.8094079996727], [175.068793004477, -36.80934600024], [175.068759007388, -36.8093329966123], [175.068550010292, -36.8095049937203], [175.068502725638, -36.8095484518423]]]}, "properties": {"OBJECTID": 12538, "TRACKNAME": "Nice and Easy", "CONDITIONSOFUSE": "Onetangi Sports Park (Rangihoua)", "STATUS": "Open", "WEBLINK": "https://www.aucklandcouncil.govt.nz/en/parks-recreation/find-park-beach/park-detail/120.html", "VALIDATIONSTATE": 3, "created_user": "AC_owner", "last_edited_user": "AC_owner", "last_edited_date": 1789875254325, "created_date": 1789875254325, "PARK_SAPSITEID": null, "TRACK_ID": null, "KAURIDIEBACK_TRACK": null, "KAURIDIEBACK_MITIGATED": null, "SegmentID": null, "GlobalID": "a889f5ea-7f4c-4a0b-b7be-dea3befab78c", "Shape__Length": 250.18954523138748}}]}