{"type": "FeatureCollection", "features": [{"type": "Feature", "id": 12032, "geometry": {"type": "MultiLineString", "coordinates": [[[175.069557621524, -36.8102398134989], [175.069575350635, -36.8102350145381]], [[175.069557621524, -36.8102398134989], [175.069557518007, -36.8102398405377], [175.069557461232, -36.8102398550457], [175.069547501455, -36.8102413353346], [175.069547379746, -36.8102413527757], [175.06954725743, -36.8102413476948], [175.069533501862, -36.8102404407152], [175.069533383906, -36.8102404310518], [175.069533256575, -36.8102404062294], [175.069517325395, -36.8102370459187], [175.069517278048, -36.8102370359274], [175.069502884042, -36.8102342734574], [175.069502843514, -36.8102342669525], [175.069490997623, -36.8102321811637], [175.06949095707, -36.8102321737579], [175.069484121031, -36.8102308560886], [175.069484010676, -36.8102308372798]], [[175.069604094535, -36.8102388178337], [175.069575350635, -36.8102350145381]], [[175.069604094535, -36.8102388178337], [175.069584291903, -36.8102347146619]], [[175.069604094535, -36.8102388178337], [175.069599862465, -36.8102378784485], [175.069599821864, -36.810237869241], [175.069593073366, -36.8102362643403], [175.069592977527, -36.8102362434763], [175.069592878375, -36.8102362244725], [175.069584291903, -36.8102347146619]], [[175.069604094535, -36.8102388178337], [175.069604208276, -36.8102388374847], [175.069604289389, -36.810238769376], [175.06962047013, -36.8102244651692], [175.069623628958, -36.8102216801215], [175.069623655241, -36.8102216571313], [175.069623682644, -36.8102216341216], [175.069630608031, -36.8102158632699], [175.069630698035, -36.8102157923025], [175.069630792593, -36.8102157239597], [175.06964201103, -36.8102079955382], [175.06965281251, -36.8102005177275], [175.069652909405, -36.8102004529492], [175.069653004279, -36.8102003963178], [175.069665632983, -36.8101930903876], [175.069665734603, -36.8101930345401], [175.069665847936, -36.810192997416], [175.069676083685, -36.8101899025825], [175.069676124824, -36.8101898901493], [175.069676164842, -36.8101898777356], [175.069682991911, -36.8101876155686], [175.069683082982, -36.8101875842399], [175.06970514259, -36.8101857571727]], [[175.069575350635, -36.8102350145381], [175.069566696559, -36.8102376960679], [175.069566656517, -36.8102377075807], [175.069566583032, -36.8102377259849], [175.069557621524, -36.8102398134989]], [[175.069575350635, -36.8102350145381], [175.06957545856, -36.8102349847186]], [[175.06957545856, -36.8102349847186], [175.069604094535, -36.8102388178337]], [[175.069584291903, -36.8102347146619], [175.069584174753, -36.8102346932676], [175.069584055992, -36.8102346953352], [175.069575572767, -36.8102349800264], [175.06957545856, -36.8102349847186]], [[175.069483902532, -36.8102308589912], [175.06947901093, -36.8102318598753], [175.069478899426, -36.8102318816452], [175.069478784026, -36.8102318836542], [175.069483902532, -36.8102308589912]], [[175.069484010676, -36.8102308372798], [175.069483902532, -36.8102308589912]], [[175.069484010676, -36.8102308372798], [175.069468674451, -36.8102318802932], [175.069468547483, -36.810231868984], [175.069456220013, -36.81023054777]], [[175.069456220013, -36.81023054777], [175.069484010676, -36.8102308372798]], [[175.069456220013, -36.81023054777], [175.069456102105, -36.8102305399083], [175.069455991337, -36.8102305057845], [175.069443754037, -36.8102264971119], [175.069443695244, -36.8102264783067], [175.069443627463, -36.8102264587567], [175.069431043502, -36.8102228968556], [175.069430956505, -36.810222871331], [175.069430860374, -36.8102228396562], [175.069419987532, -36.8102190505799], [175.069419892425, -36.8102190152821]], [[175.069419892425, -36.8102190152821], [175.069419813178, -36.8102189445573], [175.069414190338, -36.8102139356516], [175.069414108729, -36.8102138604614], [175.069414051502, -36.8102137749324], [175.069407961195, -36.8102041432615]], [[175.069419892425, -36.8102190152821], [175.069407961195, -36.8102041432615]], [[175.069407961195, -36.8102041432615], [175.069407897294, -36.8102040596513], [175.069407822334, -36.8102039816414], [175.069397583759, -36.8101948575152], [175.069397509188, -36.8101947939194], [175.069397418296, -36.8101947486339], [175.069384713244, -36.8101887706357], [175.069384682581, -36.8101887558473], [175.069373267153, -36.8101830906829], [175.06937320349, -36.8101830575416], [175.069373144357, -36.810183026124], [175.069359244009, -36.810175284348], [175.069359206454, -36.8101752633704], [175.069359168851, -36.8101752405911], [175.069344963893, -36.8101667596384], [175.069344937711, -36.810166744772], [175.069331208964, -36.8101582987904], [175.069331124673, -36.8101582488834], [175.069331047298, -36.8101582060664], [175.069315391601, -36.8101499225135], [175.069315282516, -36.8101498676303], [175.069315159473, -36.8101498355226], [175.069297095007, -36.8101452595043], [175.06929694634, -36.8101452332504], [175.069276147958, -36.8101421135588], [175.069276105214, -36.8101421079937], [175.069257065251, -36.810139602122], [175.069257018026, -36.8101395966349], [175.069242409126, -36.8101379275509], [175.069242362948, -36.8101379193417], [175.069242276193, -36.8101379028257]], [[175.06970514259, -36.8101857571727], [175.069689348434, -36.8101849875524]], [[175.06970514259, -36.8101857571727], [175.069689452609, -36.8101849433773], [175.069689525783, -36.8101848718015], [175.06970514259, -36.8101857571727]], [[175.069242276193, -36.8101379028257], [175.069227165513, -36.8101351239554], [175.069227106913, -36.8101351123572], [175.069227049458, -36.8101351016403]], [[175.069242276193, -36.8101379028257], [175.069213025487, -36.8101320100265], [175.069212888708, -36.8101319673422], [175.069199526384, -36.8101274716939], [175.069199451517, -36.8101274387475], [175.069199348277, -36.8101273927755]], [[175.069811415446, -36.8101218474829], [175.069811243586, -36.8101218757119]], [[175.069811415446, -36.8101218474829], [175.069840187358, -36.8101181180324]], [[175.06987911345, -36.8101190040018], [175.069853098429, -36.8101155543368]], [[175.06987911345, -36.8101190040018], [175.069868297526, -36.8101165794518], [175.069868139774, -36.8101165488504], [175.069868035288, -36.8101165398541], [175.069853098429, -36.8101155543368]], [[175.069840187358, -36.8101181180324], [175.069826124963, -36.8101193858689], [175.069825995314, -36.8101193998434], [175.069825868051, -36.810119419184], [175.069811415446, -36.8101218474829]], [[175.069840187358, -36.8101181180324], [175.069796602056, -36.8101263208128], [175.069796488553, -36.8101263516308], [175.0697963202, -36.8101263852065], [175.069786746469, -36.8101280480675], [175.069786599282, -36.8101280767681], [175.069786454506, -36.8101281117358], [175.069772097005, -36.8101319489156], [175.06977201463, -36.8101319701786], [175.069771928846, -36.8101319896983], [175.069759298948, -36.8101346719682], [175.069759206514, -36.8101346943076], [175.069759059885, -36.8101347437285], [175.069750656939, -36.8101378841695], [175.069750559315, -36.8101379219215], [175.069750472212, -36.8101379757137], [175.069740918396, -36.8101440410968], [175.069727953894, -36.8101524047038], [175.069727921961, -36.8101524259898], [175.069716023373, -36.8101603708575], [175.06970514259, -36.8101857571727]], [[175.069199348277, -36.8101273927755], [175.06918398127, -36.8101205886285], [175.069183940427, -36.810120570412]], [[175.069199348277, -36.8101273927755], [175.069176142707, -36.8101166313457], [175.069173326002, -36.8101153040828], [175.069173209123, -36.8101152511376], [175.069173084498, -36.8101152019326], [175.069143315853, -36.8101041428404]], [[175.069853098429, -36.8101155543368], [175.069852986027, -36.8101155427745], [175.069852873402, -36.8101155645642], [175.069840398309, -36.8101180846162], [175.069840326872, -36.8101180957745], [175.069840187358, -36.8101181180324]], [[175.070138953392, -36.8101051886105], [175.070139058752, -36.8101052300383], [175.070139173687, -36.8101052523719], [175.070149715332, -36.8101070651815], [175.07014980764, -36.8101070797974], [175.070161025609, -36.8101083670844], [175.070161103158, -36.8101083747469], [175.070161182924, -36.8101083814696], [175.070176830631, -36.8101094573173], [175.070176944105, -36.8101094670581], [175.07017701386, -36.8101094766589], [175.070197608469, -36.810112895369], [175.070197653502, -36.8101129026965], [175.070213492079, -36.8101157796268], [175.070213573159, -36.8101157935369], [175.070213644059, -36.8101158040191], [175.070226611468, -36.8101174547028], [175.070226732882, -36.8101174679105], [175.070226856415, -36.8101174765748], [175.070237889348, -36.8101180947038], [175.070237964486, -36.8101180960992], [175.070238087728, -36.8101180939529], [175.070243367346, -36.810117891145], [175.070243412113, -36.8101178885628], [175.070243510464, -36.8101178778369], [175.070252385083, -36.8101167687987], [175.070252452063, -36.8101167586192], [175.07025256576, -36.8101167350078], [175.070266546826, -36.8101134469114], [175.070282040501, -36.8101096782126], [175.070282078351, -36.8101096685404], [175.07029701752, -36.8101057878207], [175.070297055346, -36.8101057772476], [175.070297099822, -36.8101057638547], [175.070309661902, -36.8101019380524], [175.070309714196, -36.8101019236221], [175.070309807702, -36.810101899461]], [[175.070138953392, -36.8101051886105], [175.070125982428, -36.8100999516886], [175.070113812563, -36.8100949513773]], [[175.070138953392, -36.8101051886105], [175.070105422571, -36.8100920799168], [175.070105276732, -36.8100920337861], [175.070105188711, -36.810092011885]], [[175.069116047341, -36.8101227057634], [175.069089359244, -36.8101177363297], [175.069089227528, -36.8101177151883], [175.069089096715, -36.8101176859196], [175.069079541301, -36.8101149500383], [175.069079420353, -36.8101149124861], [175.069079328709, -36.810114839273], [175.069071829337, -36.8101085335887], [175.069071791467, -36.8101085008995], [175.069071753573, -36.8101084673095], [175.069060520085, -36.8100982338398], [175.069060475274, -36.8100981931597], [175.069060418067, -36.8100981499915], [175.069047876927, -36.8100889739787], [175.069047814166, -36.8100889327098], [175.069047678852, -36.810088861158], [175.069036609956, -36.8100833674861], [175.069036504233, -36.810083312544]], [[175.070309807702, -36.810101899461], [175.070323688725, -36.8100981849807]], [[175.070323688725, -36.8100981849807], [175.070320262029, -36.8100995551574], [175.070320105536, -36.8100996128626], [175.070320018753, -36.8100996369066], [175.070309807702, -36.810101899461]], [[175.070323688725, -36.8100981849807], [175.070323794239, -36.8100981488935], [175.070323856868, -36.8100980603762]], [[175.070323856868, -36.8100980603762], [175.070333717912, -36.8100823050801]], [[175.070113812563, -36.8100949513773], [175.070138953392, -36.8101051886105]], [[175.070113744563, -36.8100949237197], [175.070113812563, -36.8100949513773]], [[175.070105188711, -36.810092011885], [175.070077041588, -36.8100868508677]], [[175.070105188711, -36.810092011885], [175.070092455699, -36.8100892836524], [175.070092371161, -36.8100892661972], [175.070092273202, -36.810089249877], [175.070077041588, -36.8100868508677]], [[175.070077041588, -36.8100868508677], [175.070076948136, -36.8100868353703], [175.070076852855, -36.8100868352269], [175.070067309449, -36.8100869184968], [175.070060719614, -36.8100869593455], [175.070060604238, -36.810086962256]], [[175.070333717912, -36.8100823050801], [175.070323688725, -36.8100981849807]], [[175.070333717912, -36.8100823050801], [175.070329716162, -36.8100904153125], [175.070329659597, -36.810090520849], [175.07032963911, -36.8100905509488], [175.070329614288, -36.810090586532], [175.070325495677, -36.8100959813668], [175.070325475118, -36.8100960087639], [175.070323856868, -36.8100980603762]], [[175.070060604238, -36.810086962256], [175.070039565188, -36.8100954665065], [175.070039456584, -36.8100954711016], [175.070025337536, -36.810095883709], [175.070025223232, -36.8100958847981], [175.070025136769, -36.8100958790933], [175.070013336057, -36.8100948461946], [175.070013246305, -36.810094843251], [175.070013071647, -36.810094850799], [175.069998312408, -36.8100958820303], [175.069998241945, -36.8100958877638], [175.06999817041, -36.8100958953186], [175.069983660079, -36.8100975116669], [175.069983575269, -36.810097525762], [175.069983409376, -36.8100975674069], [175.069975698283, -36.8100997179008], [175.069975611548, -36.8100997437464], [175.06997553044, -36.8100997703953], [175.069971525086, -36.8101011308097], [175.069971419499, -36.8101011641939], [175.069971307849, -36.810101180559], [175.069965148452, -36.8101019710029], [175.069964883989, -36.8101020152654], [175.06996462459, -36.8101020810711], [175.069949560495, -36.8101065263385], [175.069949507105, -36.810106541689], [175.069931142497, -36.8101113824154], [175.069931097997, -36.8101113949072], [175.069912826878, -36.8101165855115], [175.069912662129, -36.8101166280377], [175.069912604087, -36.8101166371601], [175.069912544877, -36.8101166445002], [175.06989318557, -36.8101185967355], [175.06989313749, -36.8101186011779], [175.069893070316, -36.8101186041502], [175.069879326784, -36.810119017412], [175.069879219227, -36.8101190192848], [175.06987911345, -36.8101190040018]], [[175.070060604238, -36.810086962256], [175.070060513896, -36.8100870206114], [175.070051637589, -36.81009272812], [175.070051550534, -36.8100927837142], [175.070051441392, -36.8100928099501], [175.070039672187, -36.8100954439132], [175.070060604238, -36.810086962256]], [[175.069036504233, -36.810083312544], [175.069009380985, -36.810070338969]], [[175.069036504233, -36.810083312544], [175.069009262812, -36.8100703211972], [175.069009208873, -36.8100702329068], [175.068999597076, -36.8100539099315], [175.068999536148, -36.8100538118485]], [[175.069036504233, -36.810083312544], [175.069036414903, -36.8100832419945], [175.068999536148, -36.8100538118485]], [[175.068999536148, -36.8100538118485], [175.06899943771, -36.8100537360496], [175.068984433493, -36.8100427525214], [175.068984366057, -36.8100427041233], [175.068984337538, -36.8100426856923], [175.068984310212, -36.8100426699444], [175.068966387793, -36.8100323762299], [175.068966333142, -36.8100323447342], [175.068951375113, -36.81002428423], [175.068951258016, -36.8100242231767], [175.068951132732, -36.8100241911077], [175.06893857136, -36.810021216411], [175.068938517218, -36.8100212038338], [175.06893846875, -36.8100211938617], [175.068921737012, -36.8100177807068], [175.068921671641, -36.8100177674237], [175.068921628752, -36.8100177564532], [175.068899760089, -36.810011935185], [175.068899623383, -36.8100118952029], [175.068899515686, -36.8100118502095], [175.068880550122, -36.810003361924], [175.068880434291, -36.8100033062564], [175.068880343865, -36.8100032366272], [175.068865787789, -36.8099911195545], [175.068865682168, -36.8099910267557], [175.068865581979, -36.8099909275533], [175.068852866148, -36.8099776337945], [175.068852768272, -36.8099775372557], [175.068852660361, -36.8099774426941], [175.06884061886, -36.8099674215523], [175.068840530675, -36.8099673518839], [175.068840414844, -36.8099672962163], [175.068821591483, -36.8099588433011], [175.06880193534, -36.8099498091136], [175.068801893328, -36.8099497891148], [175.068801825063, -36.8099497515467], [175.068784360613, -36.8099400212609], [175.068784334432, -36.8099400063944], [175.068784293395, -36.8099399809707], [175.068784188162, -36.809939902586], [175.068768068103, -36.8099272728377], [175.068768031402, -36.8099272419308], [175.068767969349, -36.8099271853272], [175.068755744127, -36.809915709964], [175.068755700413, -36.8099156683634], [175.068744309394, -36.8099055764049], [175.068732932138, -36.8098957041241], [175.068732910317, -36.8098956846751], [175.068732880436, -36.8098956572547], [175.068725860578, -36.8098892161188], [175.068725781381, -36.8098891471953], [175.068725694656, -36.8098890901197]], [[175.070340304869, -36.81002593995], [175.070340276189, -36.810025832293], [175.070337893398, -36.8100173114004]], [[175.070337893398, -36.8100173114004], [175.07033963481, -36.8100331061746], [175.070339617972, -36.8100331884866], [175.070337810534, -36.8100410748336], [175.070337794695, -36.8100411526217], [175.070337780219, -36.810041239399], [175.070336199677, -36.8100528883456], [175.070334701338, -36.8100650090453], [175.070334693244, -36.8100650830932], [175.070334689511, -36.8100651525586], [175.070334273394, -36.8100747136328], [175.070334270955, -36.8100747479249], [175.070333776042, -36.8100821328198], [175.070333767289, -36.810082224004], [175.070333717912, -36.8100823050801]], [[175.070337893398, -36.8100173114004], [175.070340297795, -36.810026051835]], [[175.069828293419, -36.8100227625179], [175.069828425401, -36.8100227935681]], [[175.069828293419, -36.8100227625179], [175.069821976249, -36.8100212321384]], [[175.069821976249, -36.8100212321384], [175.069822139112, -36.8100212860848], [175.069828293419, -36.8100227625179]], [[175.069821976249, -36.8100212321384], [175.06982856445, -36.8100227956535], [175.069834682406, -36.8100227558237], [175.069834759712, -36.8100227544777], [175.069834794396, -36.8100227520711], [175.06983493067, -36.8100227343761], [175.069841795608, -36.8100217126371], [175.069841835796, -36.8100217065295], [175.069841906016, -36.8100216917873], [175.069851922797, -36.8100195408122], [175.069851978549, -36.8100195299271], [175.069852091392, -36.8100195162453], [175.069862760586, -36.8100184075344], [175.069862872309, -36.8100183938721], [175.069862930302, -36.810018382948], [175.06987284471, -36.8100162598915], [175.069872887042, -36.8100162501414], [175.069883901411, -36.8100137239754], [175.069883997254, -36.8100137033791], [175.069884055272, -36.8100136933558]], [[175.070330095376, -36.8100088271375], [175.070333359758, -36.8100106693326]], [[175.070330095376, -36.8100088271375], [175.070332214806, -36.8100109001786], [175.070332331046, -36.8100110126198], [175.070308470401, -36.8099966179468]], [[175.069884055272, -36.8100136933558], [175.069893714114, -36.8100122363053], [175.069893756543, -36.8100122301586], [175.069901890244, -36.8100111214298]], [[175.070326892717, -36.810005697706], [175.070326785824, -36.8100056409829]], [[175.070326785824, -36.8100056409829], [175.070308470401, -36.8099966179468]], [[175.069901890244, -36.8100111214298], [175.069884055272, -36.8100136933558]], [[175.069901890244, -36.8100111214298], [175.069902016411, -36.8100111030094], [175.069902127114, -36.81001105151], [175.069918555803, -36.8100032107073], [175.069918613335, -36.8100031826663], [175.069918639836, -36.810003167784]], [[175.069795598889, -36.8100125260522], [175.069795771807, -36.8100126203823], [175.069800543098, -36.8100129798461], [175.069794168077, -36.8100101336665]], [[175.069795598889, -36.8100125260522], [175.069795652707, -36.8100126098378], [175.069776922521, -36.8100025430195]], [[175.069794168077, -36.8100101336665], [175.069795598889, -36.8100125260522]], [[175.069794168077, -36.8100101336665], [175.069777256415, -36.8100025795672]], [[175.069794138733, -36.8100100846056], [175.069794168077, -36.8100101336665]], [[175.069794138733, -36.8100100846056], [175.069800680197, -36.8100129927811], [175.069800809037, -36.8100130319978], [175.069807287014, -36.8100151643539], [175.069807373109, -36.8100151980057], [175.069812762387, -36.8100174024947], [175.06981283382, -36.8100174327965], [175.069812904181, -36.8100174649197], [175.069816829917, -36.8100193082319], [175.069816943362, -36.8100193585323], [175.069817057782, -36.8100194034078], [175.069821840809, -36.8100211975432], [175.069821976249, -36.8100212321384]], [[175.070308470401, -36.8099966179468], [175.070332678279, -36.8100113779097], [175.070332800849, -36.8100115172798], [175.070337812893, -36.8100171523703], [175.070337873094, -36.8100172234262], [175.070337893398, -36.8100173114004]], [[175.070308470401, -36.8099966179468], [175.070330095376, -36.8100088271375]], [[175.070308470401, -36.8099966179468], [175.070326977785, -36.8100057764405], [175.070330095376, -36.8100088271375]], [[175.070308470401, -36.8099966179468], [175.070318129058, -36.8100008553065], [175.070318169925, -36.8100008744234], [175.070318244962, -36.8100009136752], [175.070326785824, -36.8100056409829]], [[175.070308470401, -36.8099966179468], [175.070308371423, -36.8099965637897], [175.070308253249, -36.8099965460191], [175.070294157211, -36.8099947743967], [175.070294039183, -36.8099947620314], [175.070293920132, -36.8099947532891], [175.070279158983, -36.8099939233947], [175.070279120818, -36.8099939213555], [175.070279068111, -36.8099939204708], [175.070265314596, -36.809993837332], [175.070265280936, -36.8099938361156], [175.07025199371, -36.8099935862249], [175.070251961195, -36.8099935858899], [175.070239774745, -36.8099930464357], [175.070239641128, -36.8099930379471], [175.07023950174, -36.8099930232498], [175.070227287842, -36.8099915063572], [175.07022715391, -36.809991486157], [175.070226992725, -36.809991452912], [175.070213988307, -36.8099884274819], [175.070213826855, -36.8099883843271], [175.070213745338, -36.8099883542011], [175.070203179747, -36.8099838207759], [175.070194629699, -36.8099802085328], [175.070194542459, -36.8099801739999], [175.070194465569, -36.8099801492011], [175.07018676191, -36.8099778309116], [175.070186728032, -36.8099778215872], [175.0701768203, -36.8099749900828], [175.070176777386, -36.8099749782119], [175.070176726581, -36.8099749646758], [175.070166758514, -36.8099724316516], [175.070166722395, -36.8099724223663], [175.0701666863, -36.8099724139818], [175.070158371459, -36.8099705011054], [175.07015833534, -36.8099704918201], [175.07014456482, -36.8099671137942], [175.070144505052, -36.8099671004142], [175.070144422755, -36.80996708292], [175.070131141301, -36.8099644669909], [175.070131092834, -36.8099644570194], [175.07012144977, -36.8099627123808], [175.070121365329, -36.8099626985292], [175.070121313597, -36.8099626922196], [175.070111936396, -36.8099617460127], [175.070111817272, -36.8099617345676], [175.070105359238, -36.8099708717921]], [[175.069918639836, -36.810003167784], [175.069929514113, -36.8099970631704], [175.069929590279, -36.8099970194828], [175.069929670829, -36.8099969721137]], [[175.069918639836, -36.810003167784], [175.069941160039, -36.8099895192554], [175.069941224807, -36.8099894685558], [175.069947033988, -36.8099848311349], [175.069947149804, -36.8099848029804], [175.069947225578, -36.8099847863387]], [[175.069790836514, -36.8100040898432], [175.069790958, -36.810004105754], [175.069791004145, -36.8100041959823], [175.069788844333, -36.8100038694613]], [[175.069788844333, -36.8100038694613], [175.069790836514, -36.8100040898432]], [[175.069788844333, -36.8100038694613], [175.069775690784, -36.8100018821785]], [[175.069777776922, -36.8100026362996], [175.069792969605, -36.8100081275001], [175.069792995515, -36.8100081739168], [175.069794138733, -36.8100100846056]], [[175.069777776922, -36.8100026362996], [175.069788844333, -36.8100038694613]], [[175.069777256415, -36.8100025795672], [175.069794138733, -36.8100100846056]], [[175.069777256415, -36.8100025795672], [175.069777776922, -36.8100026362996]], [[175.069777256415, -36.8100025795672], [175.069775690784, -36.8100018821785]], [[175.069776922521, -36.8100025430195], [175.069795598889, -36.8100125260522]], [[175.069776922521, -36.8100025430195], [175.069777256415, -36.8100025795672]], [[175.069776922521, -36.8100025430195], [175.069775690784, -36.8100018821785]], [[175.069774780723, -36.8100023027099], [175.069774914688, -36.8100022408912], [175.069775690784, -36.8100018821785]], [[175.069775690784, -36.8100018821785], [175.069776595302, -36.810002504553], [175.069776922521, -36.8100025430195]], [[175.069775690784, -36.8100018821785], [175.069777776922, -36.8100026362996]], [[175.069775690784, -36.8100018821785], [175.069790836514, -36.8100040898432]], [[175.068384959658, -36.8100253696528], [175.068372761183, -36.8100241749677], [175.068372692622, -36.8100241680489], [175.068361310151, -36.8100227644824]], [[175.068384959658, -36.8100253696528], [175.068361310151, -36.8100227644824]], [[175.068361310151, -36.8100227644824], [175.068361180822, -36.8100227487066], [175.068361072713, -36.8100226883976], [175.068351001661, -36.8100168681512], [175.068350960624, -36.8100168427274], [175.068350892116, -36.8100167961503], [175.06833594488, -36.8100094257793]], [[175.070084574936, -36.809986585655], [175.070084455031, -36.8099865868418], [175.070075570669, -36.8099866261885]], [[175.070075570669, -36.8099866261885], [175.070084689535, -36.8099865539163]], [[175.070075570669, -36.8099866261885], [175.070075438416, -36.809986626689]], [[175.070075438416, -36.809986626689], [175.070098703887, -36.809982962422]], [[175.070075438416, -36.809986626689], [175.070091868331, -36.8099844505398], [175.070091969679, -36.8099844262423], [175.070098703887, -36.809982962422]], [[175.070075438416, -36.809986626689], [175.070099925284, -36.8099809087106]], [[175.070075438416, -36.809986626689], [175.070075312084, -36.8099865973433], [175.070066419994, -36.8099845602184], [175.070066303794, -36.8099845324988], [175.070039898608, -36.809972255082]], [[175.069771934531, -36.8099888921847], [175.069771955126, -36.8099889909697], [175.069773250238, -36.8099942527682], [175.069773273878, -36.8099943397831], [175.069773308601, -36.8099944220985], [175.06977483532, -36.8099977952366], [175.06977486286, -36.8099978605523], [175.069774885724, -36.809997918739], [175.069775785839, -36.8100003338849], [175.069775690784, -36.8100018821785]], [[175.069771934531, -36.8099888921847], [175.06976768975, -36.8099620900932]], [[175.070098703887, -36.809982962422], [175.07009882545, -36.809982939575]], [[175.07009882545, -36.809982939575], [175.070098904128, -36.8099828642979], [175.070101009505, -36.8099807951926], [175.070101085869, -36.8099807172519], [175.070099878292, -36.8099809951528]], [[175.069947293116, -36.8099847968796], [175.069950133911, -36.8099854783707]], [[175.069947293116, -36.8099847968796], [175.069950227575, -36.8099853352349], [175.069950782305, -36.8099853724432], [175.069951110415, -36.8099852775006], [175.069947293116, -36.8099847968796]], [[175.069947293116, -36.8099847968796], [175.069951219436, -36.8099852467605]], [[175.069947293116, -36.8099847968796], [175.069951305564, -36.8099851983929], [175.069957476494, -36.8099818399325]], [[175.069947225578, -36.8099847863387], [175.069947293116, -36.8099847968796]], [[175.069947225578, -36.8099847863387], [175.069947197504, -36.8099847012037]], [[175.070099878292, -36.8099809951528], [175.070075438416, -36.809986626689]], [[175.070099878292, -36.8099809951528], [175.07009882545, -36.809982939575]], [[175.070099925284, -36.8099809087106], [175.070099878292, -36.8099809951528]], [[175.070099925284, -36.8099809087106], [175.070101139437, -36.8099806252873], [175.070103482239, -36.8099763844101], [175.07010350146, -36.8099763489245], [175.07010351632, -36.8099763180214], [175.070103550745, -36.8099762227849], [175.070105329319, -36.8099709678514], [175.070105359238, -36.8099708717921]], [[175.069957476494, -36.8099818399325], [175.069947225578, -36.8099847863387]], [[175.069957476494, -36.8099818399325], [175.069957659784, -36.8099817366961], [175.06995776038, -36.8099816844713], [175.069957876637, -36.8099816310726], [175.06996352584, -36.8099791694817]], [[175.069957476494, -36.8099818399325], [175.069978056509, -36.8099759367431], [175.069988143628, -36.8099753573082], [175.069988182792, -36.8099753548236], [175.069997922485, -36.8099746525512], [175.069998073615, -36.809974645413], [175.069998236143, -36.8099746452868], [175.07000540645, -36.8099748070414], [175.070005533126, -36.8099748075395], [175.070005654447, -36.8099747756838]], [[175.06833594488, -36.8100094257793], [175.068335879006, -36.8100093521171]], [[175.06833594488, -36.8100094257793], [175.068323069774, -36.8100015813185]], [[175.06833594488, -36.8100094257793], [175.068322950116, -36.8100015500522], [175.068322826802, -36.8100015494939], [175.068298017001, -36.8100018955422], [175.068297894879, -36.810001897667]], [[175.06996352584, -36.8099791694817], [175.069947225578, -36.8099847863387]], [[175.06996352584, -36.8099791694817], [175.069963629138, -36.8099791343347], [175.069963733677, -36.8099791036726], [175.069969780491, -36.809977837498], [175.069969838435, -36.8099778247721], [175.069977865652, -36.8099759671057]], [[175.070051465847, -36.8099754407539], [175.070051346116, -36.8099754067867], [175.070039985556, -36.8099722788044]], [[175.069977865652, -36.8099759671057], [175.069957476494, -36.8099818399325]], [[175.069977958061, -36.8099759438652], [175.069977865652, -36.8099759671057]], [[175.070005654447, -36.8099747756838], [175.070016634081, -36.8099717093278]], [[175.070005654447, -36.8099747756838], [175.070010188833, -36.8099738720304], [175.070010311395, -36.8099738446597], [175.070010352558, -36.8099738331272], [175.070010396985, -36.8099738179327], [175.070016634081, -36.8099717093278]], [[175.070039985556, -36.8099722788044], [175.070051571595, -36.8099754965959], [175.070060108859, -36.8099802158739], [175.07006019539, -36.8099802657413], [175.070060231946, -36.8099802912426], [175.070066210151, -36.8099844683343], [175.070039898608, -36.809972255082]], [[175.070039985556, -36.8099722788044], [175.070039898608, -36.809972255082]], [[175.070105359238, -36.8099708717921], [175.070099925284, -36.8099809087106]], [[175.070105359238, -36.8099708717921], [175.070105337498, -36.8099707721259]], [[175.070105359238, -36.8099708717921], [175.0701055304, -36.8099633266956]], [[175.070105359238, -36.8099708717921], [175.070105648408, -36.8099632967001], [175.070111702576, -36.8099617627028], [175.070105359238, -36.8099708717921]], [[175.070105337498, -36.8099707721259], [175.070104381516, -36.809966532814], [175.070104357366, -36.8099664268806]], [[175.070105337498, -36.8099707721259], [175.070104365658, -36.8099663185797], [175.070104521222, -36.8099641455295], [175.070105432773, -36.8099634059079], [175.070105359238, -36.8099708717921]], [[175.070016634081, -36.8099717093278], [175.070016767531, -36.8099716700504], [175.070016907288, -36.8099716568011], [175.070027156223, -36.8099708843699], [175.070027327495, -36.8099708759796], [175.070027375745, -36.8099708778433], [175.07002746004, -36.8099708862897], [175.070039809758, -36.809972244011], [175.070039898608, -36.809972255082]], [[175.06976768975, -36.8099620900932], [175.069767660102, -36.809962154602], [175.06976761554, -36.8099622896722], [175.069765516869, -36.8099694780648], [175.069765483463, -36.8099696111382], [175.069765482645, -36.8099697472494], [175.06976572483, -36.8099758268382], [175.069765729036, -36.8099758997707], [175.069765735264, -36.8099759645561], [175.069766134923, -36.8099794005808], [175.06976768975, -36.8099620900932]], [[175.06976768975, -36.8099620900932], [175.069766148917, -36.8099795039871], [175.069766204098, -36.809979596762], [175.06977187611, -36.8099888039728], [175.069771934531, -36.8099888921847]], [[175.068467600058, -36.809953747991], [175.068467652438, -36.8099540282867], [175.068464244249, -36.80995954409], [175.068464188535, -36.8099596396965], [175.068464141663, -36.8099597306425], [175.068460004024, -36.8099682965356], [175.068459993474, -36.8099683210544], [175.068453976406, -36.809981772275], [175.068453959449, -36.8099818086222], [175.068453934965, -36.8099818568174], [175.068446628797, -36.8099959307375], [175.0684465753, -36.8099960254041], [175.068446537468, -36.8099960774367], [175.068429397887, -36.8100181178455], [175.068407563299, -36.8100296802591], [175.068385155283, -36.8100253914855], [175.068385068747, -36.8100253830769], [175.068384959658, -36.8100253696528]], [[175.068467600058, -36.809953747991], [175.068467656552, -36.8099538479541], [175.068467706057, -36.8099539381245], [175.068465614919, -36.8099430434876]], [[175.068464103513, -36.8099475258375], [175.068464134651, -36.8099474333626], [175.068465581758, -36.8099431441094]], [[175.068465581758, -36.8099431441094], [175.068464151848, -36.8099476142256], [175.068467600058, -36.809953747991]], [[175.068465614919, -36.8099430434876], [175.068465581758, -36.8099431441094]], [[175.068465614919, -36.8099430434876], [175.068467600058, -36.809953747991]], [[175.069888102706, -36.8099151706839], [175.069888204373, -36.809915116638], [175.069899398454, -36.809909066846]], [[175.069899398454, -36.809909066846], [175.069887980337, -36.8099152052616], [175.069875908744, -36.8099183474016], [175.069875866412, -36.8099183571517], [175.069875827441, -36.8099183668434], [175.069863054409, -36.8099213517505], [175.069862942954, -36.8099213753226], [175.069862872612, -36.8099213855604], [175.069850142472, -36.8099229663882], [175.069841736817, -36.8099240906644], [175.069841667596, -36.8099241008827], [175.069841615157, -36.8099241099075], [175.069831583122, -36.809925985348], [175.069831356485, -36.8099260190372], [175.069831131701, -36.8099260382734], [175.069819514172, -36.8099266452436], [175.069819289364, -36.8099266635788], [175.069819064993, -36.8099266981299], [175.069806363703, -36.8099290589804], [175.069806218805, -36.8099290894438], [175.069806066721, -36.8099291443675], [175.069793134521, -36.8099341689869], [175.069793052462, -36.8099342019614], [175.069792981873, -36.8099342446504], [175.069781838492, -36.8099409704295], [175.06978173921, -36.8099410298416], [175.069781671978, -36.8099411139323], [175.069773757992, -36.8099510056451], [175.069773686546, -36.8099510997235], [175.069773655487, -36.8099511534412], [175.06976768975, -36.8099620900932]], [[175.069899398454, -36.809909066846], [175.069899501193, -36.8099090109787], [175.069899557051, -36.809908920777], [175.069904896181, -36.8098998571247], [175.069905016427, -36.8098996188891], [175.069905101699, -36.8098993722495], [175.069899417512, -36.809868819662]], [[175.069848625845, -36.8098863376422], [175.069848548567, -36.8098862984291], [175.069839201762, -36.8098815274361]], [[175.069839201762, -36.8098815274361], [175.069848711794, -36.8098863658887], [175.069852872327, -36.8098876463027], [175.069839201762, -36.8098815274361]], [[175.069839201762, -36.8098815274361], [175.069852984166, -36.8098876786049], [175.069853097741, -36.8098876504895], [175.069858900895, -36.8098861190732], [175.069859017686, -36.809886085494], [175.069839012136, -36.8098814370022]], [[175.069839012136, -36.8098814370022], [175.069839077991, -36.8098814683025], [175.069839201762, -36.8098815274361]], [[175.069839012136, -36.8098814370022], [175.069859122739, -36.8098860322904], [175.06986965755, -36.8098804338172], [175.069882190887, -36.8098739596267], [175.069882325875, -36.809873894185], [175.069882452531, -36.8098738523222], [175.069893297756, -36.8098705819193], [175.069893333341, -36.8098705713853], [175.069899313021, -36.8098688521258], [175.069899417512, -36.809868819662]], [[175.068518833995, -36.8099006718368], [175.068509443714, -36.8099158149215], [175.068498376538, -36.8099226275834], [175.068498299323, -36.8099226739923], [175.0684982253, -36.8099227140364], [175.068484511713, -36.8099299449857], [175.06848447084, -36.8099299673282], [175.068484432185, -36.8099299887308], [175.068472501404, -36.8099368659895], [175.068472441824, -36.8099369012758], [175.068472403314, -36.8099369280837], [175.068472286052, -36.8099370274651], [175.068465699103, -36.8099429645105], [175.068465614919, -36.8099430434876]], [[175.068518833995, -36.8099006718368], [175.068518814084, -36.8099007650176], [175.068517262304, -36.8099079952476], [175.068517242418, -36.8099080893294], [175.068517169341, -36.809908164508], [175.068509600679, -36.8099156914153], [175.068509530745, -36.8099157584275], [175.068518833995, -36.8099006718368]], [[175.068514705474, -36.8098947076392], [175.068514812342, -36.8098947634631], [175.068514875315, -36.8098948543004], [175.068518779082, -36.809900588971], [175.068518833995, -36.8099006718368]], [[175.068514705474, -36.8098947076392], [175.068493124552, -36.8098826658906]], [[175.069899417512, -36.809868819662], [175.06991417296, -36.8098738506837], [175.069914143385, -36.8098739178953], [175.069908265522, -36.8098877002449], [175.06990822357, -36.8098878073293], [175.069899417512, -36.809868819662]], [[175.069899417512, -36.809868819662], [175.069899498794, -36.8098687578593]], [[175.069899417512, -36.809868819662], [175.06992238593, -36.8098624089196], [175.069914217197, -36.8098737868221], [175.069899417512, -36.809868819662]], [[175.069899417512, -36.809868819662], [175.069919021431, -36.8098601367315], [175.069917410894, -36.8098612679722]], [[175.069899498794, -36.8098687578593], [175.069903187902, -36.8098664349531], [175.069903223172, -36.8098664127076], [175.069907727008, -36.8098636673237]], [[175.069899498794, -36.8098687578593], [175.06991399402, -36.8098590904315], [175.06991822427, -36.8098537198045], [175.0699182773, -36.8098536494807], [175.069899498794, -36.8098687578593]], [[175.069899498794, -36.8098687578593], [175.069923371147, -36.8098451759466], [175.069923391536, -36.8098451422433], [175.069923409806, -36.8098451130834], [175.069928045857, -36.8098380373322], [175.06992808454, -36.8098379753699], [175.069928123079, -36.8098379080023], [175.069931223258, -36.8098322803521], [175.069931269081, -36.8098321921277], [175.069931290062, -36.8098320971254], [175.069932182097, -36.8098276778186], [175.06993219187, -36.8098276244714], [175.069932200497, -36.809827570243], [175.069932606008, -36.8098246889217], [175.069932611638, -36.809824648265], [175.069932618438, -36.8098246093905], [175.069933349746, -36.8098206732777], [175.069933368631, -36.8098205837197], [175.069933381959, -36.8098205375211], [175.069935278839, -36.8098150552037], [175.069935293335, -36.8098150107874], [175.069935305469, -36.8098149619056], [175.069936465113, -36.8098099908471], [175.069936478222, -36.8098099365406], [175.069937439286, -36.8098064155336], [175.069937466479, -36.8098063014958], [175.06993746815, -36.8098061554553], [175.069937308566, -36.8098012704597], [175.069937308357, -36.8098011794316]], [[175.068725694656, -36.8098890901197], [175.06871842569, -36.8098850543943], [175.06871832552, -36.8098849975527], [175.068718297569, -36.8098849169217], [175.068717596392, -36.8098828119593], [175.068717567514, -36.8098827385548]], [[175.068725694656, -36.8098890901197], [175.068717567514, -36.8098827385548]], [[175.069907727008, -36.8098636673237], [175.069899498794, -36.8098687578593]], [[175.069907799788, -36.8098636227938], [175.069907727008, -36.8098636673237]], [[175.068717567514, -36.8098827385548], [175.06871747738, -36.809882679736], [175.068711648882, -36.809879230928], [175.068711620436, -36.8098792151996], [175.068711589677, -36.8098791968075], [175.068704731722, -36.8098753558207], [175.068704664528, -36.8098753164314], [175.068704629166, -36.8098752936128], [175.068697876011, -36.809870681989], [175.068697790431, -36.8098706257948], [175.068697692914, -36.8098705842292], [175.068687621455, -36.8098664981286], [175.068687568191, -36.8098664765229], [175.068687484531, -36.8098664500384], [175.068674315631, -36.8098624746218], [175.068674244392, -36.8098624515262], [175.068674146949, -36.8098624126633], [175.06866106237, -36.8098568224423], [175.068660994323, -36.8098567929821], [175.068660956841, -36.809856774707]], [[175.069917410894, -36.8098612679722], [175.069899417512, -36.809868819662]], [[175.069917410894, -36.8098612679722], [175.069917229379, -36.8098613955129], [175.069899417512, -36.809868819662]], [[175.068493124552, -36.8098826658906], [175.068503820082, -36.8098896992306], [175.068504005808, -36.8098898113658], [175.068504205783, -36.8098899115361], [175.068514705474, -36.8098947076392]], [[175.068660956841, -36.809856774707], [175.068649928922, -36.8098510937148], [175.068649869935, -36.8098510677022], [175.068636937727, -36.809845516287]], [[175.068660956841, -36.809856774707], [175.068625453466, -36.8098415376866], [175.06861329582, -36.8098372778792], [175.068613136125, -36.8098372166655], [175.068612984055, -36.8098371472074], [175.068600788146, -36.8098310908629], [175.068600727893, -36.8098310594644], [175.068600665351, -36.8098310263032], [175.068586764021, -36.8098232844514], [175.068586729876, -36.8098232652169], [175.068586685454, -36.8098232389508], [175.068574948609, -36.8098162057125], [175.068574912127, -36.8098161829134], [175.068565836225, -36.8098105625823], [175.068565782355, -36.8098105184545]], [[175.069812919931, -36.8098339950952], [175.069812998827, -36.8098339279263], [175.069819215928, -36.8098287462314]], [[175.069819215928, -36.8098287462314], [175.069812859349, -36.8098340763662], [175.069808536022, -36.8098401948903], [175.069819215928, -36.8098287462314]], [[175.069819215928, -36.8098287462314], [175.069819290197, -36.8098286737352]], [[175.069819215928, -36.8098287462314], [175.069808476682, -36.8098402806462], [175.069808487145, -36.8098403778049], [175.06980938661, -36.8098480133178], [175.069819290197, -36.8098286737352]], [[175.069819290197, -36.8098286737352], [175.06980940058, -36.8098481158233], [175.069809455809, -36.8098482103999], [175.069815481827, -36.8098579098664], [175.069815518063, -36.8098579651163], [175.069815541296, -36.8098579953562], [175.069823357101, -36.8098678502286], [175.069823397649, -36.8098678990943], [175.069823439293, -36.8098679470396], [175.069829285091, -36.8098745338335], [175.069829348604, -36.8098746030294], [175.069829427512, -36.8098746611416], [175.069839012136, -36.8098814370022]], [[175.069819290197, -36.8098286737352], [175.069819403991, -36.8098286537278], [175.069827588005, -36.8098272079416], [175.069835091572, -36.8098258848632]], [[175.069835091572, -36.8098258848632], [175.069835213136, -36.8098258620166]], [[175.069835213136, -36.8098258620166], [175.069852728349, -36.8098132911857]], [[175.068636937727, -36.809845516287], [175.068660956841, -36.809856774707]], [[175.068636851511, -36.8098454781299], [175.068636937727, -36.809845516287]], [[175.069852728349, -36.8098132911857], [175.069835091572, -36.8098258848632]], [[175.069852728349, -36.8098132911857], [175.069852654104, -36.8098133645828], [175.069845342207, -36.8098205977839], [175.069845272323, -36.8098206665986], [175.069845179472, -36.8098207150831], [175.069835318213, -36.8098258097139], [175.069835213136, -36.8098258620166]], [[175.06985370799, -36.8098042998387], [175.069853734381, -36.8098044057331], [175.06985372492, -36.8098045122518], [175.069852742607, -36.8098131963005], [175.069852728349, -36.8098132911857]], [[175.069937308357, -36.8098011794316], [175.069937373444, -36.8098010989834], [175.069941343932, -36.8097961970507], [175.069941416668, -36.8097961092589], [175.069941510105, -36.8097960409353], [175.069950207578, -36.8097899787312]], [[175.069937308357, -36.8098011794316], [175.069950207578, -36.8097899787312]], [[175.069937308357, -36.8098011794316], [175.069950419901, -36.809789871384], [175.069961197203, -36.8097868680426], [175.069961279578, -36.8097868467795], [175.069961358639, -36.8097868273767], [175.069972924668, -36.8097842258015], [175.069972975939, -36.8097842149944], [175.069973013862, -36.8097842080249], [175.069973134547, -36.8097841942064], [175.069984271195, -36.8097830881608], [175.069984411024, -36.8097830776141], [175.069984551556, -36.8097830931931]], [[175.069950298629, -36.8097899050414], [175.069950207578, -36.8097899787312]], [[175.070005752877, -36.809787442335], [175.07000587139, -36.8097874727182], [175.070005995727, -36.8097874696517], [175.07001119583, -36.8097872285818], [175.070011317854, -36.8097872228517], [175.069984551556, -36.8097830931931]], [[175.068565782355, -36.8098105184545], [175.068565694631, -36.8098104659027], [175.068555507878, -36.8098028450771], [175.068555466647, -36.8098028124463], [175.068555442586, -36.8098027930363], [175.06854516496, -36.8097937947948]], [[175.068565782355, -36.8098105184545], [175.068535919175, -36.8097832364648], [175.068535853156, -36.8097831573975], [175.06853581127, -36.8097831004428], [175.068529345964, -36.8097737735815], [175.068529315598, -36.8097737281434], [175.068529284014, -36.8097736791212], [175.068524060613, -36.8097652247434], [175.068524032487, -36.8097651792663], [175.068524002145, -36.8097651347291], [175.068518088195, -36.809756552665]], [[175.069995354296, -36.8097846968744], [175.069995222532, -36.8097846739323], [175.069995091938, -36.8097846527725], [175.069984551556, -36.8097830931931]], [[175.069984551556, -36.8097830931931], [175.070005752877, -36.809787442335]], [[175.069984551556, -36.8097830931931], [175.070002181265, -36.8097862616302], [175.070002310104, -36.8097863008467], [175.070005752877, -36.809787442335]], [[175.069984551556, -36.8097830931931], [175.070011425317, -36.8097871759151]], [[175.069984551556, -36.8097830931931], [175.070016432183, -36.8097850040104], [175.070016545491, -36.8097849659851], [175.070022098253, -36.8097832108911], [175.07002214268, -36.8097831956967], [175.070031267115, -36.8097801264944], [175.070031302651, -36.8097801141586], [175.070031350342, -36.8097800953021], [175.070031478705, -36.8097800335807], [175.070038619184, -36.809776383335], [175.070038721947, -36.8097763283685]], [[175.068440629953, -36.8098083059575], [175.068440508963, -36.8098082251427], [175.068424524328, -36.8097977921736]], [[175.069847877741, -36.8097835145247], [175.06985370799, -36.8098042998387]], [[175.069847877741, -36.8097835145247], [175.069850871445, -36.8097929125759], [175.069850887441, -36.8097929654743], [175.069850904849, -36.8097930291638], [175.06985370799, -36.8098042998387]], [[175.070150875904, -36.8097759453642], [175.070151008554, -36.8097758763576], [175.070177855868, -36.8097611240412]], [[175.070038721947, -36.8097763283685], [175.070038810708, -36.8097762529159], [175.070042928563, -36.809772577793], [175.070043065262, -36.8097724510325], [175.070046177972, -36.8097694531678], [175.070046267441, -36.8097693623806], [175.070046285856, -36.8097693386261], [175.070046303127, -36.80976931399], [175.070046319156, -36.8097692848692], [175.070046331727, -36.8097692522033], [175.070046344153, -36.8097692141321], [175.070046351903, -36.809769168932], [175.070046355292, -36.8097691283142], [175.070046355588, -36.8097690976647], [175.070046354642, -36.8097690625303], [175.070046338706, -36.8097688870534], [175.070046194791, -36.8097676637854], [175.070041302518, -36.8097663077926], [175.070041182885, -36.8097662774289], [175.070038721947, -36.8097763283685]], [[175.070038721947, -36.8097763283685], [175.070034294136, -36.8097650823847], [175.070032572404, -36.8097658721662], [175.070032439536, -36.8097659330647], [175.070038721947, -36.8097763283685]], [[175.070038721947, -36.8097763283685], [175.070033897737, -36.8097634741498]], [[175.070038721947, -36.8097763283685], [175.070033697794, -36.8097632919628]], [[175.070038721947, -36.8097763283685], [175.070033837918, -36.8097632507667], [175.070033825452, -36.8097632041159]], [[175.070038721947, -36.8097763283685], [175.070040991779, -36.8097580581557], [175.070041134172, -36.8097579763613], [175.070052729645, -36.8097517654424], [175.07006445882, -36.809745649535], [175.070071451041, -36.8097419883495], [175.070071580232, -36.809741915798], [175.07007171247, -36.8097418314765], [175.070079515134, -36.8097365067902], [175.070079626181, -36.809736426443], [175.070079738033, -36.8097363343647], [175.070089788272, -36.8097276032645], [175.070089848219, -36.8097275400306], [175.070089924413, -36.8097274557837]], [[175.068424524328, -36.8097977921736], [175.068453733859, -36.8098203212684], [175.068453788044, -36.8098203771078], [175.068453878683, -36.8098204963055], [175.068462264396, -36.8098322917769], [175.068462338035, -36.8098324040599], [175.068462403831, -36.8098325164794], [175.068469833128, -36.8098463421072], [175.068469882899, -36.8098464421873], [175.068469929649, -36.8098465549382], [175.068474455344, -36.8098584058582], [175.068474499635, -36.8098585105401], [175.068474513806, -36.8098585373327], [175.068474544294, -36.8098585872753], [175.068481759332, -36.8098698659379], [175.06848178965, -36.8098699095743], [175.068481861417, -36.8098699939495], [175.068492948207, -36.8098825274543], [175.068493023238, -36.8098826081674], [175.068493124552, -36.8098826658906]], [[175.06854516496, -36.8097937947948], [175.068565782355, -36.8098105184545]], [[175.06854516496, -36.8097937947948], [175.068545075461, -36.8097937179387]], [[175.070177855868, -36.8097611240412], [175.07013738046, -36.8097806148009], [175.070137297038, -36.8097806387863], [175.070137124229, -36.8097806733414], [175.070121404211, -36.8097833607917], [175.070121369625, -36.8097833668018], [175.070101828888, -36.8097869445776], [175.070101677293, -36.8097869760593], [175.070101618326, -36.8097869924083], [175.070101588343, -36.8097870028448], [175.070083041726, -36.80979336456], [175.07008298288, -36.8097933854135], [175.070082918505, -36.8097934090671], [175.070067773928, -36.8097993167649], [175.070067729574, -36.8097993346621], [175.070067670849, -36.8097993600199], [175.070054687395, -36.809805102097], [175.070054651956, -36.8098051180363], [175.070054616467, -36.8098051321738], [175.070039740533, -36.8098112758383], [175.070039701757, -36.809811292737], [175.070023680009, -36.8098182179547], [175.070023625693, -36.8098182405319], [175.070012484938, -36.8098225237512], [175.07001240836, -36.8098225521238], [175.070012329493, -36.8098225787337], [175.070000655828, -36.80982638633], [175.070000589187, -36.8098264091217], [175.070000531461, -36.8098264299556], [175.069984278853, -36.8098324831202], [175.06998416004, -36.8098325248465], [175.069984037769, -36.8098325630279], [175.069965627982, -36.8098378047247], [175.069965471246, -36.8098378534205], [175.069965366974, -36.8098378939923], [175.069949406345, -36.8098448415698], [175.069949287896, -36.8098448968093], [175.069949208466, -36.809844944159], [175.069935077962, -36.8098538364273], [175.069935042692, -36.8098538586728], [175.069935001942, -36.8098538855202], [175.069917410894, -36.8098612679722]], [[175.070177855868, -36.8097611240412], [175.070164496392, -36.8097688438314], [175.070164455545, -36.8097688670754]], [[175.070177855868, -36.8097611240412], [175.07017794979, -36.8097610737351], [175.070178057738, -36.8097610448161], [175.070189731802, -36.8097581682432], [175.070189794179, -36.8097581536373], [175.070189853292, -36.8097581426935], [175.07019002549, -36.8097581270764], [175.070201136077, -36.8097574270514], [175.07020116852, -36.8097574246838], [175.070201217719, -36.8097574202217], [175.07021023329, -36.8097565935447], [175.070210303704, -36.8097565860093], [175.070210367396, -36.809756578591], [175.070222389276, -36.8097550046517], [175.070222445077, -36.8097549955682], [175.070222556556, -36.8097549728968], [175.070235783718, -36.8097519124447], [175.070235869526, -36.8097518938255], [175.070235957624, -36.8097518769691], [175.070248527089, -36.8097496589724], [175.070248705427, -36.809749621617], [175.070248819831, -36.8097495826711], [175.070263578204, -36.8097440692374], [175.070263618149, -36.8097440541209], [175.070263651397, -36.8097440400223], [175.070277486323, -36.8097381587136], [175.070277619191, -36.8097380978148], [175.070277698596, -36.8097380495641], [175.07029033917, -36.8097300241212], [175.070290382112, -36.8097299954329], [175.070306830816, -36.8097189897488], [175.070306949827, -36.8097189137692], [175.070307070176, -36.8097188458779], [175.070327253707, -36.8097081726205], [175.070327314454, -36.8097081391156], [175.070327377369, -36.8097081028689], [175.070340726763, -36.8097000930163], [175.070374216718, -36.8096845174417]], [[175.069833599263, -36.8097483283548], [175.069833626236, -36.8097484558704]], [[175.069833599263, -36.8097483283548], [175.069831207237, -36.8097360906316]], [[175.069831207237, -36.8097360906316], [175.069831216478, -36.8097362256664], [175.069833599263, -36.8097483283548]], [[175.069831207237, -36.8097360906316], [175.069838147825, -36.8097598137936], [175.06984342853, -36.8097726799009], [175.069847852418, -36.809783448269], [175.069847869219, -36.8097834894365], [175.069847877741, -36.8097835145247]], [[175.068518088195, -36.809756552665], [175.06851805683, -36.8097565117508], [175.068512364632, -36.8097492137922], [175.068512297322, -36.8097491284382], [175.068512186216, -36.8097490817011], [175.068501089789, -36.8097445609646], [175.068500983237, -36.8097445168522], [175.068518088195, -36.809756552665]], [[175.068518088195, -36.809756552665], [175.068500864089, -36.8097445045046], [175.06848291207, -36.8097426852973], [175.06848285252, -36.8097426800244], [175.068482794163, -36.8097426774346], [175.068482619506, -36.8097426849803], [175.06846701502, -36.8097437947212], [175.068466869686, -36.8097438089671], [175.068466726714, -36.8097438276783], [175.068455637313, -36.8097455654757], [175.068445786542, -36.8097470545906], [175.068445662689, -36.8097470756731], [175.068445545069, -36.8097471200811]], [[175.068414517053, -36.8097576464325], [175.068420035831, -36.8097564598263]], [[175.068414517053, -36.8097576464325], [175.068424196998, -36.8097549327154]], [[175.068414517053, -36.8097576464325], [175.068414398996, -36.8097576746245], [175.068414314148, -36.8097576039965], [175.068402166974, -36.8097470681996], [175.068402078523, -36.8097469886213], [175.068401994408, -36.8097469035596], [175.068393535069, -36.8097379944413], [175.068393439435, -36.8097378978631], [175.06839333608, -36.8097378059257], [175.068382704316, -36.8097288507852], [175.06838254061, -36.8097287238458], [175.068382364872, -36.8097286079314], [175.068372361136, -36.8097225386559], [175.068372325653, -36.8097225113328], [175.068372260239, -36.8097224547875]], [[175.070089924413, -36.8097274557837], [175.070097064498, -36.8097197127176], [175.070097146124, -36.809719622067]], [[175.070089924413, -36.8097274557837], [175.070097195919, -36.809719514846], [175.070101171798, -36.8097103189994], [175.070104824339, -36.809701728151], [175.07010486244, -36.8097016445675], [175.070104920951, -36.8097015696415], [175.070111232149, -36.8096935985582], [175.070111317281, -36.8096935132544], [175.070118074693, -36.8096870855452], [175.07011811408, -36.8096870497084], [175.070125947829, -36.8096803824354], [175.070125987264, -36.8096803484004], [175.070133262, -36.8096738594058], [175.070133354927, -36.8096737721636], [175.070133444323, -36.8096736786737], [175.070141587188, -36.8096646716379], [175.070141658047, -36.8096645973983], [175.070141726859, -36.8096645304047], [175.070149039771, -36.8096576694069], [175.070149119666, -36.8096575977138], [175.070149216924, -36.8096575464483]], [[175.068420035831, -36.8097564598263], [175.06841952499, -36.809756637259], [175.068419440545, -36.8097566648662], [175.068419301298, -36.8097566970322], [175.068414517053, -36.8097576464325]], [[175.068420035831, -36.8097564598263], [175.068424909255, -36.8097554088292]], [[175.068445545069, -36.8097471200811], [175.068424196973, -36.809755140016], [175.068423413886, -36.8097552807258], [175.068423282942, -36.8097553298721], [175.068420035831, -36.8097564598263]], [[175.068445545069, -36.8097471200811], [175.068425758335, -36.8097549713431], [175.068424890608, -36.8097551324531], [175.068445545069, -36.8097471200811]], [[175.070348992147, -36.8096952190176], [175.070348859182, -36.809695276313]], [[175.070348992147, -36.8096952190176], [175.070374216718, -36.8096845174417]], [[175.068372260239, -36.8097224547875], [175.068367295577, -36.8097188241903], [175.068367187304, -36.809718716115], [175.068364934456, -36.8097163064687], [175.068364858402, -36.8097162293785], [175.068364777939, -36.8097161550689], [175.068356547278, -36.8097088706266]], [[175.070374216718, -36.8096845174417], [175.070361870353, -36.8096898572898], [175.070361840443, -36.809689870429], [175.070348992147, -36.8096952190176]], [[175.070374216718, -36.8096845174417], [175.070374339697, -36.8096844639255], [175.070374478162, -36.8096844443891]], [[175.070374478162, -36.8096844443891], [175.070397273016, -36.8096815390481]], [[175.070397273016, -36.8096815390481], [175.070387277512, -36.8096824386872], [175.07038716238, -36.8096824506068], [175.070387052947, -36.8096824660323], [175.070374478162, -36.8096844443891]], [[175.070397491372, -36.8096814892785], [175.070397385689, -36.8096815190596], [175.070397273016, -36.8096815390481]], [[175.070397491372, -36.8096814892785], [175.070407774296, -36.8096789009958]], [[175.070407774296, -36.8096789009958], [175.07040166779, -36.8096799474124], [175.070401482754, -36.809679985786], [175.070401362821, -36.8096800275322], [175.070397491372, -36.8096814892785]], [[175.070407774296, -36.8096789009958], [175.07041418835, -36.8096772877096]], [[175.07041418835, -36.8096772877096], [175.070409447336, -36.8096785924523], [175.070409288117, -36.8096786321788], [175.070409124223, -36.8096786647764], [175.070407774296, -36.8096789009958]], [[175.07041418835, -36.8096772877096], [175.070426365068, -36.8096742220982]], [[175.070426365068, -36.8096742220982], [175.070419076113, -36.8096759380496], [175.07041901376, -36.8096759535565], [175.070418954769, -36.8096759690048], [175.07041418835, -36.8096772877096]], [[175.068356547278, -36.8097088706266], [175.068372260239, -36.8097224547875]], [[175.068356547278, -36.8097088706266], [175.068356478431, -36.8097088114371], [175.068356397551, -36.8097087632726], [175.068343654239, -36.8097014825393], [175.068343570022, -36.8097014353342], [175.068343517781, -36.8097014101053]], [[175.070467409233, -36.8096694414396], [175.070440388171, -36.8096760346334], [175.070440260085, -36.8096760233448], [175.070432230327, -36.8096751636533], [175.070432183078, -36.8096751572658], [175.070432117805, -36.809675147587], [175.070426586756, -36.8096742128292], [175.070426474185, -36.8096741949612], [175.070426365068, -36.8096742220982]], [[175.070467409233, -36.8096694414396], [175.070448974314, -36.8096761608862]], [[175.070467409233, -36.8096694414396], [175.070457603371, -36.8096743017186], [175.070457486091, -36.8096743587408], [175.070457356904, -36.8096743898327], [175.070449230322, -36.8096761356973], [175.070449105447, -36.8096761604049], [175.070467409233, -36.8096694414396]], [[175.068343517781, -36.8097014101053], [175.068330662894, -36.8096955229266], [175.068330569568, -36.8096954704721], [175.068320875746, -36.8096897959792]], [[175.068343517781, -36.8097014101053], [175.068320875746, -36.8096897959792]], [[175.068343517781, -36.8097014101053], [175.068320753936, -36.8096896430741], [175.068313086504, -36.8096483894664], [175.068313065965, -36.8096482510228], [175.068313065073, -36.80964817623], [175.068313474147, -36.8096410515084], [175.068313477348, -36.8096409622235]], [[175.070491683623, -36.8096592944674], [175.070491770551, -36.8096592758285], [175.070491853022, -36.8096592581686], [175.070505919633, -36.8096564444439]], [[175.069823395988, -36.8096704638552], [175.069823449896, -36.8096703845031], [175.069829704105, -36.8096612535463]], [[175.070505919633, -36.8096564444439], [175.070481879114, -36.8096617915045], [175.07048172815, -36.8096618464096], [175.070475826187, -36.8096641610079], [175.070475678803, -36.8096642239624], [175.070475616936, -36.8096642574869], [175.070475587147, -36.8096642751305], [175.070467549385, -36.8096693596837], [175.070467460066, -36.8096694144164], [175.070467409233, -36.8096694414396]], [[175.068320875746, -36.8096897959792], [175.068320774505, -36.8096897409585]], [[175.070149216924, -36.8096575464483], [175.070159092408, -36.8096520243259], [175.070159169864, -36.8096519869249], [175.070170636937, -36.8096466696208]], [[175.070149216924, -36.8096575464483], [175.070170863723, -36.8096465998762], [175.070185108401, -36.8096446122885], [175.070185158648, -36.8096446051043], [175.07018519998, -36.809644599878], [175.070197795726, -36.8096431917019], [175.070197898485, -36.8096431781954], [175.070197960984, -36.809643168094]], [[175.069829704105, -36.8096612535463], [175.069829768829, -36.809661159585]], [[175.069829704105, -36.8096612535463], [175.069823393933, -36.8096705540215], [175.069823229773, -36.8096770282466], [175.069829768829, -36.809661159585]], [[175.069829768829, -36.809661159585], [175.069823230176, -36.8096771264817], [175.069823277442, -36.8096772166905], [175.069827726229, -36.8096852888242], [175.069827755646, -36.8096853405877], [175.069827790859, -36.8096853994607], [175.069832565806, -36.8096929296389], [175.069832613925, -36.8096930099184], [175.069832639782, -36.8096930959934], [175.069835269657, -36.8097019704132], [175.06983529678, -36.809702061874], [175.069835276871, -36.809702155055], [175.069833292371, -36.8097107105425], [175.069833284403, -36.8097107476347], [175.069831119036, -36.8097213693575], [175.069831111577, -36.8097214253682], [175.069831108082, -36.8097215453026], [175.069831189615, -36.8097359773741], [175.069831207237, -36.8097360906316]], [[175.070170636937, -36.8096466696208], [175.070149216924, -36.8096575464483]], [[175.070170636937, -36.8096466696208], [175.070170742039, -36.8096466182188]], [[175.070197960984, -36.809643168094], [175.070205048114, -36.8096418243044], [175.070205188554, -36.8096417948195], [175.070205238606, -36.8096417804283], [175.070205274167, -36.8096417689933], [175.070213833018, -36.8096388430201]], [[175.070197960984, -36.809643168094], [175.070224767142, -36.8096341307547], [175.070224888049, -36.8096340835838]], [[175.070197960984, -36.809643168094], [175.070235215946, -36.8096282128832], [175.070235284439, -36.8096281756382], [175.070235356584, -36.8096281491452]], [[175.070213833018, -36.8096388430201], [175.070197960984, -36.809643168094]], [[175.070213833018, -36.8096388430201], [175.070213906381, -36.8096388201112]], [[175.070586481122, -36.8096308592235], [175.070569551118, -36.8096488782672], [175.070569435619, -36.8096489181338], [175.070555299115, -36.8096534644892], [175.070555217958, -36.8096534893367], [175.07055513427, -36.8096535034127], [175.070537434778, -36.8096563155266], [175.07053727729, -36.8096563362958], [175.070537132738, -36.8096563379123], [175.070522012907, -36.8096560884256], [175.070521943395, -36.8096560878338], [175.070521881775, -36.809656088907], [175.070506119622, -36.8096564202306], [175.070506018837, -36.8096564237886], [175.070505919633, -36.8096564444439]], [[175.070586481122, -36.8096308592235], [175.070578746614, -36.8096432057197], [175.070569655952, -36.8096488169551], [175.070586481122, -36.8096308592235]], [[175.070586481122, -36.8096308592235], [175.070586463917, -36.8096309694824], [175.070585827143, -36.8096351680344], [175.070585813885, -36.8096352583957], [175.070585755156, -36.8096353252139], [175.070583048114, -36.8096384016503], [175.070578937385, -36.8096430473724], [175.070578854566, -36.8096431353402], [175.070586481122, -36.8096308592235]], [[175.070584895155, -36.8096235403159], [175.070584893638, -36.8096236088415]], [[175.070584895155, -36.8096235403159], [175.070586134914, -36.8095994097287]], [[175.070235356584, -36.8096281491452], [175.07026168453, -36.8096193355378], [175.07026178254, -36.8096193121995], [175.070276532862, -36.8096161224677], [175.070276605322, -36.8096161076862], [175.070276648823, -36.8096160997182], [175.070291891111, -36.8096138631084], [175.070292029625, -36.8096138453738], [175.07029215713, -36.8096138350415], [175.07030804952, -36.8096128876899], [175.070308205179, -36.8096128822751], [175.070308366634, -36.8096128839697], [175.070321320833, -36.8096132982846], [175.07032136348, -36.8096133002458], [175.070321406127, -36.8096133022069], [175.070333761822, -36.8096140099538], [175.070333815721, -36.8096140135215], [175.070347068198, -36.8096150147958], [175.070347113134, -36.8096150185197], [175.070360217652, -36.8096162278669], [175.070360256987, -36.8096162316883], [175.07036029184, -36.8096162355879], [175.070375605584, -36.8096179832912], [175.070375678651, -36.8096179910317], [175.070375749428, -36.8096179970094], [175.070391872432, -36.8096191609918], [175.070391955485, -36.8096191649531], [175.070410017732, -36.8096193334658], [175.070410130915, -36.8096193323958], [175.070410239154, -36.8096193142871]], [[175.07024788607, -36.8096234072912], [175.070247775028, -36.8096234461785], [175.070247659601, -36.8096234887475], [175.070235356584, -36.8096281491452]], [[175.070410239154, -36.8096193142871], [175.070426053946, -36.8096163601649], [175.070426165668, -36.8096163465021], [175.070432735555, -36.8096156498314]], [[175.070410239154, -36.8096193142871], [175.070432735555, -36.8096156498314]], [[175.070046186355, -36.8096229360573], [175.070046279326, -36.8096228920769], [175.070062274341, -36.8096152255485]], [[175.070432735555, -36.8096156498314], [175.070442539017, -36.8096146120286]], [[175.070432735555, -36.8096156498314], [175.07045894936, -36.8096113798418], [175.070458995053, -36.8096113700329], [175.07045905078, -36.8096113582466], [175.070474588848, -36.8096077852351], [175.070474681257, -36.8096077619943], [175.070474724636, -36.8096077495218], [175.070488303801, -36.8096034436174], [175.070488417109, -36.8096034055917], [175.0704885112, -36.8096033615915], [175.070499483841, -36.809598041151], [175.070499564658, -36.8095980036912], [175.070499645523, -36.8095979680331], [175.070508850509, -36.8095941457037], [175.070508951322, -36.8095941015865], [175.070509024592, -36.8095940336138]], [[175.070442539017, -36.8096146120286], [175.070410239154, -36.8096193142871]], [[175.07044265069, -36.809614596564], [175.070442539017, -36.8096146120286]], [[175.070062274341, -36.8096152255485], [175.070046080647, -36.8096229649372], [175.070029377377, -36.8096271413274], [175.070029255935, -36.8096271686787], [175.07002912831, -36.8096271745063], [175.070014853551, -36.8096275041988], [175.070014749307, -36.8096275042114], [175.070014659483, -36.8096274985652], [175.070002428183, -36.8096264569389], [175.069986198701, -36.8096252514952], [175.069986089807, -36.8096252452797], [175.069985981591, -36.8096252642888], [175.069968067362, -36.809628510881], [175.069967975758, -36.8096285223905], [175.069952140593, -36.8096304294908], [175.069952057831, -36.8096304363398], [175.069951895279, -36.8096304355651], [175.069937047886, -36.8096300631889], [175.069936969412, -36.8096300627528], [175.069936892081, -36.809630063198], [175.069924107085, -36.8096303128602], [175.06992406227, -36.8096303136406], [175.069924015263, -36.8096303162617], [175.069911356834, -36.8096308953987], [175.069911239413, -36.8096309055551], [175.069911071914, -36.8096309292017], [175.06989534598, -36.8096335626465], [175.069895229995, -36.8096335844948], [175.069895115251, -36.809633610828], [175.069880478415, -36.8096371860976], [175.069880433891, -36.8096371976886], [175.069867981574, -36.8096404356858], [175.069867906019, -36.8096404604352], [175.069867800554, -36.8096404983238], [175.069853655796, -36.8096455305432], [175.069853517496, -36.8096455978452], [175.069841304847, -36.8096519916402], [175.069841167934, -36.8096520688325], [175.069841099732, -36.8096521168878], [175.069829860902, -36.8096610822722], [175.069829768829, -36.809661159585]], [[175.068319687179, -36.8096420466034], [175.068313477348, -36.8096409622235]], [[175.068313477348, -36.8096409622235], [175.068313451711, -36.8096408842561]], [[175.068313451711, -36.8096408842561], [175.0683110881, -36.8096343584742], [175.068311053845, -36.8096342518149], [175.068311023731, -36.8096341324653], [175.06830928934, -36.8096259968208], [175.068308051214, -36.809619891293]], [[175.068313451711, -36.8096408842561], [175.068304190693, -36.80961876153]], [[175.070586134914, -36.8095994097287], [175.070585066236, -36.8096107514311], [175.070585060408, -36.8096108263409], [175.070585058988, -36.80961089847], [175.070584895155, -36.8096235403159]], [[175.070586134914, -36.8095994097287], [175.070584907831, -36.8096236779947], [175.070586461356, -36.8096307496087], [175.070586481122, -36.8096308592235]], [[175.070586134914, -36.8095994097287], [175.070586142085, -36.8095993014473], [175.070586143747, -36.809599238327], [175.070585393693, -36.8095897038737], [175.070584728681, -36.8095794982699], [175.070584722525, -36.8095794361871], [175.070584716393, -36.8095793750052], [175.070583554981, -36.8095707147719], [175.070583548045, -36.8095706653209], [175.070581801888, -36.8095603127088], [175.070581788718, -36.8095602399325], [175.070581759961, -36.8095601710329], [175.070576541298, -36.8095479059503], [175.070576505842, -36.8095478380688], [175.070576424188, -36.8095477196176], [175.070570125351, -36.8095391714016], [175.070570053364, -36.8095390789198], [175.070553893738, -36.8095316452242]], [[175.070509024592, -36.8095940336138], [175.070518172215, -36.8095864592511], [175.070518252207, -36.8095863911612], [175.070518312836, -36.8095863116917], [175.070524648644, -36.8095774253343], [175.070509024592, -36.8095940336138]], [[175.070509024592, -36.8095940336138], [175.070524709128, -36.8095773404595], [175.070524731228, -36.8095772454376], [175.070526613237, -36.8095686331399], [175.070526633121, -36.8095685390579], [175.070526604877, -36.8095684476168], [175.07052345009, -36.8095584818633], [175.070523404774, -36.8095583808052], [175.070519639892, -36.8095504833562], [175.070519599324, -36.8095503921298], [175.070519566744, -36.809550306172], [175.070516961698, -36.8095431050582], [175.070516920062, -36.809542974193], [175.070516913344, -36.80954293285], [175.070516907115, -36.8095428680645], [175.070516501182, -36.8095367453633], [175.07051649744, -36.8095366480876]], [[175.068308051214, -36.809619891293], [175.068313451711, -36.8096408842561]], [[175.068308051214, -36.809619891293], [175.068308029574, -36.8096197952299]], [[175.068308029574, -36.8096197952299], [175.068307933862, -36.8096197374091], [175.06830360199, -36.8096171701543], [175.068304271991, -36.8096187835495]], [[175.068304271991, -36.8096187835495], [175.068313451711, -36.8096408842561]], [[175.068304271991, -36.8096187835495], [175.068308029574, -36.8096197952299]], [[175.068304190693, -36.80961876153], [175.068304271991, -36.8096187835495]], [[175.068304190693, -36.80961876153], [175.068303502941, -36.8096171132929], [175.06830338423, -36.8096171171609], [175.068297082286, -36.8096173998597], [175.06829696808, -36.8096174045507], [175.068296879067, -36.809617345712], [175.068285817946, -36.8096100537296], [175.068285727812, -36.8096099949104], [175.06828561931, -36.8096099616474], [175.068262086304, -36.8096029335281], [175.068261960802, -36.8096028933503], [175.068261850356, -36.8096028294767], [175.068210837545, -36.8095718568021], [175.068210744195, -36.8095718034466], [175.068210780182, -36.8095718911484], [175.068244010984, -36.8096478490845], [175.068244045438, -36.8096479214908], [175.068244094361, -36.80964799004], [175.06831315998, -36.8097389242554], [175.068313224928, -36.8097390051441], [175.068313321687, -36.8097390602428], [175.068363524946, -36.8097664354282], [175.068363602344, -36.8097664791467], [175.068363672995, -36.8097665220814], [175.068377907192, -36.8097754298642], [175.068377944795, -36.8097754526438], [175.06839090634, -36.8097832198857], [175.068391014498, -36.8097832819964], [175.068391078112, -36.8097833133365], [175.068406592742, -36.8097901934332], [175.06840663132, -36.809790210788], [175.068424374087, -36.8097977073613], [175.068424455772, -36.8097977437947], [175.068424524328, -36.8097977921736]], [[175.068303177909, -36.8096184889315], [175.068304190693, -36.80961876153]], [[175.07051649744, -36.8095366480876], [175.070537700074, -36.8095294387838], [175.07053782268, -36.8095294546744], [175.070553622224, -36.8095315940726], [175.070553794466, -36.8095316217168], [175.070553893738, -36.8095316452242]], [[175.070516587539, -36.8095365807231], [175.07051649744, -36.8095366480876]], [[175.070516587539, -36.8095365807231], [175.070523188974, -36.8095316879257], [175.070523285698, -36.8095316168405]], [[175.070516587539, -36.8095365807231], [175.07052341296, -36.8095315974991], [175.070537578366, -36.8095294562259], [175.07051649744, -36.8095366480876]], [[175.070563768671, -36.8095344258949], [175.070563661386, -36.809534396218], [175.070553893738, -36.8095316452242]], [[175.070553893738, -36.8095316452242], [175.070563853277, -36.8095344875126], [175.070569954925, -36.8095390031222], [175.070553893738, -36.8095316452242]], [[175.070135871847, -36.8094475225277], [175.070135864935, -36.8094474739777]], [[175.070135864935, -36.8094474739777], [175.070132532868, -36.8094310489465]], [[175.070457533624, -36.809434993977], [175.070445632083, -36.8094371634082], [175.070445751717, -36.8094371937716], [175.070445874424, -36.8094371718057], [175.070457533624, -36.809434993977]], [[175.070457654066, -36.8094349711492], [175.070457533624, -36.809434993977]], [[175.070457654066, -36.8094349711492], [175.070457755732, -36.8094349171028], [175.070465641352, -36.8094307599388], [175.070465693281, -36.8094307319951], [175.070465752932, -36.8094306994105]], [[175.070457654066, -36.8094349711492], [175.070434518683, -36.8094342618918], [175.070434434145, -36.8094342444368], [175.07041851208, -36.8094312175688], [175.070418414001, -36.8094311967444], [175.07041836887, -36.8094311858135], [175.070401353979, -36.8094264546826], [175.070401241384, -36.8094264359136]], [[175.070465752932, -36.8094306994105], [175.07048184997, -36.8094222045533]], [[175.070337458413, -36.8094316179821], [175.070337594662, -36.8094315993856], [175.070345628905, -36.8094304211563]], [[175.070345628905, -36.8094304211563], [175.070345756191, -36.809430402716]], [[175.070345628905, -36.8094304211563], [175.070337316882, -36.8094316069274], [175.070327685274, -36.8094306597596]], [[175.070327685274, -36.8094306597596], [175.070345756191, -36.809430402716]], [[175.070327685274, -36.8094306597596], [175.07032756973, -36.8094306563641], [175.070327472994, -36.809430602168], [175.070317061017, -36.8094245699107], [175.07031700527, -36.809424539336], [175.070316943848, -36.8094245061562], [175.070304544523, -36.8094180578572], [175.070304434173, -36.8094179975891], [175.070304362376, -36.8094179537743], [175.070293703684, -36.8094108766932], [175.070293649033, -36.809410845198], [175.070283139294, -36.8094048452847], [175.0702830881, -36.8094048173345], [175.070283056293, -36.8094048016649], [175.070282927091, -36.8094047489355], [175.070275227517, -36.8094018312121], [175.070275091496, -36.8094017749962], [175.070274998193, -36.8094017234442], [175.070267223503, -36.8093971405164], [175.070267134586, -36.8093970852828], [175.070267075384, -36.8093970097029], [175.070260547529, -36.8093881968694], [175.070260436605, -36.8093880320599], [175.070260342243, -36.8093878579489], [175.070255513503, -36.8093778321111], [175.070255482626, -36.8093777677549], [175.070255437306, -36.8093777081568], [175.070250415369, -36.8093711629163], [175.070250368953, -36.8093711042386], [175.070250322633, -36.8093710491644], [175.070245401949, -36.8093654332079], [175.070245338436, -36.8093653640123], [175.070245254072, -36.8093653114032]], [[175.070401241384, -36.8094264359136], [175.070401073914, -36.8094264190017]], [[175.070401241384, -36.8094264359136], [175.070401076572, -36.8094263928176], [175.070384303377, -36.8094242676525]], [[175.070401073914, -36.8094264190017], [175.070369096672, -36.8094242035248], [175.070368990237, -36.8094242053786], [175.070368818233, -36.809424228203], [175.07035833262, -36.8094259069906], [175.070358245595, -36.8094259220258], [175.070358162223, -36.8094259478131], [175.070351551167, -36.8094281116189], [175.07035145676, -36.8094281439074], [175.070351366884, -36.8094281779197], [175.070345872714, -36.8094303592266], [175.070345756191, -36.809430402716]], [[175.070132532868, -36.8094310489465], [175.07013587719, -36.809454629221], [175.070135895224, -36.8094547577935], [175.070137368593, -36.8094633080481], [175.070137384197, -36.8094633879925], [175.070137410394, -36.8094634866798], [175.070140473387, -36.8094740831535], [175.070140483175, -36.8094741136274], [175.070143398849, -36.8094836518311], [175.070143416233, -36.8094837146197], [175.070143432496, -36.8094837774278], [175.070144698351, -36.8094892425254], [175.070144775753, -36.8094894944441], [175.070144888764, -36.8094897367296], [175.070146640481, -36.809492931993], [175.070146684265, -36.8094930177558], [175.070146657537, -36.8094931074504], [175.070143249679, -36.8095039572148], [175.070143237448, -36.809504002493], [175.070139237662, -36.8095206750784], [175.070139226551, -36.8095207203372], [175.070139216196, -36.8095207520631], [175.070134234984, -36.8095367351168], [175.070134193372, -36.8095368548136], [175.070134179535, -36.8095368820937], [175.07013414962, -36.8095369366929], [175.070125591986, -36.8095516850506], [175.070125556251, -36.8095517316395], [175.07012548354, -36.8095518203322], [175.070116552592, -36.809562821257], [175.070116503655, -36.8095628770888], [175.070116451333, -36.8095629320782], [175.070107804484, -36.8095702065685], [175.0701077564, -36.8095702524711], [175.070100334187, -36.8095775497986], [175.070091271427, -36.8095863204856], [175.070091198303, -36.8095863938633], [175.070091134093, -36.8095864652833], [175.070081642403, -36.8095973308603], [175.070081621722, -36.809597353753], [175.070073012915, -36.8096069565493], [175.070072922472, -36.8096070527613], [175.070072889589, -36.809607080373], [175.070072849008, -36.8096071135267], [175.070062442017, -36.8096151252877], [175.070062366191, -36.8096151815877], [175.070062274341, -36.8096152255485]], [[175.070132532868, -36.8094310489465], [175.070134173648, -36.8094399468934], [175.070134202057, -36.8094400861008]], [[175.070132532868, -36.8094310489465], [175.070135587693, -36.8094433814752], [175.070135619516, -36.8094434809659], [175.070135627884, -36.8094435835689], [175.070135864935, -36.8094474739777]], [[175.070384303377, -36.8094242676525], [175.070401073914, -36.8094264190017]], [[175.070384144822, -36.8094242487827], [175.070384303377, -36.8094242676525]], [[175.07048184997, -36.8094222045533], [175.070474846841, -36.8094253341827], [175.070474753846, -36.8094253772625], [175.070474708566, -36.8094254023863], [175.070465752932, -36.8094306994105]], [[175.07048184997, -36.8094222045533], [175.070481961647, -36.8094221476285]], [[175.070481961647, -36.8094221476285], [175.070494916115, -36.8094006034391]], [[175.070124902316, -36.8094126320797], [175.070124894562, -36.80941271874], [175.070124933937, -36.8094128072835], [175.070128390803, -36.8094203405748], [175.07012841228, -36.8094203888712], [175.070128436216, -36.8094204452366], [175.070132483961, -36.8094308145578], [175.070132503339, -36.8094309097586], [175.070132532868, -36.8094310489465]], [[175.070494916115, -36.8094006034391], [175.07048184997, -36.8094222045533]], [[175.070494916115, -36.8094006034391], [175.070488220668, -36.8094146136659], [175.070488159937, -36.8094147309919], [175.070488078627, -36.8094148333542], [175.070482035551, -36.8094220616187], [175.070481961647, -36.8094221476285]], [[175.070124728324, -36.8094046738866], [175.070124763602, -36.8094045687209], [175.070127725035, -36.8093961629574]], [[175.070127725035, -36.8093961629574], [175.070124726778, -36.8094047829714], [175.070124902316, -36.8094126320797]], [[175.070127725035, -36.8093961629574], [175.070124902316, -36.8094126320797]], [[175.070127725035, -36.8093961629574], [175.070127745258, -36.8093960814878], [175.07012779371, -36.8093960076383], [175.07013322469, -36.8093879842845], [175.070133276503, -36.8093879103766], [175.070133332821, -36.8093878372914], [175.070141356752, -36.8093778697336], [175.070141406736, -36.8093778111797], [175.070141465853, -36.8093777587758], [175.070154138946, -36.8093671135903], [175.070154199305, -36.8093670656713], [175.070154232285, -36.809367041663], [175.070154373606, -36.8093669616898], [175.07017048482, -36.8093584513053], [175.0702024307, -36.809354717871]], [[175.070500869549, -36.8093731127064], [175.07050090549, -36.8093731986057], [175.070500895617, -36.8093732898094], [175.070499499615, -36.809386337073], [175.070499469931, -36.8093865250613], [175.070499419984, -36.8093867097974], [175.070494989493, -36.8094004146896], [175.070494950951, -36.8094005235175], [175.070494916115, -36.8094006034391]], [[175.070245254072, -36.8093653114032], [175.070238811194, -36.8093606935624], [175.070238717503, -36.8093606275962], [175.070238606397, -36.8093605808608], [175.070233531691, -36.8093585682977], [175.070233436536, -36.8093585311988], [175.070245254072, -36.8093653114032]], [[175.070245254072, -36.8093653114032], [175.070233330809, -36.8093585177179], [175.070202665464, -36.8093547363152], [175.070202509248, -36.8093547210096], [175.0702024307, -36.809354717871]], [[175.070497131315, -36.809360794795], [175.07049707869, -36.8093607136929], [175.070490063232, -36.8093501536239]], [[175.070170678163, -36.8093583884522], [175.070170575453, -36.8093584037604]], [[175.070170678163, -36.8093583884522], [175.0702024307, -36.809354717871]], [[175.070490063232, -36.8093501536239], [175.070497161824, -36.8093608870979], [175.070500869549, -36.8093731127064]], [[175.070490063232, -36.8093501536239], [175.070490004835, -36.8093500663132]], [[175.070490004835, -36.8093500663132], [175.070500869549, -36.8093731127064]], [[175.0702024307, -36.809354717871], [175.070186292793, -36.8093548294676], [175.070170678163, -36.8093583884522]], [[175.070186416523, -36.8093548038789], [175.070186540909, -36.8093548026141], [175.0702024307, -36.809354717871]], [[175.070479948726, -36.8093414744762], [175.070479857373, -36.8093414120747]], [[175.070479857373, -36.8093414120747], [175.070457453672, -36.8093269190459]], [[175.070457453672, -36.8093269190459], [175.070489923275, -36.8093499929255], [175.070490004835, -36.8093500663132]], [[175.070457453672, -36.8093269190459], [175.070467260181, -36.8093327365104], [175.070467289796, -36.8093327540207], [175.070467329761, -36.8093327812651], [175.070479857373, -36.8093414120747]], [[175.0704146545, -36.8092900521421], [175.070414572523, -36.8092900048994], [175.070404770753, -36.8092844045622]], [[175.070404770753, -36.8092844045622], [175.070414723349, -36.8092901113304], [175.070422501291, -36.8092970204589], [175.070422542595, -36.8092970557917], [175.070429702984, -36.8093030932985], [175.070429743071, -36.8093031250473], [175.070429804857, -36.8093031717403], [175.070434541098, -36.8093066007315], [175.070434570859, -36.8093066236471], [175.070434601813, -36.8093066492458], [175.070434686929, -36.8093067297821], [175.070439345286, -36.8093113453451], [175.070439382133, -36.8093113816568], [175.070439412015, -36.8093114090768], [175.070445642847, -36.8093171428096], [175.070445668102, -36.8093171649024], [175.070451669636, -36.8093225421068], [175.070451709771, -36.8093225756573], [175.070451741845, -36.8093226012365], [175.070457316583, -36.8093268231914], [175.070457404623, -36.8093268874532], [175.070457453672, -36.8093269190459]], [[175.070404770753, -36.8092844045622], [175.070404681956, -36.8092843538331], [175.070404579008, -36.8092843186726], [175.070394232102, -36.8092809928073], [175.070394116805, -36.8092809569606], [175.070393991788, -36.8092809348027], [175.070383015282, -36.8092791196726], [175.07038297137, -36.8092791123257], [175.070382927433, -36.8092791040779], [175.07036995876, -36.8092766107114], [175.070369895631, -36.80927659739], [175.070369844899, -36.8092765865566], [175.070359368452, -36.8092741939919], [175.070359252229, -36.8092741653717], [175.07035915318, -36.809274108512], [175.070353156657, -36.8092706230537], [175.070353051884, -36.8092705617871], [175.070352969009, -36.8092704812118], [175.070337125681, -36.809244284928]], [[175.070337125681, -36.809244284928], [175.070337150976, -36.8092443917427], [175.070339530484, -36.8092545395484], [175.070339554392, -36.8092546364729], [175.070339616101, -36.8092547219234], [175.070346011794, -36.8092633306558], [175.070346095348, -36.8092634364559], [175.070337125681, -36.809244284928]], [[175.070337125681, -36.809244284928], [175.070337139574, -36.8092441765294], [175.07033836823, -36.8092345697572]], [[175.070337125681, -36.809244284928], [175.070340556864, -36.8092326379986]], [[175.07033836823, -36.8092345697572], [175.070338381464, -36.8092344784949]], [[175.070338381464, -36.8092344784949], [175.070340584615, -36.809232544681]], [[175.070340556864, -36.8092326379986], [175.07033836823, -36.8092345697572]], [[175.070340556864, -36.8092326379986], [175.070340584615, -36.809232544681]], [[175.070340584615, -36.809232544681], [175.07034171335, -36.8092287161097]], [[175.070340584615, -36.809232544681], [175.07035732482, -36.8092178421705]], [[175.07034171335, -36.8092287161097], [175.070341685826, -36.8092287346151], [175.070338428504, -36.8092343938544], [175.070338381464, -36.8092344784949]], [[175.07034171335, -36.8092287161097], [175.070341734059, -36.8092286526577], [175.07034181534, -36.8092285908547]], [[175.07034181534, -36.8092285908547], [175.07035732482, -36.8092178421705]], [[175.07035732482, -36.8092178421705], [175.070357224249, -36.8092178952964], [175.070348976599, -36.8092225103119], [175.07034885854, -36.8092225799659], [175.070348759794, -36.8092226591979], [175.07034181534, -36.8092285908547]], [[175.07035732482, -36.8092178421705], [175.07034171335, -36.8092287161097]], [[175.07035732482, -36.8092178421705], [175.070340556864, -36.8092326379986]], [[175.070394537144, -36.8092110498684], [175.070370817811, -36.8092159154223], [175.070370689333, -36.8092159311795], [175.070357441998, -36.8092178230049], [175.07035732482, -36.8092178421705]], [[175.070394537144, -36.8092110498684], [175.070381042364, -36.8092153236474], [175.070381171963, -36.8092153078707], [175.070388226455, -36.8092142936153], [175.070388335838, -36.8092142763881], [175.070388428712, -36.809214228804], [175.070394440983, -36.8092111002137], [175.070394537144, -36.8092110498684]], [[175.070394537144, -36.8092110498684], [175.070394589882, -36.8092109687338]], [[175.070394589882, -36.8092109687338], [175.070403445765, -36.8091976833878]], [[175.070403445765, -36.8091976833878], [175.070398803867, -36.8092033739538], [175.070398731277, -36.8092034671512], [175.070398708696, -36.8092035026953], [175.070398693715, -36.8092035290941], [175.070394589882, -36.8092109687338]], [[175.070403445765, -36.8091976833878], [175.070403508514, -36.8091975993749]], [[175.070403508514, -36.8091975993749], [175.07041934514, -36.8091837246686]], [[175.070403541931, -36.8091975915824], [175.070403508514, -36.8091975993749]], [[175.070403541931, -36.8091975915824], [175.070403445765, -36.8091976833878]], [[175.070411448512, -36.8091955449123], [175.070411384595, -36.8091956271429], [175.070411269925, -36.8091956561792], [175.07040362316, -36.8091975694377], [175.070403541931, -36.8091975915824]], [[175.07041934514, -36.8091837246686], [175.070403541931, -36.8091975915824]], [[175.07041934514, -36.8091837246686], [175.070411448512, -36.8091955449123]], [[175.070420522939, -36.8091819673412], [175.070420607533, -36.8091819036778], [175.070425817641, -36.8091780409744]], [[175.070425817641, -36.8091780409744], [175.070420466864, -36.8091820494353], [175.07041934514, -36.8091837246686]], [[175.070425817641, -36.8091780409744], [175.07041934514, -36.8091837246686]], [[175.070425817641, -36.8091780409744], [175.070425887889, -36.8091779856726]], [[175.070425887889, -36.8091779856726], [175.070411448512, -36.8091955449123]], [[175.07057006546, -36.8091479567266], [175.070569724973, -36.8091481330038], [175.070559343262, -36.8091532926395], [175.070559243715, -36.8091533421426], [175.070559132115, -36.8091533603099], [175.070551068759, -36.8091547049004], [175.07057006546, -36.8091479567266]], [[175.07057006546, -36.8091479567266], [175.070550944835, -36.8091547232824], [175.070550821182, -36.809154710114], [175.070542623342, -36.8091536839115], [175.070542562624, -36.8091536768574], [175.070542499689, -36.8091536707432], [175.070533708811, -36.8091528910113], [175.07053359529, -36.8091528794691], [175.070533498627, -36.8091528279757], [175.070524353742, -36.8091477281476], [175.070524116284, -36.8091476097062], [175.070523865892, -36.8091475104174], [175.070509819116, -36.8091426518936], [175.070509704915, -36.8091426151266], [175.07050958343, -36.8091425992165], [175.070493492304, -36.8091407424916], [175.070493361929, -36.8091407294403], [175.070493230066, -36.8091407443553]], [[175.070480538029, -36.8091421947974], [175.070480649774, -36.8091421820354], [175.070493230066, -36.8091407443553]], [[175.070493230066, -36.8091407443553], [175.070480444181, -36.8091422478063], [175.070467132228, -36.8091500623399], [175.07046703631, -36.8091501216941], [175.070466978095, -36.8091501659706], [175.070454553512, -36.8091600470607], [175.070445223355, -36.8091674181989], [175.070445157468, -36.8091674689182], [175.070445112285, -36.8091674976456], [175.070436189994, -36.8091730743924], [175.070436101747, -36.8091731273037], [175.070436055299, -36.8091731506453], [175.070425971945, -36.80917794365], [175.070425887889, -36.8091779856726]], [[175.070594558449, -36.8091170966538], [175.070594526877, -36.8091171729133], [175.070594488583, -36.8091172492899], [175.070589949377, -36.8091253364458], [175.07058991939, -36.8091253883425], [175.07058988933, -36.8091254375365], [175.070582622445, -36.8091368331234], [175.070582539356, -36.8091369526416], [175.070582428966, -36.8091370573131], [175.070570231917, -36.8091478528811], [175.070570150806, -36.8091479209905], [175.070570121992, -36.8091479332093], [175.07057006546, -36.8091479567266]], [[175.070594558449, -36.8091170966538], [175.070604592825, -36.8090955492373]], [[175.070604592825, -36.8090955492373], [175.070604535654, -36.8090956322519], [175.070597448833, -36.8091060558008], [175.070597384207, -36.8091061533661], [175.070597352364, -36.809106261176], [175.070594558449, -36.8091170966538]], [[175.070652012572, -36.8089701611646], [175.070652029248, -36.8089702392876]], [[175.070652012572, -36.8089701611646], [175.070647290635, -36.8089468338326]], [[175.07065059755, -36.8089650682055], [175.07065394792, -36.8089835424696], [175.070653965352, -36.8089836070599], [175.070654000852, -36.8089837182033], [175.070658571709, -36.8089981504883], [175.070658611156, -36.8089982417342], [175.070665092734, -36.8090120350597], [175.070665112897, -36.8090120761685], [175.070670428812, -36.8090215031492], [175.070670470112, -36.809021579942], [175.070671939906, -36.8090274993442], [175.070667791083, -36.8090371786172], [175.070667693227, -36.8090373741022], [175.070667574962, -36.8090375609297], [175.070657706616, -36.8090514569891], [175.070657641724, -36.8090515446447], [175.070657572986, -36.8090516143412], [175.070644763298, -36.8090641330668], [175.070644738185, -36.8090641578394], [175.070644708663, -36.8090641853928], [175.07063181491, -36.809076038616], [175.070631740254, -36.8090760966986], [175.070631635834, -36.8090761733257], [175.070621602167, -36.8090835170742], [175.070621480771, -36.8090835876879], [175.070613345928, -36.8090881034157], [175.070613221244, -36.8090881767905], [175.070613123619, -36.8090882560032], [175.070604671623, -36.8090954784644], [175.070604592825, -36.8090955492373]], [[175.07065059755, -36.8089650682055], [175.070652012572, -36.8089701611646]], [[175.070647290635, -36.8089468338326], [175.070647853869, -36.8089546761867], [175.070647863261, -36.8089547751666], [175.070647872293, -36.8089548191733], [175.07064926536, -36.808960262221], [175.070649274125, -36.8089602963178], [175.07065059755, -36.8089650682055]], [[175.070647290635, -36.8089468338326], [175.07065059755, -36.8089650682055]], [[175.070637423283, -36.8089164136308], [175.070646516515, -36.808918431889], [175.070646495483, -36.8089185665497], [175.070645622663, -36.8089260688898], [175.070645612665, -36.8089261970492], [175.070645614412, -36.8089262619127], [175.070646606204, -36.8089359489828], [175.070646612749, -36.8089360254797], [175.070646611721, -36.8089360705628], [175.070646426018, -36.8089423667057], [175.070646432793, -36.8089425765916], [175.070646463121, -36.8089427869687], [175.070647260304, -36.8089466649156], [175.070647273424, -36.8089467358901], [175.070647290635, -36.8089468338326]]]}, "properties": {"OBJECTID": 12032, "TRACKNAME": "Nice and Easy Too", "CONDITIONSOFUSE": "Onetangi Sports Park (Rangihoua)", "STATUS": "Open", "WEBLINK": "https://www.aucklandcouncil.govt.nz/en/parks-recreation/find-park-beach/park-detail/120.html", "VALIDATIONSTATE": 3, "created_user": "AC_owner", "last_edited_user": "AC_owner", "last_edited_date": 1789875254325, "created_date": 1789875254325, "PARK_SAPSITEID": null, "TRACK_ID": null, "KAURIDIEBACK_TRACK": null, "KAURIDIEBACK_MITIGATED": null, "SegmentID": null, "GlobalID": "163ef5c8-c3cb-4505-b2d7-f93bb918c111", "Shape__Length": 1155.5086055227382}}]}