{"type": "FeatureCollection", "features": [{"type": "Feature", "id": 11992, "geometry": {"type": "LineString", "coordinates": [[174.984593136503, -36.7875004935258], [174.984620432229, -36.7874552458913], [174.984931335491, -36.7874182044686], [174.985081868211, -36.7873529829598], [174.985741770295, -36.7865974200144], [174.985945474658, -36.7864347572462], [174.986441292439, -36.7861786263339], [174.987225494259, -36.7856847547889], [174.987603077399, -36.7853071672704], [174.988029030495, -36.7848859688655], [174.988338072114, -36.7847295040598], [174.988614095923, -36.7846840772604], [174.988998369755, -36.7848050589443], [174.989252401064, -36.7850098383067], [174.989464760466, -36.7852780246101], [174.989534515308, -36.7853913261142], [174.990162345447, -36.7855988067476], [174.990411156711, -36.7856016102005], [174.990954732306, -36.7852789658106], [174.991118090201, -36.7852314384566], [174.991673125316, -36.785208207706], [174.992716086597, -36.7856196169466], [174.993016508833, -36.7855725893961], [174.993411233422, -36.7854337742969], [174.994075539398, -36.7855501688441], [174.9942793673, -36.7856556190681], [174.994540862021, -36.7859716206407], [174.99483863868, -36.7862699049638], [174.995022980003, -36.7863694598716], [174.995454918857, -36.7864726370826], [174.996036372858, -36.7866743949017], [174.996227193814, -36.7866509730831], [174.996714888268, -36.7864437091938], [174.997073815079, -36.7863412537519], [174.998772340118, -36.7860747568795], [174.999022998988, -36.7861218678181], [174.99988927301, -36.7868662754024], [175.001188057595, -36.7875116373393], [175.001348522581, -36.7878822022408], [175.002187860123, -36.7886301570369], [175.002428419471, -36.7889573791823], [175.002705380436, -36.7892715458841], [175.002884831838, -36.7899995027957], [175.002818001615, -36.7901063873635], [175.002978713376, -36.7901145671704]]}, "properties": {"OBJECTID": 11992, "TRACKNAME": "Nick J Roadside walk", "CONDITIONSOFUSE": null, "STATUS": "Open", "WEBLINK": null, "VALIDATIONSTATE": 3, "created_user": "AC_owner", "last_edited_user": "AC_owner", "last_edited_date": 1789875254325, "created_date": 1789875254325, "PARK_SAPSITEID": null, "TRACK_ID": null, "KAURIDIEBACK_TRACK": null, "KAURIDIEBACK_MITIGATED": null, "SegmentID": null, "GlobalID": "9e94c849-7826-4d9a-aaab-5513f42a6ce3", "Shape__Length": 2147.2419743626824}}]}