{"type": "FeatureCollection", "features": [{"type": "Feature", "id": 747, "geometry": {"type": "LineString", "coordinates": [[174.578881834217, -36.9820505884794], [174.578888098957, -36.9818949050424], [174.578887754119, -36.9818439743242], [174.578868445389, -36.9817523204873], [174.57882427086, -36.9816284676796], [174.578790918991, -36.9814824779432], [174.578803652758, -36.9814468133842], [174.578894610854, -36.9813918649327], [174.578911145243, -36.9813563571147], [174.578889755372, -36.9812118397173], [174.578812198116, -36.98093286689], [174.578819367117, -36.9808905162203], [174.578892930845, -36.9806886987544], [174.578849747982, -36.9805926844681], [174.578834513411, -36.9805361471055], [174.578837584993, -36.9803460925471], [174.578855462956, -36.9803152628972], [174.578933653125, -36.9802916619743], [174.579009636086, -36.9802460703705], [174.579043522048, -36.9802151629336], [174.579058186117, -36.9801843039022], [174.579133301183, -36.9798548614432], [174.579142633147, -36.9797747604517], [174.579130625173, -36.9796791967799], [174.579058865868, -36.9796116668505], [174.579066557413, -36.9795413402988], [174.579121931322, -36.9793613159533], [174.579314342003, -36.9790397859636], [174.579388524344, -36.9788984676024], [174.579433128099, -36.9787703149326], [174.579443118793, -36.9786340600089], [174.579426576678, -36.9785479667884], [174.579316539714, -36.9784346800041], [174.579239402442, -36.9783025858556], [174.579244049716, -36.9782784849984], [174.579329969666, -36.9782435952206], [174.579342206969, -36.9782285150375], [174.579249054714, -36.977970039263], [174.5792492583, -36.9779364071556], [174.579274677708, -36.9778633659885], [174.579261379589, -36.9778010342438], [174.579205270784, -36.977657366337], [174.579095931293, -36.9774587030935], [174.578999652528, -36.9771711640461], [174.578953774169, -36.9771093377719], [174.578873201229, -36.9770511817943], [174.578872843135, -36.9769996022409], [174.578898961814, -36.976945173753], [174.57898810503, -36.9768363666261], [174.579130236498, -36.9766958390042], [174.579164869217, -36.976651130927], [174.579230045174, -36.9765372524048], [174.579244709748, -36.976481993762], [174.579244463347, -36.9764233281025], [174.579274445743, -36.9763808360941], [174.579962705554, -36.975706650947], [174.580010679194, -36.9756753123522], [174.580091179773, -36.9756555737835], [174.580122004331, -36.9756348289667], [174.580214127, -36.9755148856355], [174.580255930564, -36.9754350913312], [174.580314360301, -36.9752254613751], [174.580304115886, -36.9750076961429], [174.580294489297, -36.9749474518106], [174.580215442543, -36.9747631232893], [174.580199884287, -36.9746963510092], [174.580218166004, -36.9746237471583], [174.580301370424, -36.9744110562701], [174.580348705419, -36.9743320445672], [174.580477252402, -36.9742150862744], [174.580620123772, -36.9741389305509], [174.580763020192, -36.974112330611], [174.580800603163, -36.9740838070913], [174.580819983412, -36.9740475039568], [174.580797629546, -36.9740030585876], [174.58072607256, -36.9739244763074], [174.580629498271, -36.9738676432246], [174.580528503928, -36.9738290221297], [174.580503468117, -36.9738064341257], [174.580484896379, -36.9737715737785], [174.580487391284, -36.9737319712391], [174.580507891635, -36.9736857293616], [174.580619627867, -36.97357891863], [174.580769766466, -36.9733697256641], [174.580802073474, -36.9733012253691], [174.580812620908, -36.9732278591245], [174.580787769478, -36.9730382302988], [174.580736373626, -36.9728301798068], [174.580641087506, -36.972603650158], [174.580605765567, -36.9725682016514], [174.580464338777, -36.9725625224445], [174.580428091259, -36.9725507556958], [174.580404980629, -36.9725202011233], [174.580413483209, -36.9724701620626], [174.58044076622, -36.9723928504356], [174.580466297369, -36.9723552215912], [174.580774122923, -36.9721173210617], [174.581018636483, -36.9720185573787], [174.581243463006, -36.9719407234396], [174.58128277816, -36.9719172513041], [174.581291142331, -36.9718627252961], [174.581273158108, -36.9716895809108], [174.581223569699, -36.9716047302721], [174.581135988796, -36.9714954182468], [174.581120741803, -36.9714648672254], [174.581123887907, -36.9713476225835], [174.581147709784, -36.9712284981297], [174.581161351898, -36.9711972287988], [174.581187597754, -36.9711702893223], [174.581436654582, -36.9709829064943], [174.581448120265, -36.9709637262101], [174.581443950554, -36.9709163977121], [174.581460177966, -36.9708917278514], [174.581589985802, -36.9707980515058], [174.581643089648, -36.9707699789115]]}, "properties": {"OBJECTID": 747, "TRACKNAME": "Nihotupu Ridge Track", "CONDITIONSOFUSE": "Waitakere South Regional Park", "STATUS": "Temp Closed", "WEBLINK": "https://www.aucklandcouncil.govt.nz/en/parks-recreation/find-park-beach/park-detail/212.html", "VALIDATIONSTATE": 3, "created_user": "AC_owner", "last_edited_user": "AC_owner", "last_edited_date": 1789875254325, "created_date": 1789875254325, "PARK_SAPSITEID": null, "TRACK_ID": null, "KAURIDIEBACK_TRACK": null, "KAURIDIEBACK_MITIGATED": null, "SegmentID": null, "GlobalID": "6c02b3d4-cba2-475c-a3d0-b283a88d39e4", "Shape__Length": 1473.5260294992934}}, {"type": "Feature", "id": 12252, "geometry": {"type": "LineString", "coordinates": [[174.581643089648, -36.9707699789115], [174.581786205645, -36.9707619066546], [174.581884006055, -36.9707728437238], [174.582136031807, -36.9708288568884], [174.582271592211, -36.9708850249183], [174.582375714275, -36.9709180595723], [174.582653377689, -36.9709394514682], [174.582824199567, -36.9709820070144], [174.582954059651, -36.9710406118053], [174.582991357085, -36.9710417999493], [174.583230586668, -36.9709398843963], [174.583397129608, -36.970837712127], [174.583448411856, -36.970833440677], [174.583633292963, -36.9708432146497], [174.583673992973, -36.970835677173], [174.583681452844, -36.9708107814736], [174.58366553611, -36.9706910329836], [174.5836710672, -36.9706500378424], [174.583849465531, -36.9704397158787], [174.584082996856, -36.9703063724314], [174.584314236855, -36.9702668266855], [174.584441599569, -36.9702196084953], [174.584496117564, -36.9701850440581], [174.584596022592, -36.9700618297354], [174.584648654398, -36.9700343660156], [174.584774211093, -36.96998621615], [174.584824749476, -36.9699802324612], [174.584985269582, -36.9700092579658], [174.585050147791, -36.9700116906131], [174.585409757913, -36.9699665707716], [174.585676695611, -36.9699156482667], [174.585712344594, -36.9699278270244], [174.585820881991, -36.9699998642329], [174.585974612393, -36.9700622029025], [174.586332235022, -36.9700609755783], [174.586380736637, -36.970046167179], [174.586476116667, -36.9699719100708], [174.586521829595, -36.9699526411434], [174.586964560084, -36.9699359429102], [174.58704804109, -36.9698756441102], [174.587174322022, -36.9698089051944], [174.587326542067, -36.9697433245439], [174.58754582182, -36.9696721958952], [174.587755582357, -36.9694802869537], [174.587794973178, -36.9694568296992], [174.587855406439, -36.9694616097034], [174.588221031365, -36.969547213979], [174.588389811699, -36.9695488404644], [174.588452679049, -36.9695420953687], [174.588486755326, -36.9695148061542], [174.588533849977, -36.9694355871485], [174.588592088275, -36.9692720778869], [174.588613817437, -36.9692333625012], [174.588654917402, -36.9692062226064], [174.588937045284, -36.969075707542], [174.588989285953, -36.9690435871666], [174.58919249538, -36.9687972677391], [174.589253045727, -36.9687050601133], [174.589317572002, -36.9685847401707], [174.589356787272, -36.9685469442617], [174.589612225838, -36.9684571384361], [174.589809227285, -36.9683575238466], [174.589868721026, -36.9683349954716], [174.590204177343, -36.9682692192712], [174.59057356711, -36.9681591277186], [174.591009992911, -36.9681061474999], [174.591132707719, -36.968048636978], [174.591414130267, -36.9679941725021], [174.591489092447, -36.9679895080269], [174.591610270621, -36.9680297691014], [174.592198456481, -36.9682885999154], [174.592511866052, -36.9684560128892], [174.592940480576, -36.9685375577696], [174.59327790985, -36.9685789079735], [174.593327797529, -36.9685940570646], [174.593516088881, -36.9686765539491], [174.593732559696, -36.9687097919672], [174.593794235605, -36.9687100725535], [174.593844753213, -36.9686816236651], [174.594023605224, -36.96853716929], [174.594053429535, -36.9685005615508], [174.594114150427, -36.9683958204425], [174.594149303564, -36.9683648106114], [174.594261380667, -36.9683273235215], [174.594451240137, -36.9683185902234], [174.594582238979, -36.9682835166716], [174.594641397272, -36.9682530585412], [174.594689824007, -36.9681750360781], [174.594718950671, -36.968152390449], [174.595073810157, -36.968052052495], [174.595121311987, -36.9680180101538], [174.595338706862, -36.9678098151857], [174.59569454748, -36.9675994794504], [174.595730731726, -36.967585085209], [174.595758986688, -36.9675858140448], [174.596032997039, -36.967704885122], [174.596089177792, -36.967742752602], [174.596155391477, -36.9679173281325], [174.596459208045, -36.968530225685], [174.596700752922, -36.9689468798221], [174.596741445373, -36.9689960869771], [174.596800381865, -36.9690114824311], [174.597208369117, -36.9690570459984], [174.597534446416, -36.9690393000757], [174.597620375608, -36.9690471300627], [174.597887147714, -36.969099531185], [174.597946692232, -36.969117666998], [174.597992783251, -36.9691542542514], [174.598152252043, -36.9693160448754], [174.598184123641, -36.969338744408], [174.598212974799, -36.9693486133246], [174.598676935622, -36.9694224326247], [174.59873061241, -36.9694199520761], [174.598901418388, -36.9693863296073], [174.598952060058, -36.9693891176684], [174.599054907788, -36.9694318803632], [174.599103215041, -36.9694648319227], [174.599321899962, -36.9697373201353], [174.59934057483, -36.969782117972], [174.599339394329, -36.9698228658615], [174.599230995148, -36.9702309611224], [174.599199836035, -36.9706471103093], [174.599204697242, -36.9707258858494], [174.599252947904, -36.9709241095152], [174.59946837851, -36.9714976287547], [174.599487979423, -36.9715147246236], [174.599516261186, -36.9715241772479], [174.599813355194, -36.9715719289789], [174.599870828606, -36.9715902900046], [174.59990047528, -36.9716338131662], [174.600011367903, -36.9719071939017], [174.60000736583, -36.9719768049587], [174.599867541636, -36.9725214730205], [174.599850320884, -36.9727468621155], [174.599871919619, -36.9727939008415], [174.600056812686, -36.9730142491702], [174.600231000521, -36.9733735131909], [174.600222370759, -36.9734216894546], [174.600104447479, -36.9736185023108], [174.600075813796, -36.9738256577286], [174.600086999595, -36.9738668157599], [174.600153971373, -36.9739953376252], [174.600206729252, -36.9743913911164], [174.600278505955, -36.9746334450965], [174.600294157168, -36.9748137832448]]}, "properties": {"OBJECTID": 12252, "TRACKNAME": "Nihotupu Ridge Track", "CONDITIONSOFUSE": "Waitakere South Regional Park", "STATUS": "Temp Closed", "WEBLINK": "https://www.aucklandcouncil.govt.nz/en/parks-recreation/find-park-beach/park-detail/212.html", "VALIDATIONSTATE": 3, "created_user": "AC_owner", "last_edited_user": "AC_owner", "last_edited_date": 1789875254325, "created_date": 1789875254325, "PARK_SAPSITEID": null, "TRACK_ID": null, "KAURIDIEBACK_TRACK": null, "KAURIDIEBACK_MITIGATED": null, "SegmentID": null, "GlobalID": "31d0b0dc-b24e-4b6d-bd48-c6298959ad82", "Shape__Length": 2552.2501714481646}}]}