{"type": "FeatureCollection", "features": [{"type": "Feature", "id": 1760, "geometry": {"type": "LineString", "coordinates": [[174.858343185764, -36.3692218853053], [174.857957745635, -36.3691348687449], [174.857587045633, -36.3690476216672], [174.857273093582, -36.3689904963105], [174.856874107605, -36.3688297533797], [174.856600634425, -36.3687386064303], [174.856310607645, -36.3686954162669], [174.856027099264, -36.3686783574575], [174.855815247674, -36.3686983442981], [174.855518982142, -36.3687649563988], [174.855311833575, -36.3688588027875], [174.855041984265, -36.368920233158], [174.854532274628, -36.3690640913958], [174.854186231729, -36.3691457819267], [174.853783273406, -36.3691901969413], [174.853582871536, -36.3691956924385], [174.853310756978, -36.3691617555763], [174.852919709741, -36.3690867351605], [174.852510296153, -36.3689833780563], [174.852187165138, -36.3689120710475], [174.851924291979, -36.368894683372], [174.851835854838, -36.3688960546477], [174.851638853615, -36.3689205731295], [174.850799252537, -36.3690814541648], [174.850399690888, -36.3691448841255], [174.849673358176, -36.3692197414535]]}, "properties": {"OBJECTID": 1760, "TRACKNAME": "North Coast Track", "CONDITIONSOFUSE": "Tawharanui Regional Park", "STATUS": "Open", "WEBLINK": "https://www.aucklandcouncil.govt.nz/en/parks-recreation/find-park-beach/park-detail/228.html", "VALIDATIONSTATE": 3, "created_user": "AC_owner", "last_edited_user": "AC_owner", "last_edited_date": 1789875254325, "created_date": 1789875254325, "PARK_SAPSITEID": null, "TRACK_ID": null, "KAURIDIEBACK_TRACK": null, "KAURIDIEBACK_MITIGATED": null, "SegmentID": null, "GlobalID": "858811df-5c7c-4f61-83a1-ea46c31b4b52", "Shape__Length": 804.9118132038406}}, {"type": "Feature", "id": 1946, "geometry": {"type": "LineString", "coordinates": [[174.840226496091, -36.3721451055494], [174.840638640117, -36.3715471868165], [174.840756264936, -36.3714702477295], [174.840897407248, -36.3714697046708], [174.84113401434, -36.3714729945278], [174.841499584243, -36.3714881716299], [174.841603740767, -36.3714875571227], [174.841684573539, -36.3714853191167], [174.841751860953, -36.3714803171291], [174.841853263582, -36.3714668602761], [174.841990952251, -36.3714330210317], [174.842114544192, -36.3713976197005], [174.842455971833, -36.3713096676307], [174.842811768227, -36.3712081071102], [174.843101747194, -36.37112927598], [174.843187198085, -36.3711110560036], [174.84319334293, -36.3711097803365], [174.843230996405, -36.3711023035149], [174.84329595258, -36.3710898802703], [174.843360854086, -36.3710775029044], [174.843367057187, -36.3710763344971], [174.843404803933, -36.3710695051885], [174.84349123196, -36.3710549115649], [174.843563387947, -36.3710448288458], [174.843582947331, -36.3710423815901], [174.843600878828, -36.3710403831178], [174.843655961029, -36.3710346382259], [174.843711044073, -36.3710289293517], [174.843730661414, -36.3710270490584], [174.843748672305, -36.3710255811636], [174.843821605783, -36.3710205791889], [174.843895164743, -36.3710165770794], [174.843896088894, -36.3710165357693], [174.843915832244, -36.3710157441927], [174.843934713108, -36.3710152453626], [174.8439913432, -36.371014163691], [174.844047963636, -36.3710131452395], [174.844067687384, -36.3710129398496], [174.844086581647, -36.3710130086698], [174.84416025368, -36.3710142688193], [174.844161190462, -36.3710142904101], [174.844350508878, -36.371019091918], [174.844471071015, -36.3710188705715], [174.844532137246, -36.3710182609709], [174.844622933907, -36.3710168676468], [174.84471386384, -36.3710154541672], [174.844775014591, -36.3710141761019], [174.844895643864, -36.3710106631848], [174.845312563272, -36.3709887090332], [174.845373575418, -36.3709855759222], [174.845404451465, -36.3709837467398], [174.845450358884, -36.3709807748712], [174.845496277228, -36.3709777938022], [174.845527145177, -36.3709756221818], [174.845588012701, -36.3709708506511], [174.845869262141, -36.3709435004067], [174.845891527217, -36.3709409388438], [174.845933000832, -36.3709357097101], [174.846026677222, -36.3709231745957], [174.846120363444, -36.3709105851722], [174.846142527225, -36.3709075113314], [174.846183811095, -36.3709013295618], [174.8463068028, -36.3708813011401], [174.84640114841, -36.3708673762481], [174.846447819149, -36.3708552069471], [174.84655629894, -36.3708196371733], [174.846556442508, -36.3708195808697], [174.846564300412, -36.3708162774394], [174.84657207734, -36.3708128490649], [174.84657977393, -36.3708093227782], [174.846587400898, -36.3708056803857], [174.846594947528, -36.3708019400811], [174.846602413395, -36.370798083843], [174.846605011164, -36.3707967005934], [174.846607673229, -36.3707952081818], [174.846610312584, -36.3707936980934], [174.846612917235, -36.3707921344576], [174.846615476679, -36.3707905444788], [174.846618012986, -36.3707889188017], [174.846620503873, -36.3707872577709], [174.846622971411, -36.3707855520312], [174.8466253826, -36.3707838201207], [174.846627781795, -36.3707820523397], [174.846628854964, -36.3707812425159], [174.846643775636, -36.3707697623611], [174.846658456997, -36.3707580605552], [174.846659539603, -36.3707571784734], [174.846673882865, -36.3707453196416], [174.846687964744, -36.3707332485143], [174.846690104688, -36.370731358545], [174.846692231785, -36.3707293966624], [174.84669432503, -36.3707274172752], [174.846696361927, -36.3707254117174], [174.846698364331, -36.3707233616229], [174.8467003106, -36.3707212943685], [174.846702222591, -36.3707191915881], [174.846704089588, -36.3707170714754], [174.846705911377, -36.3707149250198], [174.846707676818, -36.3707127523935], [174.846707795758, -36.3707125973167], [174.846712512844, -36.3707065661353], [174.846717117019, -36.3707004736017], [174.846721563502, -36.3706943113944], [174.846725897072, -36.3706880878351], [174.846730084305, -36.3706818034405], [174.846734136342, -36.3706754580384], [174.846875835134, -36.3704246341951], [174.847034193678, -36.3701086518596], [174.847169806973, -36.369816439433], [174.847171858907, -36.3698122432366], [174.847178342781, -36.3697993881677], [174.847185129614, -36.3697866185526], [174.847192186193, -36.3697739439189], [174.847194370913, -36.3697701783397], [174.847196731344, -36.369766301875], [174.847199181763, -36.3697624600743], [174.847201699671, -36.3697586442717], [174.847204307779, -36.3697548721439], [174.847206994733, -36.3697511348525], [174.847229918119, -36.3697203400798], [174.847253324847, -36.3696897181067], [174.847256073472, -36.3696862322519], [174.847259053091, -36.3696826166284], [174.847262089485, -36.3696790451967], [174.847265204723, -36.3696755086013], [174.847268399233, -36.3696720248636], [174.847271661659, -36.3696685851453], [174.847275089294, -36.3696650617458], [174.84728588947, -36.3696542131262], [174.847296916528, -36.3696435322621], [174.847308181078, -36.3696329964544], [174.84756185163, -36.3694707013626], [174.847563491967, -36.3694696033233], [174.847568869821, -36.3694660677744], [174.847574316443, -36.3694626122872], [174.847579831833, -36.3694592368619], [174.847585427134, -36.3694559413259], [174.847591091203, -36.3694527258517], [174.847593038791, -36.3694516591148], [174.847595064158, -36.3694505821606], [174.847597123803, -36.3694495407321], [174.847599206584, -36.3694485350015], [174.847601300933, -36.3694475471199], [174.847603418418, -36.3694465949363], [174.847605558613, -36.3694456604293], [174.847607722157, -36.369444770631], [174.847609897483, -36.3694439076923], [174.847620247401, -36.369439943678], [174.847636391285, -36.3694340151206], [174.84764688087, -36.3694303013349], [174.8476632229, -36.3694247392819], [174.847665412776, -36.3694240203408], [174.847667681283, -36.3694233272252], [174.847669961572, -36.3694226609693], [174.847672253856, -36.3694220305837], [174.847674557707, -36.369421418047], [174.847676885121, -36.3694208592297], [174.847679224102, -36.3694203182613], [174.847681563937, -36.3694198133357], [174.847683926907, -36.369419344108], [174.847686001896, -36.3694189514473], [174.847692749887, -36.3694177383317], [174.847699533435, -36.3694166148055], [174.84770634161, -36.3694155900517], [174.847713152343, -36.3694146734257], [174.847720003884, -36.3694138327868], [174.848040529079, -36.3693883081467], [174.848054665442, -36.3693879812381], [174.848160462418, -36.3693847035775], [174.848165629219, -36.3693844974276], [174.848194197281, -36.3693831359183], [174.84822271118, -36.369381369611], [174.848313589676, -36.3693750415891], [174.848404420816, -36.3693685970493], [174.848409583777, -36.3693682286966], [174.848438028948, -36.3693659135488], [174.848466420169, -36.369363202614], [174.848480463232, -36.3693617593653], [174.848585291122, -36.3693500321983], [174.848950730688, -36.3693170899982], [174.849124018815, -36.3692979386239], [174.849150849116, -36.3692947378971], [174.849212653207, -36.3692867500721], [174.849343105139, -36.3692689016147], [174.849473488662, -36.3692509909769], [174.849500216568, -36.3692472328907], [174.849561677459, -36.3692379341594], [174.849733025948, -36.3692098430318]]}, "properties": {"OBJECTID": 1946, "TRACKNAME": "North Coast Track", "CONDITIONSOFUSE": "Tawharanui Regional Park", "STATUS": "Open", "WEBLINK": "https://www.aucklandcouncil.govt.nz/en/parks-recreation/find-park-beach/park-detail/228.html", "VALIDATIONSTATE": 3, "created_user": "AC_owner", "last_edited_user": "AC_owner", "last_edited_date": 1789875254325, "created_date": 1789875254325, "PARK_SAPSITEID": null, "TRACK_ID": null, "KAURIDIEBACK_TRACK": null, "KAURIDIEBACK_MITIGATED": null, "SegmentID": null, "GlobalID": "faf5a50e-82a8-4288-b7c5-31d6dc664697", "Shape__Length": 996.6247877770594}}, {"type": "Feature", "id": 2979, "geometry": {"type": "LineString", "coordinates": [[174.838518792259, -36.3722589685058], [174.83857479245, -36.3722922144604], [174.838631142412, -36.3723056566685], [174.838722812954, -36.372316170859], [174.838944418434, -36.3723331836262], [174.839141714833, -36.3723257620208], [174.839659430133, -36.3722312549287], [174.840058428477, -36.372268037299], [174.840226496091, -36.3721451055494]]}, "properties": {"OBJECTID": 2979, "TRACKNAME": "North Coast Track", "CONDITIONSOFUSE": "Tawharanui Regional Park", "STATUS": "Open", "WEBLINK": "https://www.aucklandcouncil.govt.nz/en/parks-recreation/find-park-beach/park-detail/228.html", "VALIDATIONSTATE": 3, "created_user": "AC_owner", "last_edited_user": "AC_owner", "last_edited_date": 1789875254325, "created_date": 1789875254325, "PARK_SAPSITEID": null, "TRACK_ID": null, "KAURIDIEBACK_TRACK": null, "KAURIDIEBACK_MITIGATED": null, "SegmentID": null, "GlobalID": "00f45986-6019-4b49-93a9-38ee5ed88945", "Shape__Length": 161.50528139036874}}]}