{"type": "FeatureCollection", "features": [{"type": "Feature", "id": 12238, "geometry": {"type": "LineString", "coordinates": [[174.53304401416, -36.9795608627431], [174.53304553429, -36.9795604735533], [174.533115388743, -36.9794819014486], [174.533135968651, -36.9794336384159], [174.533152396525, -36.9793307527493], [174.53313675801, -36.979184646622], [174.533154375546, -36.9791007371591], [174.533179408741, -36.9790331005332], [174.5332352145, -36.9789072714483], [174.53340999867, -36.9786248450329], [174.533574508148, -36.9783365751199], [174.533913963677, -36.9775727331111], [174.533992062111, -36.9773044897171], [174.534178043915, -36.9770485164746], [174.534220048958, -36.9770210680627], [174.534374119524, -36.9769495098545], [174.534405099508, -36.9769263411206], [174.534522396862, -36.9767299154757], [174.534553827123, -36.9767129512274], [174.534611875548, -36.9767028897402], [174.534805586038, -36.9767272636016], [174.534868558477, -36.9767218433996], [174.535565461743, -36.9764813705302], [174.535593786613, -36.9764804001875], [174.535686211006, -36.9765032706728], [174.535790268433, -36.9765040515609], [174.535863973915, -36.976492705255], [174.536145814713, -36.9764202395756], [174.53616980421, -36.9764221194064], [174.536208818024, -36.9764521344106], [174.53626561063, -36.9764461264463], [174.536411764919, -36.9764062065238], [174.536802212977, -36.9762317961893], [174.536891755018, -36.9762001710093], [174.537218843263, -36.976117535517], [174.537647042083, -36.9760657227084], [174.537707421095, -36.9760526099807], [174.537741228027, -36.9760142339416], [174.537856624287, -36.9757467307342], [174.537886649031, -36.9757119009171], [174.53798440072, -36.9756327572259], [174.538023054997, -36.9755550372029], [174.538044854546, -36.9753415299438], [174.53798708989, -36.9750837514513], [174.538219380847, -36.9747769033059], [174.53841241937, -36.9745409864023], [174.538448706155, -36.974438906223], [174.538457090997, -36.9743877807893], [174.538399283086, -36.9742584553003], [174.53839592201, -36.9742198487067], [174.53850487056, -36.974089317377], [174.53862277429, -36.9738266572368], [174.538646948414, -36.973809290226], [174.538706901185, -36.973805790987], [174.538732548194, -36.9737940653833], [174.538885840502, -36.9736648697437], [174.539110222744, -36.9735090004157], [174.539242501986, -36.9733238141231], [174.539432403184, -36.9731287857216], [174.539462204132, -36.9729435220526], [174.539478124228, -36.9729240896531], [174.539554124646, -36.9728701673087], [174.53957228446, -36.9728325435192], [174.539605540012, -36.9725606056503], [174.539626683136, -36.9722818663956], [174.539654917157, -36.9722352065242], [174.539750643993, -36.9721250088939], [174.539785751247, -36.9720922038184], [174.539835729171, -36.9720637216247], [174.539851033971, -36.9720433146785], [174.539989444327, -36.9716079126122], [174.539999981122, -36.9715387680684], [174.539980864269, -36.9714218397452], [174.53988777917, -36.9712811918508], [174.539883828323, -36.9712774574059], [174.539894014582, -36.9713230420638], [174.539880717894, -36.9713288119782], [174.539815839131, -36.9713113019775], [174.539785358382, -36.9712860177204], [174.539792754694, -36.9712472175316], [174.539902142239, -36.9709938423685], [174.539915883574, -36.9709432422254], [174.539901572742, -36.9708847405525], [174.539764842993, -36.9705387528237], [174.539751351057, -36.9704712629934], [174.539743545308, -36.9703693036368], [174.539748671323, -36.9700800999717], [174.539795388685, -36.9697911590062], [174.539771865235, -36.9696260832138], [174.539756327193, -36.9695785759509], [174.539736386808, -36.9695623487846], [174.539697964485, -36.9695482001067], [174.538971508822, -36.9693465587719], [174.538954689624, -36.9693302369253], [174.538950594446, -36.9693076118785], [174.538971298731, -36.9691152102338], [174.538960054422, -36.969068918104], [174.53892142641, -36.9690406295467], [174.538709356268, -36.9689236153496], [174.538452152795, -36.9688005246756], [174.53841155389, -36.9687747582496], [174.53839644333, -36.9687294625902], [174.538401790984, -36.9685453271743], [174.538395836549, -36.9685045458278], [174.538373045451, -36.9684794860147], [174.53825703643, -36.9684156770275], [174.538224996783, -36.9683854100103], [174.538199096586, -36.9681818586549], [174.538076666723, -36.9680105106427], [174.537994611372, -36.9677873521833], [174.537964300328, -36.9677508613558], [174.537776802828, -36.9675841957765], [174.537730246225, -36.9675341696355], [174.537409153983, -36.9671267507973], [174.53724556953, -36.9668676919641], [174.537195556807, -36.9666776123736], [174.537188849846, -36.9666166863392], [174.537235744522, -36.9663182886135], [174.53733488185, -36.9659377406094], [174.537318086227, -36.9657231465915], [174.537335437897, -36.9656973053032], [174.537426285023, -36.9656513222935], [174.537456597214, -36.9656281704387], [174.537564754911, -36.9654057747709], [174.537594193954, -36.9653838960912], [174.537674927666, -36.9653450023667], [174.537709853898, -36.9653139128171], [174.537723683621, -36.9652827540161], [174.537706789358, -36.9652123875437]]}, "properties": {"OBJECTID": 12238, "TRACKNAME": "Nugget Track", "CONDITIONSOFUSE": "Waitakere South Regional Park", "STATUS": "Temp Closed", "WEBLINK": "https://www.aucklandcouncil.govt.nz/en/parks-recreation/find-park-beach/park-detail/212.html", "VALIDATIONSTATE": 3, "created_user": "AC_owner", "last_edited_user": "AC_owner", "last_edited_date": 1789875254325, "created_date": 1789875254325, "PARK_SAPSITEID": null, "TRACK_ID": null, "KAURIDIEBACK_TRACK": null, "KAURIDIEBACK_MITIGATED": null, "SegmentID": null, "GlobalID": "9da97f8a-457e-4379-84fc-89e88a58c9b3", "Shape__Length": 2070.3912624339587}}]}