{"type": "FeatureCollection", "features": [{"type": "Feature", "id": 12665, "geometry": {"type": "LineString", "coordinates": [[174.652535154905, -37.0895376738538], [174.652701649028, -37.0896286845291], [174.652782777401, -37.0898232477242], [174.652891039823, -37.0900174325736], [174.652977321422, -37.090240915824], [174.653113427125, -37.0904673276317], [174.653125304978, -37.0905976253415], [174.653325277155, -37.090848514169], [174.653430279439, -37.09110072712], [174.653516170305, -37.0913060960075], [174.653691170905, -37.091448613614], [174.653775014365, -37.0915597871598], [174.653970389783, -37.0918071147012], [174.654130059239, -37.0920766845527], [174.654181751955, -37.0921322069431], [174.654281165126, -37.0922964113782]]}, "properties": {"OBJECTID": 12665, "TRACKNAME": "<Null>", "CONDITIONSOFUSE": "Awhitu Regional Park", "STATUS": "Open", "WEBLINK": "https://www.aucklandcouncil.govt.nz/en/parks-recreation/find-park-beach/park-detail/207.html", "VALIDATIONSTATE": 3, "created_user": "AC_owner", "last_edited_user": "AC_owner", "last_edited_date": 1789875254325, "created_date": 1789875254325, "PARK_SAPSITEID": null, "TRACK_ID": null, "KAURIDIEBACK_TRACK": null, "KAURIDIEBACK_MITIGATED": null, "SegmentID": null, "GlobalID": "8cb5ca3c-4f91-437f-a568-b396361792b1", "Shape__Length": 349.3061765947154}}]}