{"type": "FeatureCollection", "features": [{"type": "Feature", "id": 2888, "geometry": {"type": "LineString", "coordinates": [[174.445799143808, -36.8430500768343], [174.445927436699, -36.8428947876414], [174.446103411971, -36.8427412500831], [174.446364056727, -36.8425602083011], [174.446584574803, -36.8424447163212], [174.446872178932, -36.842335744608], [174.447149468575, -36.8422823239753], [174.447363185281, -36.8422582868109], [174.447642767938, -36.8422474095418], [174.447808407742, -36.8422240382351], [174.447973295313, -36.842165539861], [174.44810698826, -36.8420793702009], [174.448209408541, -36.841961987866], [174.448299020761, -36.8418588501604], [174.448180250945, -36.8418641570133], [174.447485681135, -36.8418951863355], [174.446854262988, -36.8419551183127], [174.445626461165, -36.8420602231136], [174.444487121316, -36.8411746718423], [174.439903546829, -36.8395658917207], [174.439675952273, -36.8394860030994], [174.439145316615, -36.8392997385638], [174.437694888959, -36.8387905831661], [174.435569220539, -36.838266229832], [174.435102157468, -36.8381510116942], [174.434006282158, -36.8368251540128], [174.434101432486, -36.8362413671064], [174.434577203305, -36.8333166977701], [174.434595478651, -36.8328014150132], [174.434623360859, -36.8323268040927], [174.434699306086, -36.8304696854789], [174.435446118651, -36.8294259119878], [174.435875776127, -36.8291126239626]]}, "properties": {"OBJECTID": 2888, "TRACKNAME": "Oaia Road", "CONDITIONSOFUSE": null, "STATUS": "Open", "WEBLINK": null, "VALIDATIONSTATE": 3, "created_user": "AC_owner", "last_edited_user": "AC_owner", "last_edited_date": 1789875254325, "created_date": 1789875254325, "PARK_SAPSITEID": null, "TRACK_ID": null, "KAURIDIEBACK_TRACK": null, "KAURIDIEBACK_MITIGATED": null, "SegmentID": null, "GlobalID": "b8b93190-931b-4ff0-8d0a-4d601fdf54d6", "Shape__Length": 2626.49894999755}}]}