{"type": "FeatureCollection", "features": [{"type": "Feature", "id": 7418, "geometry": {"type": "MultiLineString", "coordinates": [[[175.010087717703, -36.781371845808], [175.010074099837, -36.781378820567], [175.010063000791, -36.781384506224], [175.01005143074, -36.7813904341843], [175.010051426307, -36.7813904360619]], [[175.010089067218, -36.7814336660179], [175.010089068221, -36.7814336614943], [175.010089069223, -36.7814336569708], [175.010058143415, -36.7813981450544], [175.010051426354, -36.7813904378637], [175.010051418538, -36.7813904388972]], [[175.009615441596, -36.7814170716505], [175.009709324023, -36.7814576143849], [175.009709459906, -36.7814576688713], [175.009734695636, -36.7814662402167], [175.009734709146, -36.7814662426923], [175.009753504718, -36.781466896644], [175.009753506958, -36.7814668966062], [175.009758230061, -36.7814567373413], [175.009743558084, -36.7814257609615], [175.009743554582, -36.7814257556128], [175.009729087297, -36.781401843005], [175.009720297245, -36.7813874830522], [175.009712004756, -36.7813739402967], [175.009712003542, -36.7813739367119], [175.009701014986, -36.7813500500301], [175.009697293041, -36.7813419560072], [175.00969729178, -36.7813419506206], [175.009697864159, -36.7813213521418], [175.009698523271, -36.7813189597203], [175.009702033573, -36.7813138034404], [175.009703220538, -36.7813120582571], [175.009704388348, -36.7813113814593], [175.009714430124, -36.7813089737714], [175.009716039567, -36.7813090321954], [175.009726513282, -36.7813121792391], [175.009726516665, -36.7813121800832], [175.009745309816, -36.7813227377588], [175.009758543276, -36.7813301725942], [175.009783819533, -36.7813443719751], [175.00978382749, -36.7813443763472], [175.009824343866, -36.7813683200607], [175.009844583289, -36.7813802809629], [175.009906192681, -36.7814166893764], [175.009959721147, -36.7814479535285], [175.009959724531, -36.7814479543726], [175.009986273542, -36.7814565268999], [175.009986287077, -36.7814565302764], [175.010012700283, -36.7814600757397], [175.010012707003, -36.7814600756261], [175.010036456261, -36.7814586259449], [175.010036466294, -36.7814586239727], [175.010057578643, -36.7814521850006], [175.010057580859, -36.7814521840618], [175.010079806988, -36.7814406842867], [175.010079809181, -36.781440682447], [175.010089067218, -36.7814336660179], [175.010089078442, -36.7814336667295]], [[175.00975352437, -36.7814669197461], [175.009753504718, -36.781466896644], [175.009753516295, -36.7814669108694], [175.00975352437, -36.7814669197461]], [[175.009143901241, -36.7816734187272], [175.009069083185, -36.781719344956], [175.009040598513, -36.7817596812567], [175.009165911436, -36.7817065488235], [175.009233133115, -36.7816748952732], [175.009268881533, -36.7816605578453], [175.009292886009, -36.7816548047127], [175.009309215422, -36.7816198478739], [175.009342984397, -36.7815780284382], [175.009380718916, -36.781549084908], [175.009434446947, -36.7815066929287], [175.009475447627, -36.7814539372373], [175.009499581836, -36.7813990978996], [175.009499587318, -36.7813990933004], [175.009511565977, -36.7813915189907], [175.009511573746, -36.7813915161555], [175.009527345976, -36.7813887727931], [175.009542053766, -36.7813914363972], [175.00954205827, -36.7813914372224], [175.009552806505, -36.7813950988011], [175.009617188242, -36.7814170205002]], [[175.009040551244, -36.7817597481928], [175.009040598513, -36.7817596812567], [175.009040586604, -36.7817596863058], [175.008985850421, -36.7817847682068]]]}, "properties": {"OBJECTID": 7418, "TRACKNAME": "Ocean View To Oneroa Beach", "CONDITIONSOFUSE": "Oneroa Beach Reserve", "STATUS": "Open", "WEBLINK": "https://www.aucklandcouncil.govt.nz/en/parks-recreation/find-park-beach/park-detail/1092.html", "VALIDATIONSTATE": 3, "created_user": "AC_owner", "last_edited_user": "AC_owner", "last_edited_date": 1789875254325, "created_date": 1789875254325, "PARK_SAPSITEID": null, "TRACK_ID": null, "KAURIDIEBACK_TRACK": null, "KAURIDIEBACK_MITIGATED": null, "SegmentID": null, "GlobalID": "ea0bb594-dfa5-4140-93a5-92f73c4837a4", "Shape__Length": 172.77151672473286}}]}