{"type": "FeatureCollection", "features": [{"type": "Feature", "id": 710, "geometry": {"type": "LineString", "coordinates": [[174.546957913311, -36.9105498998861], [174.546889507433, -36.9105986225879], [174.546795126364, -36.9106456770869], [174.546647703008, -36.9106919079258], [174.546372778035, -36.9107548243704], [174.546316371518, -36.9107825095189], [174.546273359932, -36.9108237300103], [174.546242760919, -36.9108776423517], [174.546262833676, -36.9109428381081], [174.546320425985, -36.9110261405475], [174.546426807864, -36.9111125483991], [174.546460124583, -36.9111654393219], [174.546472559482, -36.9112287064131], [174.546478315371, -36.9113547773807], [174.54651583572, -36.9114957669616], [174.546478326655, -36.9116110530761], [174.546461141146, -36.9117061003363], [174.54643207583, -36.9117781642519], [174.546417673634, -36.9117925843048], [174.546377307725, -36.9118058641549], [174.546303649853, -36.9118481055911], [174.546223324206, -36.9119092452529], [174.54619065548, -36.9119535128837], [174.546142237448, -36.9120655788145], [174.54625584447, -36.9121167125006], [174.546319904892, -36.912186752769], [174.546490346439, -36.9124992719422], [174.546574582308, -36.9126984491736], [174.546604708054, -36.9128061754969], [174.5466142413, -36.9129052734971], [174.546605531566, -36.9129842472375], [174.546565375431, -36.9131402373651], [174.546580663529, -36.9131763452309], [174.546617722754, -36.9132071760447], [174.546593037587, -36.9134116654057], [174.546619005353, -36.9135413760346], [174.546643383196, -36.9136140330035], [174.546663698183, -36.9136461454486], [174.546799180677, -36.9137681653897], [174.546836070357, -36.9138122573972], [174.546844580457, -36.9138351133129], [174.54684689477, -36.9138996748967], [174.546892527555, -36.9139964909575], [174.546891906392, -36.9140402061733], [174.546866411651, -36.9140939980965], [174.546733801199, -36.9142859489162], [174.546656713109, -36.9143674355547], [174.546540309217, -36.914447018433], [174.546373708062, -36.9145228290701], [174.546311127723, -36.9145601039964], [174.546243733648, -36.9146180467327], [174.546149811148, -36.9147292177862], [174.546089810311, -36.9147814036276], [174.546055785524, -36.9147974851973], [174.546003134323, -36.9148050479578], [174.545978186609, -36.9148175861697], [174.545961833033, -36.9148388008085], [174.545936738181, -36.9149074418031], [174.545866032528, -36.9149470576397], [174.545781068332, -36.9150633036625], [174.545717994409, -36.9151212079053], [174.545616774213, -36.9151751017183], [174.545447727615, -36.9152388826497], [174.545280756268, -36.9153254138032], [174.545158684355, -36.9154474602235], [174.545154795977, -36.9154717214389], [174.545169482955, -36.9155036369408]]}, "properties": {"OBJECTID": 710, "TRACKNAME": "Old Coach Road", "CONDITIONSOFUSE": "Waitakere North Regional Park", "STATUS": "Open", "WEBLINK": "https://www.aucklandcouncil.govt.nz/en/parks-recreation/find-park-beach/park-detail/3407.html", "VALIDATIONSTATE": 3, "created_user": "AC_owner", "last_edited_user": "AC_owner", "last_edited_date": 1789875254325, "created_date": 1789875254325, "PARK_SAPSITEID": null, "TRACK_ID": null, "KAURIDIEBACK_TRACK": null, "KAURIDIEBACK_MITIGATED": null, "SegmentID": null, "GlobalID": "9708dcfa-0a24-418a-b03d-f65a550223b2", "Shape__Length": 700.4483501038751}}, {"type": "Feature", "id": 2964, "geometry": {"type": "LineString", "coordinates": [[174.559434524405, -36.9069895892907], [174.559422824192, -36.9070854604586], [174.559410600736, -36.9071000544647], [174.559380973598, -36.9071115310925], [174.559371837427, -36.9071257159061], [174.559367523255, -36.9072448299988], [174.559352728838, -36.9072640817441], [174.559305141025, -36.9072863274723], [174.559290941329, -36.907305517321], [174.559270052399, -36.9073901221766], [174.559235566565, -36.9074420364094], [174.559228848883, -36.9075319165867], [174.559205699621, -36.9075929380912], [174.559232332576, -36.9078184114852], [174.559247690169, -36.9078544996613], [174.559293195439, -36.9079095731773], [174.559307492169, -36.9079405780633], [174.559292433312, -36.9080373279612], [174.559256315245, -36.9080830135737], [174.559117844028, -36.908175807642], [174.559068692056, -36.9081918778407], [174.558949462071, -36.9081993989856], [174.558895948415, -36.9082212671411], [174.558865700019, -36.9082495631199], [174.55883395261, -36.9083391083575], [174.558836186923, -36.90848822127], [174.558776981889, -36.9087193298657], [174.558776660767, -36.908807242212], [174.558686021025, -36.908939109494], [174.558635104276, -36.9089945778172], [174.558598197261, -36.9090163153556], [174.558554815265, -36.9090217456577], [174.55851544656, -36.9090143500691], [174.558338643115, -36.9089320697002], [174.558180721411, -36.9088832081769], [174.558133455507, -36.9088583863502], [174.558073660823, -36.9088053620544], [174.55804775014, -36.908791775877], [174.557890316368, -36.9087959644983], [174.557542685628, -36.9087699438768], [174.557478268809, -36.9087941816415], [174.55740801434, -36.9087968451713], [174.557346519668, -36.9088104526312], [174.557136049613, -36.9088907959478], [174.556949580443, -36.9088996346242], [174.556866033402, -36.9089301069692], [174.556705455656, -36.9089702671759], [174.556636689155, -36.9090050100973], [174.556576116685, -36.9090859396128], [174.556529480494, -36.9091102034434], [174.556414746926, -36.9091290725904], [174.556111656547, -36.9091541834641], [174.556086627946, -36.9091654962777], [174.55607688659, -36.9091945207031], [174.556043000781, -36.9092045650499], [174.555752565679, -36.9092320573733], [174.555608529992, -36.9092165953364], [174.555485207283, -36.9092192262492], [174.555377296962, -36.9092084835884], [174.555252072656, -36.9092058544668], [174.555069127173, -36.9091757276951], [174.554407189163, -36.9091550275298], [174.554277509373, -36.9091394255755], [174.554204779437, -36.9091403736656], [174.55402216034, -36.9091684636793], [174.553909769868, -36.9092128471028], [174.553595057088, -36.9092162437424], [174.553501788394, -36.9092563133229], [174.553404528467, -36.9092850517086], [174.553311012826, -36.9093282295678], [174.553114553094, -36.9093728697586], [174.552939135, -36.9094252800929], [174.552898683076, -36.9094269464917], [174.552819784018, -36.9094135633895], [174.552708618269, -36.9094197452051], [174.55263318346, -36.9094347844605], [174.552548235917, -36.9094659418076], [174.552201843863, -36.9094580815918], [174.552146196566, -36.9094820910133], [174.552065544321, -36.9095591100588], [174.552034591583, -36.9096082467451], [174.551983284017, -36.9097593574658], [174.551960385939, -36.9097795236161], [174.551896033245, -36.909813095664], [174.551874954819, -36.9098348776036], [174.551852953463, -36.9099017424864], [174.551798272245, -36.9099868083177], [174.551789966702, -36.9100847364196], [174.551765100995, -36.9101227518045], [174.551724503959, -36.9101437584603], [174.551631306564, -36.910174486626], [174.551531189073, -36.9102388475608]]}, "properties": {"OBJECTID": 2964, "TRACKNAME": "Old Coach Road", "CONDITIONSOFUSE": "Waitakere North Regional Park", "STATUS": "Temp Closed", "WEBLINK": "https://www.aucklandcouncil.govt.nz/en/parks-recreation/find-park-beach/park-detail/3407.html", "VALIDATIONSTATE": 3, "created_user": "AC_owner", "last_edited_user": "AC_owner", "last_edited_date": 1789875254325, "created_date": 1789875254325, "PARK_SAPSITEID": null, "TRACK_ID": null, "KAURIDIEBACK_TRACK": null, "KAURIDIEBACK_MITIGATED": null, "SegmentID": null, "GlobalID": "e4c7e0f1-9d0e-47f2-b371-9be05944a21c", "Shape__Length": 975.2114866622594}}, {"type": "Feature", "id": 12800, "geometry": {"type": "LineString", "coordinates": [[174.551530335639, -36.9102407137153], [174.551306738015, -36.9102904511114], [174.551069164233, -36.9103318166594], [174.550951254182, -36.9103631013643], [174.550891882502, -36.9103922605559], [174.550769995423, -36.9104815907542], [174.550714207346, -36.9104998145954], [174.550668717195, -36.9104933327918], [174.550588686086, -36.9104623251093], [174.550523904395, -36.9104560229852], [174.55018594856, -36.9104697182925], [174.55000727397, -36.910509087142], [174.549877783033, -36.9104545768732], [174.549765072144, -36.9104277537446], [174.549653844633, -36.9104159909722], [174.54948376195, -36.9104206616052], [174.549328859148, -36.9103961280966], [174.549286129643, -36.910379063793], [174.54925603242, -36.9103572287355], [174.549220503963, -36.9102871874582], [174.549192284058, -36.9102549441847], [174.549074671276, -36.9101894076511], [174.549011037336, -36.9101354977098], [174.548969021811, -36.9100693627351], [174.548930947558, -36.9099666620906], [174.548866336667, -36.9099110522153], [174.548836732053, -36.9098347411935], [174.548816526736, -36.9098119297472], [174.548770407767, -36.909797081737], [174.548678648786, -36.909782188829], [174.548516194404, -36.9097765821992], [174.548452068638, -36.9097538295031], [174.548420310075, -36.909721415843], [174.548400530677, -36.9097130025702], [174.548280682471, -36.9097189364923], [174.548155193061, -36.9096867890773], [174.548096208852, -36.9096846104103], [174.548043532843, -36.9097185302559], [174.547846685133, -36.9097650641943], [174.547809364066, -36.9097850921155], [174.54778011675, -36.9098286125307], [174.547703150263, -36.910045275849], [174.547678789481, -36.9100589965619], [174.547585891131, -36.9100843815946], [174.547530365501, -36.9101722849897], [174.547485693891, -36.9102162947306], [174.547436504127, -36.9102533507051], [174.547314980244, -36.9103247355173], [174.547246216433, -36.9104357870088], [174.547199575143, -36.9104456515862], [174.54714059834, -36.9104705403199], [174.547045652723, -36.9104874066696], [174.546957913311, -36.9105498998861]]}, "properties": {"OBJECTID": 12800, "TRACKNAME": "Old Coach Road", "CONDITIONSOFUSE": "Waitakere North Regional Park", "STATUS": "Temp Closed", "WEBLINK": "https://www.aucklandcouncil.govt.nz/en/parks-recreation/find-park-beach/park-detail/3407.html", "VALIDATIONSTATE": 3, "created_user": "AC_owner", "last_edited_user": "AC_owner", "last_edited_date": 1789875254325, "created_date": 1789875254325, "PARK_SAPSITEID": null, "TRACK_ID": null, "KAURIDIEBACK_TRACK": null, "KAURIDIEBACK_MITIGATED": null, "SegmentID": null, "GlobalID": "9e6a6d98-f935-4739-96b3-0905b5520b85", "Shape__Length": 506.7966993786887}}]}