{"type": "FeatureCollection", "features": [{"type": "Feature", "id": 12221, "geometry": {"type": "LineString", "coordinates": [[175.023195439264, -36.8831898506828], [175.023162702788, -36.883158934772], [175.023141808548, -36.883137145639], [175.023117682552, -36.8831025860122], [175.023075691518, -36.8829960642245], [175.023041417821, -36.8829068962522], [175.023024167693, -36.8828582312912], [175.022999826676, -36.8828155185132], [175.022979959931, -36.8827773892653], [175.022969184537, -36.882754265093], [175.022939014652, -36.8827104798735], [175.022858200543, -36.8826174446698], [175.022741203804, -36.8824725697336], [175.022641785973, -36.8823343894618], [175.02260069866, -36.8822616509335], [175.02257952815, -36.8822293752366], [175.022574100792, -36.8821886656841], [175.022573639895, -36.8821711972768], [175.02257759138, -36.8821559700891], [175.02258700284, -36.8821278334148], [175.022593613375, -36.8821032504971], [175.022588739385, -36.882083513844], [175.022580100096, -36.8820312051382], [175.022566247105, -36.8820011392175], [175.022555022042, -36.8819605373899], [175.022490047814, -36.8815326867356], [175.022483635229, -36.8815094882304], [175.022478207991, -36.8814687786657], [175.022473211435, -36.8814443933705], [175.022467002511, -36.8814293391718], [175.022462324495, -36.8814166022949], [175.022461678961, -36.8813921339073], [175.022458159517, -36.8813688771298], [175.022451920181, -36.8813526697804], [175.0224331336, -36.8813350446939], [175.022393468773, -36.8813187484634], [175.022256438042, -36.8812725912413], [175.021714188418, -36.8810830027648], [175.021580111286, -36.8810343699767], [175.021454956385, -36.8809807271834], [175.021295648504, -36.880891306838], [175.021102965417, -36.8807951715946], [175.020919780317, -36.8807158549943], [175.020676325649, -36.8806399878315], [175.020542632909, -36.8806058853273], [175.02038165137, -36.8805674068004], [175.020187561498, -36.8805319156098], [175.020014832807, -36.8805057588808], [175.019851728938, -36.8805012587929], [175.019728108612, -36.8805057851965], [175.019637915994, -36.8805194411744], [175.019410934596, -36.8806105821977], [175.019306627285, -36.8806608544665], [175.019213958347, -36.8807287385671], [175.019153166118, -36.8807975589126], [175.019091120168, -36.8808532865761], [175.019051039718, -36.8808816648647], [175.019017888784, -36.8808975324444], [175.01898180178, -36.8809054373315], [175.018940160419, -36.8809090562748], [175.018876828546, -36.8809159640631], [175.0188279124, -36.880918985561], [175.018788708374, -36.8809116302212], [175.018737610841, -36.8809008357228]]}, "properties": {"OBJECTID": 12221, "TRACKNAME": "Omana Farm Walk", "CONDITIONSOFUSE": "Omana Regional Park", "STATUS": "Open", "WEBLINK": null, "VALIDATIONSTATE": 3, "created_user": "AC_owner", "last_edited_user": "AC_owner", "last_edited_date": 1789875254325, "created_date": 1789875254325, "PARK_SAPSITEID": null, "TRACK_ID": null, "KAURIDIEBACK_TRACK": null, "KAURIDIEBACK_MITIGATED": null, "SegmentID": null, "GlobalID": "fa72e16b-ebc4-4257-a570-cbb5efffdca0", "Shape__Length": 587.7481747734247}}]}