{"type": "FeatureCollection", "features": [{"type": "Feature", "id": 12179, "geometry": {"type": "LineString", "coordinates": [[174.511418301023, -37.0416424047946], [174.511200463518, -37.0415625389844], [174.511104501724, -37.0415027130282], [174.511061303823, -37.0414638815277], [174.510993627651, -37.0413382544567], [174.510947149089, -37.0412913201024], [174.510889208847, -37.0412695351625], [174.510809792223, -37.0412521537088], [174.510679340899, -37.041258344375], [174.51063197419, -37.0412467523206], [174.510566433562, -37.0412052424228], [174.510471474327, -37.0410844610992], [174.510456883324, -37.0410263674018], [174.510452027554, -37.0409246469848], [174.510466443234, -37.0408949613394], [174.510502426984, -37.0408624953027], [174.510650358775, -37.0407560585154], [174.510932101266, -37.0406983459831], [174.510982226954, -37.0406766979463], [174.510984889139, -37.0406454800305], [174.510966264694, -37.0406090575524], [174.510906588436, -37.0405382910295], [174.510851862392, -37.0404971095333], [174.510720240211, -37.0404194733657], [174.510673331537, -37.0404039041396], [174.510549866981, -37.0404165963458], [174.51047617826, -37.0404521239778], [174.510449443175, -37.0404579401021], [174.510292016205, -37.0404356621534], [174.510258271021, -37.0404192536618], [174.510208203831, -37.0403528207147], [174.51016511661, -37.0403129355851], [174.510124510653, -37.0402857495215], [174.510097100482, -37.0402779187054], [174.510034748026, -37.0402842863895], [174.509767073156, -37.0403384043296], [174.509578878897, -37.040419573786], [174.509448639373, -37.0404124889101], [174.509251458565, -37.0403300455366], [174.509181658924, -37.0403131706636], [174.509141116754, -37.0403144066274], [174.508973815762, -37.0403447670079], [174.508853769644, -37.0403512937964], [174.508806178432, -37.040344563939], [174.508684428436, -37.0402075595712], [174.508581788891, -37.0401436810575], [174.507967270685, -37.0399103516728], [174.507780941721, -37.0398219316247], [174.507675938508, -37.0397510977886], [174.507635385092, -37.0397385616433], [174.507576805744, -37.0397405824402], [174.507514201639, -37.0397553084158], [174.507311770572, -37.039852284632], [174.507254970206, -37.0398971995705], [174.507187151838, -37.0399860105334], [174.507130576492, -37.0400191689432], [174.507071469723, -37.0400389987678], [174.50702399642, -37.0400453254599], [174.506983821206, -37.0400446433572]]}, "properties": {"OBJECTID": 12179, "TRACKNAME": "Omanawanui Track", "CONDITIONSOFUSE": "Waitakere South Regional Park", "STATUS": "Open", "WEBLINK": "https://www.aucklandcouncil.govt.nz/en/parks-recreation/find-park-beach/park-detail/212.html", "VALIDATIONSTATE": 3, "created_user": "AC_owner", "last_edited_user": "AC_owner", "last_edited_date": 1789875254325, "created_date": 1789875254325, "PARK_SAPSITEID": null, "TRACK_ID": null, "KAURIDIEBACK_TRACK": null, "KAURIDIEBACK_MITIGATED": null, "SegmentID": null, "GlobalID": "911f72f5-a2d2-49a5-b1d5-cd47a84e5a6f", "Shape__Length": 607.9679427952442}}, {"type": "Feature", "id": 12227, "geometry": {"type": "LineString", "coordinates": [[174.529195550766, -37.0271639797094], [174.529154022988, -37.0273267885831], [174.529084730515, -37.0274808318284], [174.529065880011, -37.0274993325242], [174.529007078133, -37.0275318602491], [174.52897302964, -37.0275638751444], [174.528357686706, -37.0283013735232], [174.528144515687, -37.0284672430943], [174.528053306807, -37.0285524255], [174.527934739702, -37.0287570501195], [174.52789611024, -37.028798382372], [174.527768733471, -37.0288855193822], [174.527723075129, -37.0289076514075], [174.527468913736, -37.0289150351], [174.526743820305, -37.0291227114951], [174.526528948785, -37.0292529480903], [174.526260632974, -37.0293931638895], [174.526225297132, -37.0294343153266], [174.526159612028, -37.0295717094194], [174.526124788873, -37.0296109595941], [174.525778744276, -37.0298274765556], [174.525625481171, -37.0299062290599], [174.525569302857, -37.0299447477867], [174.525487459923, -37.0300697817683], [174.525457222514, -37.0301336769791], [174.525472875478, -37.0302205217623], [174.525436873331, -37.0305036236469], [174.525460853407, -37.0305817480557], [174.525430103206, -37.0306147921416], [174.524836874057, -37.0309720863331], [174.524601917857, -37.0310684408119], [174.524375321614, -37.0312089202497], [174.524260616408, -37.0312622135823], [174.523969353399, -37.0313618609075], [174.523876411877, -37.0313867359563], [174.523738507624, -37.0314107967583], [174.523615654459, -37.0313980440593], [174.523556181072, -37.0314113519448], [174.523474671109, -37.0314471628683], [174.523429558005, -37.0315140022234], [174.52338756353, -37.031538804921], [174.52303231519, -37.0316650411773], [174.522769484467, -37.0317413640789], [174.522745684434, -37.0317711689503], [174.522729667278, -37.0319060127792], [174.522697237867, -37.0320272748053], [174.522678576979, -37.032067171012], [174.522633674425, -37.0321051389322], [174.52240735775, -37.0322528615216], [174.522335048426, -37.0322659207045], [174.522033653599, -37.0322447916659], [174.521960622176, -37.0322494448824], [174.52183943209, -37.0322845874857], [174.521520254102, -37.0324043941056], [174.521466687669, -37.0324317935127], [174.521433468373, -37.0324745298128], [174.521355375767, -37.0326188441407], [174.521202164536, -37.0330388369015], [174.52118858604, -37.0330990490306], [174.521187687959, -37.0333052632596], [174.52117250104, -37.0333344472107], [174.521105840706, -37.033397588832], [174.521089049014, -37.033425232211], [174.521078564401, -37.0335499755562], [174.521044697721, -37.0336868209701], [174.520918939207, -37.0338413428169], [174.520718272712, -37.0343031701514], [174.520679143707, -37.0343457764878], [174.520457041585, -37.0345362816331], [174.520366866479, -37.0345997819096], [174.520169811683, -37.034696930895], [174.520016800818, -37.0347213261228], [174.519944208505, -37.0347538854941], [174.519932444584, -37.0347825179703], [174.519930160108, -37.0348886108726], [174.519866495893, -37.0350131719524], [174.519830478702, -37.0350555813093], [174.519574112252, -37.0351599870037], [174.519460136953, -37.0351733068594], [174.519329587491, -37.035172823789], [174.519235377279, -37.035187602855], [174.519174013259, -37.0352024749926], [174.518902876093, -37.0352945576636], [174.518678688852, -37.0352847269588], [174.518546191851, -37.0352929353401], [174.518494602526, -37.0353188812769], [174.518439727938, -37.0353910634242], [174.518385174938, -37.0354320321903], [174.518057259107, -37.0354854209231], [174.517895116775, -37.0355372745358], [174.517683270914, -37.0356316747887], [174.517637705002, -37.0356111841641], [174.517597611319, -37.0356052190769], [174.517529874445, -37.0356425379928], [174.517384496486, -37.0357745200899], [174.517353078481, -37.0358693672029], [174.517335961791, -37.0358972710999], [174.517294240595, -37.0359319018975], [174.517213001244, -37.0359800635143], [174.51713615656, -37.0360128468255], [174.517034286546, -37.0360837635483], [174.516857605002, -37.0363281092024], [174.516751622754, -37.0364295493027], [174.516735358066, -37.0366430013256], [174.51671779585, -37.0366719275528], [174.51661745373, -37.0367816202902], [174.516538283088, -37.0370438418261], [174.516524896382, -37.0371156639659], [174.516517631799, -37.0372666256751], [174.516459897331, -37.0375383004748], [174.516375588072, -37.0376756956443], [174.516178223184, -37.0379041632969], [174.516142479401, -37.0379375933131], [174.516107982542, -37.0379573438208], [174.515819840638, -37.0380822774407], [174.515266865662, -37.038403840186], [174.515166336155, -37.0384300979504], [174.514927691564, -37.0384481920533], [174.514705768407, -37.0385299562408], [174.514659943755, -37.0385756629288], [174.514460239823, -37.0389029663026], [174.514437818376, -37.0389654808403], [174.514405917865, -37.0391613124554], [174.514409377021, -37.0393596112204], [174.514426862525, -37.0396024982508], [174.514439147451, -37.0396240071586], [174.514468669776, -37.0396469689039], [174.514837254579, -37.0398598692054], [174.514850572648, -37.0398793251206], [174.514851868785, -37.0399022839717], [174.514831054106, -37.039946181409], [174.51449176968, -37.0401165259577], [174.514322750662, -37.0402127503781], [174.513844291752, -37.0405517428493], [174.513670988013, -37.0407074163706], [174.513656536113, -37.0407391768619], [174.513625161756, -37.0408868333994], [174.513515130793, -37.0410522388054], [174.513479761481, -37.0410850097715], [174.513379072781, -37.0411396479761], [174.513309650202, -37.0411654099885], [174.513223938489, -37.0411711228226], [174.512943516004, -37.0410638589391], [174.512790878491, -37.0410595592527], [174.512495819198, -37.0410118871202], [174.512441811253, -37.0409862175587], [174.512334412412, -37.0408829464353], [174.512268562955, -37.0408647800704], [174.512204097555, -37.0408641227722], [174.512118982475, -37.0409171327427], [174.512066073741, -37.0409733411352], [174.512037023105, -37.0410391124755], [174.51202078696, -37.041176242578], [174.51198376793, -37.0412310324753], [174.511832256835, -37.0413591155725], [174.511567374138, -37.0414832846595], [174.511497182811, -37.0415785756238], [174.511418301023, -37.0416424047946]]}, "properties": {"OBJECTID": 12227, "TRACKNAME": "Omanawanui Track", "CONDITIONSOFUSE": "Waitakere South Regional Park", "STATUS": "Open", "WEBLINK": "https://www.aucklandcouncil.govt.nz/en/parks-recreation/find-park-beach/park-detail/212.html", "VALIDATIONSTATE": 3, "created_user": "AC_owner", "last_edited_user": "AC_owner", "last_edited_date": 1789875254325, "created_date": 1789875254325, "PARK_SAPSITEID": null, "TRACK_ID": null, "KAURIDIEBACK_TRACK": null, "KAURIDIEBACK_MITIGATED": null, "SegmentID": null, "GlobalID": "a47d1c8a-d920-4a48-9930-d19b556ce17e", "Shape__Length": 2592.668192701732}}]}