{"type": "FeatureCollection", "features": [{"type": "Feature", "id": 9917, "geometry": {"type": "MultiLineString", "coordinates": [[[175.016766456982, -36.7845437730354], [175.017074365473, -36.7845185797644], [175.017892975494, -36.7846273641008], [175.018366235762, -36.7845508623625], [175.018546136442, -36.784634074389]], [[175.016754470943, -36.7845391732139], [175.016725959111, -36.7845378649771], [175.016687917575, -36.7845514098169], [175.01664803489, -36.7845413127956], [175.016596616951, -36.7845482578978], [175.016578040849, -36.7845594265893], [175.016124332485, -36.7844423772075], [175.015974908075, -36.7844910869236], [175.015891761863, -36.7844871697942], [175.015508648574, -36.7841118043976], [175.015310972205, -36.7840561186544], [175.014839052071, -36.7839926353617], [175.014775009077, -36.7839808344008], [175.014739883344, -36.7839743641455], [175.014739667878, -36.78397242636], [175.014551912455, -36.7840378389098], [175.014457321503, -36.7840697788709], [175.014417519243, -36.7840705216698], [175.014401173117, -36.7840820019571], [175.014289105731, -36.7840825998283], [175.01423668326, -36.7840634578881], [175.014144296922, -36.784071883657], [175.014062966218, -36.7840622201383], [175.013982722341, -36.7840421081167], [175.013881403535, -36.7840298339086], [175.013845883554, -36.7840240109017], [175.013682925937, -36.7839972985159], [175.01362220789, -36.7839873442049], [175.013503848022, -36.7839580709914], [175.013476692687, -36.7839580621341], [175.013464515636, -36.783958055618], [175.013464483037, -36.7839580516635], [175.01326045399, -36.7839018120892], [175.013254721429, -36.7839002317977], [175.013225651209, -36.7838922191615], [175.013212497545, -36.7838885914391], [175.013212196337, -36.7838885568808], [175.013170186341, -36.7838912131815], [175.013169973474, -36.7838912573448], [175.013162073708, -36.7838943411023], [175.013129246103, -36.7839071737233], [175.013124573083, -36.783909000492], [175.013036905895, -36.7839432691835], [175.012724132533, -36.7840121400433], [175.012722741212, -36.7840125403444], [175.012685730459, -36.7840266559228]], [[175.013438178917, -36.7835926822429], [175.013534691844, -36.7837055963541], [175.013076580713, -36.7838189088669], [175.012725421866, -36.7839532324701], [175.012654437028, -36.7840475950301]]]}, "properties": {"OBJECTID": 9917, "TRACKNAME": "Oneroa to Little Oneroa", "CONDITIONSOFUSE": "Little Oneroa Reserve", "STATUS": "Open", "WEBLINK": "https://www.aucklandcouncil.govt.nz/en/parks-recreation/find-park-beach/park-detail/92.html", "VALIDATIONSTATE": 3, "created_user": "AC_owner", "last_edited_user": "AC_owner", "last_edited_date": 1789875254325, "created_date": 1789875254325, "PARK_SAPSITEID": null, "TRACK_ID": null, "KAURIDIEBACK_TRACK": null, "KAURIDIEBACK_MITIGATED": null, "SegmentID": null, "GlobalID": "5d9d3583-d076-4b2a-b0fe-525f65502045", "Shape__Length": 665.9580930877694}}, {"type": "Feature", "id": 11996, "geometry": {"type": "LineString", "coordinates": [[175.013476587941, -36.7835182906153], [175.014306565793, -36.7836554358885], [175.014762173393, -36.7835821011377], [175.01532779531, -36.7836466907293], [175.015641412391, -36.783704137217], [175.015902865905, -36.7839364925436], [175.01655577445, -36.7839482447812], [175.016814005092, -36.7837869576828], [175.01702436582, -36.7838290358008], [175.018540035355, -36.7845772003629]]}, "properties": {"OBJECTID": 11996, "TRACKNAME": "Oneroa to Little Oneroa", "CONDITIONSOFUSE": "Little Oneroa Reserve", "STATUS": "Open", "WEBLINK": "https://www.aucklandcouncil.govt.nz/en/parks-recreation/find-park-beach/park-detail/92.html", "VALIDATIONSTATE": 3, "created_user": "AC_owner", "last_edited_user": "AC_owner", "last_edited_date": 1789875254325, "created_date": 1789875254325, "PARK_SAPSITEID": null, "TRACK_ID": null, "KAURIDIEBACK_TRACK": null, "KAURIDIEBACK_MITIGATED": null, "SegmentID": null, "GlobalID": "3e4f29b4-23fd-425d-82e8-1ec43feba535", "Shape__Length": 497.15879745013257}}]}