{"type": "FeatureCollection", "features": [{"type": "Feature", "id": 11982, "geometry": {"type": "LineString", "coordinates": [[175.010035717398, -36.7766335398081], [175.009951559421, -36.7766921605823], [175.009869974044, -36.7767530894691], [175.009791059039, -36.7768162534557], [175.00971490898, -36.7768815768511], [175.009641615127, -36.776948981376], [175.009571265318, -36.7770183862572], [175.009503943866, -36.7770897083242], [175.009439731452, -36.7771628621087], [175.009378705036, -36.777237759947], [175.009320937757, -36.7773143120854], [175.009266498852, -36.7773924267873], [175.009215453568, -36.7774720104433], [175.009167863087, -36.7775529676834], [175.00912378445, -36.7776352014914], [175.009083270493, -36.7777186133206], [175.009046369777, -36.7778031032125], [175.009013126535, -36.7778885699165], [175.008983580619, -36.7779749110106], [175.008957767448, -36.778062023025], [175.00893571797, -36.7781498015656], [175.00891745862, -36.778238141439], [175.008903011295, -36.778326936779], [175.008892393322, -36.7784160811728], [175.008885617438, -36.7785054677895], [175.008882691777, -36.778594989507], [175.008883619858, -36.7786845390412], [175.008888400584, -36.7787740090743], [175.008897028238, -36.7788632923833], [175.008909492494, -36.7789522819687], [175.008925778427, -36.7790408711825], [175.008945866533, -36.7791289538564], [175.00896973275, -36.7792164244285], [175.009027188646, -36.779391340564], [175.009092079221, -36.7795645660773], [175.009164327953, -36.779735896557], [175.009243849632, -36.7799051298267], [175.009330550468, -36.7800720661838], [175.009424328193, -36.7802365086345], [175.009525072189, -36.780398263127], [175.009632663613, -36.7805571387803], [175.00974697554, -36.7807129481096], [175.009867873112, -36.7808655072474], [175.009995213697, -36.7810146361607], [175.010128847057, -36.7811601588639], [175.010268615525, -36.7813019036256], [175.01041435419, -36.7814397031723], [175.010565891095, -36.7815733948854], [175.010723047436, -36.7817028209932], [175.010875553538, -36.7818325314538], [175.011030610397, -36.7819602704097], [175.011188178636, -36.7820860054126], [175.011348218241, -36.7822097045232], [175.011510688568, -36.7823313363189], [175.011675548357, -36.7824508699026], [175.011842755739, -36.7825682749097], [175.012012268248, -36.7826835215163], [175.012184042833, -36.7827965804468], [175.012358035868, -36.782907422981], [175.01253420316, -36.783016020962], [175.012712499966, -36.7831223468026], [175.012892881001, -36.7832263734929], [175.013075300449, -36.7833280746069], [175.013259711976, -36.7834274243093], [175.013446068743, -36.7835243973623]]}, "properties": {"OBJECTID": 11982, "TRACKNAME": "Oneroa Beach Walk", "CONDITIONSOFUSE": "Korora Road Reserve", "STATUS": "Open", "WEBLINK": "https://www.aucklandcouncil.govt.nz/en/parks-recreation/find-park-beach/park-detail/197.html", "VALIDATIONSTATE": 3, "created_user": "AC_owner", "last_edited_user": "AC_owner", "last_edited_date": 1789875254325, "created_date": 1789875254325, "PARK_SAPSITEID": null, "TRACK_ID": null, "KAURIDIEBACK_TRACK": null, "KAURIDIEBACK_MITIGATED": null, "SegmentID": null, "GlobalID": "a3e81baa-98d8-405a-b4e7-390ef0ecc165", "Shape__Length": 956.2792661316}}]}