{"type": "FeatureCollection", "features": [{"type": "Feature", "id": 12006, "geometry": {"type": "LineString", "coordinates": [[175.072581883109, -36.7870034364583], [175.072512380813, -36.7869185478759], [175.081462002259, -36.7878175582023], [175.086290412208, -36.7880558279629], [175.086674514595, -36.7883549408277]]}, "properties": {"OBJECTID": 12006, "TRACKNAME": "Onetangi Beach", "CONDITIONSOFUSE": "Onetangi Beach Strand", "STATUS": "Open", "WEBLINK": "https://www.aucklandcouncil.govt.nz/en/parks-recreation/find-park-beach/park-detail/1032.html", "VALIDATIONSTATE": 3, "created_user": "AC_owner", "last_edited_user": "AC_owner", "last_edited_date": 1789875254325, "created_date": 1789875254325, "PARK_SAPSITEID": null, "TRACK_ID": null, "KAURIDIEBACK_TRACK": null, "KAURIDIEBACK_MITIGATED": null, "SegmentID": null, "GlobalID": "1f4e59d5-1229-4cef-bc64-31fed13edf84", "Shape__Length": 1295.8564285323814}}]}