{"type": "FeatureCollection", "features": [{"type": "Feature", "id": 12011, "geometry": {"type": "MultiLineString", "coordinates": [[[175.060663581789, -36.8031713391823], [175.060663579087, -36.8031706947947], [175.060664919834, -36.8031681956646], [175.06075398938, -36.8031033457341], [175.060757181446, -36.8031018825601], [175.060845172172, -36.8030794117858], [175.060845562658, -36.8030792193474], [175.060858607621, -36.8030680937056], [175.060888436955, -36.8030426383414], [175.060888501941, -36.8030425957547], [175.06093312885, -36.80301683248], [175.060935679442, -36.8030157319314], [175.06097367899, -36.8030023854706], [175.060973954542, -36.8030023374309], [175.061003674366, -36.8030013958783], [175.061017260544, -36.8029918552486], [175.061058300368, -36.8029572546115], [175.061075549221, -36.802930904194], [175.06107238904, -36.8029175862923], [175.061066842133, -36.8029034958893], [175.061073253678, -36.8028741265083], [175.061097140793, -36.8028455934015], [175.061155444991, -36.8027797930087], [175.061198047846, -36.8027515347609], [175.061248122551, -36.8027105079213], [175.06129817362, -36.8026683088708], [175.061359837378, -36.8026127385467], [175.061399455531, -36.8025748303142], [175.061447998796, -36.8025309115156], [175.061495995186, -36.802493141883], [175.061516870566, -36.8024787825948], [175.061547048909, -36.8024625972671], [175.06162611076, -36.8024051991941], [175.061692915215, -36.8023480424822], [175.061741549369, -36.8022641012624], [175.061778327876, -36.8022069568908], [175.061833310828, -36.8021522160262], [175.061921682849, -36.8020642380868], [175.0619744726, -36.8020172008122], [175.062026910584, -36.8019582624515], [175.062052192227, -36.801914217814], [175.062067191563, -36.8018818675186], [175.062067758943, -36.8018808743515], [175.062101106237, -36.8018226411328], [175.062101267422, -36.8018224661874], [175.062101702917, -36.8018218628697], [175.062101786149, -36.8018217902227], [175.062135743448, -36.8017935301885], [175.062135827775, -36.8017934566212], [175.06213587918, -36.8017933674015], [175.062158407786, -36.801752112271], [175.062158441871, -36.8017520458844], [175.062158461875, -36.8017519977682], [175.062177278131, -36.8017041301475], [175.062177320259, -36.8017040293716], [175.062177410115, -36.8017039530045], [175.06221669131, -36.8016719412927], [175.062216781141, -36.8016718640247], [175.062216824438, -36.8016717650312], [175.062229008283, -36.8016411291697], [175.062243386822, -36.8016037738486], [175.06224342683, -36.801603677616], [175.062243502002, -36.801603596997], [175.062273383401, -36.8015726829774], [175.062273424787, -36.8015726380954], [175.062273473556, -36.8015725759606], [175.062297437635, -36.8015408010853], [175.062297488596, -36.8015407371098], [175.062297549857, -36.8015406810673], [175.062330995923, -36.8015116285855], [175.062331108894, -36.801511536495], [175.062331218108, -36.801511471509], [175.062362556148, -36.8014938742437], [175.062362651041, -36.8014938185191], [175.062362728743, -36.8014937486719], [175.062402972155, -36.8014560834348], [175.062403160659, -36.8014559242385], [175.062403367498, -36.8014557800464], [175.06244041579, -36.8014324135779], [175.062440477558, -36.8014323764541], [175.062440540446, -36.8014323393108], [175.062475480155, -36.8014127191909], [175.062475534299, -36.8014126903111], [175.062475618424, -36.8014126509968], [175.062556387195, -36.8013759969283], [175.062556428186, -36.8013759790923], [175.062618453296, -36.8013491977135], [175.062618541998, -36.8013491619249], [175.0626186344, -36.8013491386904], [175.062671480432, -36.8013368175745], [175.062671586301, -36.8013367950076], [175.06267169599, -36.8013367894992], [175.062717684062, -36.8013350416079], [175.062717800545, -36.8013350386855], [175.062717896121, -36.8013350920069], [175.062741807984, -36.8013488772069], [175.062741888731, -36.8013489208712], [175.062742006616, -36.8013489702003], [175.062783749667, -36.8013653283831], [175.062783854939, -36.8013653671153], [175.062783967376, -36.8013653804866], [175.0628241595, -36.8013694239715], [175.062824290908, -36.8013694343096], [175.062824420544, -36.8013694203432], [175.062876032093, -36.8013628456575], [175.062876300988, -36.8013628004328], [175.062876565942, -36.8013627336452], [175.062937453179, -36.801344592845], [175.062937496531, -36.8013445794744], [175.062937542099, -36.8013445651641], [175.062998526109, -36.8013244767323], [175.062998636145, -36.8013244423759], [175.062998753651, -36.8013244358302], [175.063039991851, -36.8013227720414], [175.063040107214, -36.8013227691381], [175.063040215952, -36.8013227699551], [175.063132671215, -36.8013249762345], [175.06313276215, -36.8013249818669], [175.063216973532, -36.8013311355614], [175.063217069141, -36.8013311483231], [175.063217232594, -36.8013311833413], [175.063245619965, -36.8013382499387], [175.063245729476, -36.8013382795839], [175.063245818476, -36.8013383384268], [175.063271021954, -36.8013558965054], [175.063300975802, -36.8013677930446]], [[175.063300975802, -36.8013677930446], [175.063301086821, -36.8013678370844], [175.063301210219, -36.8013678412519], [175.063334309154, -36.8013682176752], [175.063380457995, -36.8013683675926], [175.063380573406, -36.8013683664908], [175.063380686044, -36.8013683456084], [175.063417087615, -36.8013610684743], [175.063417147868, -36.8013610584155], [175.063417269637, -36.8013610436837], [175.063461963686, -36.8013564743413], [175.063462097755, -36.8013564584947], [175.063462217413, -36.8013564068459], [175.063510448951, -36.8013344358462], [175.063520632748, -36.8013326962165], [175.063520965062, -36.8013326336661], [175.063521254709, -36.801332568251], [175.063521556317, -36.8013324891087], [175.063521870956, -36.801332394418], [175.063522201916, -36.8013322814179], [175.063522551388, -36.8013321482678], [175.063522921517, -36.8013319913251], [175.063523316662, -36.8013318060076], [175.063523740063, -36.8013315877527], [175.063524197104, -36.8013313283551], [175.063545708298, -36.8013286575432], [175.064367616289, -36.8013979538734], [175.064367847176, -36.8013979958307], [175.064640315785, -36.8014608432824], [175.064646844446, -36.8014623495476], [175.064708737296, -36.801465474732], [175.065602232236, -36.8015105818317], [175.065602522135, -36.8015106092418], [175.065645384345, -36.8015164530538], [175.065672537281, -36.801520155209], [175.06597659353, -36.8015269149276], [175.066046408504, -36.8015284677631], [175.066062560266, -36.8015338535776], [175.066111702123, -36.8015502433298], [175.066474827079, -36.8015600436812], [175.066475029137, -36.8015600554912], [175.066648944146, -36.8015760111211], [175.066662124571, -36.8015772204792], [175.066943459852, -36.8015922086495], [175.067075968262, -36.8015992666149], [175.067535245586, -36.8016141930961], [175.067613304614, -36.8016062244466], [175.067613361626, -36.8016062189485], [175.067613429913, -36.8016062159582], [175.0677806535, -36.8016006450448], [175.06778088549, -36.8016006446149], [175.068019571569, -36.8016091651928], [175.068462978312, -36.8015074332402], [175.068716678552, -36.8014429513003], [175.068716757629, -36.8014429327994], [175.068797941052, -36.8014243835575], [175.068807329292, -36.8014222391142], [175.06944387088, -36.801257042485], [175.069443904269, -36.8012570337921], [175.069592638641, -36.8012200733475], [175.069675970328, -36.8011993662416], [175.069977261672, -36.8011244965571], [175.069977339605, -36.8011244771741], [175.070011968378, -36.8011155740984], [175.070018475405, -36.8011139015389], [175.071685157958, -36.8006853901583], [175.072854242785, -36.8003770953367], [175.072872076934, -36.8003669304116], [175.073010171368, -36.8002882198191], [175.073010213305, -36.8002881956539], [175.073363328262, -36.8001052603198], [175.074207111294, -36.7996265137588], [175.074207152208, -36.7996264932163], [175.074331181176, -36.799564124728], [175.074365063634, -36.7995470874231], [175.074893141378, -36.7992602070819], [175.075315574365, -36.7990275750312], [175.075383794954, -36.7989811854859], [175.075465497091, -36.7989256277137], [175.075465749608, -36.79892547459], [175.075977253912, -36.7986504876554], [175.076047977044, -36.7986124659169], [175.076114771192, -36.7985639990258], [175.076130116059, -36.798552864925], [175.076164355202, -36.7985284401003]], [[175.063271114387, -36.8013559579927], [175.06327121978, -36.8013560012289], [175.063300975802, -36.8013677930446]], [[175.07820724542, -36.7973858147944], [175.078190986386, -36.7973904730393], [175.0779904387, -36.7975025965374], [175.077693843935, -36.7976440268672], [175.077526284375, -36.7977288917595], [175.077334318185, -36.7978678024112], [175.077133672657, -36.7979920784928], [175.077013980564, -36.7980647940756], [175.076867600567, -36.7981359856784], [175.076626326042, -36.7982600188903], [175.076411338213, -36.7983933716745], [175.076373336288, -36.7984169438566], [175.076320088128, -36.7984481216245], [175.076276056784, -36.7984739009208], [175.076164076983, -36.7985282223366]]]}, "properties": {"OBJECTID": 12011, "TRACKNAME": "Onetangi Rd. Bridal Path", "CONDITIONSOFUSE": "Onetangi Cemetery", "STATUS": "Open", "WEBLINK": null, "VALIDATIONSTATE": 3, "created_user": "AC_owner", "last_edited_user": "AC_owner", "last_edited_date": 1789875254325, "created_date": 1789875254325, "PARK_SAPSITEID": null, "TRACK_ID": null, "KAURIDIEBACK_TRACK": null, "KAURIDIEBACK_MITIGATED": null, "SegmentID": null, "GlobalID": "0c8aea53-5403-4607-b879-c906b8f96458", "Shape__Length": 1802.7762059424435}}]}