{"type": "FeatureCollection", "features": [{"type": "Feature", "id": 9369, "geometry": {"type": "MultiLineString", "coordinates": [[[175.069345609982, -36.8043305328941], [175.069340884824, -36.8043279184392], [175.069340592232, -36.8043279163218], [175.069103919334, -36.8043232183652], [175.069101570364, -36.8043230204029], [175.068910780367, -36.804295656893], [175.068909219453, -36.8042954632382], [175.068684548677, -36.8042721563171], [175.068682848814, -36.8042718388946], [175.068620034965, -36.8042556520975], [175.068617264284, -36.8042556101792], [175.068560412468, -36.8042705931034], [175.068560399001, -36.8042705924364], [175.06849681788, -36.8042431345799], [175.068496775702, -36.8042431082746], [175.068448431531, -36.8041967138255], [175.068445809269, -36.8041953146585], [175.068266857811, -36.8041499920081], [175.068266434689, -36.8041499290677], [175.068102962756, -36.8041397572632], [175.068100830016, -36.8041395140593], [175.068021940405, -36.8041229919123], [175.068015627976, -36.8041199516588], [175.067947903399, -36.8040661573276], [175.067944034268, -36.8040619884953], [175.067877422142, -36.8039587534793], [175.067876537196, -36.803956313716], [175.067868314262, -36.8038929147024], [175.0678683772, -36.8038925044149], [175.06789824042, -36.8038284681453], [175.067900090875, -36.8038248009915], [175.067915808009, -36.8037940481424], [175.067915856002, -36.8037932072907], [175.067889598932, -36.8037259669576], [175.067887792267, -36.8037229285368], [175.067810608507, -36.8036310084869], [175.067805849425, -36.8036263792398], [175.067747886903, -36.8035822635495], [175.067742809784, -36.803577310855], [175.067679327331, -36.8034955237262], [175.067675622368, -36.803490456131], [175.067647438515, -36.8034484948229], [175.067642776359, -36.8034442180962], [175.067599239216, -36.8034188671837], [175.06759404084, -36.8034145727419], [175.067573604767, -36.8033877222515], [175.067573878247, -36.8033855552627], [175.067598632696, -36.8033624352623], [175.067601166137, -36.8033610752941], [175.067763446314, -36.8033165854231], [175.06776563173, -36.8033159543519], [175.067924389959, -36.803268541299], [175.067926844742, -36.8032677991852], [175.068058367626, -36.8032284036354], [175.068059177266, -36.803228085811], [175.068197582197, -36.8031582099068], [175.068199559733, -36.803157101147], [175.068240589553, -36.8031312048585], [175.068242269758, -36.8031300426859], [175.06828040832, -36.8031012052509], [175.068281887369, -36.8030999816835], [175.068316764777, -36.8030684519916], [175.068318002794, -36.8030672263081], [175.068349366523, -36.8030331998326], [175.068350337345, -36.8030320409876], [175.068377945221, -36.8029957229361], [175.068378639752, -36.8029947095017], [175.068402266696, -36.8029563155997], [175.068402693987, -36.8029555339438], [175.068422127392, -36.8029152851077], [175.068422320162, -36.8029148265943], [175.06843735789, -36.8028729579784], [175.068437372362, -36.8028729126613], [175.068447717092, -36.802830120742], [175.068447802364, -36.8028296659015], [175.068451909797, -36.8027976620763]], [[175.068459791966, -36.8025018407789], [175.068454072938, -36.8025258501236], [175.068452928831, -36.8025318988641], [175.068449646225, -36.8025575674821], [175.0684480917, -36.8025770221743], [175.068447848766, -36.802589446394], [175.068448748299, -36.802621421688], [175.068448822978, -36.8026224893373], [175.068455200829, -36.8026640817834], [175.068456418981, -36.8026756982478], [175.068457896245, -36.8027047766071], [175.068457972831, -36.8027311591964], [175.06845724124, -36.8027454999822], [175.068451909797, -36.8027976620763]], [[175.069173403985, -36.801352218832], [175.069187872822, -36.8014882516416], [175.069187530434, -36.8014913544874], [175.069097710405, -36.8017358737604], [175.06909774411, -36.8017393332865], [175.069142237229, -36.8018577331472], [175.069143825972, -36.8018675829046], [175.069142584128, -36.8018723715245], [175.068932500944, -36.8023087816253], [175.068930531174, -36.8023101777784], [175.068851268414, -36.8023257473285], [175.068696027393, -36.8023551202415], [175.068631412717, -36.8023691675157], [175.068504592906, -36.8023955922762], [175.068499658543, -36.8023980269346]], [[175.068499658543, -36.8023980269346], [175.068498644631, -36.8023970423242], [175.068379762914, -36.802419952542], [175.068029534637, -36.8024869611295], [175.068029174859, -36.8024873360221], [175.068029112427, -36.802490723314], [175.06802822038, -36.8025031020433], [175.068027681081, -36.8025073863181], [175.068026215695, -36.8025154090957], [175.068025253305, -36.8025194645883], [175.068022862519, -36.8025275431211], [175.0680215315, -36.8025313112004], [175.068018180543, -36.8025394028305], [175.068016550333, -36.8025428399273], [175.06801220531, -36.8025508929686], [175.068010347904, -36.802553967186], [175.068004981352, -36.8025619190246], [175.068002972491, -36.8025646128215], [175.067996565619, -36.802572389877], [175.067994479194, -36.8025747001655], [175.067987025289, -36.8025822196344], [175.067984931048, -36.8025841560168], [175.06797643782, -36.8025913294367], [175.067974395718, -36.8025929125014], [175.067964890868, -36.8025996447531], [175.067962951022, -36.8026009042727], [175.067952477913, -36.8026070990632], [175.067950676069, -36.8026080722707], [175.067939303855, -36.8026136337598], [175.067937661268, -36.8026143608444], [175.067925474907, -36.8026191974234], [175.067923997221, -36.8026197215494], [175.067911107656, -36.8026237492694], [175.06790978364, -36.8026241111911], [175.067896316691, -36.8026272575614], [175.067895122644, -36.802627492842], [175.067881225783, -36.802629698515], [175.067880120981, -36.802629834902], [175.067865982444, -36.8026310560446], [175.067865145303, -36.8026311012504], [175.067851362545, -36.8026310904268], [175.06783677465, -36.8026305645396], [175.067822207599, -36.8026295218399], [175.067812187884, -36.802628446911], [175.067807738578, -36.8026275400752], [175.067798677384, -36.8026253488798], [175.067793743261, -36.8026239601658], [175.067784761946, -36.8026210717719], [175.067780203858, -36.8026194124341], [175.067771362529, -36.8026158113753], [175.067767222236, -36.8026139338646], [175.067758586675, -36.8026096072799], [175.067754897118, -36.8026075696082], [175.067746539876, -36.8026025063214], [175.067743320629, -36.8026003694373], [175.06773531662, -36.8025945627377], [175.067732578365, -36.8025923904482], [175.067725012729, -36.8025858388549], [175.067722749344, -36.8025836952592], [175.06771571073, -36.8025764026385], [175.067713905986, -36.8025743511106], [175.067707487714, -36.8025663284577], [175.067706112988, -36.8025644298828], [175.067700414176, -36.8025556953027], [175.067699428424, -36.802554007177], [175.067694547359, -36.8025445896048], [175.067693898139, -36.8025431624124], [175.067689937808, -36.802533098813], [175.067689563597, -36.8025319786892], [175.067686623893, -36.802521315996], [175.067686453913, -36.8025205384215], [175.067684636211, -36.8025093370614], [175.067684592723, -36.8025089286249], [175.067683991918, -36.8024972581506], [175.067683991312, -36.8024972356286], [175.067684674486, -36.8024855482303], [175.067684716109, -36.8024851788723], [175.067686616635, -36.8024739561048], [175.067686786826, -36.802473199653], [175.067689802113, -36.8024625442469], [175.067690185376, -36.8024614172578], [175.067694205213, -36.8024513987277], [175.067694885224, -36.8024499285876], [175.067699794531, -36.8024406021122], [175.067700846246, -36.8024388253722], [175.067706527438, -36.802430236259], [175.067708020478, -36.8024281994775], [175.067714355532, -36.8024203768184], [175.06771634858, -36.802418136658], [175.067723219184, -36.8024110987341], [175.067725762108, -36.802408717419], [175.06773305526, -36.8024024716035], [175.067736182413, -36.8024000179365], [175.067743790421, -36.8023945606945], [175.067750706902, -36.802390020391], [175.067751101941, -36.802389497973], [175.067763547195, -36.8023219467511], [175.067762800036, -36.8023213369444], [175.067487847324, -36.8023444488185], [175.067483758699, -36.8023445334432], [175.067027299083, -36.8023246015511]], [[175.068499658543, -36.8023980269346], [175.068493834111, -36.8024053711696], [175.068487457901, -36.8024142022451], [175.068481602649, -36.8024231504387], [175.068476848831, -36.8024312124117], [175.06847629543, -36.80243226395], [175.06847191069, -36.8024416714597], [175.068470298848, -36.8024456237897], [175.068468316052, -36.8024512851406], [175.068465600464, -36.802460495064], [175.068465462354, -36.8024610688948], [175.068463607474, -36.802471026347], [175.068462986105, -36.8024756752777], [175.068462597192, -36.8024805076353], [175.068459791966, -36.8025018407789]], [[175.067027299083, -36.8023246015511], [175.066905288985, -36.8023104966788], [175.066895996826, -36.8023058822121], [175.066769165057, -36.8021757061142], [175.06676747173, -36.8021743790869], [175.066729584013, -36.8021502644565], [175.066726244976, -36.8021490480574], [175.066611786497, -36.8021309179546]], [[175.069394381965, -36.8046559789682], [175.06940081361, -36.8046449161502], [175.06940307392, -36.8046410291315], [175.069357899883, -36.8043338665013], [175.069345609982, -36.8043305328941]]]}, "properties": {"OBJECTID": 9369, "TRACKNAME": "Onetangi Rd. to Sports Park", "CONDITIONSOFUSE": "Onetangi Sports Park (Rangihoua)", "STATUS": "Open", "WEBLINK": "https://www.aucklandcouncil.govt.nz/en/parks-recreation/find-park-beach/park-detail/120.html", "VALIDATIONSTATE": 3, "created_user": "AC_owner", "last_edited_user": "AC_owner", "last_edited_date": 1789875254325, "created_date": 1789875254325, "PARK_SAPSITEID": null, "TRACK_ID": null, "KAURIDIEBACK_TRACK": null, "KAURIDIEBACK_MITIGATED": null, "SegmentID": null, "GlobalID": "60b53846-93b1-4b23-828f-44c6ef286861", "Shape__Length": 788.7274436396822}}]}