{"type": "FeatureCollection", "features": [{"type": "Feature", "id": 12007, "geometry": {"type": "MultiLineString", "coordinates": [[[175.087365384666, -36.7906645263304], [175.087365686912, -36.7906613763737], [175.087334224346, -36.7906316043536], [175.087332430178, -36.7906304461304], [175.087229522813, -36.790585653492], [175.087028493604, -36.7905138306661], [175.086916458074, -36.7904652818135], [175.086813908559, -36.790413134192], [175.086731281858, -36.7903495174267], [175.086652460121, -36.7902695562665], [175.086603833146, -36.7902036266178], [175.086559064303, -36.7901230659628], [175.086541977041, -36.7900428820503], [175.086527153044, -36.7899473578715], [175.08652744466, -36.7899449715075], [175.086540703421, -36.7899131535146], [175.086540330692, -36.7899127977314]], [[175.086540330692, -36.7899127977314], [175.086538749955, -36.7899133923925], [175.086533961071, -36.7899139928807]], [[175.086540330692, -36.7899127977314], [175.086543056734, -36.7899095196164], [175.086577106255, -36.7898867932429], [175.086583713647, -36.7898858534942], [175.086585515596, -36.7898852342203], [175.086649243839, -36.7898632298736], [175.086668170391, -36.7898499099125], [175.086667630751, -36.7898317950523], [175.086644529948, -36.7898128143171], [175.086622993356, -36.7897925055431], [175.086625592158, -36.7897717326359], [175.086642915137, -36.7897584552423], [175.086696810213, -36.7897302241814], [175.086752259793, -36.7897013006508], [175.086766351711, -36.7896861529588], [175.086754311742, -36.789665990285], [175.086736176696, -36.7896536713807], [175.08669115493, -36.7896358577136], [175.086672073489, -36.789617774442], [175.086602332361, -36.7895758799877], [175.086610206741, -36.7895554290957], [175.086747914934, -36.7890854867079], [175.086674514595, -36.7883549408277]]]}, "properties": {"OBJECTID": 12007, "TRACKNAME": "Onetangi Beach to Waiheke Rd", "CONDITIONSOFUSE": "Pohutukawa Reserve Onetangi", "STATUS": "Open", "WEBLINK": "https://www.aucklandcouncil.govt.nz/en/parks-recreation/find-park-beach/park-detail/1255.html", "VALIDATIONSTATE": 3, "created_user": "AC_owner", "last_edited_user": "AC_owner", "last_edited_date": 1789875254325, "created_date": 1789875254325, "PARK_SAPSITEID": null, "TRACK_ID": null, "KAURIDIEBACK_TRACK": null, "KAURIDIEBACK_MITIGATED": null, "SegmentID": null, "GlobalID": "709fd4a0-3bb4-4140-b309-58d555c4a374", "Shape__Length": 317.82019871350144}}]}