{"type": "FeatureCollection", "features": [{"type": "Feature", "id": 855, "geometry": {"type": "MultiLineString", "coordinates": [[[174.56201995202, -36.8970049170166], [174.562032188567, -36.8970163909245], [174.562044093486, -36.8970274518603], [174.562055665636, -36.8970380989375], [174.562066906158, -36.8970483330426], [174.562077812788, -36.8970581533043], [174.56208838893, -36.8970675614804], [174.56209863118, -36.8970765558132], [174.5621085418, -36.8970851371745], [174.56211811965, -36.8970933046777], [174.562127365869, -36.8971010592095], [174.562136279337, -36.8971084007847], [174.562144860032, -36.8971153285023], [174.562153107975, -36.8971218432634], [174.562161024287, -36.8971279450533], [174.562168608967, -36.8971336338722], [174.562175859754, -36.8971389088484], [174.562182778908, -36.8971437708538], [174.562189365291, -36.8971482190019], [174.562195620041, -36.8971522541792], [174.562201542036, -36.8971558764006], [174.5622071324, -36.8971590856512], [174.562212468452, -36.8971619863739], [174.562217745115, -36.8971648364997], [174.562222972707, -36.8971676467092], [174.56222814902, -36.8971704188341], [174.562233274001, -36.8971731501712], [174.562238349947, -36.8971758433942], [174.562243374578, -36.8971784967304], [174.562248347912, -36.897181111081], [174.562253272194, -36.8971836864165], [174.56225814516, -36.8971862218653], [174.56226296797, -36.8971887192148], [174.562267740569, -36.8971911757617], [174.56227246189, -36.8971935942241], [174.562277133017, -36.897195972785], [174.562281753969, -36.8971983123457], [174.562286323625, -36.8972006129207], [174.562290843088, -36.8972028735943], [174.562295312376, -36.8972050952675], [174.562299731489, -36.8972072779405], [174.562304099305, -36.8972094216279], [174.562308416928, -36.8972115254138], [174.562312715386, -36.8972136249449], [174.562317186292, -36.8972159259161], [174.562321860692, -36.897218464875], [174.562326739672, -36.8972212400047], [174.562331821006, -36.8972242522356], [174.562337105817, -36.8972275015532], [174.562342595208, -36.8972309870414], [174.562348288075, -36.897234709616], [174.562354184418, -36.8972386692771], [174.562359921148, -36.8972426166154]], [[174.557581214087, -36.8923655861306], [174.557579656161, -36.8923676138979], [174.557576415994, -36.8923723443823], [174.557573288658, -36.8923771049351], [174.55757012956, -36.8923818487782], [174.557566936494, -36.8923865777434], [174.557563710544, -36.8923912900138], [174.557560452851, -36.8923959864756], [174.557557160049, -36.8924006671731], [174.557553835503, -36.8924053320622], [174.557550478074, -36.8924099802563], [174.557547086658, -36.8924146126714], [174.557543663499, -36.8924192292779], [174.557540206352, -36.8924238301054], [174.55753671634, -36.8924284151391], [174.557533193445, -36.8924329834779], [174.557529637684, -36.8924375360229], [174.557526049077, -36.8924420736753], [174.557522426446, -36.8924465937463], [174.557518770967, -36.8924510989246], [174.557515083728, -36.8924555873933], [174.557511362519, -36.892460060984], [174.557507608427, -36.8924645178798], [174.5575038145, -36.8924689473554], [174.55749991222, -36.8924732358357], [174.557495883033, -36.8924773538188], [174.557491728078, -36.8924813021914], [174.557487447356, -36.8924850809531], [174.557483040849, -36.8924886892031], [174.557478508574, -36.8924921278423], [174.557473849392, -36.8924953959843], [174.557469065564, -36.8924984945009], [174.557464154829, -36.8925014225202], [174.557459118327, -36.8925041809288], [174.557453954936, -36.8925067697412], [174.557448665741, -36.8925091871406], [174.557443251919, -36.8925114358156], [174.55743771119, -36.8925135139932], [174.557432043553, -36.8925154216736], [174.557426251289, -36.8925171606294], [174.5574203321, -36.8925187281868], [174.557414287144, -36.8925201261333], [174.557408116421, -36.8925213544688], [174.557401818791, -36.8925224123069], [174.557395435892, -36.8925233054112], [174.557389090306, -36.8925240465967], [174.55738278994, -36.8925246384637], [174.557376533654, -36.8925250801259], [174.557370323692, -36.8925253715537], [174.557364158932, -36.892525512762], [174.557358039393, -36.8925255046519], [174.557351965056, -36.8925253463222], [174.557345937044, -36.8925250377582], [174.557339953111, -36.8925245789894], [174.557334014382, -36.892523970001], [174.557328121994, -36.8925232116796], [174.557322273688, -36.8925223031533], [174.557316471706, -36.8925212443928], [174.557310714926, -36.8925200354128], [174.557305003367, -36.8925186771144], [174.557299336993, -36.8925171676954], [174.557293715839, -36.892515508958], [174.557288139888, -36.8925137000011], [174.557282609158, -36.8925117417258], [174.557277124735, -36.8925096323153], [174.557271701357, -36.892507489655], [174.55726635838, -36.8925054378799], [174.557261095805, -36.8925034769899], [174.557255912509, -36.8925016069996], [174.557250809614, -36.8924998278945], [174.55724578712, -36.8924981396745], [174.557240845045, -36.8924965432408], [174.557235982231, -36.8924950368057], [174.557231199818, -36.8924936212559], [174.557226496685, -36.8924922966059], [174.557221873952, -36.8924910628411], [174.557217331639, -36.8924899208626], [174.557212869708, -36.8924888688682], [174.557208487056, -36.8924879077736], [174.557204184823, -36.8924870384654], [174.557199962973, -36.8924862591414], [174.557195820421, -36.8924855716184], [174.55719175825, -36.8924849740795], [174.557187776499, -36.8924844683269], [174.557183875131, -36.8924840525585], [174.557180031707, -36.8924837270684], [174.557175859834, -36.8924834743872], [174.557171219074, -36.8924832864407], [174.557166108305, -36.8924831632435], [174.557160527544, -36.8924831056968], [174.557154476792, -36.8924831138004], [174.55714795717, -36.8924831875396], [174.557140966417, -36.8924833260426], [174.557133506795, -36.892483530181], [174.557125577163, -36.8924837990683], [174.557117177539, -36.8924841336056], [174.557108307924, -36.8924845337927], [174.5570989683, -36.8924849987285], [174.557089159806, -36.8924855292992], [174.557078880198, -36.8924861255341], [174.557068131702, -36.8924867865025], [174.557056913215, -36.8924875131202], [174.557045224736, -36.8924883053871], [174.557033066247, -36.8924891624018], [174.557020437766, -36.8924900850654], [174.557007340416, -36.892491073363], [174.556993912336, -36.8924921326949], [174.556980779123, -36.8924932891136], [174.556968014914, -36.8924945461544], [174.55695561969, -36.8924959029162], [174.556943592349, -36.8924973603152], [174.556931933993, -36.8924989174355], [174.556920643538, -36.8925005760941], [174.556909723191, -36.8925023344596], [174.556899170707, -36.8925041925615], [174.556888986123, -36.8925061522021], [174.556879170525, -36.8925082115645], [174.556869723912, -36.8925103706488], [174.556860646322, -36.8925126312574], [174.556851936595, -36.8925149916028], [174.556843595854, -36.8925174516704], [174.556835624136, -36.8925200132625], [174.55682802028, -36.8925226745917], [174.556820785429, -36.8925254365444], [174.556813919564, -36.8925282982196], [174.55680742158, -36.8925312605331], [174.556801292601, -36.8925343234703], [174.556795571842, -36.8925374288301], [174.556790319216, -36.8925404874934], [174.556785538069, -36.8925434985151], [174.556781227243, -36.8925464601077], [174.556777386776, -36.8925493740736], [174.556774016666, -36.8925522404127], [174.556771116895, -36.892555058224], [174.556768687464, -36.8925578275075], [174.556766728374, -36.8925605482632], [174.556765239641, -36.8925632213924], [174.556764221248, -36.8925658459938], [174.556763673194, -36.8925684220675], [174.5567635955, -36.8925709505146], [174.556763988145, -36.892573430434], [174.556764851148, -36.8925758627268], [174.556766184473, -36.8925782455908], [174.556767988157, -36.8925805808281], [174.556770262199, -36.8925828684389], [174.556773006581, -36.8925851075218], [174.556776221304, -36.8925872980769], [174.55677990186, -36.8925894392618], [174.556783898214, -36.8925914924812], [174.556788126924, -36.8925934380972], [174.556792589092, -36.8925952751938], [174.556797284737, -36.8925970046723], [174.556802214944, -36.8925986247155], [174.556807377526, -36.8926001380563], [174.556812773547, -36.8926015419765], [174.556818403046, -36.8926028382784], [174.556824266003, -36.8926040260608], [174.556830363541, -36.892605105309], [174.556836693434, -36.8926060769534], [174.556843256786, -36.8926069400782], [174.556850053615, -36.8926076955845], [174.556857085006, -36.8926083416553], [174.556864348752, -36.8926088801223], [174.556871845975, -36.8926093109706], [174.556879576657, -36.8926096332991], [174.556887541919, -36.892609847093], [174.556895739518, -36.8926099523817], [174.556904170593, -36.8926099500517], [174.556912800732, -36.892609858581], [174.556921396898, -36.8926098072151], [174.55692991469, -36.8926098199713], [174.556938356351, -36.8926098968202], [174.556946720761, -36.8926100377766], [174.556955006815, -36.8926102437562], [174.556963216721, -36.8926105129275], [174.556971349374, -36.8926108462063], [174.556979403654, -36.8926112436074], [174.556987381804, -36.8926117051012], [174.556995282721, -36.8926122316037], [174.557003105245, -36.8926128213273], [174.557010851639, -36.8926134751438], [174.557018520782, -36.8926141930679], [174.557026111551, -36.8926149751142], [174.55703362619, -36.8926158212536], [174.557041062473, -36.8926167324163], [174.557048422609, -36.8926177067708], [174.557055705493, -36.8926187452331], [174.557062910003, -36.8926198478176], [174.557070038383, -36.8926210144952], [174.557077050836, -36.8926222196478], [174.557083863114, -36.8926234039882], [174.557090471815, -36.8926245657582], [174.557096875816, -36.8926257049727], [174.5571030751, -36.8926268207306], [174.557109070788, -36.8926279130171], [174.557114862916, -36.8926289836346], [174.557120450327, -36.8926300307955], [174.557125834161, -36.8926310553863], [174.557131014398, -36.8926320565059], [174.557135989937, -36.8926330350701], [174.557140760775, -36.892633991079], [174.557145328018, -36.8926349236168], [174.557149691684, -36.8926358335846], [174.55715385065, -36.8926367209971], [174.557157806038, -36.8926375858397], [174.557161556709, -36.8926384272259], [174.557165103784, -36.8926392451411], [174.557168446177, -36.8926400414023], [174.557171584975, -36.8926408141925], [174.557174520195, -36.8926415644128], [174.557177345968, -36.8926422854213], [174.557180131815, -36.8926429745039], [174.557182879962, -36.89264363073], [174.557185589304, -36.8926442550156], [174.557188259825, -36.8926448464595], [174.557190891523, -36.8926454050617], [174.55719348554, -36.8926459317086], [174.557196040734, -36.8926464255138], [174.557198555984, -36.892646886492], [174.557201034674, -36.8926473155002], [174.55720347342, -36.8926477116815], [174.557205873343, -36.8926480750211], [174.557208235585, -36.8926484064054], [174.557210559004, -36.892648704948], [174.557212843601, -36.892648970649], [174.557215089394, -36.8926492044094], [174.557217297487, -36.8926494053134], [174.557219466776, -36.8926495742769], [174.557221597224, -36.8926497094975], [174.557223688869, -36.8926498127777], [174.557225751879, -36.8926498875894], [174.557227900338, -36.8926499702947], [174.557230163671, -36.8926500731269], [174.557232541841, -36.8926501942837], [174.557235035988, -36.8926503346517], [174.557237643869, -36.8926504942601], [174.557240367728, -36.8926506730796], [174.557243207564, -36.8926508711102], [174.557246161133, -36.8926510883812], [174.55724923068, -36.8926513248633], [174.557252415083, -36.8926515805711], [174.557255714323, -36.8926518546035], [174.557259129559, -36.8926521487481], [174.55726265965, -36.8926524621183], [174.557266304579, -36.8926527938132], [174.557270064363, -36.8926531447337], [174.557273940143, -36.8926535157663], [174.557277930761, -36.8926539051234], [174.557282036234, -36.8926543137063], [174.557286257684, -36.8926547415], [174.557290592869, -36.8926551885341], [174.557295071913, -36.8926556463013], [174.557299780638, -36.8926560857342], [174.557304726876, -36.8926565058288], [174.55730991063, -36.8926569065851], [174.557315331898, -36.8926572880029], [174.557320990662, -36.8926576491812], [174.557326885819, -36.8926579910358], [174.557333019613, -36.8926583135371], [174.557339389781, -36.8926586158135], [174.557345998585, -36.8926588987366], [174.557352843764, -36.8926591614346], [174.557359926475, -36.8926594056951], [174.557367246665, -36.8926596288147], [174.557374804388, -36.8926598334967], [174.557382599606, -36.8926600179387], [174.55739063234, -36.892660183042], [174.557398902569, -36.8926603279052], [174.55740740921, -36.8926604543453], [174.55741615445, -36.8926605596294], [174.557425136101, -36.8926606464904], [174.557434356371, -36.8926607130965], [174.55744371131, -36.8926607247557], [174.557453086765, -36.8926606415018], [174.557462481614, -36.8926604633496], [174.557471895837, -36.8926601893979], [174.557481329454, -36.8926598205478], [174.557490783567, -36.8926593558836], [174.557500255952, -36.8926587963356], [174.557509748852, -36.8926581418745], [174.557519261145, -36.8926573925151], [174.557528792814, -36.8926565473562], [174.557538343856, -36.8926556063977], [174.557547915433, -36.8926545714272], [174.557557505261, -36.8926534406719], [174.557567115605, -36.8926522150035], [174.557576745324, -36.8926508935356], [174.557586394435, -36.8926494771692], [174.557596062921, -36.8926479650034], [174.557605750818, -36.8926463588402], [174.557615458072, -36.8926446559763], [174.557625185858, -36.8926428591004], [174.55763493208, -36.892640975451], [174.557644675645, -36.892639181972], [174.557654409007, -36.8926375490692], [174.557664131044, -36.8926360767571], [174.557673843981, -36.8926347641051], [174.557683545575, -36.8926336111429], [174.557693238069, -36.8926326178408], [174.557702919238, -36.8926317851294], [174.557712590204, -36.8926311129941], [174.55772225093, -36.8926305996327], [174.557731901454, -36.8926302468472], [174.557741541775, -36.8926300546378], [174.557751170752, -36.892630022118], [174.557760790631, -36.8926301492584], [174.557770399185, -36.8926304369896], [174.557779997518, -36.8926308843958], [174.557789585631, -36.8926314914768], [174.55779916354, -36.8926322591339], [174.557808731229, -36.8926331864659], [174.557818288716, -36.892634274374], [174.557827834861, -36.8926355219717], [174.55783731364, -36.8926369335992], [174.557846450464, -36.8926385263778], [174.557855210588, -36.8926403025659], [174.557863592909, -36.8926422630795], [174.557871598532, -36.8926444070027], [174.557879227474, -36.8926467352368], [174.557886479718, -36.8926492468808], [174.557893354159, -36.8926519428505], [174.557899851901, -36.8926548222301], [174.557905971822, -36.8926578850345], [174.557911716167, -36.8926611312343], [174.557917082709, -36.8926645617601], [174.55792207257, -36.8926681765971], [174.557926684611, -36.8926719748591], [174.557930919953, -36.8926759565314], [174.557934778596, -36.892680121614], [174.557938260558, -36.8926844710082], [174.557941364718, -36.8926890047285], [174.557944092179, -36.8926937218593], [174.557946442941, -36.8926986224005], [174.557948415882, -36.8927037063669], [174.557950207642, -36.8927088206517], [174.557952147365, -36.8927137058519], [174.557954239448, -36.892718357403], [174.557956482769, -36.8927227753198], [174.557958879589, -36.892726960474], [174.557961427647, -36.8927309119938], [174.557964129187, -36.8927346298498], [174.557966981964, -36.8927381140714], [174.55796998824, -36.8927413655303], [174.557973145773, -36.892744384256], [174.557976456768, -36.8927471684167], [174.55797991902, -36.8927497198441], [174.557983534753, -36.8927520376076], [174.557987301741, -36.8927541226378], [174.557991222211, -36.8927559740041], [174.557995293918, -36.8927575917359], [174.557999519125, -36.8927589767049], [174.558003896673, -36.8927601271236], [174.558008425495, -36.89276104571], [174.55801310778, -36.8927617297313], [174.558017937973, -36.8927621819644], [174.558022753356, -36.892762457724], [174.558027461398, -36.8927625870672], [174.558032060995, -36.89276257091], [174.558036553268, -36.8927624092376], [174.558040938199, -36.8927621011489], [174.558045215807, -36.8927616475451], [174.558049384951, -36.8927610475398], [174.558053445668, -36.8927603029351], [174.558057400147, -36.8927594109984], [174.558061246199, -36.8927583744624], [174.558064983787, -36.8927571915249], [174.558068615173, -36.8927558630577], [174.558072138114, -36.8927543890901], [174.558075553713, -36.8927527687063], [174.558078860866, -36.8927510028221], [174.558082060677, -36.8927490905218], [174.558085153184, -36.8927470336076], [174.558088137208, -36.8927448293909], [174.558091013926, -36.8927424805603], [174.558093783303, -36.8927399853135], [174.558096463966, -36.8927373767568], [174.558099198728, -36.8927348900762], [174.558102015412, -36.8927325690736], [174.558104915196, -36.8927304164378], [174.558107895799, -36.8927284303958], [174.558110958361, -36.8927266118342], [174.558114102882, -36.8927249607528], [174.558117329344, -36.8927234762506], [174.558120638887, -36.8927221592139], [174.558124029249, -36.8927210087711], [174.55812750157, -36.8927200258085], [174.558131055851, -36.8927192103262], [174.55813469209, -36.8927185623241], [174.558138411393, -36.8927180808864], [174.558142211533, -36.8927177669437], [174.558146093614, -36.89271761958], [174.558150057673, -36.8927176405977], [174.558154103673, -36.8927178281944], [174.558158232735, -36.8927181823555], [174.558162442636, -36.8927187040115], [174.558166734495, -36.8927193931477], [174.558171033774, -36.8927202264048], [174.558175158691, -36.8927211493812], [174.558179102422, -36.8927221576596], [174.558182865005, -36.8927232530422], [174.558186446421, -36.8927244346279], [174.558189845566, -36.8927257033326], [174.558193063526, -36.8927270573393], [174.558196099234, -36.8927284993661], [174.558198954879, -36.8927300266803], [174.558201627132, -36.8927316411282], [174.558204119339, -36.8927333417646], [174.558206429276, -36.89273512952], [174.558208558046, -36.8927370034787], [174.558210504527, -36.8927389636553], [174.558212269842, -36.8927410100352], [174.558213854008, -36.8927431435195], [174.558215257007, -36.8927453632069], [174.558216477735, -36.8927476700136], [174.558217517297, -36.8927500630234], [174.558218374569, -36.8927525422513], [174.558219051797, -36.8927551076677], [174.558219731749, -36.8927576415006], [174.558220566203, -36.8927600471158], [174.558221556281, -36.8927623244985], [174.55822269974, -36.8927644736783], [174.558223998822, -36.8927664946256], [174.558225451285, -36.8927683873699], [174.558227059372, -36.8927701518817], [174.558228820839, -36.8927717881906], [174.55823073793, -36.892773296267], [174.558232808401, -36.8927746761403], [174.558235033357, -36.8927759268947], [174.558237413954, -36.8927770503178], [174.558239947932, -36.8927780455379], [174.558242637534, -36.8927789125254], [174.558245480516, -36.8927796513098], [174.558248479122, -36.8927802618617], [174.558251631108, -36.8927807442105], [174.558254938718, -36.8927810983268], [174.558258399709, -36.8927813242399], [174.558262016323, -36.8927814219205], [174.558265783226, -36.8927814049589], [174.558269667963, -36.8927814432376], [174.55827365918, -36.8927815855792], [174.558277758, -36.892781831969], [174.558281962161, -36.8927821815352], [174.558286273926, -36.8927826351495], [174.558290693293, -36.892783192812], [174.558295219123, -36.8927838536361], [174.558299851434, -36.8927846185231], [174.558304590227, -36.8927854874729], [174.558309436604, -36.8927864595697], [174.558314389462, -36.8927875357292], [174.558319449924, -36.8927887159367], [174.558324615727, -36.8927899993206], [174.558329890254, -36.8927913867379], [174.558335270123, -36.8927928773314], [174.558340757614, -36.892794472874], [174.558346351568, -36.8927961715782], [174.558352051984, -36.8927979734439], [174.558357860023, -36.8927998802587], [174.558363774525, -36.892801890235], [174.558369762606, -36.8928039866782], [174.558375708586, -36.892806109813], [174.558381603381, -36.8928082543504], [174.558387444764, -36.8928104212209], [174.558393234961, -36.892812609494], [174.55839897285, -36.8928148191843], [174.558404659571, -36.8928170511784], [174.558410293985, -36.8928193045898], [174.558415876109, -36.8928215803196], [174.558421407028, -36.892823876551], [174.558426885658, -36.8928261951008], [174.558432311999, -36.8928285359691], [174.558437686031, -36.8928308982547], [174.558443008878, -36.892833281943], [174.558448280538, -36.8928356870339], [174.558453498787, -36.892838114458], [174.55845866585, -36.8928405632848], [174.558463780605, -36.892843033529], [174.558468844192, -36.892845526077], [174.558473855472, -36.8928480400424], [174.558478814443, -36.8928505754252], [174.558483737112, -36.8928533122884], [174.558488642517, -36.8928564694142], [174.558493529536, -36.8928600468172], [174.558498399309, -36.8928640453839], [174.558503251836, -36.8928684651142], [174.558508085996, -36.8928733060228], [174.558512902891, -36.8928785671939], [174.558517702541, -36.8928842495287], [174.558522483805, -36.8928903521407], [174.558527247824, -36.8928968759163], [174.558531994597, -36.8929038208555], [174.558536723004, -36.8929111869731], [174.558541434146, -36.8929189733532], [174.558546128044, -36.8929271808969], [174.558550803556, -36.8929358087178], [174.558555461842, -36.8929448586035], [174.558560102846, -36.8929543278505], [174.558564725502, -36.892964219177], [174.558569330895, -36.892974530766], [174.558573919043, -36.8929852635186], [174.558578491585, -36.8929963876682], [174.558583087783, -36.8930072401963], [174.558587725606, -36.8930175459508], [174.558592403897, -36.8930273031441], [174.558597123813, -36.8930365135637], [174.558601885355, -36.8930451772096], [174.558606688486, -36.8930532922795], [174.558611532119, -36.8930608605906], [174.55861641736, -36.8930678812268], [174.558621343105, -36.893074355104], [174.558626311577, -36.8930802812918], [174.558631320535, -36.8930856598194], [174.558636369977, -36.8930904906869], [174.558641461044, -36.8930947747808], [174.558646593717, -36.8930985111998], [174.558651768014, -36.8931017008452], [174.558656982796, -36.8931043428304], [174.558662239184, -36.8931064371409], [174.558667536056, -36.8931079837912], [174.558672875673, -36.8931089836531], [174.558678254653, -36.8931094358696], [174.558683646907, -36.8931094372291], [174.558688905302, -36.893109478202], [174.558694007633, -36.8931096257807], [174.558698956181, -36.8931098817381], [174.558703748647, -36.8931102434002], [174.558708386207, -36.8931107134556], [174.558712869948, -36.8931112900875], [174.558717197644, -36.8931119742264], [174.558721370398, -36.8931127649565], [174.55872538935, -36.8931136631642], [174.558729252258, -36.893114668879], [174.558732960242, -36.8931157820862], [174.558736514406, -36.8931170018699], [174.558739912525, -36.8931183291606], [174.558743155703, -36.8931197630427], [174.558746245079, -36.8931213044025], [174.558749178409, -36.8931229532694], [174.558751956817, -36.8931247096287], [174.558754581405, -36.8931265725647], [174.558757049948, -36.8931285430078], [174.558759363549, -36.8931306200423], [174.558761576196, -36.8931326993027], [174.558763782843, -36.893134593862], [174.558765986744, -36.8931362982692], [174.558768185693, -36.893137814356], [174.558770380775, -36.8931391403055], [174.558772572009, -36.8931402770187], [174.558774759411, -36.8931412253967], [174.558776944069, -36.8931419836228], [174.558779123774, -36.8931425535284], [174.558781299612, -36.8931429332967], [174.558783471601, -36.8931431238287], [174.558785639759, -36.8931431260256], [174.558787805172, -36.8931429380705], [174.558789965614, -36.8931425608938], [174.558792122226, -36.8931419953821], [174.558794274971, -36.8931412397329], [174.558796423866, -36.8931402948476], [174.558798570053, -36.8931391616124], [174.55880071125, -36.8931378382546], [174.558802848599, -36.8931363256606], [174.558804983348, -36.8931346301235], [174.558807154061, -36.8931331026698], [174.55880938406, -36.89313195211], [174.558811675628, -36.8931311802172], [174.558814026502, -36.8931307861194], [174.558816437803, -36.8931307698021], [174.558818908411, -36.89313113128], [174.558821439428, -36.8931318696371], [174.558824030891, -36.8931329866758], [174.55882668166, -36.8931344815096], [174.558829393979, -36.893136354109], [174.558832164483, -36.8931386045183], [174.558834996536, -36.8931412326933], [174.558837887877, -36.8931442377622], [174.558840839665, -36.8931476215127], [174.558843850759, -36.8931513830582], [174.558846922282, -36.8931555223841], [174.558850054233, -36.8931600394904], [174.55885324549, -36.8931649343917], [174.558856497176, -36.8931702070734], [174.55885980929, -36.8931758575354], [174.558863172861, -36.8931818309121], [174.558866519832, -36.8931877053565], [174.558869837132, -36.893193390002], [174.558873124798, -36.8931988866509], [174.558876382793, -36.8932041935011], [174.558879610031, -36.8932093123694], [174.558882806477, -36.8932142414537], [174.55888597441, -36.8932189825266], [174.558889111568, -36.8932235347167], [174.558892219055, -36.8932278971079], [174.558895295786, -36.8932320715174], [174.558898342845, -36.893236056128], [174.55890136027, -36.8932398527421], [174.558904346902, -36.8932434595722], [174.558907303899, -36.8932468784058], [174.558910231225, -36.8932501074406], [174.558913127794, -36.8932531484935], [174.558915994711, -36.8932560006489], [174.558918831956, -36.8932586630055], [174.558921639566, -36.8932611373656], [174.558924416382, -36.8932634219417], [174.558927171212, -36.8932655634891], [174.558929924389, -36.8932676789186], [174.558932677126, -36.893269772721], [174.558935429441, -36.8932718457975], [174.558938182439, -36.8932738972322], [174.558940933893, -36.8932759279557], [174.558943684926, -36.8932779379533], [174.558946435519, -36.8932799263238], [174.558949186812, -36.8932818939537], [174.558951936562, -36.8932838408723], [174.558954685872, -36.8932857661639], [174.558957434761, -36.8932876707296], [174.55896018435, -36.8932895545546], [174.558962932378, -36.8932914167672], [174.558965679984, -36.8932932582539], [174.558968427169, -36.8932950790148], [174.558971175054, -36.8932968790349], [174.558973921377, -36.8932986574427], [174.558976667261, -36.8933004142234], [174.558979412741, -36.8933021511794], [174.558982158904, -36.8933038664935], [174.558984836695, -36.8933056962769], [174.558987387952, -36.8933077602729], [174.558989812638, -36.8933100566794], [174.558992111875, -36.8933125854816], [174.558994284558, -36.8933153475955], [174.55899633181, -36.8933183430062], [174.558998251388, -36.8933215717432], [174.559000046638, -36.8933250328612], [174.559001714214, -36.8933287273056], [174.559003256358, -36.8933326550469], [174.559004671931, -36.8933368151987], [174.559005960951, -36.8933412086621], [174.559007124522, -36.8933458345213], [174.559008161558, -36.8933506945933], [174.559009073145, -36.893355787061], [174.55900985816, -36.8933611119393], [174.559010516641, -36.8933666710303], [174.559011048551, -36.8933724625319], [174.559011455011, -36.8933784864292], [174.559011734936, -36.8933847445394], [174.559011911557, -36.8933912203329], [174.559012284106, -36.8933977287083], [174.559012944566, -36.893404212574], [174.559013891816, -36.8934106719445], [174.559015126958, -36.8934171059042], [174.559016648889, -36.8934235153687], [174.559018459854, -36.8934299003087], [174.559020557589, -36.8934362598525], [174.559022942114, -36.8934425949011], [174.559025614551, -36.8934489054398], [174.559028574881, -36.8934551905675], [174.559031823122, -36.8934614511853], [174.559035358153, -36.8934676873078], [174.559039181078, -36.8934738980192], [174.559043291914, -36.8934800842207], [174.559047689541, -36.8934862459268], [174.559052375061, -36.8934923822217], [174.559057348493, -36.8934984940065], [174.559062608715, -36.8935045812959], [174.559068156831, -36.893510643174], [174.559073992859, -36.8935166805418], [174.559079995192, -36.8935226733626], [174.559085722498, -36.8935285517137], [174.559091133084, -36.8935343071288], [174.559096225844, -36.8935399405236], [174.559101003024, -36.8935454518689], [174.559105463519, -36.8935508420804], [174.559109606171, -36.8935561093708], [174.559113433242, -36.8935612546116], [174.559116943609, -36.8935662778178], [174.55912013617, -36.8935711799051], [174.559123013131, -36.8935759590419], [174.559125573388, -36.893580616144], [174.559127815838, -36.8935851521274], [174.559129742688, -36.8935895651604], [174.559131352835, -36.8935938561587], [174.559132645156, -36.8935980251372], [174.559133621913, -36.8936020729676], [174.559134280826, -36.893605997877], [174.559134624158, -36.8936098007372], [174.559134650785, -36.8936134815628], [174.559134359586, -36.8936170403686], [174.559133967844, -36.8936205112589], [174.559133758113, -36.8936239373961], [174.559133730393, -36.8936273187804], [174.559133884684, -36.8936306554118], [174.559134221005, -36.8936339481913], [174.55913474046, -36.8936371962031], [174.559135441925, -36.8936403994619], [174.559136326542, -36.8936435588542], [174.559137393171, -36.8936466734934], [174.559138641811, -36.8936497433797], [174.559140073603, -36.8936527693994], [174.559141686284, -36.8936557506808], [174.55914348322, -36.8936586871797], [174.559145461065, -36.8936615798415], [174.559147622042, -36.8936644277355], [174.559149965032, -36.8936672308765], [174.559152491173, -36.8936699901508], [174.559155199325, -36.8936727046721], [174.559158089489, -36.8936753744403], [174.559161161684, -36.8936780003565], [174.559164413755, -36.8936805869559], [174.559167739775, -36.8936832780442], [174.55917109615, -36.8936861372894], [174.559174481757, -36.8936891647061], [174.559177896578, -36.8936923593931], [174.559181340633, -36.8936957222517], [174.559184815023, -36.8936992523659], [174.559188319769, -36.8937029506368], [174.559191852625, -36.8937068170939], [174.559195415836, -36.8937108517078], [174.559199009384, -36.8937150535773], [174.559202631042, -36.893719423633], [174.559206283056, -36.8937239618455], [174.559209964284, -36.8937286673283], [174.559213675867, -36.8937335409678], [174.559217416664, -36.8937385818776], [174.559221186713, -36.8937437918601], [174.559224987099, -36.8937491690981], [174.5592288167, -36.8937547136064], [174.559232675552, -36.8937604271873], [174.559236564741, -36.8937663080238], [174.559240467606, -36.8937723094636], [174.559244300535, -36.8937781829259], [174.559248052605, -36.8937838879929], [174.55925172161, -36.893789426496], [174.559255309773, -36.8937947975049], [174.559258815974, -36.8938000010341], [174.559262239109, -36.8938050379997], [174.559265581404, -36.8938099074709], [174.559268840632, -36.8938146103785], [174.559272019001, -36.8938191448906], [174.559275114322, -36.8938235137402], [174.559278128784, -36.8938277141944], [174.55928106018, -36.893831748085], [174.559283910735, -36.8938356144813], [174.559286678205, -36.8938393134128], [174.559289364852, -36.8938428457512], [174.559291968415, -36.8938462106248], [174.559294490015, -36.893849408019], [174.559296930792, -36.89385243882], [174.559299288484, -36.8938553021563], [174.559301565353, -36.8938579988996], [174.559303752326, -36.8938606346285], [174.559305838997, -36.8938634149911], [174.559307823196, -36.8938663436211], [174.559309706045, -36.893869420504], [174.559311487562, -36.8938726465407], [174.559313166607, -36.893876020845], [174.559314744302, -36.8938795434021], [174.559316219543, -36.8938832151278], [174.559317594556, -36.8938870350917], [174.559318867096, -36.893891003323], [174.559320037184, -36.8938951207231], [174.559321105921, -36.8938993863759], [174.559322073307, -36.8939038002816], [174.559322939362, -36.8939083633413], [174.559323702945, -36.8939130746685], [174.559324365196, -36.8939179351496], [174.559324924956, -36.8939229429972], [174.559325384507, -36.893928099984], [174.559325741604, -36.8939334061395], [174.55932599621, -36.8939388596614], [174.559326149484, -36.8939444623373], [174.55932618324, -36.8939501477048], [174.559326087734, -36.8939558780346], [174.559325861805, -36.8939616515391], [174.559325505455, -36.8939674682184], [174.559325019842, -36.8939733298599], [174.559324403807, -36.8939792346761], [174.559323657368, -36.8939851835681], [174.559322781629, -36.8939911756202], [174.559321775487, -36.8939972117481], [174.559320638941, -36.8940032919518], [174.559319373096, -36.8940094153155], [174.559317976846, -36.894015582755], [174.559316450193, -36.8940217942704], [174.559314794239, -36.8940280489457], [174.5593130079, -36.894034348598], [174.559311091121, -36.8940406905239], [174.559309045078, -36.8940470774119], [174.559306868612, -36.8940535074747], [174.559304561725, -36.8940599807121], [174.559302125574, -36.8940664989117], [174.559299589714, -36.8940730806141], [174.559297210081, -36.8940798946209], [174.559295046924, -36.8940869788997], [174.55929309802, -36.8940943343812], [174.559291363349, -36.8941019601642], [174.559289845173, -36.8941098571205], [174.559288541231, -36.8941180243783], [174.559287451523, -36.8941264619378], [174.559286578292, -36.8941351697693], [174.559285919313, -36.8941441488036], [174.559285475708, -36.8941533990259], [174.559285246318, -36.8941629186486], [174.559285232303, -36.8941727094593], [174.559285433643, -36.8941827705568], [174.559285849236, -36.8941931028571], [174.559286480185, -36.8942037054441], [174.55928732649, -36.8942145783181], [174.559288387048, -36.8942257223946], [174.559289662944, -36.8942371358569], [174.559291154233, -36.8942488214083], [174.559292860861, -36.8942607763453], [174.5592947727, -36.8942728890316], [174.559296865437, -36.8942848470127], [174.559299138761, -36.8942966349695], [174.55930159155, -36.8943082529167], [174.559304223786, -36.8943196999531], [174.55930703659, -36.894330976064], [174.559310028842, -36.8943420812642], [174.559313200558, -36.8943530164547], [174.559316552844, -36.8943637807196], [174.559320084594, -36.8943743749748], [174.559323795792, -36.8943847983192], [174.559327687558, -36.894395050738], [174.559331758772, -36.894405132246], [174.559336009451, -36.8944150437442], [174.5593404407, -36.8944247843167], [174.559345051395, -36.8944343539782], [174.559349841557, -36.89444375363], [174.559354812287, -36.8944529823561], [174.559359962483, -36.8944620410723], [174.559365292108, -36.8944709279763], [174.559370802321, -36.8944796448557], [174.559376520704, -36.8944882787807], [174.559382474676, -36.8944969087116], [174.559388664255, -36.8945055355494], [174.559395090564, -36.8945141592793], [174.559401751358, -36.8945227799308], [174.559408647759, -36.8945313974891], [174.559415779767, -36.8945400119542], [174.559423147383, -36.8945486233259], [174.559430751729, -36.8945572315896], [174.55943859056, -36.8945658367746], [174.559446665, -36.8945744388662], [174.559454975047, -36.8945830378644], [174.559463521823, -36.8945916337542], [174.559472303086, -36.8946002265652], [174.559481319957, -36.8946088162826], [174.559490572437, -36.8946174029063], [174.559500061646, -36.8946259864214], [174.559509785341, -36.8946345668576], [174.559519744645, -36.8946431441998], [174.559529939558, -36.8946517184481], [174.559540345195, -36.8946602800141], [174.559550580731, -36.8946686995938], [174.559560525204, -36.8946769337072], [174.559570177472, -36.8946849814678], [174.559579538694, -36.8946928446633], [174.55958860773, -36.8947005224075], [174.559597384561, -36.8947080137991], [174.559605869223, -36.8947153206405], [174.55961406282, -36.894722442016], [174.559621965334, -36.8947293770245], [174.559629574557, -36.8947361274977], [174.559636892714, -36.8947426925052], [174.559643918666, -36.8947490711606], [174.55965065357, -36.8947552652514], [174.559657095165, -36.8947612739061], [174.559663246798, -36.8947670961794], [174.559669105139, -36.8947727339177], [174.559674672414, -36.8947781861906], [174.559679947482, -36.8947834521117], [174.559684931503, -36.8947885334686], [174.559689622213, -36.8947934293895], [174.559694091967, -36.8947981659656], [174.559698611126, -36.8948028487124], [174.5597032091, -36.8948074889614], [174.559707883645, -36.894812086742], [174.559712636967, -36.8948166402227], [174.55971746686, -36.8948211512351], [174.559722374427, -36.8948256188632], [174.559727360808, -36.8948300439936], [174.559732423742, -36.8948344257544], [174.559737565472, -36.8948387641163], [174.559742783772, -36.8948430600099], [174.559748079728, -36.8948473116181], [174.559753454517, -36.8948515216296], [174.55975890584, -36.8948556873704], [174.559764435978, -36.8948598106134], [174.559770042667, -36.8948638904868], [174.559775728171, -36.8948679278623], [174.559781490228, -36.8948719218682], [174.559787329958, -36.8948758724898], [174.559793248503, -36.8948797806135], [174.559799243582, -36.8948836444665], [174.559805284716, -36.8948875104185], [174.559811328257, -36.8948914394341], [174.559817373063, -36.894895430627], [174.559823418032, -36.894899484913], [174.559829465426, -36.8949036031637], [174.559835512965, -36.8949077836064], [174.55984156291, -36.8949120271127], [174.559847613017, -36.8949163337121], [174.559853665549, -36.8949207042762], [174.559859718226, -36.8949251370323], [174.559865773309, -36.894929632852], [174.559871829696, -36.8949341926512], [174.559877886226, -36.8949388146424], [174.559883945164, -36.8949434996971], [174.559890004282, -36.8949482487461], [174.559896065789, -36.8949530599575], [174.559902127476, -36.8949579351632], [174.559908191553, -36.8949628725314], [174.559914256913, -36.8949678729779], [174.559920322456, -36.8949729374186], [174.559926385807, -36.8949780595751], [174.559932301949, -36.8949831169633], [174.559938007984, -36.8949880518205], [174.559943500508, -36.8949928623887], [174.559948781785, -36.8949975495396], [174.559953850692, -36.895002113288], [174.55995870835, -36.895006553619], [174.559963353638, -36.8950108705476], [174.559967786556, -36.8950150640737], [174.559972008226, -36.8950191341826], [174.559976017526, -36.895023080889], [174.559979814473, -36.8950269050942], [174.559983399032, -36.8950306049959], [174.559986772342, -36.8950341814805], [174.559989933282, -36.8950376345627], [174.559992882973, -36.8950409642279], [174.559995620293, -36.8950441704908], [174.559998145243, -36.8950472533513], [174.560000458944, -36.8950502127949], [174.560002559153, -36.8950530488509], [174.560004449234, -36.8950557614752], [174.560006156519, -36.8950583701389], [174.560007862719, -36.8950609806196], [174.560009595182, -36.8950636132895], [174.560011353853, -36.8950662654452], [174.560013139891, -36.8950689388742], [174.560014952156, -36.8950716326902], [174.560016790666, -36.8950743477943], [174.560018656525, -36.8950770832706], [174.56002054861, -36.8950798391338], [174.560022468044, -36.8950826153692], [174.560024412601, -36.8950854129075], [174.560026384506, -36.8950882308179], [174.560028383779, -36.8950910700017], [174.560030408156, -36.8950939295871], [174.560032459882, -36.8950968095448], [174.560034538957, -36.8950997098746], [174.560036643154, -36.8951026315073], [174.560038774701, -36.8951055735121], [174.560040933614, -36.8951085367903], [174.560043118754, -36.8951115204554], [174.560045330121, -36.8951145245074], [174.56004758636, -36.8951176379366], [174.560049927041, -36.8951210404963], [174.560052352239, -36.8951247357909], [174.560054860832, -36.8951287238352], [174.560057455099, -36.895133006402], [174.560060133883, -36.8951375817038], [174.560062896061, -36.8951424497552], [174.560065743915, -36.895147612329], [174.560068676285, -36.8951530676378], [174.56007169205, -36.8951588156962], [174.56007479349, -36.895164858277], [174.560077979447, -36.8951711935927], [174.56008124994, -36.8951778225444], [174.560084603827, -36.8951847442458], [174.560088043371, -36.8951919595684], [174.560091567451, -36.895199468527], [174.560095174926, -36.8952072702351], [174.560098868058, -36.8952153655645], [174.560102645726, -36.8952237545299], [174.560106507911, -36.89523243623], [174.560110452333, -36.8952414088922], [174.560114333325, -36.8952502976589], [174.560118049281, -36.8952588523839], [174.560121602426, -36.8952670721365], [174.560124991658, -36.8952749578326], [174.560128215853, -36.895282509487], [174.560131277238, -36.8952897261691], [174.560134173587, -36.8952966088095], [174.560136907143, -36.8953031573787], [174.560139476766, -36.8953093709905], [174.560141881353, -36.8953152505605], [174.560144123147, -36.8953207960595], [174.560146199886, -36.8953260066157], [174.560148113833, -36.8953308831008], [174.560149863864, -36.8953354255295], [174.560151448841, -36.8953396330156], [174.560152871024, -36.8953435064305], [174.560154128171, -36.8953470458039], [174.560155222506, -36.8953502502051], [174.560156151804, -36.8953531205648], [174.560156918309, -36.8953556568534], [174.560157536053, -36.895357886829], [174.560158146221, -36.8953600754413], [174.560158782598, -36.8953622835394], [174.560159446342, -36.8953645129109], [174.56016013633, -36.8953667635704], [174.56016085365, -36.8953690337009], [174.560161597232, -36.8953713260207], [174.560162367023, -36.8953736378263], [174.560163163059, -36.89537597092], [174.560163986444, -36.8953783243858], [174.560164836055, -36.8953806982386], [174.560165713034, -36.8953830933647], [174.560166615117, -36.8953855088925], [174.560167545671, -36.8953879447777], [174.560168501348, -36.8953904019657], [174.560169484373, -36.895392879526], [174.560170493626, -36.8953953774731], [174.560171529123, -36.8953978967083], [174.56017259197, -36.8954004363157], [174.560173681043, -36.89540299631], [174.560174797483, -36.8954055775777], [174.560176039903, -36.8954083383651], [174.560177697078, -36.8954117372797], [174.560179786461, -36.8954158047386], [174.560182308017, -36.8954205389396], [174.560185262867, -36.895425939868], [174.560188649925, -36.8954320093406], [174.560192470278, -36.8954387455404], [174.5601967217, -36.895446149398], [174.560201407539, -36.895454219968], [174.560206524447, -36.8954629581957], [174.56021207467, -36.8954723640515], [174.560218057066, -36.895482436649], [174.560224472776, -36.8954931768744], [174.560231319557, -36.8955045847573], [174.560238600775, -36.8955166602532], [174.560246313047, -36.8955294025051], [174.560254458635, -36.8955428123847], [174.560263036398, -36.8955568890054], [174.560272047479, -36.8955716332536], [174.560281490755, -36.8955870451437], [174.560291366227, -36.8956031246758], [174.560294553201, -36.8956119333162], [174.560297691203, -36.8956205965787], [174.560300781356, -36.8956291144485], [174.560303822538, -36.8956374869403], [174.56030681587, -36.8956457140395], [174.56030976023, -36.8956537957607], [174.560312656741, -36.8956617320892], [174.560315504281, -36.8956695230397], [174.56031830397, -36.8956771685977], [174.560321054688, -36.8956846687777], [174.560323757556, -36.895692023565], [174.560326411453, -36.8956992329744], [174.560329017499, -36.8957062969912], [174.560331574574, -36.89571321563], [174.560334083799, -36.8957199888762], [174.560336544052, -36.8957266167446], [174.560338956455, -36.8957330992202], [174.560341319886, -36.895739436318], [174.560343635467, -36.8957456280232], [174.560345902077, -36.8957516743505], [174.560348120836, -36.8957575752852], [174.560350290623, -36.895763330842], [174.560352390124, -36.8957688863176], [174.560354371947, -36.8957741188476], [174.560356232652, -36.8957790248718], [174.560357974465, -36.8957836034595], [174.560359594039, -36.895787855556], [174.560361094721, -36.8957917802161], [174.560362474285, -36.8957953783703], [174.560363734957, -36.8957986490881], [174.56036487339, -36.8958015933147], [174.56036589293, -36.895804210105], [174.560366791352, -36.8958065003893], [174.560367570883, -36.8958084632373], [174.560368228173, -36.8958100995941], [174.560368766572, -36.8958114085145], [174.560369183852, -36.8958123909291], [174.56036948224, -36.8958130459073], [174.560369658389, -36.8958133743944], [174.560369715645, -36.895813375445], [174.560369651783, -36.8958130499899], [174.56036946903, -36.8958123970983], [174.560369164036, -36.8958114177156], [174.56036874015, -36.8958101108965], [174.560368243311, -36.8958085832999], [174.560367905113, -36.89580735107], [174.560367756083, -36.8958064805065], [174.560367796259, -36.8958059734118], [174.560368025604, -36.8958058279837], [174.560368444154, -36.8958060460244], [174.560369051873, -36.8958066257317], [174.560369848798, -36.8958075689077], [174.560370834891, -36.8958088737503], [174.56037201019, -36.8958105420616], [174.560373374658, -36.8958125720395], [174.560374928332, -36.8958149654862], [174.560376671174, -36.8958177205993], [174.560378603223, -36.8958208391813], [174.56038072444, -36.8958243194296], [174.560383034863, -36.8958281631468], [174.560385534455, -36.8958323685304], [174.560388223254, -36.8958369373826], [174.560391101221, -36.8958418679014], [174.560394168395, -36.8958471618887], [174.560397424738, -36.8958528175425], [174.560400870288, -36.8958588366649], [174.560404495462, -36.8958651896368], [174.560408178319, -36.8958715094017], [174.560411880642, -36.8958776828897], [174.560415603555, -36.8958837100861], [174.560419344812, -36.8958895910203], [174.560423106659, -36.8958953256628], [174.560426887972, -36.8959009140285], [174.560430689875, -36.8959063561024], [174.560434510123, -36.8959116519142], [174.560438350959, -36.8959168014344], [174.560442211263, -36.8959218046776], [174.560446092156, -36.8959266616292], [174.560449991393, -36.8959313723186], [174.560453911219, -36.8959359367163], [174.560457850513, -36.8959403548371], [174.560461810395, -36.8959446266662], [174.560465788622, -36.8959487522332], [174.560469787437, -36.8959527315085], [174.56047380572, -36.8959565645069], [174.560477843469, -36.8959602512283], [174.560481901807, -36.8959637916581], [174.560485979612, -36.8959671858109], [174.56049007578, -36.8959704346027], [174.56049411335, -36.895973671545], [174.560498036827, -36.8959769820951], [174.560501849614, -36.895980368011], [174.560505549429, -36.8959838275199], [174.560509138555, -36.8959873623947], [174.560512613588, -36.8959909708774], [174.56051597793, -36.8959946547259], [174.560519229302, -36.8959984121675], [174.560522369983, -36.896002244975], [174.560525396571, -36.8960061513904], [174.560528312469, -36.8960101331717], [174.560531115396, -36.8960141885461], [174.560533807633, -36.8960183192864], [174.560536385777, -36.8960225236347], [174.56053885323, -36.8960268033488], [174.560541207713, -36.8960311566562], [174.560543451505, -36.8960355853295], [174.560545581204, -36.8960400876107], [174.560547600213, -36.8960446652579], [174.560549506251, -36.8960493164982], [174.560551301598, -36.8960540431046], [174.560552982852, -36.8960588433189], [174.560554669659, -36.8960636957394], [174.560556536345, -36.8960685638241], [174.560558585156, -36.8960734475435], [174.560560816109, -36.8960783477988], [174.560563229186, -36.8960832636888], [174.560565824387, -36.8960881952134], [174.560568601712, -36.8960931423728], [174.560571561179, -36.8960981060679], [174.56057470277, -36.8961030853977], [174.560578026486, -36.8961080803621], [174.560581532326, -36.8961130909611], [174.560585220308, -36.8961181180959], [174.560589090415, -36.8961231608652], [174.560593142646, -36.8961282192691], [174.560597377002, -36.8961332933076], [174.5606017935, -36.8961383838817], [174.560606392122, -36.8961434900903], [174.560611172869, -36.8961486119334], [174.560616135741, -36.896153749411], [174.560621280756, -36.8961589034241], [174.560626607895, -36.8961640730716], [174.560632117158, -36.8961692583536], [174.560637779006, -36.8961744966139], [174.560643497111, -36.8961799071968], [174.560649264941, -36.8961855001032], [174.560655081358, -36.8961912744467], [174.560660947502, -36.8961972311135], [174.560666862232, -36.8962033692173], [174.560672826688, -36.8962096896446], [174.560678839731, -36.8962161915088], [174.560684902501, -36.8962228756965], [174.560691013857, -36.8962297413211], [174.56069717494, -36.8962367892691], [174.56070338461, -36.896244018654], [174.560709644007, -36.8962514303623], [174.560715951991, -36.8962590235075], [174.560722309702, -36.896266798976], [174.560728716, -36.8962747558815], [174.560735172025, -36.8962828951102], [174.560741676637, -36.8962912157759], [174.560748230977, -36.8962997187648], [174.560754833903, -36.8963084031906], [174.560761486558, -36.8963172699397], [174.560768187799, -36.8963263181257], [174.560774908533, -36.8963354967529], [174.560781419676, -36.8963444131324], [174.560787673539, -36.8963529849651], [174.560793670178, -36.8963612149545], [174.560799409536, -36.8963691003973], [174.560804892773, -36.8963766430809], [174.560810118729, -36.8963838412179], [174.56081508746, -36.8963906975118], [174.56081979891, -36.8963972092593], [174.560824254238, -36.8964033782477], [174.560828452285, -36.8964092026897], [174.560832393106, -36.8964146852887], [174.560836076645, -36.8964198233413], [174.560839504062, -36.8964246186351], [174.560842674198, -36.8964290693826], [174.560845587107, -36.8964331782871], [174.560848242735, -36.8964369426454], [174.56085064224, -36.8964403642449], [174.560852784463, -36.8964434412983], [174.560854669459, -36.8964461765087], [174.560856297174, -36.8964485671729], [174.560857668765, -36.8964506150785], [174.560858792271, -36.8964523291334], [174.56085993487, -36.8964539888556], [174.560861214732, -36.8964557206861], [174.560862632941, -36.8964575228079], [174.560864188413, -36.896459397038], [174.560865882232, -36.8964613415595], [174.560867713314, -36.8964633581892], [174.560869682743, -36.8964654451103], [174.560871789434, -36.8964676041397], [174.560874034474, -36.8964698334604], [174.560876416775, -36.8964721348893], [174.560878937425, -36.8964745066095], [174.560881595336, -36.896476950438], [174.560884391596, -36.8964794645578], [174.560887325118, -36.8964820507857], [174.560890397006, -36.8964847082061], [174.56089360612, -36.8964874359324], [174.560896953619, -36.8964902357522], [174.560900438343, -36.8964931058779], [174.560904061452, -36.8964960480971], [174.560907821787, -36.8964990606222], [174.560911720489, -36.8965021443395], [174.560915756453, -36.896505300165], [174.560919862141, -36.8965085181697], [174.560923968969, -36.8965117920439], [174.560928076879, -36.8965151190842], [174.560932185928, -36.896518501994], [174.560936296079, -36.8965219389711], [174.560940407349, -36.8965254309165], [174.56094451974, -36.8965289778302], [174.560948633251, -36.8965325797124], [174.560952747863, -36.8965362356618], [174.560956863614, -36.8965399474807], [174.560960980449, -36.8965437124656], [174.560965098422, -36.8965475333201], [174.560969217496, -36.8965514082419], [174.560973337691, -36.896555338132], [174.560977459006, -36.8965593229904], [174.560981581441, -36.8965633628172], [174.560985704978, -36.8965674567113], [174.560989829635, -36.8965716055737], [174.560993955412, -36.8965758094045], [174.56099808231, -36.8965800682036], [174.561002210309, -36.89658438107], [174.561006339429, -36.8965887489048], [174.56101054372, -36.8965931157515], [174.561014990085, -36.8965973559302], [174.561019682919, -36.8966014648761], [174.561024624467, -36.8966054425598], [174.56102981138, -36.8966092899266], [174.561035247007, -36.8966130060311], [174.561040929104, -36.8966165909027], [174.561046859913, -36.8966200445119], [174.561053036089, -36.8966233678041], [174.561059460978, -36.8966265598338], [174.561066132337, -36.8966296206305], [174.561073052409, -36.8966325501647], [174.561080217846, -36.8966353493817], [174.561087631997, -36.8966380173361], [174.561095292618, -36.8966405540572], [174.561103201952, -36.8966429595157], [174.561111356652, -36.8966452346567], [174.561119760065, -36.8966473785349], [174.561128409947, -36.8966493911798], [174.561137308542, -36.8966512725617], [174.561146452504, -36.8966530236261], [174.561155845178, -36.8966546434273], [174.561165422245, -36.8966561697668], [174.561174883249, -36.8966577832604], [174.561184186054, -36.8966595087988], [174.561193332883, -36.8966613454514], [174.561202322634, -36.8966632941341], [174.561211156409, -36.8966653539312], [174.561219831985, -36.8966675257731], [174.561228351585, -36.8966698087295], [174.561236714107, -36.8966722037161], [174.561244920655, -36.8966747098171], [174.561252969002, -36.8966773279632], [174.561260861374, -36.8966800572238], [174.561268596668, -36.8966828985148], [174.561276175987, -36.8966858509203], [174.561283597105, -36.8966889153711], [174.56129086225, -36.8966920909364], [174.561297970315, -36.8966953785323], [174.561304922407, -36.8966987772427], [174.561311716297, -36.8967022879986], [174.561318354214, -36.8967059098691], [174.561324835052, -36.8967096437703], [174.561331159915, -36.8967134887862], [174.561337333053, -36.8967174331433], [174.561343434278, -36.8967213180539], [174.561349488385, -36.896725093617], [174.56135549427, -36.8967287607485], [174.561361453037, -36.8967323185325], [174.561367363583, -36.896735767885], [174.56137322701, -36.89673910789], [174.561379042216, -36.8967423394634], [174.561384810304, -36.8967454616894], [174.56139053017, -36.8967484754838], [174.561396202918, -36.8967513799308], [174.561401827444, -36.8967541759463], [174.561407404852, -36.8967568626144], [174.561412934037, -36.8967594408509], [174.561418416105, -36.8967619097401], [174.561423849951, -36.8967642701978], [174.561429236678, -36.8967665213081], [174.561434575183, -36.8967686639869], [174.56143986657, -36.8967706973183], [174.561445109735, -36.8967726222182], [174.561450305781, -36.8967744377708], [174.561455453606, -36.896776144892], [174.56146055319, -36.8967777426806], [174.561465509405, -36.8967792441047], [174.561470258446, -36.896780657214], [174.561474801435, -36.8967819819939], [174.561479138354, -36.8967832175431], [174.561483269221, -36.8967843647628], [174.561487192914, -36.8967854236679], [174.561490910555, -36.8967863942435], [174.561494422125, -36.8967872755886], [174.561497727644, -36.8967880686043], [174.561500825988, -36.8967887733054], [174.56150371828, -36.8967893896771], [174.561506404502, -36.8967899168184], [174.561508884672, -36.8967903556303], [174.561511157667, -36.8967907061277], [174.561513224611, -36.8967909682958], [174.561515085483, -36.8967911412335], [174.561516740304, -36.8967912258419], [174.561518187951, -36.8967912221358], [174.561519429545, -36.8967911301004], [174.561520465069, -36.8967909488347], [174.56152129454, -36.8967906792397], [174.561521916838, -36.8967903213302], [174.561522606174, -36.8967900589854], [174.561523776728, -36.8967901706908], [174.561525431903, -36.8967906582043], [174.561527571754, -36.8967915242293], [174.561530196226, -36.8967927660623], [174.561533306477, -36.8967943854908], [174.561536901349, -36.8967963807274], [174.561540980898, -36.8967987544752], [174.561545545067, -36.896801504031], [174.561550595017, -36.896804631182], [174.561556129588, -36.8968081341409], [174.561562148835, -36.8968120156107], [174.561568652704, -36.8968162728883], [174.561575642354, -36.8968209077608], [174.561583115523, -36.8968259193566], [174.561591075575, -36.8968313076315], [174.561599519147, -36.8968370726294], [174.561608448501, -36.8968432152219], [174.561617862477, -36.8968497336215], [174.561627761131, -36.8968566305313], [174.56163814441, -36.8968639032479], [174.56164901347, -36.8968715535586], [174.561660202874, -36.8968794484335], [174.561671178708, -36.8968871613353], [174.561681899864, -36.8968946576513], [174.561692367484, -36.8969019382678], [174.561702580462, -36.8969090041009], [174.561712538763, -36.8969158533483], [174.561722242423, -36.8969224878124], [174.561731692527, -36.8969289056763], [174.56174088799, -36.8969351087569], [174.561749828774, -36.8969410952522], [174.561758514917, -36.8969468669644], [174.561766947503, -36.8969524220766], [174.561775125447, -36.8969577624058], [174.561783048712, -36.8969628861499], [174.561790717336, -36.8969677951112], [174.561798132402, -36.8969724874726], [174.561805292826, -36.8969769650513], [174.56181219857, -36.8969812260451], [174.561818849672, -36.8969852722563], [174.561825247217, -36.8969891018678], [174.561831390118, -36.8969927166968], [174.561837278341, -36.896996114941], [174.561842927591, -36.896999296394], [174.561848457607, -36.8970022441583], [174.561853890791, -36.8970049561366], [174.561859229389, -36.8970074322995], [174.561864471154, -36.8970096726765], [174.561869618314, -36.8970116763369], [174.561874668642, -36.8970134442115], [174.561879624383, -36.8970149762707], [174.561884483292, -36.897016272544], [174.561889247594, -36.8970173321008], [174.561893915083, -36.8970181567729], [174.561898486826, -36.8970187438422], [174.561902963999, -36.8970190959974], [174.561907345444, -36.8970192114508], [174.561911630056, -36.8970190911184], [174.561915820081, -36.8970187349708], [174.561919913273, -36.8970181430374], [174.561923911859, -36.8970173143876], [174.561927813613, -36.897016249952], [174.561931620779, -36.8970149497013], [174.561935331112, -36.8970134136648], [174.561938946839, -36.8970116409119], [174.56194246818, -36.8970096422562], [174.561945965663, -36.8970076844755], [174.561949469746, -36.897005885248], [174.561952979341, -36.8970042463908], [174.561956495553, -36.8970027669879], [174.561960018401, -36.8970014479405], [174.561963546743, -36.8970002883622], [174.561967081721, -36.8969992891395], [174.561970623316, -36.8969984493711], [174.561974170405, -36.8969977690719], [174.561977725252, -36.8969972491133], [174.561981285595, -36.8969968886239], [174.56198485145, -36.8969966885048], [174.561988423923, -36.8969966478399], [174.561992003031, -36.8969967675306], [174.561995588738, -36.8969970457746], [174.561999179977, -36.8969974852898], [174.562002777814, -36.8969980833583], [174.562006382306, -36.8969988426835], [174.562009992274, -36.8969997605766], [174.562013608878, -36.8970008388251], [174.562017232099, -36.8970020765281], [174.562020861956, -36.8970034745865]]]}, "properties": {"OBJECTID": 855, "TRACKNAME": "Opanuku Pipeline Track", "CONDITIONSOFUSE": "Waitakere North Regional Park", "STATUS": "Temp Closed", "WEBLINK": "https://www.aucklandcouncil.govt.nz/en/parks-recreation/find-park-beach/park-detail/3407.html", "VALIDATIONSTATE": 3, "created_user": "AC_owner", "last_edited_user": "AC_owner", "last_edited_date": 1789875254325, "created_date": 1789875254325, "PARK_SAPSITEID": null, "TRACK_ID": null, "KAURIDIEBACK_TRACK": null, "KAURIDIEBACK_MITIGATED": null, "SegmentID": null, "GlobalID": "b2a27a11-a9e9-4f13-a4bb-60a102f9ae55", "Shape__Length": 895.0758332284913}}, {"type": "Feature", "id": 12253, "geometry": {"type": "LineString", "coordinates": [[174.562359921148, -36.8972426166154], [174.562360284238, -36.8972428660247], [174.562366588638, -36.8972472989427], [174.562373095394, -36.8972519689619], [174.562379806748, -36.8972568760526], [174.562386720457, -36.8972620202443], [174.562393838747, -36.8972674006064], [174.562401161635, -36.89727301804], [174.56240868688, -36.8972788725745], [174.562416415601, -36.897284964195], [174.562424348904, -36.8972912919858], [174.562432485685, -36.8972978568626], [174.562440825943, -36.8973046588254], [174.562449354745, -36.8973116809446], [174.562457759343, -36.8973185559718], [174.562465908784, -36.8973251360029], [174.562473803047, -36.8973314201369], [174.562481443238, -36.8973374074579], [174.562488829373, -36.8973430988672], [174.562495960332, -36.8973484943795], [174.562502836113, -36.8973535939949], [174.562509457839, -36.8973583976987], [174.562515825491, -36.8973629045898], [174.562521937966, -36.8973671155842], [174.562527796384, -36.897371030667], [174.562533399625, -36.8973746498532], [174.56253874881, -36.8973779731279], [174.562543843921, -36.8973809995902], [174.562548683872, -36.897383731057], [174.562553268626, -36.8973861657262], [174.562557599324, -36.8973883044841], [174.562561675966, -36.8973901473307], [174.562565497411, -36.8973916933798], [174.562569064817, -36.8973929444188], [174.562572377027, -36.8973938986603], [174.562575646551, -36.8973946858094], [174.562579085915, -36.8973954364726], [174.562582695067, -36.8973961479463], [174.562586472938, -36.8973968229487], [174.562590419492, -36.8973974596776], [174.562594535851, -36.8973980581181], [174.562598822051, -36.8973986200725], [174.562603276916, -36.8973991428522], [174.562607901623, -36.8973996291457], [174.562612696135, -36.8974000771508], [174.562617659348, -36.8974004877834], [174.562622791244, -36.8974008601423], [174.562628092963, -36.8974011951138], [174.562633564505, -36.897401492698], [174.562639204731, -36.8974017520084], [174.562645014779, -36.8974019739313], [174.562650994632, -36.8974021575657], [174.562657143187, -36.8974023038274], [174.562663460443, -36.8974024127163], [174.562669947522, -36.8974024842177], [174.562676604406, -36.8974025174305], [174.562683377975, -36.8974025491079], [174.562690143211, -36.8974026674254], [174.562696892369, -36.8974028778933], [174.562703625414, -36.8974031787091], [174.562710344607, -36.8974035707446], [174.562717047704, -36.8974040540292], [174.562723735829, -36.8974046285481], [174.562730408979, -36.8974052943015], [174.562737067157, -36.8974060512892], [174.562743709239, -36.8974068995261], [174.562750336348, -36.8974078389974], [174.562756948465, -36.8974088688019], [174.562763544505, -36.8974099907567], [174.562770126675, -36.89741120303], [174.562776692751, -36.8974125065524], [174.562783243853, -36.8974139013093], [174.56278977886, -36.8974153873153], [174.562796300016, -36.897416964541], [174.562802805076, -36.8974186330158], [174.562809295164, -36.897420392725], [174.562815769138, -36.8974222427822], [174.562822233436, -36.897424168681], [174.562828713038, -36.8974260745481], [174.562835213241, -36.8974279449906], [174.562841732905, -36.8974297791221], [174.56284827317, -36.897431577829], [174.562854834036, -36.8974333411114], [174.562861414362, -36.8974350680827], [174.562868016411, -36.8974367596148], [174.56287463794, -36.8974384157369], [174.562881278929, -36.8974400355481], [174.562887941623, -36.8974416190188], [174.562894623814, -36.8974431679807], [174.562901325465, -36.8974446806317], [174.562908048821, -36.8974461569422], [174.562914791675, -36.8974475987439], [174.562921555093, -36.8974490033188], [174.562928338008, -36.8974503733849], [174.562935141505, -36.8974517071252], [174.562941965604, -36.8974530054409], [174.562948810285, -36.8974542674308], [174.562955674444, -36.8974554940109], [174.562962558157, -36.8974566887855], [174.562969430796, -36.8974579458996], [174.562976280792, -36.8974593033626], [174.562983107005, -36.8974607602882], [174.562989911696, -36.8974623175479], [174.562996692623, -36.8974639751714], [174.563003452011, -36.8974657322279], [174.563010187633, -36.8974675896482], [174.563016900613, -36.8974695474174], [174.56302359095, -36.8974716055356], [174.563030258626, -36.8974737631016], [174.563036902537, -36.8974760210313], [174.563043524927, -36.8974783792953], [174.563050123553, -36.897480837923], [174.563056699517, -36.8974833959985], [174.563063252839, -36.897486054423], [174.563069783519, -36.8974888131965], [174.563076291537, -36.8974916714178], [174.56308277579, -36.8974946300029], [174.563089238523, -36.8974976889223], [174.563095677492, -36.8975008482054], [174.563102093799, -36.8975041069363], [174.563108442845, -36.8975073142729], [174.563114680008, -36.8975103184717], [174.563120804187, -36.8975131204486], [174.563126816465, -36.8975157183865], [174.563132716861, -36.8975181131868], [174.563138504254, -36.8975203048641], [174.563144180886, -36.897522293389], [174.563149744515, -36.897524078791], [174.563155196279, -36.8975256619563], [174.563160535021, -36.8975270410977], [174.563165761881, -36.8975282171015], [174.563170876859, -36.8975291899677], [174.563175879954, -36.8975299596962], [174.563180770046, -36.897530526302], [174.563185549376, -36.8975308897553], [174.563190214581, -36.8975310501007], [174.563194769025, -36.8975310072938], [174.563199210464, -36.8975307613641], [174.563203540021, -36.8975303122969], [174.563207757714, -36.8975296609933], [174.563211863506, -36.8975288056511], [174.563215900031, -36.8975278006925], [174.563219973269, -36.8975267799274], [174.563224088939, -36.8975257486888], [174.56322824592, -36.8975247069915], [174.563232445334, -36.8975236548205], [174.563236686059, -36.8975225921908], [174.563240969216, -36.8975215190876], [174.563245293684, -36.8975204355255], [174.563249660566, -36.8975193405888], [174.5632540699, -36.8975182360796], [174.563258519422, -36.8975171211264], [174.56326301248, -36.8975159947837], [174.563267546868, -36.8975148588833], [174.563272122547, -36.897513711623], [174.563276740678, -36.8975125547902], [174.563281401223, -36.8975113865827], [174.563286103097, -36.8975102088175], [174.563290847386, -36.8975090196776], [174.563295633003, -36.8975078209799], [174.563300459913, -36.8975066109223], [174.563305329255, -36.897505390391], [174.563310234629, -36.8975041756949], [174.563315139763, -36.8975030592505], [174.563320039396, -36.8975020582528], [174.563324931284, -36.8975011727315], [174.563329817635, -36.8975004008547], [174.563334698485, -36.8974997444247], [174.563339571572, -36.8974992025699], [174.563344439158, -36.8974987761619], [174.563349300104, -36.8974984643143], [174.56335415553, -36.8974982670124], [174.563359003194, -36.8974981842857], [174.563363845356, -36.8974982170058], [174.563368682, -36.8974983642716], [174.563373512003, -36.8974986260978], [174.563378335384, -36.8974990033855], [174.563383152124, -36.8974994952337], [174.563387963344, -36.8975001016275], [174.563392767943, -36.897500823483], [174.5633975659, -36.8975016598988], [174.563402357217, -36.8975026108751], [174.563407143034, -36.8975036772982], [174.563411923203, -36.8975048519591], [174.563416699509, -36.8975060023338], [174.563421474162, -36.8975070716073], [174.563426248318, -36.8975080615671], [174.563431019735, -36.8975089722428], [174.563435789515, -36.8975098027184], [174.563440558781, -36.8975105529791], [174.563445325308, -36.8975112239557], [174.563450090216, -36.8975118156334], [174.56345485347, -36.8975123262099], [174.563459616228, -36.8975127574727], [174.563464376246, -36.8975131094513], [174.563469134627, -36.8975133812299], [174.563473892495, -36.8975135727936], [174.563478647622, -36.8975136850732], [174.563483401113, -36.8975137171527], [174.563488154108, -36.8975136699186], [174.563492904345, -36.8975135424991], [174.563497652945, -36.8975133348796], [174.563502399927, -36.8975130479612], [174.563507146395, -36.897512680828], [174.563511890122, -36.8975122344106], [174.563516608762, -36.8975117684932], [174.563521278825, -36.8975113419736], [174.563525900367, -36.8975109575553], [174.563530472211, -36.8975106125495], [174.563534995516, -36.8975103087438], [174.563539470262, -36.8975100452371], [174.563543895329, -36.8975098220441], [174.563548271856, -36.8975096400513], [174.563552599807, -36.8975094974563], [174.563556878115, -36.8975093969773], [174.563561108969, -36.8975093358814], [174.563565290161, -36.8975093160004], [174.563569421674, -36.8975093364332], [174.56357350575, -36.8975093971502], [174.563577540166, -36.8975094990821], [174.563581526023, -36.8975096413131], [174.563585462201, -36.8975098238578], [174.563589349821, -36.8975100467015], [174.563593188901, -36.8975103107455], [174.563596979424, -36.8975106150884], [174.563600720285, -36.8975109606463], [174.563604455665, -36.897511367569], [174.563608286578, -36.8975118913128], [174.563612220913, -36.8975125335765], [174.56361625641, -36.8975132934886], [174.563620393086, -36.8975141719502], [174.563624633186, -36.8975151689317], [174.563628973343, -36.8975162844774], [174.563633416923, -36.897517518543], [174.563637961683, -36.8975188711581], [174.563642607622, -36.8975203423225], [174.563647355845, -36.8975219311205], [174.563652206387, -36.8975236393542], [174.56365715809, -36.8975254652361], [174.563662212096, -36.8975274096527], [174.56366736728, -36.8975294726185], [174.563672624767, -36.897531654119], [174.563677984555, -36.897533954154], [174.563683445504, -36.8975363718372], [174.563689008774, -36.897538908956], [174.563694673205, -36.897541563723], [174.563700439956, -36.8975443379256], [174.563706301799, -36.8975472073221], [174.563712218969, -36.8975500381327], [174.563718184311, -36.8975528097203], [174.56372419777, -36.8975555193813], [174.563730260522, -36.8975581698046], [174.563736370288, -36.8975607592172], [174.563742530434, -36.897563287575], [174.56374873761, -36.8975657558233], [174.563754994063, -36.8975681639326], [174.56376129865, -36.8975705110165], [174.563767651391, -36.8975727979761], [174.56377405339, -36.8975750238956], [174.563780503541, -36.8975771896908], [174.563787001847, -36.8975792953618], [174.563793549409, -36.8975813399925], [174.563800145106, -36.8975833235979], [174.563806788957, -36.8975852470789], [174.563813480962, -36.8975871104356], [174.563820222223, -36.8975889127521], [174.563827011638, -36.8975906549443], [174.563833849207, -36.8975923370121], [174.563840730532, -36.8975939635203], [174.563847538415, -36.8975956757232], [174.563854223487, -36.8975975292539], [174.563860789096, -36.8975995231669], [174.563867231914, -36.8976016593089], [174.563873554165, -36.8976039367492], [174.563879754709, -36.8976063546015], [174.563885833583, -36.897608914668], [174.56389179077, -36.8976116160477], [174.56389762739, -36.8976144587257], [174.563903342303, -36.8976174418158], [174.563908936668, -36.8976205671055], [174.563914408224, -36.8976238337231], [174.563919759213, -36.8976272416391], [174.563924988514, -36.8976307908684], [174.563930097231, -36.8976344804951], [174.563935083156, -36.8976383123509], [174.563939948514, -36.8976422855052], [174.563944693307, -36.8976463999581], [174.563949315289, -36.897650655739], [174.563953816706, -36.8976550528185], [174.563958196434, -36.8976595912113], [174.563962566065, -36.8976642397034], [174.563967037171, -36.8976689661792], [174.563971608648, -36.8976737715548], [174.563976280497, -36.8976786558302], [174.563981054943, -36.8976836180746], [174.563985929741, -36.8976886583176], [174.56399090493, -36.8976937783614], [174.563995981575, -36.8976989754878], [174.564001159732, -36.8977042524003], [174.564006438243, -36.8977096073114], [174.564011818228, -36.8977150402061], [174.564017298604, -36.8977205529017], [174.564022880437, -36.8977261426797], [174.564028563781, -36.8977318122438], [174.564034347461, -36.8977375589052], [174.564040232653, -36.8977433853524], [174.564046218199, -36.8977492897982], [174.564052305238, -36.8977552731286], [174.564058492631, -36.8977613344575], [174.564064781518, -36.8977674746711], [174.56407117188, -36.8977736928682], [174.564077650751, -36.8977800685397], [174.564084187268, -36.8977867940824], [174.564090781613, -36.8977938785075], [174.564097432647, -36.8978013209286], [174.564104140389, -36.8978091222469], [174.564110905961, -36.8978172824475], [174.564117728221, -36.8978258006441], [174.56412460719, -36.8978346777378], [174.564131542847, -36.8978439128275], [174.564138536335, -36.8978535067995], [174.564145586531, -36.8978634596686], [174.564152693417, -36.8978737705335], [174.564159858134, -36.8978844402808], [174.56416707954, -36.8978954680239], [174.564174357674, -36.8979068555651], [174.564181693601, -36.8979186001864], [174.564189085134, -36.8979307046204], [174.564196534479, -36.8979431670356], [174.564204041638, -36.8979559874318], [174.564211604383, -36.8979691667397], [174.564219224961, -36.8979827049297], [174.56422686971, -36.8979964924786], [174.564234337794, -36.8980098722328], [174.564241596714, -36.8980227364566], [174.564248646449, -36.8980350842488], [174.564255485897, -36.8980469165254], [174.564262117264, -36.8980582314548], [174.564268538342, -36.8980690308686], [174.564274750235, -36.8980793138512], [174.564280752943, -36.8980890804024], [174.564286546466, -36.8980983305223], [174.564292129699, -36.898107065127], [174.564297504869, -36.8981152832857], [174.56430266973, -36.898122985028], [174.564307625406, -36.8981301703392], [174.564312371913, -36.8981368401205], [174.564316909216, -36.8981429925696], [174.56432123735, -36.8981486294887], [174.564325355194, -36.8981537508928], [174.564329263833, -36.8981583549648], [174.564332964425, -36.8981624434921], [174.56433645469, -36.8981660147023], [174.564339739519, -36.8981690883607], [174.564342932181, -36.8981720451541], [174.564346075181, -36.8981750431628], [174.564349169623, -36.8981780814709], [174.564352214386, -36.8981811600932], [174.564355210592, -36.8981842790148], [174.564358158258, -36.898187439137], [174.564361057367, -36.8981906395585], [174.564363906815, -36.8981938811953], [174.564366707686, -36.8981971622304], [174.564369460019, -36.8982004844661], [174.56437216269, -36.898203847917], [174.564374816785, -36.8982072507662], [174.564377422342, -36.898210694816], [174.564379978218, -36.8982141791799], [174.564382486659, -36.8982177038285], [174.564384945439, -36.8982212696924], [174.564387354539, -36.8982248758705], [174.564389716204, -36.8982285223333], [174.564392028207, -36.8982322100113], [174.564394291653, -36.8982359379889], [174.56439650542, -36.8982397062806], [174.56439880935, -36.8982436031813], [174.564401341045, -36.8982477170151], [174.564404101607, -36.8982520468662], [174.564407089934, -36.8982565936505], [174.564410306007, -36.8982613564668], [174.564413750984, -36.8982663371025], [174.564417423689, -36.8982715328692], [174.564421324177, -36.89827694647], [174.564425452393, -36.8982825752015], [174.564429809514, -36.8982884217525], [174.564434394381, -36.8982944843353], [174.564439207013, -36.8983007638511], [174.564444248514, -36.8983072593839], [174.56444951778, -36.8983139718496], [174.564455014792, -36.898320900347], [174.564460740692, -36.8983280457625], [174.564466694357, -36.8983354081108], [174.56447287577, -36.8983429864907], [174.56447928607, -36.8983507817886], [174.564485924136, -36.8983587940191], [174.564492789949, -36.8983670222812], [174.564499804934, -36.8983753558404], [174.564506774984, -36.8983835223374], [174.564513692025, -36.8983915110621], [174.564520556021, -36.8983993202122], [174.564527365849, -36.8984069498025], [174.564534122668, -36.8984144016206], [174.564540826441, -36.8984216738642], [174.564547477186, -36.8984287674344], [174.564554073763, -36.8984356814449], [174.564560617313, -36.898442416782], [174.564567107834, -36.8984489734458], [174.564573544206, -36.898455351451], [174.564579927532, -36.8984615498818], [174.564586257829, -36.8984675696392], [174.564592533977, -36.8984734107382], [174.5645987582, -36.8984790722479], [174.564604927151, -36.8984845551139], [174.564611044195, -36.8984898592919], [174.564617107071, -36.8984949839103], [174.564623116919, -36.8984999298554], [174.564629073738, -36.8985046971272], [174.564635003483, -36.8985093475781], [174.564641061872, -36.8985142523215], [174.564647276019, -36.8985194749972], [174.564653645923, -36.8985250156051], [174.564660171567, -36.898530873244], [174.56466685295, -36.898537047914], [174.564673690072, -36.8985435396149], [174.564680682953, -36.898550349248], [174.564687830451, -36.8985574759268], [174.564695133689, -36.8985649196364], [174.564702593808, -36.8985726812633], [174.564710208544, -36.8985807599358], [174.56471797904, -36.8985891565403], [174.564725904135, -36.8985978692891], [174.564733986111, -36.8986068999551], [174.564742223847, -36.8986162485529], [174.564750616183, -36.8986259132949], [174.564759164279, -36.8986358959688], [174.564767868134, -36.8986461965743], [174.564776727712, -36.8986568133092], [174.56478574305, -36.8986677479758], [174.564794900262, -36.8986789800255], [174.564803900929, -36.8986900753266], [174.56481262016, -36.8987008534488], [174.564821060254, -36.8987113170661], [174.564829221172, -36.8987214643763], [174.564837101813, -36.8987312962952], [174.564844702157, -36.8987408119219], [174.564852023362, -36.8987500130439], [174.564859064252, -36.8987588969726], [174.564865826003, -36.8987674663968], [174.564872306334, -36.8987757195437], [174.56487850863, -36.8987836572702], [174.564884429524, -36.8987912796207], [174.564890072364, -36.8987985856497], [174.564895433802, -36.8988055763029], [174.564900516063, -36.8988122506494], [174.564905318063, -36.8988186105065], [174.564909840886, -36.8988246540571], [174.56491408341, -36.898830381316], [174.564918046776, -36.8988357931697], [174.564921729861, -36.8988408896328], [174.564925132665, -36.8988456707055], [174.564928369614, -36.8988502439454], [174.564931555153, -36.898854717811], [174.564934689301, -36.8988590932036], [174.564937772038, -36.898863369222], [174.564940802243, -36.898867545881], [174.564943781056, -36.898871624067], [174.564946708441, -36.8988756019777], [174.56494958333, -36.8988794823313], [174.56495240679, -36.8988832624096], [174.56495517884, -36.8988869431138], [174.564957898376, -36.8988905253597], [174.564960566502, -36.8988940082314], [174.564963183235, -36.8988973926302], [174.56496574854, -36.8989006767537], [174.564968261331, -36.898903862419], [174.56497072273, -36.8989069496112], [174.5649731327, -36.8989099365283], [174.564975490156, -36.8989128249871], [174.564977797324, -36.8989156140571], [174.564980050837, -36.8989183037824], [174.56498225408, -36.8989208950201], [174.564984405471, -36.8989234202398], [174.564986507827, -36.8989259623302], [174.564988561219, -36.8989285248955], [174.564990564545, -36.8989311088518], [174.564992520031, -36.8989337132683], [174.564994424291, -36.8989363372883], [174.564996280729, -36.8989389826696], [174.564998087083, -36.8989416485408], [174.564999844492, -36.8989443357881], [174.565001552919, -36.8989470426093], [174.565003211281, -36.8989497708215], [174.565004820662, -36.8989525186076], [174.565006381098, -36.8989552877699], [174.565007892571, -36.8989580774072], [174.56500935396, -36.8989608875343], [174.565010766386, -36.8989637181365], [174.565012128746, -36.8989665701296], [174.565013443246, -36.8989694416819], [174.56501470768, -36.8989723346252], [174.56501592203, -36.8989752480582], [174.565017088539, -36.8989781819516], [174.565018266875, -36.8989811454341], [174.565019833018, -36.8989841939437], [174.565021848861, -36.8989873356786], [174.56502431332, -36.8989905724557], [174.565027226358, -36.8989939024728], [174.565030590219, -36.8989973257003], [174.565034401574, -36.8990008439848], [174.565038663751, -36.8990044554795], [174.565043374526, -36.8990081611152], [174.565048535021, -36.899011960877], [174.565054144095, -36.8990158538785], [174.565060202888, -36.8990198410059], [174.565066711402, -36.8990239222593], [174.565073668513, -36.8990280976533], [174.565081075326, -36.8990323662719], [174.565088930737, -36.8990367290309], [174.565097235868, -36.8990411859155], [174.565105990702, -36.8990457360245], [174.565115194133, -36.8990503802736], [174.565124847286, -36.899055118648], [174.565134949037, -36.8990599511622], [174.565145479062, -36.8990648717746], [174.56515594208, -36.8990697536089], [174.56516613731, -36.8990745470315], [174.56517606475, -36.8990792520426], [174.565185724363, -36.89908386684], [174.565195116169, -36.8990883923248], [174.565204240167, -36.8990928284972], [174.565213096375, -36.8990971762582], [174.565221684775, -36.8991014347069], [174.565230005348, -36.8991056029422], [174.565238058132, -36.8991096827664], [174.565245844229, -36.8991136732637], [174.565253361395, -36.8991175744636], [174.565260610753, -36.8991213863514], [174.565267592321, -36.8991251098283], [174.565274306062, -36.8991287430921], [174.565280753135, -36.8991322879304], [174.565286931258, -36.8991357425704], [174.565292841591, -36.8991391087998], [174.565298485237, -36.8991423857025], [174.565303859953, -36.8991455733083], [174.565308966859, -36.8991486716024], [174.565313982901, -36.8991517170117], [174.565319082818, -36.8991547477952], [174.565324266608, -36.8991577639527], [174.565329534255, -36.8991607645832], [174.565334886878, -36.8991637496718], [174.56534032448, -36.8991667192186], [174.565345844833, -36.8991696741543], [174.565351450165, -36.899172613548], [174.565357139352, -36.8991755374146], [174.565362913535, -36.8991784466404], [174.565368771573, -36.8991813403391], [174.565374714608, -36.899184219397], [174.565380740358, -36.8991870820414], [174.565386852226, -36.8991899300302], [174.565393046847, -36.8991927634077], [174.565399326427, -36.8991955803421], [174.565405689899, -36.8991983835515], [174.56541213833, -36.8992011703178], [174.565418669514, -36.8992039424728], [174.565425286797, -36.8992066990709], [174.565431986815, -36.8992094401566], [174.565438849615, -36.8992122385866], [174.565446063992, -36.8992152712444], [174.565453639069, -36.8992185452205], [174.565461573743, -36.8992220614308], [174.565469869116, -36.8992258189592], [174.565478524087, -36.8992298187217], [174.565487539777, -36.8992340607033], [174.565496916167, -36.8992385440028], [174.565506653276, -36.8992432695214], [174.565516749965, -36.8992482363724], [174.565527206251, -36.899253445457], [174.56553802436, -36.8992588958444], [174.565549202067, -36.8992645884651], [174.565560740494, -36.8992705233043], [174.565572638501, -36.8992766994756], [174.56558489721, -36.8992831169639], [174.565597516658, -36.8992897775715], [174.565610495687, -36.8992966795108], [174.565623835418, -36.8993038227669], [174.565637534749, -36.8993112082554], [174.565651595923, -36.8993188359468], [174.565665976525, -36.8993266622332], [174.565680445729, -36.899334430564], [174.565694961157, -36.8993420991339], [174.565709525034, -36.8993496670119], [174.565724136238, -36.899357134213], [174.565738794787, -36.8993645016382], [174.565753501785, -36.8993717683716], [174.56576825611, -36.899378934428], [174.565783057761, -36.8993859998074], [174.565797906758, -36.8993929654108], [174.565812804203, -36.8993998303223], [174.565827748975, -36.8994065945568], [174.565842742195, -36.8994132580993], [174.565857781638, -36.8994198218806], [174.56587286953, -36.89942628497], [174.56588800587, -36.8994326473675], [174.565903188433, -36.8994389100037], [174.565918419444, -36.8994450719479], [174.565933697781, -36.8994511332148], [174.565949023444, -36.8994570938046], [174.565964397574, -36.8994629546034], [174.565979824917, -36.8994687281679], [174.565995420659, -36.8994747239498], [174.566011234468, -36.8994810656824], [174.566027265277, -36.8994877560839], [174.566043514152, -36.8994947924359], [174.566059980009, -36.8995021765554], [174.56607666283, -36.8995099075413], [174.566093562614, -36.8995179853933], [174.566110680504, -36.8995264109978], [174.566128015358, -36.8995351834682], [174.566145568298, -36.8995443027897], [174.566163337101, -36.899553769893], [174.566181323991, -36.8995635838471], [174.566199528969, -36.899573744652], [174.566217950931, -36.8995842532234], [174.56623658986, -36.8995951086602], [174.566255445756, -36.8996063109622], [174.56627451976, -36.8996178610157], [174.566293810731, -36.8996297579342], [174.56631331867, -36.8996420017176], [174.566339471943, -36.8996593037561], [174.566363587616, -36.8996761360057]]}, "properties": {"OBJECTID": 12253, "TRACKNAME": "Opanuku Pipeline Track", "CONDITIONSOFUSE": "Waitakere North Regional Park", "STATUS": "Open", "WEBLINK": "https://www.aucklandcouncil.govt.nz/en/parks-recreation/find-park-beach/park-detail/3407.html", "VALIDATIONSTATE": 3, "created_user": "AC_owner", "last_edited_user": "AC_owner", "last_edited_date": 1789875254325, "created_date": 1789875254325, "PARK_SAPSITEID": null, "TRACK_ID": null, "KAURIDIEBACK_TRACK": null, "KAURIDIEBACK_MITIGATED": null, "SegmentID": null, "GlobalID": "f4a0f571-b081-4b59-9235-bcfaabe4388e", "Shape__Length": 475.11620100536163}}]}