{"type": "FeatureCollection", "features": [{"type": "Feature", "id": 12019, "geometry": {"type": "LineString", "coordinates": [[175.143574161238, -36.8297014242363], [175.141788813006, -36.8291901416675], [175.141311939236, -36.8284792111865], [175.140727694524, -36.8280151572615], [175.139888631244, -36.8276322325675], [175.139211789778, -36.8272616922445], [175.138876851988, -36.8265175777836], [175.138099745404, -36.8259651259324], [175.139008313716, -36.8250838174105], [175.139190479679, -36.8244452141068], [175.138466803487, -36.8234172230172], [175.137463830628, -36.8226162311848], [175.137019693653, -36.8223945819982], [175.136781725494, -36.822054406495], [175.135041835713, -36.8228281624883], [175.134243520824, -36.8228807727948], [175.133694922316, -36.8226686414838], [175.133011781066, -36.8220685408622], [175.13246047099, -36.8221013975652], [175.132093793923, -36.8222687204301], [175.130909421716, -36.8211035082928], [175.130824316991, -36.8201829327713], [175.130342507879, -36.8200137136114]]}, "properties": {"OBJECTID": 12019, "TRACKNAME": "Orapiu Rd", "CONDITIONSOFUSE": "Waiheke Cemetery Reserve", "STATUS": "Open", "WEBLINK": null, "VALIDATIONSTATE": 3, "created_user": "AC_owner", "last_edited_user": "AC_owner", "last_edited_date": 1789875254325, "created_date": 1789875254325, "PARK_SAPSITEID": null, "TRACK_ID": null, "KAURIDIEBACK_TRACK": null, "KAURIDIEBACK_MITIGATED": null, "SegmentID": null, "GlobalID": "411a83b1-16d7-475d-86df-fe314b36de94", "Shape__Length": 2015.2007258320727}}, {"type": "Feature", "id": 12020, "geometry": {"type": "LineString", "coordinates": [[175.13029804408, -36.8199999681779], [175.129795601184, -36.8192398446471], [175.129915786168, -36.817640648408], [175.129546274906, -36.8170594003818], [175.128597567801, -36.8169049325107], [175.127804775892, -36.8168799363183], [175.127631272214, -36.8167752663061], [175.127592946789, -36.816271364568], [175.126987703825, -36.8155375625129], [175.125905706611, -36.81496905067], [175.125933816503, -36.8135625605196], [175.125804706483, -36.8133003287252], [175.125435256807, -36.8131599675102], [175.125244439427, -36.8128694453825], [175.125301665148, -36.8118543471331], [175.124869157842, -36.8114162779634], [175.124215402, -36.8111291290176], [175.123700354853, -36.8112314113849], [175.123249994062, -36.8112492546026], [175.122743608801, -36.8112240061186], [175.122619110753, -36.8111282512601], [175.122538737669, -36.8106446937687], [175.122976649029, -36.8103968270201], [175.123055140005, -36.8101504791214], [175.122973814983, -36.8098530979353], [175.123115093958, -36.8096742136178], [175.123829594608, -36.8095144829324], [175.124172229083, -36.8091262446752], [175.124324869914, -36.8086973113366], [175.124255585501, -36.8083948172969], [175.124441514532, -36.8080681655375], [175.12466316173, -36.8072705807143], [175.125203073479, -36.8067465428424], [175.125691945435, -36.8052583292197], [175.125997069161, -36.8048364649902], [175.125843457787, -36.8032470643641], [175.125636424455, -36.8028098640197], [175.125218044603, -36.8026605789966], [175.125070150456, -36.8025995363141], [175.124893027559, -36.8021422038807], [175.124964469426, -36.801861688997], [175.124637969223, -36.8012894519342], [175.12440754047, -36.8013278624618], [175.12396995574, -36.8013650743977], [175.123752653826, -36.8012170907781], [175.123881741997, -36.8005975206407], [175.123508300537, -36.8003102562808], [175.122944349084, -36.8001831581869], [175.122255238667, -36.80015627087], [175.12154692599, -36.7998749777352], [175.120977296421, -36.7997626689865], [175.120587876654, -36.7999998650083], [175.120234030554, -36.8004225847411], [175.119090777601, -36.8011582125358], [175.117898308351, -36.8012137551712], [175.112877819429, -36.7996325545367]]}, "properties": {"OBJECTID": 12020, "TRACKNAME": "Orapiu Rd", "CONDITIONSOFUSE": null, "STATUS": "Open", "WEBLINK": null, "VALIDATIONSTATE": 3, "created_user": "AC_owner", "last_edited_user": "AC_owner", "last_edited_date": 1789875254325, "created_date": 1789875254325, "PARK_SAPSITEID": null, "TRACK_ID": null, "KAURIDIEBACK_TRACK": null, "KAURIDIEBACK_MITIGATED": null, "SegmentID": null, "GlobalID": "715781b1-ad46-4ac1-bbb1-fc7be5703658", "Shape__Length": 3958.621789356821}}]}