{"type": "FeatureCollection", "features": [{"type": "Feature", "id": 556, "geometry": {"type": "LineString", "coordinates": [[174.769095326112, -36.4416298165881], [174.76914089759, -36.4416498642364], [174.769200243759, -36.4416805695366], [174.769243727813, -36.4417020362458], [174.769295256087, -36.4417328573962], [174.769338740196, -36.4417543240689], [174.769378547151, -36.4417853189576], [174.76941038175, -36.4418101222323], [174.769434398181, -36.4418350324001], [174.769446919676, -36.441869595722], [174.76946703272, -36.4418945637563], [174.769490905933, -36.441913166235], [174.76953432951, -36.4419314698174], [174.769644476282, -36.4419614216441], [174.76986107084, -36.4420308625724], [174.770046261383, -36.4420944500646], [174.770168488707, -36.4421400147527], [174.770274864945, -36.4421763407295], [174.770353668592, -36.4422036019182], [174.770416631991, -36.4422216153144], [174.770467719469, -36.44223349506], [174.770530252462, -36.4422325673561], [174.770592857333, -36.4422348024665], [174.770721754854, -36.4422297261319], [174.770850724245, -36.442227812505], [174.770991343378, -36.4422225709629], [174.771128119599, -36.442220541186], [174.771202445705, -36.4422225930103], [174.771269025707, -36.4422279236683], [174.771335832194, -36.4422427246384], [174.771469351224, -36.4422691729609], [174.771669737507, -36.4423135759108], [174.771815348409, -36.4423556368565], [174.77196457556, -36.4423850063067], [174.772086229872, -36.4424053112847], [174.772219605711, -36.4424254420749], [174.772407840387, -36.4424510768042], [174.772568717632, -36.4424771175727], [174.772827590968, -36.442514331038], [174.772884191459, -36.4425238112481], [174.772983278687, -36.4425471457317], [174.773098663559, -36.4425767641264], [174.773176642575, -36.4425951839398], [174.773269213078, -36.4426160009501], [174.773342340744, -36.4426344927388], [174.773382902934, -36.4426417231653], [174.773530330194, -36.4426591197608], [174.773596662594, -36.4426633530844], [174.773680653634, -36.4426621048244], [174.773777511159, -36.4426580512136], [174.773926668975, -36.4426456123218]]}, "properties": {"OBJECTID": 556, "TRACKNAME": "Orchard Track", "CONDITIONSOFUSE": "Scandrett Regional Park", "STATUS": "Open", "WEBLINK": "https://www.aucklandcouncil.govt.nz/en/parks-recreation/find-park-beach/park-detail/225.html", "VALIDATIONSTATE": 3, "created_user": "AC_owner", "last_edited_user": "AC_owner", "last_edited_date": 1789875254325, "created_date": 1789875254325, "PARK_SAPSITEID": null, "TRACK_ID": null, "KAURIDIEBACK_TRACK": null, "KAURIDIEBACK_MITIGATED": null, "SegmentID": null, "GlobalID": "a6a019ef-6daf-438e-965e-b176698a4113", "Shape__Length": 459.32064588833134}}]}