{"type": "FeatureCollection", "features": [{"type": "Feature", "id": 2443, "geometry": {"type": "LineString", "coordinates": [[174.597369901469, -37.0036602229266], [174.596769069249, -37.0034921234568], [174.596708977286, -37.0034969159963], [174.596645330702, -37.0035359353396], [174.596523754583, -37.0035353808349], [174.596479686914, -37.0035460147037], [174.596379929775, -37.0035494839453], [174.596305243345, -37.0035646848586], [174.596201863871, -37.0035932420477], [174.596086752879, -37.0036401370739], [174.596064806731, -37.0036622808643], [174.59605610984, -37.0037193267994], [174.596034773742, -37.0037459240374], [174.595845559135, -37.0038880691686], [174.59573994224, -37.0039520879276], [174.595706659306, -37.0039555550042], [174.595647917869, -37.0039190652674], [174.595626840141, -37.0039166356446], [174.595446829802, -37.0040470110015], [174.595371447688, -37.004081653688], [174.595019943981, -37.0041913045522], [174.594973843337, -37.0041864260013], [174.594927357293, -37.0041518082201], [174.59479447821, -37.004109482305]]}, "properties": {"OBJECTID": 2443, "TRACKNAME": "Orpheus Graves Walk", "CONDITIONSOFUSE": "Waitakere South Regional Park", "STATUS": "Open", "WEBLINK": "https://www.aucklandcouncil.govt.nz/en/parks-recreation/find-park-beach/park-detail/212.html", "VALIDATIONSTATE": 3, "created_user": "AC_owner", "last_edited_user": "AC_owner", "last_edited_date": 1789875254325, "created_date": 1789875254325, "PARK_SAPSITEID": null, "TRACK_ID": null, "KAURIDIEBACK_TRACK": null, "KAURIDIEBACK_MITIGATED": null, "SegmentID": null, "GlobalID": "76f412e9-42d4-4bd3-93a6-69e59e1d302a", "Shape__Length": 265.77468378142106}}]}