{"type": "FeatureCollection", "features": [{"type": "Feature", "id": 951, "geometry": {"type": "LineString", "coordinates": [[175.096752152785, -37.0225642751216], [175.096744990115, -37.0229300838775], [175.096684079198, -37.0230564193365], [175.096670898672, -37.023255274651], [175.096646903822, -37.0233927642287], [175.096563493274, -37.0235940685643], [175.096538353473, -37.023707910951], [175.096513387057, -37.0238611809172], [175.096353178428, -37.024091421372], [175.096281324603, -37.0242887449342], [175.09629464814, -37.0244430325509], [175.09633155858, -37.0246935647246], [175.096223799679, -37.0248679094694], [175.095988601231, -37.0249795153612], [175.095789577799, -37.0251665039255], [175.095700493977, -37.0253582552745], [175.095518427213, -37.025491110832], [175.095414591174, -37.0256001064308], [175.095184121275, -37.0257460648292], [175.095025079022, -37.0259216658485], [175.094941573956, -37.0261038187029], [175.094691295631, -37.0263005251414], [175.094544681136, -37.0264265253711], [175.094484448799, -37.0266305824457], [175.094481861407, -37.0267635116701], [175.09434673262, -37.0268669573046], [175.094184611003, -37.0269817487005], [175.094093170822, -37.027198839179], [175.094015293872, -37.0274648995891], [175.094010169496, -37.0276597909662], [175.094105989403, -37.0279692904674], [175.094147902052, -37.028076748179], [175.094114197933, -37.0282452501695], [175.094042280051, -37.0284262514834], [175.093960066217, -37.0285819195122], [175.093755170305, -37.0287176719838], [175.093617312873, -37.0288385775542], [175.093515414737, -37.0290765453725], [175.093466597, -37.0293194255133], [175.093405322226, -37.029364092485], [175.093280097921, -37.0294055529192], [175.093178845459, -37.0294644173418], [175.093092544534, -37.0296510705322], [175.09322478473, -37.0298557229315], [175.093412497429, -37.0299672861566], [175.093523272211, -37.0301618532811], [175.093938778013, -37.030562281009], [175.094212950318, -37.0308555179791], [175.09422041786, -37.0309563105052], [175.094261249888, -37.0311381240509], [175.094215101184, -37.0313500256523], [175.09414285314, -37.0314589311008], [175.094012384331, -37.0316676797873], [175.094060180745, -37.0318353826987], [175.094158165304, -37.0320744904408], [175.0942534227, -37.0322527653654], [175.094357879345, -37.0323656798046], [175.094382369095, -37.0324219373264], [175.094371559569, -37.0325227821691], [175.094319181361, -37.0326761210214], [175.094307089794, -37.0328023232265], [175.094279252784, -37.0329454589418], [175.094392671898, -37.0331005838281], [175.09462828618, -37.0331618823827], [175.094775711344, -37.0332183570471], [175.09487470137, -37.0333633987067], [175.094844284496, -37.033559484705], [175.094716790587, -37.0338082250521], [175.094606225554, -37.0339882057555], [175.094410577785, -37.0342314889779], [175.094412728295, -37.0344877544361], [175.094489464671, -37.0346841021384], [175.094703096081, -37.0348620526031], [175.094951871154, -37.0349610524737], [175.095003690509, -37.0350831245725], [175.095072390247, -37.035131372798], [175.095125823275, -37.0352213401068], [175.095071743577, -37.0353054105869], [175.094888303041, -37.0354501052434], [175.094743655235, -37.0356290477396], [175.094715568903, -37.035795837248], [175.094638114744, -37.035997692843], [175.09452899117, -37.0361889229009], [175.094515354125, -37.036365253995], [175.094517564704, -37.0365516698302], [175.094611125226, -37.0367395367116], [175.094850295283, -37.0368909349469], [175.095003406973, -37.0369626033185], [175.095013788855, -37.0370081954612], [175.094988356733, -37.0370555738505], [175.094922406546, -37.037077161562], [175.094752858934, -37.0371041029837], [175.094517253418, -37.0371278576269], [175.0943651384, -37.0372082514269], [175.094332964354, -37.0374026648499], [175.094346979618, -37.03763860432], [175.094429013235, -37.0378422668316], [175.094586738554, -37.0380040353587], [175.094560369588, -37.0381601234169], [175.094429619667, -37.0383057975447], [175.094342973617, -37.0384158676322], [175.094318116787, -37.0385967318949], [175.09426212825, -37.0388086628957], [175.094234455065, -37.0389917849786], [175.094286550966, -37.0391758147505], [175.094372704448, -37.0392797690529], [175.094407134922, -37.0393585178854], [175.094333572535, -37.0394893925631], [175.09432140845, -37.039601518097], [175.094376132686, -37.0397477922443], [175.094440865767, -37.0398495651371], [175.094492659671, -37.0399648782615], [175.094605747792, -37.0400400387816], [175.094740183549, -37.0400971031709], [175.09478204372, -37.0401904834531], [175.094706053203, -37.0404080944079], [175.094697851916, -37.040543303597], [175.094712916042, -37.0406941985495], [175.094693533449, -37.0408435118164], [175.094897008905, -37.0410214786791], [175.095054359121, -37.0410965148117], [175.095243308172, -37.0411680813822], [175.095460902846, -37.0412784278735], [175.095662313538, -37.0413043315561], [175.095801006943, -37.0413709720555], [175.095767172568, -37.0415073732902], [175.095668279672, -37.0417081482224], [175.095683512704, -37.041899038364], [175.095742733418, -37.0421072667125], [175.095888298328, -37.0423783288054], [175.095943022536, -37.0425223669539], [175.096122442436, -37.0427415211219], [175.096421999157, -37.0429603359054], [175.096566254772, -37.0430111950307], [175.096733902942, -37.043109281508], [175.096849907027, -37.0432063972035], [175.097062988285, -37.0432480355326], [175.097202962966, -37.0432842518367], [175.097240152406, -37.04335399233], [175.097313377897, -37.043709744223], [175.097181632244, -37.0439517395564], [175.097011197781, -37.0441786376331], [175.096928217936, -37.0444052779815], [175.096810698975, -37.0446883535643], [175.096743574816, -37.0450033803036], [175.096626249769, -37.0455714335735], [175.096577499922, -37.0458334651867], [175.096650783456, -37.0459616819593], [175.096741628011, -37.0461686925805], [175.096726237421, -37.046265607767], [175.096521158691, -37.046364740904], [175.096337263458, -37.0464120007201], [175.096209200323, -37.0465306362786], [175.09628135392, -37.0467236294182], [175.096418385289, -37.046969362502], [175.096436018721, -37.0471456093698], [175.09637869105, -37.0473721833662], [175.096284161924, -37.0476095632248], [175.096227632495, -37.0477781263802], [175.096142605142, -37.0479383157298], [175.096047738388, -37.0480968493535], [175.095905958708, -37.0482949395575], [175.095848129593, -37.0484911043302], [175.095853107593, -37.0486651234687], [175.095893712703, -37.0487939812555], [175.096008873724, -37.0490167042954], [175.096110011062, -37.0492479036672], [175.096158024729, -37.049462917856], [175.096187632318, -37.0497269889624], [175.096233066751, -37.0499949531569], [175.096347349027, -37.0502587801573], [175.096523768505, -37.0505111709549], [175.096632831227, -37.0506240823863], [175.096729122439, -37.0507922149238], [175.096797344938, -37.0509671795936], [175.096848328523, -37.0512176688927], [175.096860555232, -37.0513640710299], [175.096690971617, -37.0514721303747], [175.096572093291, -37.0515231440139], [175.096558164388, -37.0515502210322], [175.096455897483, -37.0516271046908], [175.096411882416, -37.051685798323], [175.096372279449, -37.0517867375028], [175.096275595148, -37.052497231102], [175.096294995511, -37.0526779709669], [175.096283922586, -37.0527974044967], [175.096296061265, -37.0529218353069], [175.096347186297, -37.0532044344386], [175.096464817548, -37.0539926137665], [175.096489540899, -37.0541023747125], [175.096537057869, -37.0542019268661], [175.096591812972, -37.0542727447786], [175.096664824812, -37.0543356151391], [175.096735054533, -37.0544052581038], [175.096786877192, -37.0544451061283], [175.097191118334, -37.0548089374569], [175.097324331885, -37.0548998085579], [175.097385769956, -37.054969480434], [175.097531986271, -37.0550608693602], [175.097592171191, -37.0550837965083], [175.097700776391, -37.0550936278665], [175.097809081673, -37.0551113505228], [175.097909355347, -37.0551420402114], [175.097996634093, -37.0551761502144], [175.098092467853, -37.0552367051932], [175.098298469039, -37.0553380668586], [175.098370002494, -37.0553880020582], [175.098407558852, -37.0554577264621], [175.098420904941, -37.0555376670481], [175.098429767509, -37.0556328282668], [175.09851581256, -37.0557058043344], [175.098744736161, -37.055828498103], [175.09881632897, -37.055889130013], [175.098836557609, -37.0559335649641], [175.098829797651, -37.0559955385947], [175.098762973935, -37.0560610628122], [175.098613063639, -37.0560879600884], [175.098576271857, -37.0561117197145], [175.098520512456, -37.0561372209792], [175.098477771094, -37.0561638076928], [175.098412393091, -37.0562405990135], [175.098378659316, -37.0563206697293], [175.098367356577, -37.0563871579597], [175.098373215911, -37.0564406526468], [175.098399602002, -37.0565289966083], [175.098368922615, -37.0567419862579], [175.098335113734, -37.0568062770965], [175.098300866176, -37.0568497473994], [175.09823149016, -37.0569732950184], [175.098212403824, -37.0571062632492], [175.098141572229, -37.0573019019082], [175.098121920607, -37.0573870048034], [175.09812406806, -37.0574759849794], [175.098169952, -37.0576042706297], [175.09821488868, -37.0576728550501], [175.09836372109, -37.0578014188756], [175.098503888571, -37.0578742392591], [175.098609959966, -37.0579437874657], [175.098674535086, -37.0580055530364], [175.098756451399, -37.0580971319902], [175.098885410021, -37.0581790007393], [175.099069766307, -37.0582319764618], [175.099272614615, -37.0582545041722], [175.099369701542, -37.0582795619692], [175.099741586175, -37.0583883484953], [175.10002417412, -37.0584066959823], [175.100115967792, -37.0584261508988], [175.100237546041, -37.0585057875384], [175.10043118358, -37.0586713812528], [175.100496928046, -37.0587579369558], [175.100500707068, -37.058899855578], [175.100538015781, -37.0589926740614], [175.100536940208, -37.059067029594], [175.10051493112, -37.059255766191], [175.10055399775, -37.0593519693221], [175.100586069206, -37.0594510091705], [175.100577145958, -37.059738265735], [175.100568944404, -37.0597923698583], [175.100537814272, -37.0599011634448], [175.100468320613, -37.0599987939641], [175.100437275911, -37.0600523834313], [175.100256335212, -37.0601356930414], [175.100253991308, -37.0602444002733], [175.100326955853, -37.0602954444237], [175.100518621926, -37.0604126207194], [175.10057191514, -37.0604631569796], [175.100622150698, -37.0605418668979], [175.10065287326, -37.0606527281779], [175.100647289107, -37.0607434224129], [175.100599226456, -37.0608393124228], [175.100515289632, -37.0609290964474], [175.100460085826, -37.0610013465087], [175.100382436958, -37.0611637782969], [175.100318639547, -37.0612771611039], [175.100150953703, -37.0614978591825], [175.100051465773, -37.0615702264625], [175.099940552865, -37.0616781166308], [175.099833671799, -37.0617454413946], [175.099793699323, -37.0617652741403], [175.099718177559, -37.0617699912648], [175.099583950586, -37.0617726294683], [175.099468307356, -37.0617628164417], [175.099252503952, -37.0617532895123], [175.099106974986, -37.0617396160635], [175.098974167994, -37.0617456262126], [175.098794766719, -37.061862145107], [175.098759471351, -37.0619855944586], [175.098808579879, -37.0621262691418], [175.098864782635, -37.0622015755377], [175.098882153384, -37.0622381388715], [175.09893094209, -37.0623055822356], [175.098929905142, -37.0623866965546], [175.098867566628, -37.0625164017524], [175.098765227366, -37.0625763989942], [175.098666617709, -37.0626048308715], [175.098559649465, -37.0626535719355], [175.098468414276, -37.0626831258929], [175.098378551148, -37.0627053372148], [175.098308747509, -37.0627331328364], [175.098154681656, -37.0627758123001], [175.098047834279, -37.062773854522], [175.097978930818, -37.0627661601687], [175.097924670694, -37.0627319618038], [175.097808235658, -37.0626252750161]]}, "properties": {"OBJECTID": 951, "TRACKNAME": "Orum Road Track", "CONDITIONSOFUSE": "Hunua Ranges Regional Park", "STATUS": "Temp Closed", "WEBLINK": "https://www.aucklandcouncil.govt.nz/en/parks-recreation/find-park-beach/park-detail/213.html", "VALIDATIONSTATE": 3, "created_user": "AC_owner", "last_edited_user": "AC_owner", "last_edited_date": 1789875254325, "created_date": 1789875254325, "PARK_SAPSITEID": null, "TRACK_ID": null, "KAURIDIEBACK_TRACK": null, "KAURIDIEBACK_MITIGATED": null, "SegmentID": null, "GlobalID": "21d930ac-7dbf-46bc-905c-8bdd1a4462d6", "Shape__Length": 5502.431262456666}}, {"type": "Feature", "id": 1826, "geometry": {"type": "LineString", "coordinates": [[175.096752152785, -37.0225642751216], [175.096741124757, -37.0223634863664], [175.096711596256, -37.0221991115557], [175.096719461273, -37.0219884443606], [175.096795524049, -37.0217922357904], [175.09696621112, -37.0216318023078], [175.097222750266, -37.0215854569294], [175.097326621221, -37.0214865984851], [175.097353070044, -37.0213513455857], [175.0974396109, -37.0212243763477], [175.097424308512, -37.0209360595556], [175.097559065118, -37.0207509438098], [175.097746897342, -37.0206557826237], [175.097946388416, -37.0205775030678], [175.098248563598, -37.0204504866614], [175.098405097391, -37.0203469734996], [175.098547199384, -37.0202344954355], [175.098789279642, -37.0200975182421], [175.099031420467, -37.0199746173618], [175.09933378051, -37.0198904053855], [175.099501402811, -37.0197525002996], [175.099721378731, -37.0194635073528], [175.09981754087, -37.0192869493724], [175.09982996761, -37.0191573698165], [175.099814870739, -37.0189997071444], [175.099743723147, -37.0187126676094], [175.099760298548, -37.0185684320307], [175.099863653123, -37.0183563627469], [175.100098340875, -37.0182148993005], [175.100171164163, -37.0181623186322], [175.100275818764, -37.0180048701151], [175.100452340841, -37.0178956738994], [175.100581885472, -37.0178074437211], [175.100787493025, -37.0178434766877], [175.100950490286, -37.0178508915118], [175.101145410796, -37.0177759952979], [175.101405044664, -37.0177189331959], [175.101657139029, -37.0176281072662], [175.101832193675, -37.0175036945159], [175.102116424686, -37.0175304820034], [175.1022874048, -37.0175221164663], [175.102497351927, -37.0175051829259], [175.102641408595, -37.0175211056669], [175.102859996372, -37.0175570852131], [175.103030058386, -37.0175757550079], [175.103163956769, -37.0175151139084], [175.103329363696, -37.0171986648101], [175.103391457222, -37.0170289538955], [175.103456447549, -37.0168721879217], [175.10362611422, -37.0168052520844], [175.10376566823, -37.0167569836313], [175.103853762975, -37.0166649155744], [175.103894779253, -37.0165684820859], [175.104021502143, -37.0164780090286], [175.104261024383, -37.0164829534552], [175.104513718927, -37.0164467459764], [175.104709969507, -37.016352695397], [175.104978207997, -37.0162578628221], [175.105276579933, -37.0163105107057], [175.105639522857, -37.016425488255], [175.105800947515, -37.016477411117], [175.106067228341, -37.0165718327825], [175.10634288296, -37.016644258604], [175.106612957438, -37.0167290852248], [175.106749746141, -37.0166898300407], [175.10695309119, -37.0165349131102], [175.107182864603, -37.0165567794088], [175.107375981756, -37.0166260634238], [175.107601572364, -37.0166563940464], [175.108004182744, -37.0166895811559], [175.109017213027, -37.0165813217917], [175.109363318585, -37.0164659789945], [175.109607405819, -37.0164697679351], [175.109991821559, -37.0165176561413], [175.11040298986, -37.0165806681532], [175.11069322686, -37.0166941566416], [175.111066558385, -37.0168535815245], [175.111253280269, -37.0168276906449], [175.111557086159, -37.0167580947377], [175.111913982906, -37.0167801313861], [175.112139855382, -37.0168684630948], [175.11234584414, -37.0169883864647], [175.112670686222, -37.0171406393388], [175.113218401053, -37.0171125516196], [175.113569313642, -37.0170495648877], [175.113967449337, -37.0170269867229], [175.114244392747, -37.0170717921998], [175.1146819453, -37.0172203182004], [175.11497184524, -37.0172560765682], [175.115129531299, -37.0174116271929], [175.115296146459, -37.0176718991411], [175.115462829383, -37.0178713519386], [175.11569922897, -37.0180334201662], [175.116155738512, -37.0183305823455], [175.116407535668, -37.0184807750878], [175.116559479007, -37.018605368419], [175.116671727048, -37.0188049795297], [175.116806835864, -37.0190118343514], [175.117161547181, -37.0191656776184], [175.117515041257, -37.0193578094208], [175.118024978666, -37.0197375940797], [175.118687232271, -37.0200898801552], [175.119044718261, -37.0202352592425], [175.119263407799, -37.020285284299], [175.119646109374, -37.0203365241523], [175.119954791522, -37.0204065702507], [175.120500788647, -37.0206054367498], [175.120906833248, -37.0206920806275], [175.121067748884, -37.0206324595173], [175.121283011057, -37.0206278711501], [175.12143589345, -37.0206516253426], [175.12160030886, -37.0206612664902], [175.121807164079, -37.0206595223257], [175.122036652143, -37.0206188436951], [175.122212205308, -37.0206070418523], [175.122332195228, -37.0205813449372], [175.122521706816, -37.0205509160356], [175.122758402163, -37.0204736056896], [175.122945110074, -37.0204482643782], [175.123045329192, -37.0204738692731], [175.123073871556, -37.0204946193408], [175.123062563478, -37.0205543504959], [175.12302319587, -37.0206203699937], [175.122994925092, -37.020732534084], [175.123022736634, -37.0208231274983], [175.123044031925, -37.0208698105827], [175.123093170649, -37.0209383738039], [175.123207699012, -37.0210197001997], [175.123313782548, -37.0211004836682], [175.123423488194, -37.0211260536067], [175.123597787291, -37.0211474928866], [175.123854782342, -37.0211286967648], [175.123967436617, -37.0211120160363], [175.124058552689, -37.0210706295765], [175.12418538581, -37.0210049091157], [175.1242435742, -37.0209810740266], [175.124279302318, -37.0209623818058], [175.12438168121, -37.0209254619708], [175.124555761249, -37.0209007137884], [175.124622775918, -37.0208858683], [175.124686903302, -37.0208569516227], [175.124749579187, -37.0208178946093], [175.124770691369, -37.0207502458073], [175.12482042378, -37.0207202440179], [175.124905925826, -37.0206811205224], [175.125060176719, -37.0206958598656], [175.1251702064, -37.0207169250565], [175.125297533803, -37.0207565257345], [175.125397332216, -37.0207714290988], [175.125507532936, -37.020826856248], [175.12561922475, -37.0209031119072], [175.125710718573, -37.0209422637165], [175.125795216797, -37.0209864977947], [175.125889487329, -37.0210171908739], [175.125989530393, -37.0210061779031], [175.126060717167, -37.0209845604099], [175.126114648534, -37.0209511751716], [175.126194561532, -37.02091882031], [175.126276818622, -37.0208588716261], [175.12631956832, -37.0208384667034], [175.126396560706, -37.0207807843653], [175.126531831117, -37.0207206602628], [175.126796121346, -37.0207575875686], [175.126918815507, -37.0207825608769], [175.127018904778, -37.020784506441], [175.127114511351, -37.0207994204302], [175.127245842933, -37.0207967678768], [175.127350238282, -37.0208144712074], [175.127418701512, -37.0208108820352], [175.127470176283, -37.0208518407339], [175.127504752774, -37.0208849730574], [175.12738332842, -37.020903923388], [175.127527939835, -37.0209614983822], [175.127809918896, -37.0211735288184], [175.128039189356, -37.0213080037854], [175.128233265247, -37.0213485217564], [175.128473226344, -37.0213686225136], [175.128713100542, -37.0213678870458], [175.129058293259, -37.0213595017131], [175.129779360746, -37.0213679894344], [175.129897595361, -37.0213422803433], [175.130036975461, -37.0212607454861], [175.130204979044, -37.0211408252047], [175.130411461548, -37.0210613294103], [175.130619575739, -37.0210285887173], [175.130869388432, -37.0209776951375], [175.131155805741, -37.0209435738911], [175.131648718872, -37.0209809159678], [175.131871587358, -37.0210224607235], [175.132020145034, -37.0210952267168], [175.132200064432, -37.0211881669361], [175.132247522709, -37.0213434673064], [175.132341036504, -37.0215081961609], [175.132427999914, -37.0216267716667], [175.13284763254, -37.0218304839705], [175.133030862176, -37.0218845458165], [175.13322071825, -37.021998287228], [175.133325376874, -37.0221438341528], [175.133492975437, -37.0223032640343], [175.133687948467, -37.0223848996552], [175.133887712129, -37.0223701935391], [175.134075600285, -37.0222958296314], [175.134240415052, -37.0222440607415], [175.134399885706, -37.0221748491478], [175.1345478956, -37.0221327013113], [175.13475437716, -37.022200212523], [175.134824017315, -37.0222912398263], [175.134993793285, -37.0225379610198], [175.135084491895, -37.0226283657826], [175.135153880154, -37.0226698187704], [175.135336699024, -37.0227086800313], [175.13550945096, -37.0226991169778], [175.135702386468, -37.0227227353844], [175.135993831491, -37.0227849022417], [175.136119655192, -37.0228014007624], [175.136176548207, -37.0228012323917], [175.136454772072, -37.0227429116622], [175.136537097959, -37.0226992856491], [175.13663724191, -37.0227091081381], [175.136774101549, -37.0226850214594], [175.136852642963, -37.0226571724641], [175.136961008692, -37.0226258660176], [175.137048752454, -37.0225433515741], [175.137099216574, -37.0223049498726], [175.137150835355, -37.0220885092124], [175.137180515454, -37.0219808410063], [175.137210132762, -37.0219294940175], [175.137287980047, -37.0218351979174], [175.137343588575, -37.0217860142738], [175.137451945662, -37.0217524453728], [175.137683161803, -37.0217776329507], [175.137777554406, -37.0217615566263], [175.137805927332, -37.0217468323175], [175.137832802913, -37.0217095672972], [175.137869705992, -37.021644687019], [175.137877699825, -37.0215573545075], [175.137912909019, -37.0214316512884], [175.137929533394, -37.021383151972], [175.138017517873, -37.0212764335088], [175.138235279016, -37.0211360657189], [175.138435051944, -37.0211230462012], [175.138726352551, -37.021155359092], [175.138896079164, -37.0211001875872], [175.139010008177, -37.0210581530654], [175.139118409196, -37.0210330267265], [175.13919981103, -37.0210186886658], [175.139520305703, -37.0209157249128], [175.139608429973, -37.0208377261076], [175.139727950544, -37.0207173872432], [175.139925275293, -37.0205646862123], [175.140070098988, -37.0203783685369], [175.140172588582, -37.020292431369], [175.140205146921, -37.0202714843517], [175.140304983826, -37.0202187975514], [175.140415943967, -37.0201463434858], [175.140582378026, -37.0200680935337], [175.140833183184, -37.0200064721531], [175.140990128622, -37.0199958345707], [175.141132910692, -37.0199655344717], [175.141298206663, -37.0199396675842], [175.141467954474, -37.0198946222867], [175.141636598326, -37.0199087377057], [175.141817820682, -37.0199092870405], [175.141973310186, -37.0198896437712], [175.142006842286, -37.0198141863869], [175.142120767464, -37.0196734992008], [175.142296291115, -37.0194875888292], [175.142398822299, -37.0192210796399], [175.142287516073, -37.0188954186706], [175.142354668309, -37.0187681783625], [175.142681897769, -37.0186677469159], [175.142945761335, -37.0185495561848], [175.143168051189, -37.0183501973069], [175.14333719694, -37.0179375522111], [175.143406359658, -37.0176023296731], [175.143479769509, -37.0174182626571], [175.14378148196, -37.0172489748276], [175.143820995417, -37.0169773016358], [175.1439734765, -37.0168107102228], [175.144077238959, -37.0165882870796], [175.143989846304, -37.0162747977959]]}, "properties": {"OBJECTID": 1826, "TRACKNAME": "Orum Road Track", "CONDITIONSOFUSE": "Hunua Ranges Regional Park", "STATUS": "Open", "WEBLINK": "https://www.aucklandcouncil.govt.nz/en/parks-recreation/find-park-beach/park-detail/213.html", "VALIDATIONSTATE": 3, "created_user": "AC_owner", "last_edited_user": "AC_owner", "last_edited_date": 1789875254325, "created_date": 1789875254325, "PARK_SAPSITEID": null, "TRACK_ID": null, "KAURIDIEBACK_TRACK": null, "KAURIDIEBACK_MITIGATED": null, "SegmentID": null, "GlobalID": "3e1222f3-273f-48df-8b02-884b0d7e8e74", "Shape__Length": 5572.303299403934}}]}