{"type": "FeatureCollection", "features": [{"type": "Feature", "id": 10584, "geometry": {"type": "LineString", "coordinates": [[174.991308339529, -36.7732624221629], [174.991254670327, -36.7733597938123], [174.991253454104, -36.7733621089425], [174.991249822539, -36.7733690225004], [174.991226769759, -36.7734129017859], [174.991226065722, -36.7734144872823], [174.991182970807, -36.7735330449736], [174.991182970877, -36.7735330476764], [174.991184415783, -36.7735838291933], [174.991184415829, -36.7735838309952], [174.991155470264, -36.7736351808452], [174.991155469214, -36.7736351835667], [174.991152042048, -36.7736757652807], [174.991151757175, -36.7736774861673], [174.991112036653, -36.773832248411], [174.991112184001, -36.7738346092098], [174.991132445891, -36.7738837011527], [174.991133134138, -36.7738858356764], [174.991159651761, -36.7739946228694], [174.991159590345, -36.7739949339524], [174.991097898873, -36.7740842675663], [174.991094317035, -36.7740864357289], [174.990876092057, -36.7741233570672], [174.990870070308, -36.7741266206167], [174.990452965731, -36.77460711394], [174.990452692615, -36.7746076872454], [174.990439534739, -36.774695200496], [174.99043914993, -36.7746965670315], [174.990105632872, -36.7754771495104], [174.990086792516, -36.7755159503394], [174.990085906104, -36.77554934923], [174.990086429231, -36.7755603933842], [174.990086644458, -36.7755797213314], [174.990086151644, -36.7755993116949], [174.990169343629, -36.7756711752883], [174.990234572934, -36.775734105406]]}, "properties": {"OBJECTID": 10584, "TRACKNAME": "Owhanake Matiatia Walkway Section 8", "CONDITIONSOFUSE": "Owhanake Matiatia Walkway", "STATUS": "Open", "WEBLINK": "https://www.aucklandcouncil.govt.nz/en/parks-recreation/find-park-beach/park-detail/1039.html", "VALIDATIONSTATE": 3, "created_user": "AC_owner", "last_edited_user": "AC_owner", "last_edited_date": 1789875254325, "created_date": 1789875254325, "PARK_SAPSITEID": null, "TRACK_ID": null, "KAURIDIEBACK_TRACK": null, "KAURIDIEBACK_MITIGATED": null, "SegmentID": null, "GlobalID": "52446df9-db69-46cd-b722-02ce9485b85b", "Shape__Length": 317.6367898214763}}]}