{"type": "FeatureCollection", "features": [{"type": "Feature", "id": 11981, "geometry": {"type": "LineString", "coordinates": [[174.999263661257, -36.7737992477645], [174.999326918628, -36.7738177510486], [174.999427223033, -36.7738327219651], [174.99957189422, -36.7738601673752], [174.99969844203, -36.7738858019621], [174.999809299938, -36.7738894899222], [175.00015633707, -36.7739302644001], [175.001335949287, -36.774211998253], [175.001466726739, -36.7741785295962], [175.001982694728, -36.774396785229], [175.001952197694, -36.7743811604989], [175.002198127398, -36.7744365298018], [175.00260629657, -36.774462940883], [175.002826393987, -36.7744410789539], [175.003155782082, -36.7743813463502], [175.004153169503, -36.7742819085811], [175.004198296836, -36.7742703878419], [175.004250164076, -36.7742639633548], [175.004309655992, -36.7742625149761], [175.004378556108, -36.7742659946043], [175.004438079485, -36.774271909117], [175.004507686048, -36.7742809813937], [175.004780143974, -36.7743235009973], [175.004902474029, -36.7743405079299], [175.005024861857, -36.7743535706475], [175.005137836555, -36.7743608830884], [175.005239040334, -36.7743627087525], [175.005335916584, -36.7743596022621], [175.005429251187, -36.7743515370232], [175.005519456449, -36.7743384747577], [175.006193818273, -36.7744610757983], [175.006337418634, -36.7744361832557], [175.006658522515, -36.7745346505157], [175.007169956389, -36.7750648370452], [175.007715998853, -36.7756013635745], [175.00811639084, -36.775900717946], [175.008506941997, -36.7762847303516], [175.0086070733, -36.7765586812929], [175.008661719747, -36.7767392108343], [175.008951752503, -36.7770321161231], [175.00912770245, -36.777060261547]]}, "properties": {"OBJECTID": 11981, "TRACKNAME": "Owhanake to Oneroa Beach", "CONDITIONSOFUSE": "Owhanake Matiatia Walkway", "STATUS": "Open", "WEBLINK": "https://www.aucklandcouncil.govt.nz/en/parks-recreation/find-park-beach/park-detail/1039.html", "VALIDATIONSTATE": 3, "created_user": "AC_owner", "last_edited_user": "AC_owner", "last_edited_date": 1789875254325, "created_date": 1789875254325, "PARK_SAPSITEID": null, "TRACK_ID": null, "KAURIDIEBACK_TRACK": null, "KAURIDIEBACK_MITIGATED": null, "SegmentID": null, "GlobalID": "c3d3252b-1bfd-4324-b108-07a36a108013", "Shape__Length": 1051.6053943423565}}]}