{"type": "FeatureCollection", "features": [{"type": "Feature", "id": 2738, "geometry": {"type": "LineString", "coordinates": [[175.073140554356, -36.8263022128392], [175.073220120061, -36.8262431596723], [175.073247521899, -36.826206647639], [175.073245400759, -36.8261347066754], [175.073227196795, -36.8260696167432], [175.073208219521, -36.8259783664904], [175.0732051264, -36.8258737342326], [175.073198351909, -36.8257822440784], [175.073196418819, -36.8257168522933], [175.073191191018, -36.8256776827719], [175.073233179003, -36.8256424304998], [175.073328318981, -36.8256358047163], [175.07336929347, -36.8256448330122], [175.073410743184, -36.8256702206455], [175.073452380433, -36.8257021394307], [175.073510387934, -36.8257370263089], [175.073572175563, -36.8257620140054], [175.073618174884, -36.8257702875855], [175.073690423871, -36.8257695678352], [175.073750665021, -36.8257422528369], [175.073781846722, -36.8256958505434], [175.073824369225, -36.8256197777938], [175.073854689236, -36.8255439539996], [175.073863687217, -36.8254358120252], [175.073875802344, -36.8252948803754], [175.073895478668, -36.8251341954457], [175.073918374996, -36.8249262621573], [175.073947729738, -36.8247814785457], [175.073818085477, -36.8247367107477], [175.073729938915, -36.8246788348934], [175.073641792485, -36.824620958969], [175.073579202284, -36.8245923710731], [175.073515515193, -36.8245734011456], [175.073438694501, -36.8245858002845], [175.073376459555, -36.8246260295047], [175.073273474361, -36.824692521445], [175.073109796266, -36.8247949162728], [175.072976687643, -36.8248868093148], [175.072854088271, -36.8249556078299], [175.072827689708, -36.8249815119793], [175.072815910577, -36.8250236189385], [175.072812799544, -36.8250948760561], [175.072748682628, -36.8251829698751], [175.072713497426, -36.825260095006], [175.072683802812, -36.825313014548], [175.072641152225, -36.8253382557045], [175.072608066824, -36.8253569217896], [175.072592009925, -36.8253796892773], [175.072580354361, -36.825425967087], [175.0726021822, -36.8255373028384]]}, "properties": {"OBJECTID": 2738, "TRACKNAME": "Pa Loop Track", "CONDITIONSOFUSE": "Whakanewha Regional Park", "STATUS": "Open", "WEBLINK": "https://www.aucklandcouncil.govt.nz/en/parks-recreation/find-park-beach/park-detail/3422.html", "VALIDATIONSTATE": 3, "created_user": "AC_owner", "last_edited_user": "AC_owner", "last_edited_date": 1789875254325, "created_date": 1789875254325, "PARK_SAPSITEID": null, "TRACK_ID": null, "KAURIDIEBACK_TRACK": null, "KAURIDIEBACK_MITIGATED": null, "SegmentID": null, "GlobalID": "e43f17b4-977b-4540-b8dc-b954714aa9c8", "Shape__Length": 430.511136103217}}]}