{"type": "FeatureCollection", "features": [{"type": "Feature", "id": 12001, "geometry": {"type": "LineString", "coordinates": [[175.042180906741, -36.7803398814154], [175.044516536261, -36.7799448741815], [175.045790503693, -36.7796959901824], [175.045955994642, -36.7796356878438], [175.046062278867, -36.7797375307489]]}, "properties": {"OBJECTID": 12001, "TRACKNAME": "Palm Beach", "CONDITIONSOFUSE": "Palm Beach Reserve", "STATUS": "Open", "WEBLINK": "https://www.aucklandcouncil.govt.nz/en/parks-recreation/find-park-beach/park-detail/194.html", "VALIDATIONSTATE": 3, "created_user": "AC_owner", "last_edited_user": "AC_owner", "last_edited_date": 1789875254325, "created_date": 1789875254325, "PARK_SAPSITEID": null, "TRACK_ID": null, "KAURIDIEBACK_TRACK": null, "KAURIDIEBACK_MITIGATED": null, "SegmentID": null, "GlobalID": "ae59805e-82ce-43c2-85d3-e5846258ccc7", "Shape__Length": 361.0615344925881}}]}