{"type": "FeatureCollection", "features": [{"type": "Feature", "id": 1323, "geometry": {"type": "LineString", "coordinates": [[174.593601972736, -36.995068178002], [174.59359419475, -36.9951032961597], [174.593597009129, -36.9951568434258], [174.593608160415, -36.9951904220733], [174.593659653707, -36.9952681928116], [174.59371340204, -36.9953290960871], [174.593766340001, -36.9953533254134], [174.59401254911, -36.9954019902623], [174.594455394339, -36.9954645435261], [174.594641253739, -36.9955107099399], [174.594699905949, -36.9955319687387], [174.594922959453, -36.995657701501], [174.595193348574, -36.9958707599544], [174.595689079045, -36.996173635697], [174.595725339002, -36.9962057768699], [174.595848544737, -36.9963509854814], [174.595982757623, -36.9964410818364]]}, "properties": {"OBJECTID": 1323, "TRACKNAME": "Panto Track", "CONDITIONSOFUSE": "Waitakere South Regional Park", "STATUS": "Temp Closed", "WEBLINK": "https://www.aucklandcouncil.govt.nz/en/parks-recreation/find-park-beach/park-detail/212.html", "VALIDATIONSTATE": 3, "created_user": "AC_owner", "last_edited_user": "AC_owner", "last_edited_date": 1789875254325, "created_date": 1789875254325, "PARK_SAPSITEID": null, "TRACK_ID": null, "KAURIDIEBACK_TRACK": null, "KAURIDIEBACK_MITIGATED": null, "SegmentID": null, "GlobalID": "4bd4fd94-a664-4b09-b66c-30b77bb66d7d", "Shape__Length": 276.2106508530415}}, {"type": "Feature", "id": 1628, "geometry": {"type": "LineString", "coordinates": [[174.601456703492, -36.975609317639], [174.601704213997, -36.9760975102761], [174.601757121608, -36.9761133180361], [174.602019282077, -36.9761223447929], [174.602055522384, -36.9761378185372], [174.602061098356, -36.9761846133882], [174.602037183281, -36.9765474764663], [174.602021701626, -36.9765779797354], [174.601939668724, -36.9766567470593], [174.601913002775, -36.976692854416], [174.601831184559, -36.9769378093517], [174.601699879695, -36.9772026577794], [174.601697311758, -36.9772543306688], [174.60173103413, -36.9775349790529], [174.601719864409, -36.9775948711367], [174.601626647031, -36.9777661232753], [174.60159291676, -36.9778109337576], [174.601303055821, -36.9780076610151], [174.601257704609, -36.97804584103], [174.601090829861, -36.9783129533039], [174.601073537939, -36.9783702238656], [174.601037327787, -36.9787154238601], [174.600944946769, -36.9790500335108], [174.600829793424, -36.9791975779974], [174.600610417864, -36.9794069182097], [174.600566650314, -36.9794665827713], [174.600465574508, -36.9796882171596], [174.600406958878, -36.979921861764], [174.600202101375, -36.9803771365527], [174.600135300181, -36.9806561210069], [174.59995858064, -36.9808870581097], [174.599916382153, -36.9810721328492], [174.599898669297, -36.9810916694701], [174.59985528605, -36.9811177173277], [174.598981408732, -36.9815686840961], [174.598940632246, -36.9815974546297], [174.598801740597, -36.981728786239], [174.598429911767, -36.9819277914661], [174.597932276364, -36.9822184078323], [174.597891380445, -36.9822484865723], [174.597849349593, -36.9822989690677], [174.597797275563, -36.982375824989], [174.597757994789, -36.9824637935448], [174.59772858082, -36.9824992339114], [174.597573580623, -36.9826351705111], [174.597242254295, -36.9829032920672], [174.597195456676, -36.9829257254406], [174.597132809002, -36.9828945616118], [174.597103200252, -36.9829002870052], [174.596842169569, -36.983109252471], [174.596806115171, -36.9831151456326], [174.59672780825, -36.9831018496724], [174.596703022007, -36.9831098535936], [174.596587875164, -36.9832298938032], [174.596567075605, -36.9832593141759], [174.596564543442, -36.983281151845], [174.596612283894, -36.9833360597152], [174.596855813225, -36.9834426667854], [174.596983208603, -36.9835247960861], [174.597023920866, -36.983560581614], [174.597022080781, -36.9836069176264], [174.596927962043, -36.9838191895521], [174.596880382875, -36.9838784353525], [174.596559907397, -36.9841951809686], [174.596513087891, -36.9842107010351], [174.596335360096, -36.9842163454679], [174.596291389041, -36.9842364510503], [174.596044958396, -36.9844911511087], [174.595901841084, -36.9847482111226], [174.595851325296, -36.9847815101449], [174.595653125682, -36.984883999239], [174.59561559723, -36.9849129593286], [174.595602692268, -36.9849519088062], [174.595592298768, -36.9850820409187], [174.595592979215, -36.9853146966794], [174.595583962904, -36.9853671501454], [174.595127543003, -36.9862738939487], [174.595090036076, -36.9863195285182], [174.594976883454, -36.9863148118815], [174.594955101961, -36.9863257945807], [174.594938697581, -36.9863462322611], [174.594631077025, -36.9868969250466], [174.594474921424, -36.9872133950881], [174.594315362321, -36.9875068271294], [174.594116878245, -36.9877969150109], [174.594128709523, -36.9878545054371], [174.594353057991, -36.9883238339782], [174.594490541547, -36.9889599336584], [174.594593703976, -36.9892221737022], [174.594714072465, -36.989437727001], [174.594711354391, -36.9894695270031], [174.594657722993, -36.9896083160157], [174.594604351532, -36.990158854964], [174.594589152781, -36.990190795612], [174.59449875632, -36.9902914197345], [174.594477177686, -36.9903315491951], [174.594271889185, -36.9910947376638], [174.594251975302, -36.9911435787723], [174.594193425504, -36.9911776520265], [174.593749666473, -36.9913323073859], [174.593708892112, -36.9913577501516], [174.593678308141, -36.9913982167213], [174.593607709958, -36.9916588608728], [174.593451424162, -36.9919955754804], [174.593370962303, -36.9924830947851], [174.593283746351, -36.9928069028942], [174.592947701445, -36.9931381792925], [174.592668572631, -36.9934368102913], [174.592633643288, -36.9934801921788], [174.59262874353, -36.993510876691], [174.592645787811, -36.9935506497357], [174.592675203994, -36.9935861195601], [174.592880547676, -36.9936998717019], [174.593448685582, -36.9939439548543], [174.593484660892, -36.9939749378286], [174.593536080527, -36.9940524572569], [174.59371357679, -36.9944744638686], [174.593738261552, -36.9945513146883], [174.593730627551, -36.9948030732069], [174.593607647525, -36.9950425540289], [174.593601972736, -36.995068178002]]}, "properties": {"OBJECTID": 1628, "TRACKNAME": "Panto Track", "CONDITIONSOFUSE": "Waitakere South Regional Park", "STATUS": "Temp Closed", "WEBLINK": "https://www.aucklandcouncil.govt.nz/en/parks-recreation/find-park-beach/park-detail/212.html", "VALIDATIONSTATE": 3, "created_user": "AC_owner", "last_edited_user": "AC_owner", "last_edited_date": 1789875254325, "created_date": 1789875254325, "PARK_SAPSITEID": null, "TRACK_ID": null, "KAURIDIEBACK_TRACK": null, "KAURIDIEBACK_MITIGATED": null, "SegmentID": null, "GlobalID": "df03242f-d5d1-4ed5-b7ee-0c76b040ce8b", "Shape__Length": 2629.268668130753}}]}