{"type": "FeatureCollection", "features": [{"type": "Feature", "id": 584, "geometry": {"type": "LineString", "coordinates": [[174.614224594153, -36.9655364189167], [174.613885038297, -36.9654527216903], [174.61379265754, -36.9654392585877], [174.613719687873, -36.9654487232334], [174.613652768592, -36.9654728967155], [174.61359322409, -36.9655181155479], [174.613555457435, -36.9655765315196], [174.613548093589, -36.9656065563785], [174.613559615195, -36.9656686649131], [174.613517580654, -36.965773405094], [174.613489761966, -36.9658055557401], [174.613441614641, -36.9658245255516], [174.613196946263, -36.9657911117984], [174.612992654603, -36.9657047625413], [174.612942618444, -36.9656922466762], [174.612708079507, -36.9657135232988], [174.612495664521, -36.965664310931], [174.612389602756, -36.9656593880746], [174.61231661074, -36.9656704745917], [174.612176294703, -36.96572279273], [174.612130588949, -36.9657563487261], [174.612118954503, -36.9657974820314], [174.612144842423, -36.9658606935519], [174.612198109813, -36.9659113740311], [174.61219588182, -36.9659362184133], [174.612101315269, -36.9660412208724], [174.61195886288, -36.9661169126971], [174.611914023152, -36.9661798317978], [174.611918544686, -36.9661960938211], [174.611994023455, -36.9662293922268], [174.612024836566, -36.9662592951563], [174.612037945852, -36.9662944770332], [174.612023804373, -36.9663253960407], [174.612002359668, -36.9663327898795], [174.611973578147, -36.9663315763184], [174.611797199539, -36.9662947536298], [174.611743911154, -36.9662931516831], [174.61145026304, -36.9663197531464], [174.611397073333, -36.9663345542474], [174.611345647351, -36.966360021377], [174.611318393791, -36.9663822670449], [174.611293838584, -36.9664174194447], [174.611272825314, -36.9664644666308], [174.611244087255, -36.9665825457773], [174.611072105048, -36.9668635589422], [174.610931305333, -36.9669948673616], [174.610728206566, -36.9670653687321], [174.610596895231, -36.9671613773941], [174.610490319931, -36.9672649190936], [174.610433341535, -36.9673414504474], [174.610415677359, -36.9673816829203], [174.61042000983, -36.9674598882324], [174.610377552023, -36.9675117329277], [174.610334186277, -36.967534881976], [174.610262559175, -36.9675554038772], [174.610089568378, -36.9675643212252], [174.609792293368, -36.9676189817422], [174.609719120562, -36.9676386589843], [174.609634584611, -36.9676873604585], [174.609184923384, -36.9680051162446], [174.609162240754, -36.96803164396], [174.609146607904, -36.9681033057757], [174.609112410688, -36.9681458082374], [174.609020585747, -36.9682223606075], [174.608898398364, -36.9682663981736], [174.608816496515, -36.9683682519484], [174.608735979087, -36.9685481617151], [174.608692666911, -36.9687649641735], [174.608662163704, -36.9688266241817], [174.608592220249, -36.9688637070834], [174.608447393456, -36.9688963785205], [174.608421661917, -36.9689098958823], [174.608425162096, -36.9689336981372], [174.60848566407, -36.9690559304266], [174.608532893361, -36.9692627177659], [174.608476161341, -36.9696873726551], [174.608453434867, -36.9697497474556], [174.608408591762, -36.9697727085196], [174.60832308288, -36.9697726593107], [174.608058180245, -36.9696990296825], [174.60800037012, -36.9696967211879], [174.607961426459, -36.9697224504291], [174.607859506779, -36.9698153539155], [174.607679620144, -36.9700120309712], [174.607456835869, -36.9701116726405], [174.607407148716, -36.9701441540725], [174.607303668231, -36.9703044450077], [174.606984608333, -36.9706544409825], [174.60688444394, -36.9707817874445], [174.606762175238, -36.970980360139], [174.606585686822, -36.9711845158187], [174.606361098048, -36.9717334930517], [174.606099583116, -36.9720361622842], [174.605989776923, -36.9721335694759], [174.605876617841, -36.9722660212848], [174.605744901609, -36.972456806912], [174.605640846568, -36.9726007537215], [174.605528682785, -36.9726036589685], [174.605462384872, -36.9726155881937], [174.604890000677, -36.9727828311292], [174.604826619379, -36.9728165061582], [174.604653749475, -36.9729553614694], [174.60452482074, -36.9731111087239], [174.604355723391, -36.973436662985], [174.604319200337, -36.9735387746461], [174.6043222006, -36.9736361968936], [174.604310042441, -36.9737650016576], [174.6043002494, -36.9738111568641], [174.604278370244, -36.9738482906811], [174.604157680004, -36.9739936327925], [174.604116505795, -36.9740320729062], [174.604080127071, -36.9740474367775], [174.603857895547, -36.9741067560283], [174.603494160229, -36.9742372461307], [174.603445036794, -36.9742705655799], [174.603288226905, -36.9744196486083], [174.603264302025, -36.9744481929833], [174.603252736502, -36.9744795088124], [174.603224192988, -36.9747585642162], [174.603209422921, -36.9747758262353], [174.603144760356, -36.9748047675799], [174.603111671987, -36.9748458021863], [174.603041624187, -36.9749902158344], [174.603042533778, -36.9750132239863], [174.603073596754, -36.9750716264589], [174.603069489277, -36.9751098450199], [174.603039970951, -36.9751539861098], [174.602938897551, -36.9752444764117], [174.602906725847, -36.9752633524544], [174.60287004708, -36.9752682012773], [174.602849690425, -36.9752628247151], [174.602837435208, -36.9752436022029], [174.602824870478, -36.9752385440509], [174.602698886001, -36.9752372256954], [174.602584142859, -36.9752475000013], [174.602519380812, -36.9752679786917], [174.602203921997, -36.9754852619261], [174.602126403299, -36.9756153092465], [174.602064539185, -36.9756513238761], [174.601985886396, -36.9756838965749], [174.601650563696, -36.9757077737218], [174.60143612673, -36.975659046839]]}, "properties": {"OBJECTID": 584, "TRACKNAME": "Parau Track", "CONDITIONSOFUSE": "Waitakere South Regional Park", "STATUS": "Closed upgrade", "WEBLINK": "https://www.aucklandcouncil.govt.nz/en/parks-recreation/find-park-beach/park-detail/212.html", "VALIDATIONSTATE": 3, "created_user": "AC_owner", "last_edited_user": "AC_owner", "last_edited_date": 1789875254325, "created_date": 1789875254325, "PARK_SAPSITEID": null, "TRACK_ID": null, "KAURIDIEBACK_TRACK": null, "KAURIDIEBACK_MITIGATED": null, "SegmentID": null, "GlobalID": "ef935f51-f47d-4d10-888c-5967830f480d", "Shape__Length": 1889.0113097483224}}, {"type": "Feature", "id": 1028, "geometry": {"type": "LineString", "coordinates": [[174.570453381428, -36.9908897143297], [174.570585537596, -36.9907227317905], [174.570680954591, -36.9905592440438], [174.570761480663, -36.9904627839069], [174.57079789774, -36.9904317506532], [174.570846598868, -36.99041587144], [174.571061157111, -36.9903744391668], [174.571390032244, -36.9902847561498], [174.571688776207, -36.9901863874529], [174.571753336516, -36.9901840740795], [174.572160360533, -36.990216085362], [174.572315726118, -36.9902115772681], [174.572531564997, -36.9902307150222], [174.572604114606, -36.9902490939748], [174.57287666195, -36.9903450218827], [174.572927687065, -36.9903560226216], [174.573030985842, -36.9903358630712], [174.57309057494, -36.9903026598025], [174.573130365997, -36.9902522976427], [174.573154779187, -36.9901876023399], [174.573125437531, -36.9899522738653], [174.573128571791, -36.9899110027752], [174.573249241681, -36.9897783397433], [174.573363475053, -36.9894935104042], [174.573489241294, -36.9893892919691], [174.57352309014, -36.9893465212113], [174.573791676493, -36.9887223056748], [174.574013028812, -36.9882537328327], [174.5740429005, -36.9882067125299], [174.574186443647, -36.9880447631849], [174.574190930798, -36.9880129563187], [174.574176169615, -36.9879289299622], [174.57418277061, -36.9878986120305], [174.574238534119, -36.9878485838632], [174.574494554083, -36.9876653269053], [174.574547257365, -36.9876011681678], [174.574601440283, -36.9874894282399], [174.574615763229, -36.9874108081423], [174.574574981289, -36.9871566700386], [174.574577438627, -36.9871072939285], [174.574708134401, -36.9869867917285], [174.574881441638, -36.9866774157039], [174.574868023048, -36.9866616308499], [174.574774227517, -36.9866521520541], [174.574690259131, -36.9866347839775], [174.574668405167, -36.9866248517181], [174.574663546806, -36.9866150968686], [174.574680608196, -36.9865813519959], [174.574811860885, -36.9864044799674], [174.574811938986, -36.9863638550795], [174.574783818247, -36.9862622305186], [174.574793037462, -36.9862244236429], [174.574873267152, -36.9861547068395], [174.575003337433, -36.9860681574653], [174.575154938238, -36.9858758462085], [174.575197646564, -36.9858406630374], [174.575278934263, -36.9858038149788], [174.57575486359, -36.985625370838], [174.575806432141, -36.9856137239478], [174.575939239632, -36.9856099992371], [174.576066526458, -36.9855601264545], [174.576351669205, -36.9853943246435], [174.57662554755, -36.9851849481995], [174.576695450601, -36.9851181408127], [174.576823371533, -36.9849335376082], [174.576867420411, -36.9848623946978], [174.5768898423, -36.9847869719708], [174.57691633667, -36.9847510977517], [174.576953861856, -36.9847210907727], [174.577133237344, -36.9846330475284], [174.577169504317, -36.9846039261029], [174.577199043162, -36.9845238055496], [174.577214755044, -36.9844301664085], [174.577234692968, -36.9844016252001], [174.577632430137, -36.9841044169468], [174.577971187992, -36.9838692977595], [174.578048859615, -36.9838185592266], [174.578205708438, -36.9837351529888], [174.578275145581, -36.9836829572574], [174.578502661116, -36.9834908148434], [174.578741509047, -36.9832095940581], [174.578905866285, -36.9831201354186], [174.578925717658, -36.9830828330569], [174.578954152473, -36.982972081756], [174.578844537333, -36.9829135740227], [174.578701168583, -36.9828094705792], [174.578656329551, -36.9827509068603], [174.578622620453, -36.9826429344984], [174.57861973713, -36.9825168928787], [174.578637699237, -36.9824467227154], [174.578734256988, -36.9822624904432], [174.578828164733, -36.9821472817912], [174.578853069119, -36.9821016991187], [174.578863703247, -36.982036524336]]}, "properties": {"OBJECTID": 1028, "TRACKNAME": "Parau Track", "CONDITIONSOFUSE": "Waitakere South Regional Park", "STATUS": "Closed upgrade", "WEBLINK": "https://www.aucklandcouncil.govt.nz/en/parks-recreation/find-park-beach/park-detail/212.html", "VALIDATIONSTATE": 3, "created_user": "AC_owner", "last_edited_user": "AC_owner", "last_edited_date": 1789875254325, "created_date": 1789875254325, "PARK_SAPSITEID": null, "TRACK_ID": null, "KAURIDIEBACK_TRACK": null, "KAURIDIEBACK_MITIGATED": null, "SegmentID": null, "GlobalID": "7be8cdf6-f7b7-4ea8-8d60-4cbf858cbcf6", "Shape__Length": 1448.325317733133}}, {"type": "Feature", "id": 1050, "geometry": {"type": "LineString", "coordinates": [[174.570470260728, -36.9909033140746], [174.570468037024, -36.9909765304194], [174.570451563259, -36.9910089879003], [174.57041630602, -36.99104059879], [174.570296330473, -36.9911021720372], [174.570260904801, -36.9911400233536], [174.570250365405, -36.9911689528221], [174.570350794793, -36.9914793685145], [174.570339560798, -36.9915368132746], [174.570272928443, -36.9916253593181], [174.570265057783, -36.9916545671454], [174.570284110987, -36.9916922402483], [174.570399554198, -36.9918528700819], [174.570469702206, -36.9920499017109], [174.570486847307, -36.9922298339364], [174.570458146898, -36.9923742548426], [174.570410589976, -36.9924338702853], [174.570257640079, -36.9924974481801], [174.570216588703, -36.9925354649529], [174.570058803902, -36.9928024853388], [174.569792416511, -36.99339034711], [174.569740276216, -36.9934881229671], [174.56971128976, -36.9935231668712], [174.569612556847, -36.99357021805], [174.569532617938, -36.9936303578659], [174.56951696386, -36.9936584030818], [174.569532246769, -36.9937385842353], [174.569523429223, -36.9937680524029], [174.569343604485, -36.993921046031]]}, "properties": {"OBJECTID": 1050, "TRACKNAME": "Parau Track", "CONDITIONSOFUSE": "Waitakere South Regional Park", "STATUS": "Closed upgrade", "WEBLINK": "https://www.aucklandcouncil.govt.nz/en/parks-recreation/find-park-beach/park-detail/212.html", "VALIDATIONSTATE": 3, "created_user": "AC_owner", "last_edited_user": "AC_owner", "last_edited_date": 1789875254325, "created_date": 1789875254325, "PARK_SAPSITEID": null, "TRACK_ID": null, "KAURIDIEBACK_TRACK": null, "KAURIDIEBACK_MITIGATED": null, "SegmentID": null, "GlobalID": "d55fa7f4-6b16-436f-a957-1b5a81de405a", "Shape__Length": 385.40188298914956}}, {"type": "Feature", "id": 1469, "geometry": {"type": "LineString", "coordinates": [[174.569343604485, -36.993921046031], [174.569195833006, -36.9939584771528], [174.569131977818, -36.9939652433268], [174.568928519948, -36.9939438041241], [174.568715805706, -36.9939039010926], [174.568546683033, -36.9938630700096], [174.568349969538, -36.9937798973503], [174.568289519702, -36.9937462015378], [174.568258838263, -36.9936918049083], [174.568216159999, -36.9936791911382], [174.567620852392, -36.9936435930451], [174.567046983691, -36.9936478910602]]}, "properties": {"OBJECTID": 1469, "TRACKNAME": "Parau Track", "CONDITIONSOFUSE": "Waitakere South Regional Park", "STATUS": "Closed upgrade", "WEBLINK": "https://www.aucklandcouncil.govt.nz/en/parks-recreation/find-park-beach/park-detail/212.html", "VALIDATIONSTATE": 3, "created_user": "AC_owner", "last_edited_user": "AC_owner", "last_edited_date": 1789875254325, "created_date": 1789875254325, "PARK_SAPSITEID": null, "TRACK_ID": null, "KAURIDIEBACK_TRACK": null, "KAURIDIEBACK_MITIGATED": null, "SegmentID": null, "GlobalID": "6d3c7372-48ec-4059-bea7-f01122c0b90e", "Shape__Length": 214.18095535855537}}, {"type": "Feature", "id": 1565, "geometry": {"type": "LineString", "coordinates": [[174.601456703492, -36.975609317639], [174.601354502476, -36.9754954951447], [174.601129981014, -36.9751654486622], [174.601102402247, -36.975116706192], [174.601079787463, -36.9750351868177], [174.601063625091, -36.975010689849], [174.601017757083, -36.9750016100247], [174.600702516669, -36.9750069252267], [174.60062689398, -36.9749985890179], [174.600507701764, -36.9749541373398], [174.600434927603, -36.9749171357652], [174.600387603073, -36.9748830268551], [174.600294157168, -36.9748137832448]]}, "properties": {"OBJECTID": 1565, "TRACKNAME": "Parau Track", "CONDITIONSOFUSE": "Waitakere South Regional Park", "STATUS": "Closed upgrade", "WEBLINK": "https://www.aucklandcouncil.govt.nz/en/parks-recreation/find-park-beach/park-detail/212.html", "VALIDATIONSTATE": 3, "created_user": "AC_owner", "last_edited_user": "AC_owner", "last_edited_date": 1789875254325, "created_date": 1789875254325, "PARK_SAPSITEID": null, "TRACK_ID": null, "KAURIDIEBACK_TRACK": null, "KAURIDIEBACK_MITIGATED": null, "SegmentID": null, "GlobalID": "ea8249bc-c9bf-4976-82c3-1fa67237a249", "Shape__Length": 151.00278191875697}}, {"type": "Feature", "id": 3067, "geometry": {"type": "LineString", "coordinates": [[174.578881829798, -36.9820505921436], [174.578889586798, -36.9820479408382], [174.578897144581, -36.982045435497], [174.578904500901, -36.9820430761502], [174.578911656901, -36.9820408636837], [174.578918612561, -36.9820387971966], [174.578925367901, -36.98203687759], [174.578931922902, -36.9820351039628], [174.578938277563, -36.9820334763151], [174.578944431904, -36.9820319955479], [174.578950384783, -36.9820306607752], [174.578956138445, -36.9820294719671], [174.578961690665, -36.9820284300546], [174.578967043668, -36.9820275341068], [174.578972195209, -36.9820267841535], [174.578977147554, -36.9820261810661], [174.578981898436, -36.9820257239732], [174.578986448998, -36.9820254137612], [174.578990799222, -36.9820252495289], [174.578994949106, -36.9820252312763], [174.578998898671, -36.9820253599046], [174.579002665495, -36.9820256162515], [174.579006422254, -36.9820258204539], [174.579010215172, -36.982025925928], [174.579014043106, -36.9820259317875], [174.579017907218, -36.9820258398198], [174.579021806365, -36.9820256491388], [174.579025740529, -36.9820253588432], [174.579029710871, -36.9820249707203], [174.579033716229, -36.9820244829829], [174.579037756642, -36.9820238974332], [174.579041832071, -36.982023212269], [174.57904594366, -36.9820224283764], [174.579050091425, -36.9820215466565], [174.579054273084, -36.9820205653371], [174.579058490901, -36.9820194852892], [174.579062744877, -36.982018306513], [174.579067033889, -36.9820170290234], [174.579071357936, -36.9820156528202], [174.579075717018, -36.9820141779037], [174.57908011224, -36.9820126033576], [174.579084542515, -36.9820109309992], [174.579089004042, -36.982009194229], [174.579093486083, -36.9820074716073], [174.579097988733, -36.9820057676396], [174.579102511974, -36.9820040814247], [174.579107054681, -36.9820024129778], [174.579111617978, -36.9820007622837], [174.579116202988, -36.9819991293275], [174.579120807466, -36.9819975141392], [174.579125431428, -36.9819959176198], [174.579130077086, -36.9819943379373], [174.579134742228, -36.9819927769237], [174.579139427942, -36.9819912327619], [174.579144135388, -36.9819897072391], [174.579148861178, -36.981988199499], [174.579153608681, -36.9819867094969], [174.579158375651, -36.9819852372626], [174.579163164352, -36.9819837836673], [174.579167972502, -36.9819823469388], [174.579172801261, -36.9819809288642], [174.579177649486, -36.9819795285573], [174.579182517178, -36.9819781460183], [174.579187290385, -36.9819768125078], [174.579191907647, -36.9819755441665], [174.579196366755, -36.9819743428265], [174.579200667653, -36.9819732057846], [174.579204812625, -36.9819721348129], [174.579208799425, -36.9819711299416], [174.579212630298, -36.9819701911406], [174.57921630298, -36.9819693175388], [174.579219818613, -36.9819685100224], [174.579223177178, -36.9819677676902], [174.57922637757, -36.9819670914584], [174.579229422018, -36.9819664803959], [174.579232308293, -36.9819659354337], [174.579235037519, -36.981965456557], [174.579237609677, -36.9819650428647], [174.579240023663, -36.9819646952726], [174.579242281704, -36.98196441285], [174.579244381572, -36.9819641965279], [174.579246324373, -36.98196404539], [174.579248110143, -36.9819639612388], [174.579249757735, -36.9819639321057], [174.57925136504, -36.9819639107195], [174.579252945389, -36.9819638896919], [174.579254499904, -36.981963869008], [174.579256027462, -36.9819638486828], [174.579257529186, -36.9819638287013], [174.579259003954, -36.9819638090784], [174.579260452887, -36.9819637897993], [174.579261874864, -36.9819637708788], [174.579263269884, -36.9819637523171], [174.57926463907, -36.981963734099], [174.579265982423, -36.9819637162246], [174.579267298818, -36.981963698709], [174.579268588257, -36.981963681552], [174.579269851862, -36.9819636647387], [174.57927108851, -36.9819636482841], [174.579272299324, -36.9819636321732], [174.579273484305, -36.981963616406], [174.579274641206, -36.9819636010124], [174.579275773396, -36.9819635859477], [174.579276877505, -36.9819635712565], [174.579278057434, -36.981963528516], [174.57927944608, -36.9819634190025], [174.579281044584, -36.9819632436021], [174.579282854069, -36.9819630022998], [174.579284872271, -36.9819626942244], [174.579287101436, -36.9819623193461], [174.579289540441, -36.9819618776798], [174.579292190428, -36.9819613701116], [174.579295050272, -36.9819607966564], [174.579298119957, -36.9819601564132], [174.579301399481, -36.9819594493818], [174.579304888863, -36.9819586764635], [174.579308589208, -36.9819578367421], [174.579312499393, -36.9819569302325], [174.579316619436, -36.9819559578359], [174.579320949319, -36.9819549186511], [174.579325490183, -36.9819538135642], [174.579330240887, -36.9819526416891], [174.579335201449, -36.9819514039269], [174.57934037185, -36.9819500993763], [174.57934574318, -36.9819487317615], [174.579351163967, -36.981947365291], [174.579356586307, -36.9819460195306], [174.579362009093, -36.9819446953965], [174.579367432326, -36.9819433928885], [174.579372854864, -36.9819421111207], [174.579378278954, -36.981940850063], [174.57938370349, -36.9819396106315], [174.579389128455, -36.9819383919251], [174.579394552744, -36.9819371948598], [174.579399978603, -36.9819360194059], [174.57940540489, -36.981934864677], [174.579410830501, -36.9819337315893], [174.579416257663, -36.9819326192118], [174.579421685254, -36.9819315275593], [174.579427113311, -36.9819304584342], [174.579432540654, -36.9819294091481], [174.579437969585, -36.9819283823743], [174.579443398927, -36.9819273754245], [174.579448828734, -36.981926391002], [174.579454257846, -36.9819254273196], [174.579459668782, -36.9819244539639], [174.579465002414, -36.9819233824882], [174.579470254099, -36.9819222057435], [174.579475423839, -36.9819209237297], [174.579480512774, -36.981919537333], [174.579485519763, -36.9819180456672], [174.579490445929, -36.9819164487175], [174.579495290167, -36.9819147473999], [174.57950005246, -36.9819129408133], [174.579504733929, -36.9819110289427], [174.579509334594, -36.9819090126893], [174.57951385219, -36.9819068911819], [174.579518288962, -36.9819046643906], [174.57952264493, -36.9819023332165], [174.579526918952, -36.9818998967734], [174.579531111046, -36.9818973559625], [174.579535222317, -36.9818947098677], [174.579539251642, -36.981891958504], [174.579543200144, -36.9818891018564], [174.579547066718, -36.9818861408411], [174.579550852488, -36.981883075443], [174.579554726947, -36.9818800611428], [174.57955881609, -36.9818772143406], [174.579563121003, -36.9818745332192], [174.579567640599, -36.9818720195958], [174.579572374859, -36.9818696725692], [174.579577323784, -36.9818674921395], [174.579582488516, -36.9818654791927], [174.579587866789, -36.9818636328576], [174.579593460851, -36.9818619531042], [174.5795992707, -36.9818604399326], [174.579605294091, -36.9818590933727], [174.579611533288, -36.9818579142955], [174.579617987151, -36.9818569018149], [174.579624655678, -36.9818560559308], [174.579631539993, -36.9818553766284], [174.579638637869, -36.9818548648385], [174.579645951533, -36.98185451963], [174.579653479862, -36.981854341018], [174.57966122398, -36.9818543289874], [174.579669181658, -36.9818544844691], [174.579677292882, -36.9818547848269], [174.579685117448, -36.9818550772817], [174.579692571585, -36.9818553314014], [174.579699655332, -36.9818555489882], [174.579706367546, -36.981855729156], [174.579712709332, -36.9818558709888], [174.579718679604, -36.9818559763039], [174.579724279448, -36.9818560432842], [174.579729507778, -36.9818560737468], [174.57973436568, -36.9818560658747], [174.579738853173, -36.9818560205689], [174.579742969151, -36.9818559387457], [174.579746714701, -36.9818558185878], [174.579750088719, -36.9818556610114], [174.579753092327, -36.9818554660016], [174.579755725526, -36.9818552335583], [174.579757987192, -36.9818549636966], [174.579759878448, -36.9818546564015], [174.579761398172, -36.981854311688], [174.579762547468, -36.9818539286401], [174.579763325249, -36.9818535090748], [174.579763894512, -36.9818530571323], [174.579764536335, -36.9818525825916], [174.579765257477, -36.9818520862641], [174.579766056797, -36.9818515672637], [174.579766935434, -36.9818510264765], [174.579767892249, -36.9818504630163], [174.579768928383, -36.9818498777694], [174.579770043816, -36.9818492698345], [174.579771237427, -36.9818486392267], [174.579772510356, -36.9818479868321], [174.579773861481, -36.9818473126656], [174.579775291906, -36.9818466158112], [174.579776801632, -36.9818458962689], [174.579778389552, -36.9818451549547], [174.579780056773, -36.9818443909527], [174.579781802189, -36.9818436051787], [174.579783626924, -36.981842797618], [174.579785530941, -36.9818419664682], [174.579787513172, -36.9818411144476], [174.57978957356, -36.9818402388529], [174.579791712089, -36.9818393387831], [174.579793890988, -36.9818383264084], [174.579796092665, -36.9818371659091], [174.579798317101, -36.981835856384], [174.579800566542, -36.9818343978033], [174.579802837637, -36.9818327911129], [174.579805132614, -36.9818310353818], [174.579807451473, -36.98182913061], [174.57980979311, -36.9818270777135], [174.579812158628, -36.9818248757764], [174.579814546905, -36.9818225248134], [174.579816959064, -36.9818200248098], [174.579819394, -36.9818173766815], [174.579821852819, -36.9818145795125], [174.579824335519, -36.9818116333028], [174.579826839873, -36.9818085389834], [174.579829369232, -36.9818052956083], [174.57983192135, -36.9818019032075], [174.579834496226, -36.9817983617809], [174.579837095003, -36.9817946722146], [174.579839717661, -36.9817908336077], [174.57984238296, -36.981786829486], [174.579845167134, -36.9817825975431], [174.579848080141, -36.9817781304356], [174.579851119737, -36.9817734281933], [174.57985428592, -36.9817684908163], [174.579857579813, -36.9817633182895], [174.579861001436, -36.9817579115141], [174.579864550769, -36.981752269589], [174.579868226671, -36.9817463916281], [174.579872030303, -36.9817402794184], [174.57987596054, -36.9817339329751], [174.579880018469, -36.9817273504809], [174.579884204108, -36.9817205328368], [174.579888516352, -36.9817134809591], [174.579892956307, -36.9817061939315], [174.579897523972, -36.9816986717541], [174.579902218224, -36.9816909144418], [174.579907040204, -36.9816829228808], [174.579911989876, -36.9816746952688], [174.579917066152, -36.9816662334229], [174.579922270138, -36.9816575364272], [174.579927603362, -36.9816486781719], [174.579933066266, -36.9816397343646], [174.579938659936, -36.9816307031882], [174.579944383267, -36.9816215855585], [174.579950237382, -36.9816123814607], [174.579956222282, -36.9816030908948], [174.579962337965, -36.9815937138607], [174.579968583291, -36.9815842494722], [174.579974958296, -36.9815746995316], [174.57998146519, -36.9815650622068], [174.579988101744, -36.9815553384286], [174.579994869101, -36.9815455290833], [174.5800017661, -36.9815356323835], [174.580008793864, -36.9815256483144], [174.58001595243, -36.981515578678], [174.580023240656, -36.9815054225882], [174.580030659647, -36.9814951791289], [174.58003820944, -36.9814848501023], [174.580045888875, -36.9814744337212], [174.580053699093, -36.9814639308716], [174.580061608304, -36.9814533798334], [174.580069315382, -36.9814431595771], [174.580076739188, -36.981433366726], [174.580083880843, -36.9814240012652], [174.58009074151, -36.9814150649819], [174.580097320027, -36.9814065560891], [174.580103616395, -36.9813984745867], [174.580109630632, -36.9813908213758], [174.58011536274, -36.9813835964566], [174.580120813822, -36.9813767989129], [174.580125982774, -36.981370429661], [174.580130869579, -36.9813644877997], [174.580135474272, -36.9813589751312], [174.580139796798, -36.9813538889523], [174.580143837196, -36.9813492310652], [174.580147596587, -36.981345001455], [174.58015107385, -36.9813412001367], [174.580154268965, -36.9813378262091], [174.580157181932, -36.9813348796724], [174.580159812771, -36.9813323614276], [174.580162161481, -36.9813302714747], [174.58016428124, -36.9813284648898], [174.580166288741, -36.9813266084225], [174.580168188214, -36.9813246893974], [174.580169981925, -36.9813227086858], [174.58017166761, -36.9813206654166], [174.580173247533, -36.9813185604608], [174.580174719428, -36.9813163929474], [174.580176084439, -36.9813141637624], [174.580177342546, -36.9813118720048], [174.580178493749, -36.9813095176746], [174.580179538067, -36.9813071016728], [174.580180474358, -36.9813046231134], [174.580181304887, -36.9813020828675], [174.58018202739, -36.9812994800639], [174.580182644112, -36.9812968146728], [174.580183152826, -36.9812940876251], [174.580183554654, -36.9812912989059], [174.580183849561, -36.9812884467129], [174.580184037582, -36.9812855328485], [174.580184117596, -36.9812825573275], [174.580184095161, -36.9812795173719], [174.580184167443, -36.9812763310379], [174.580184448057, -36.981272950844], [174.580184934776, -36.9812693777212], [174.580185629827, -36.9812656107386], [174.580186532068, -36.98126164901], [174.580187641555, -36.9812574952386], [174.580188959355, -36.9812531467063], [174.580190484383, -36.9812486052301], [174.580192216619, -36.981243869909], [174.580194156064, -36.9812389407429], [174.580196302717, -36.9812338177319], [174.580198657721, -36.9812285017621], [174.580201219915, -36.9812229910462], [174.580203989335, -36.9812172873864], [174.580206965983, -36.9812113907826], [174.580210150943, -36.9812052994178], [174.580213543131, -36.9811990151091], [174.580217142526, -36.9811925369553], [174.580220949129, -36.9811858649565], [174.580224964082, -36.9811789999987], [174.580229149117, -36.981171993067], [174.580233311039, -36.9811651180401], [174.580237424817, -36.9811584140092], [174.580241489308, -36.9811518800882], [174.580245503389, -36.981145516292], [174.580249469307, -36.9811393225908], [174.580253384816, -36.9811332990145], [174.58025725218, -36.9811274464342], [174.580261069134, -36.9811217639788], [174.580264836803, -36.9811162516334], [174.580268555204, -36.9811109102989], [174.5802722243, -36.9811057381733], [174.580275845251, -36.9811007370438], [174.580279415794, -36.9810959060392], [174.580282937069, -36.9810912460456], [174.580286407916, -36.9810867552758], [174.580289830619, -36.9810824355021], [174.580293204036, -36.9810782858384], [174.580296528186, -36.9810743071858], [174.580299801907, -36.9810704977569], [174.580303027485, -36.9810668593242], [174.58030610963, -36.9810632390254], [174.580308925015, -36.9810594320934], [174.580311471374, -36.9810554376571], [174.580313749851, -36.9810512566024], [174.580315760407, -36.9810468871274], [174.580317501957, -36.9810423310492], [174.580318975605, -36.9810375874516], [174.58032018137, -36.9810326572359], [174.580321119233, -36.9810275395009], [174.580321788053, -36.9810222333604], [174.580322189009, -36.9810167415029], [174.580322322045, -36.9810110612251], [174.580322186075, -36.981005194344], [174.580321782185, -36.9809991390425], [174.580321110412, -36.9809928971229], [174.580320169633, -36.9809864686001], [174.580318960935, -36.9809798516568], [174.580317484354, -36.9809730480954], [174.580315739873, -36.9809660570146], [174.580313726367, -36.9809588784295], [174.580311471936, -36.9809515128672], [174.580309392121, -36.9809439529923], [174.580307625114, -36.9809361987676], [174.580306172017, -36.9809282492771], [174.580305031727, -36.9809201054368], [174.580304204206, -36.9809117654446], [174.580303689491, -36.9809032311026], [174.580303488686, -36.9808945014949], [174.580303600688, -36.9808855775373], [174.580304026581, -36.9808764574129], [174.58030476528, -36.9808671429388], [174.580305816767, -36.9808576332138], [174.580307182163, -36.980847928223], [174.580308860365, -36.9808380288824], [174.580310851335, -36.9808279333899], [174.580313156233, -36.9808176435326], [174.580315773936, -36.9808071593255], [174.58031870553, -36.9807964789515], [174.580321949928, -36.9807856042276], [174.580325507094, -36.9807745333516], [174.580329377083, -36.9807632690269], [174.580333486976, -36.980751870812], [174.580337611408, -36.9807405237803], [174.580341738287, -36.9807292407118], [174.580345865345, -36.9807180207353], [174.580349994849, -36.9807068647219], [174.580354125676, -36.9806957726866], [174.580358256683, -36.9806847437433], [174.580362390135, -36.9806737787631], [174.580366523769, -36.980662876875], [174.580370659847, -36.9806520389499], [174.58037479723, -36.9806412641019], [174.580378934811, -36.980630553247], [174.580383074838, -36.9806199063552], [174.580387215046, -36.9806093225554], [174.5803913577, -36.9805988027187], [174.580395501675, -36.9805883468601], [174.580399645832, -36.9805779540935], [174.580403792434, -36.9805676252901], [174.580407939216, -36.9805573595786], [174.580412088445, -36.9805471578303], [174.580416237854, -36.980537019174], [174.580420373723, -36.9805269320748], [174.580424484653, -36.9805168885723], [174.580428569482, -36.9805068868793], [174.580432628249, -36.980496928798], [174.580436662058, -36.9804870134123], [174.580440670891, -36.9804771398212], [174.580444652538, -36.9804673098568], [174.580448610349, -36.9804575225731], [174.58045254208, -36.980447778], [174.58045644773, -36.9804380761375], [174.580460328421, -36.9804284169706], [174.580464183032, -36.9804188005144], [174.580468011561, -36.9804092267688], [174.580471816256, -36.980399695704], [174.580475593765, -36.9803902082658], [174.580479346297, -36.9803807626221], [174.580483073872, -36.9803713596742], [174.580486775384, -36.980362000338], [174.580490450797, -36.9803526828113], [174.58049410127, -36.9803434088815], [174.580497710348, -36.9803341976958], [174.580501160815, -36.9803251941301], [174.580504430803, -36.9803164273185], [174.58050752138, -36.9803078945429], [174.580510431479, -36.9802995985216], [174.580513161081, -36.9802915383535], [174.580515711291, -36.9802837131224], [174.580518081023, -36.9802761246457], [174.580520270239, -36.9802687711211], [174.580522278959, -36.9802616534496], [174.580524108288, -36.9802547707154], [174.580525757138, -36.9802481247354], [174.580527226597, -36.9802417136927], [174.580528514455, -36.9802355394192], [174.580529622921, -36.9802296000829], [174.580530551996, -36.9802238956838], [174.58053129947, -36.980218428054], [174.580531867572, -36.9802131962625], [174.580532255158, -36.9802081994232], [174.580532462249, -36.9802034384371], [174.580532489967, -36.9801989132893], [174.58053237903, -36.9801943656514], [174.580532204264, -36.9801893393451], [174.58053196548, -36.9801838253594], [174.580531664945, -36.9801778245654], [174.580531300431, -36.9801713378942], [174.580530874146, -36.9801643635137], [174.580530383845, -36.9801569014537], [174.580529830687, -36.9801489535015], [174.580529215778, -36.9801405187411], [174.580528536853, -36.9801315963013], [174.580527795052, -36.9801221870681], [174.580526990378, -36.9801122910416], [174.58052612281, -36.9801019073207], [174.580525192386, -36.9800910377076], [174.580524199069, -36.9800796804], [174.580523142896, -36.9800678372003], [174.580522022689, -36.9800555054199], [174.580520840749, -36.9800426877323], [174.580519595935, -36.9800293832515], [174.580518287105, -36.9800155910911], [174.580516917046, -36.9800013373532], [174.58051549658, -36.9799872537404], [174.580514033657, -36.9799736159599], [174.580512526014, -36.9799604231407], [174.58051097481, -36.9799476770699], [174.580509381168, -36.9799353777325], [174.580507742805, -36.9799235233564], [174.580506060863, -36.9799121148276], [174.580504335359, -36.9799011530472], [174.580502566258, -36.9798906362131], [174.580500753596, -36.9798805661274], [174.580498897354, -36.9798709418891], [174.580496996409, -36.9798617635131], [174.580495053009, -36.9798530309695], [174.580493066028, -36.9798447442732], [174.580491035487, -36.9798369043253], [174.580488960224, -36.9798295093387], [174.580486842523, -36.9798225610855], [174.580484680101, -36.9798160577935], [174.580482474118, -36.97981000125], [174.580480225678, -36.9798043905389], [174.58047791092, -36.9797991583766], [174.58047544795, -36.9797940390538], [174.580472829489, -36.9797890065285], [174.580470052166, -36.9797840608453], [174.580467119371, -36.9797792028606], [174.580464029943, -36.9797744307871], [174.580460782796, -36.9797697464418], [174.580457379035, -36.9797651489089], [174.580453818659, -36.9797606381881], [174.580450101668, -36.9797562142796], [174.580446228063, -36.9797518771833], [174.580442196721, -36.9797476269141], [174.580438008782, -36.9797434643582], [174.580433664211, -36.9797393877133], [174.580429163044, -36.9797353987817], [174.580424505244, -36.9797314957612], [174.580419690848, -36.9797276804538], [174.580414718715, -36.9797239519734], [174.580409589967, -36.9797203103051], [174.580404304623, -36.97971675635], [174.580398862647, -36.9797132883058], [174.580393337645, -36.9797096627291], [174.580387805434, -36.9797056343446], [174.58038226375, -36.9797012022809], [174.580376713753, -36.9796963683253], [174.580371155425, -36.9796911315767], [174.58036558987, -36.9796854911191], [174.580360014879, -36.9796794487846], [174.580354431538, -36.979673002756], [174.580348839866, -36.9796661539344], [174.580343241004, -36.9796589032059], [174.58033763267, -36.9796512487983], [174.580332016005, -36.9796431915977], [174.58032639101, -36.979634731604], [174.580320758807, -36.9796258688024], [174.58031511715, -36.9796166032227], [174.580309467163, -36.9796069348499], [174.580303808845, -36.9795968636842], [174.580298143321, -36.9795863897104], [174.580292468324, -36.9795755120575], [174.580286785016, -36.9795642325126], [174.580281104642, -36.9795526059083], [174.580275535445, -36.9795411941477], [174.580270106238, -36.9795301410632], [174.580264817022, -36.9795194466547], [174.580259666675, -36.9795091109373], [174.580254656317, -36.979499133896], [174.580249785932, -36.9794895146298], [174.580245054433, -36.9794802549557], [174.580240462924, -36.9794713539579], [174.580236010282, -36.9794628116512], [174.58023169763, -36.9794546280208], [174.580227524969, -36.9794468030666], [174.580223492297, -36.9794393367887], [174.580219598492, -36.979432229202], [174.580215844657, -36.9794254793906], [174.580212229708, -36.9794190891715], [174.580208754749, -36.9794130576287], [174.580205419779, -36.9794073847623], [174.580202223675, -36.9794020705872], [174.58019916756, -36.9793971150885], [174.580196251435, -36.9793925182661], [174.58019345573, -36.9793881487836], [174.580190739383, -36.979383705235], [174.580188101011, -36.97937917502], [174.580185540651, -36.9793745599408], [174.580183057143, -36.9793698582101], [174.580180650522, -36.97936507163], [174.580178321877, -36.9793601983836], [174.580176071224, -36.9793552393718], [174.580173897442, -36.9793501946096], [174.580171801652, -36.9793450640821], [174.580169783837, -36.9793398468882], [174.58016784291, -36.979334544845], [174.580165979977, -36.9793291570366], [174.580164193895, -36.9793236825766], [174.580162485806, -36.9793181223514], [174.580160854587, -36.9793124763758], [174.58015930136, -36.9793067446349], [174.580157826127, -36.9793009271288], [174.580156427764, -36.9792950238723], [174.580155107394, -36.9792890348505], [174.580153867244, -36.9792829591324], [174.580152839886, -36.9792767967558], [174.580152101657, -36.9792705449018], [174.580151652575, -36.9792642044714], [174.580151491519, -36.9792577754796], [174.580151620733, -36.9792512578965], [174.580152037971, -36.979244651752], [174.580152744357, -36.9792379570312], [174.580153739872, -36.979231172833], [174.580155023429, -36.9792243009744], [174.580156597238, -36.9792173396234], [174.580158459071, -36.979210289711], [174.580160610052, -36.9792031512222], [174.580163050179, -36.979195924157], [174.580165779453, -36.9791886085153], [174.580168797874, -36.9791812042973], [174.5801721043, -36.9791737106167], [174.580175701014, -36.9791661292457], [174.580179585733, -36.9791584584121], [174.580183759617, -36.979150699903], [174.580188222629, -36.9791428519163], [174.580192901925, -36.9791349776148], [174.580197431196, -36.9791274000522], [174.580201755196, -36.97912016413], [174.580205873925, -36.9791132698482], [174.580209789649, -36.9791067180782], [174.580213500121, -36.9791005088498], [174.580217006446, -36.9790946412469], [174.580220308624, -36.9790891152697], [174.580223405551, -36.9790839318341], [174.580226299472, -36.9790790909103], [174.580228988124, -36.9790745916271], [174.580231472629, -36.9790704339695], [174.580233751883, -36.9790666188537], [174.58023582699, -36.9790631453635], [174.580237699092, -36.9790600143852], [174.580239364802, -36.9790572250625], [174.580240827507, -36.9790547782516], [174.580242084943, -36.9790526730814], [174.580243139374, -36.9790509104231], [174.580243987413, -36.9790494894204], [174.580244632447, -36.9790484109295], [174.580245271757, -36.9790474902512], [174.580246172172, -36.9790464831724], [174.580247334778, -36.9790453878759], [174.580248760698, -36.9790442043468], [174.580250447667, -36.9790429317138], [174.580252399092, -36.9790415717344], [174.580254611566, -36.979040122651], [174.580257087353, -36.979038585335], [174.580259825331, -36.9790369598012], [174.5802628255, -36.9790352460497], [174.580266088983, -36.9790334440654], [174.580269613533, -36.9790315538783], [174.580273402501, -36.9790295745423], [174.580277452556, -36.9790275079045], [174.580281765905, -36.9790253521328], [174.580286341464, -36.9790231090443], [174.580291179194, -36.9790207768367], [174.580296280238, -36.9790183563962], [174.580301643472, -36.9790158477378], [174.580307268877, -36.9790132499602], [174.580313163361, -36.9790105710836], [174.580319423096, -36.9790078981599], [174.5803260802, -36.9790052632099], [174.580333134655, -36.9790026653326], [174.580340586443, -36.9790001036267], [174.580348434478, -36.9789975799094], [174.580356680987, -36.9789950932495], [174.580365324846, -36.9789926436619], [174.580374364934, -36.9789902311615], [174.580383803496, -36.9789878557183], [174.580393638285, -36.9789855173621], [174.580403870426, -36.9789832160778], [174.58041450104, -36.9789809518504], [174.580425527901, -36.9789787256109], [174.580436952095, -36.9789765355418], [174.580448773639, -36.9789743825442], [174.580460992552, -36.9789722675192], [174.580473608798, -36.9789701886643], [174.580486622413, -36.9789681477816], [174.580500033379, -36.97896614397], [174.580513841676, -36.9789641763281], [174.580527921266, -36.9789622888978], [174.580541898367, -36.9789606065357], [174.580555747334, -36.978959138597], [174.580569468149, -36.9789578841805], [174.580583061934, -36.9789568432714], [174.580596527567, -36.9789560158847], [174.580609865067, -36.9789554029215], [174.580623075538, -36.9789550034658], [174.580636157857, -36.9789548175325], [174.580649113166, -36.978954846008], [174.580661940323, -36.978955088006], [174.580674639328, -36.9789555435266], [174.580687210201, -36.978956213471], [174.580699654045, -36.978957096923], [174.580711969739, -36.9789581938979], [174.580724158404, -36.9789595043805], [174.580736218936, -36.978961029287], [174.580748151318, -36.9789627677163], [174.580759956672, -36.9789647196536], [174.580771633894, -36.9789668860148], [174.580783182928, -36.9789692640968], [174.580794570097, -36.978971638024], [174.580805767317, -36.9789738450259], [174.580816777938, -36.9789758841568], [174.580827598611, -36.9789777563627], [174.58083823158, -36.9789794616135], [174.580848675723, -36.9789809999245], [174.580858931021, -36.9789823703945], [174.580868998616, -36.9789835739097], [174.580878876261, -36.9789846105001], [174.580888567326, -36.9789854801208], [174.580898068442, -36.9789861828169], [174.580907381835, -36.9789867176573], [174.580916506401, -36.9789870855581], [174.580925442141, -36.9789872865193], [174.580934190158, -36.978987319625], [174.580942749348, -36.9789871857913], [174.580951119711, -36.9789868850181], [174.580959302371, -36.9789864172907], [174.58096729508, -36.9789857826388], [174.580975100067, -36.9789849801317], [174.580982712255, -36.9789840359759], [174.58099009367, -36.9789831237368], [174.58099723944, -36.9789822795333], [174.581004148406, -36.9789815015781], [174.581010820566, -36.9789807898713], [174.581017255941, -36.978980145314], [174.581023455653, -36.9789795678914], [174.581029418561, -36.9789790567172], [174.581035144682, -36.9789786126927], [174.581040633999, -36.9789782349168], [174.581045886549, -36.9789779251916], [174.581050903398, -36.9789776807991], [174.581055683462, -36.9789775035563], [174.58106022674, -36.9789773934633], [174.581064534355, -36.9789773505052], [174.581068605147, -36.9789773728948], [174.581072438049, -36.9789774633502], [174.581076036393, -36.9789776200246], [174.581079396827, -36.9789778438638], [174.581082521581, -36.9789781339369], [174.581085408425, -36.9789784911749], [174.581088182371, -36.9789788760559], [174.581091056525, -36.9789792172385], [174.581094035399, -36.978979515564], [174.581097120096, -36.9789797701163], [174.581100308351, -36.9789799800242], [174.581103601326, -36.9789801470749], [174.581107000106, -36.9789802694513], [174.581110503587, -36.9789803480694], [174.581114111786, -36.9789803838303], [174.581117824668, -36.9789803749319], [174.58112164225, -36.9789803222751], [174.581125564532, -36.97898022586], [174.581129592639, -36.9789800856717], [174.581133724322, -36.9789799017399], [174.581137961829, -36.9789796740349], [174.581142302914, -36.9789794025864], [174.581146749822, -36.9789790873646], [174.58115130143, -36.9789787283845], [174.581155957739, -36.9789783256459], [174.581160719853, -36.9789778782329], [174.581165582249, -36.9789773907257], [174.58117047787, -36.978976934323], [174.581175374833, -36.9789765427994], [174.58118027196, -36.9789762134667], [174.581185171553, -36.9789759489981], [174.581190072432, -36.9789757467053], [174.581194973531, -36.9789756093067], [174.581199877059, -36.97897553497], [174.581204781911, -36.9789755246113], [174.581209688068, -36.9789755773296], [174.581214594426, -36.9789756940409], [174.581219503213, -36.9789758738142], [174.581224413324, -36.9789761175655], [174.581229323636, -36.9789764253098], [174.581234236376, -36.9789767961161], [174.581239150423, -36.9789772299993], [174.581244064688, -36.9789777287766], [174.581248981383, -36.9789782906159], [174.581253899383, -36.9789789155321], [174.581258817585, -36.9789796044413], [174.581263738233, -36.9789803573136], [174.581268734241, -36.9789811686708], [174.58127409956, -36.9789820192739], [174.581279861089, -36.9789829060605], [174.581286019988, -36.9789838308176], [174.581292576239, -36.9789847926442], [174.581299530966, -36.9789857915252], [174.581306881922, -36.9789868274905], [174.581314630229, -36.9789879005249], [174.581322775889, -36.9789890106286], [174.581331318901, -36.9789901578013], [174.581340258142, -36.9789913420579], [174.581349595858, -36.9789925633685], [174.581359330945, -36.9789938226489], [174.581369463366, -36.978995118097], [174.581379992016, -36.9789964506286], [174.58139091916, -36.9789978211148], [174.581402242515, -36.9789992277833], [174.581413964363, -36.9790006724061], [174.581426082442, -36.9790021541121], [174.581438598977, -36.97900367197], [174.58145151176, -36.9790052278119], [174.581464398263, -36.9790067623701], [174.581476833749, -36.9790082182093], [174.581488817096, -36.9790095953447], [174.581500350548, -36.9790108937463], [174.581511432984, -36.9790121134295], [174.581522064403, -36.9790132543942], [174.581532243662, -36.9790143157544], [174.581541973047, -36.9790152992826], [174.581551251395, -36.9790162031915], [174.581560078727, -36.9790170283826], [174.581568453918, -36.9790177748706], [174.581576379214, -36.979018442626], [174.581583853494, -36.9790190316636], [174.581590876756, -36.9790195419837], [174.581597447859, -36.9790199727001], [174.581603569087, -36.9790203255852], [174.581609239278, -36.9790205988518], [174.581614457329, -36.979020793416], [174.581619225485, -36.979020909248], [174.581623542624, -36.9790209463629], [174.581627452717, -36.9790209122868], [174.581631407754, -36.979020878513], [174.581635520464, -36.9790208633691], [174.581639793109, -36.9790208677263], [174.581644224549, -36.9790208906984], [174.581648814802, -36.9790209331864], [174.581653564992, -36.9790209951755], [174.581658472853, -36.9790210757943], [174.581663540632, -36.979021175013], [174.581668767225, -36.9790212937477], [174.58167415263, -36.9790214319981], [174.58167969683, -36.9790215888634], [174.581685399825, -36.9790217643434], [174.581691262775, -36.9790219602253], [174.581697283378, -36.9790221738358], [174.581703463935, -36.9790224078482], [174.581709803269, -36.9790226595741], [174.581716302558, -36.9790229317019], [174.5817229595, -36.9790232215581], [174.581729776397, -36.9790235318162], [174.581736752088, -36.9790238606887], [174.581743917161, -36.9790242203871], [174.581751346359, -36.9790246396597], [174.581759040806, -36.9790251184916], [174.58176700052, -36.9790256577838], [174.581775226605, -36.9790262566201], [174.581783716835, -36.9790269159316], [174.581792474579, -36.9790276356733], [174.581801496448, -36.9790284149889], [174.581810784707, -36.9790292547496], [174.581820338215, -36.9790301540691], [174.581830156991, -36.9790311138485], [174.581840242157, -36.9790321340728], [174.581850591449, -36.9790332138706], [174.581861208255, -36.9790343540982], [174.581872089186, -36.9790355538993], [174.581883236509, -36.9790368141449], [174.58189464908, -36.9790381339489], [174.581906326938, -36.9790395151134], [174.581918271149, -36.97904095492], [174.581930480627, -36.9790424551857], [174.581942947456, -36.9790440133122], [174.581955253005, -36.9790454870571], [174.581967158571, -36.9790467966781], [174.581978664154, -36.979047942175], [174.581989769755, -36.9790489235481], [174.582000476476, -36.9790497398813], [174.582010782091, -36.9790503921059], [174.582020687723, -36.9790508802069], [174.582030193352, -36.9790512032834], [174.58203930014, -36.9790513631227], [174.582048005803, -36.9790513579527], [174.582056312605, -36.9790511886445], [174.582064218282, -36.9790508543271], [174.582071725117, -36.9790503567729], [174.582078830827, -36.9790496942097], [174.582085537676, -36.9790488675086], [174.582091844522, -36.9790478757837], [174.582097751404, -36.9790467208371], [174.58210325716, -36.9790454008818], [174.582108364055, -36.979043916789], [174.582113070948, -36.9790422676725], [174.582117400674, -36.979040471255], [174.58212146957, -36.9790386116142], [174.582125293602, -36.9790367002548], [174.582128873911, -36.979034738063], [174.582132209356, -36.9790327241526], [174.58213530106, -36.9790306585088], [174.582138147918, -36.9790285420475], [174.582140751036, -36.9790263738528], [174.58214310929, -36.9790241539395], [174.582145223821, -36.979021883194], [174.582147093488, -36.97901956073], [174.582148718291, -36.9790171865476], [174.582150100495, -36.9790147615179], [174.582151236712, -36.9790122847848], [174.582152129207, -36.9790097572194], [174.582152777961, -36.9790071779206], [174.58215318187, -36.9790045478045], [174.582153342019, -36.979001865054], [174.582153257323, -36.9789991314861], [174.582152927782, -36.9789963471009], [174.582152355624, -36.9789935109674], [174.582151591275, -36.9789906710863], [174.582150709065, -36.9789878904627], [174.582149709032, -36.9789851708986], [174.582148591157, -36.9789825114932], [174.582147354317, -36.9789799122613], [174.582146000758, -36.9789773731729], [174.582144528235, -36.9789748942581], [174.58214293787, -36.9789724755018], [174.582141229681, -36.9789701178051], [174.582139403632, -36.9789678193659], [174.582137458637, -36.9789655820013], [174.582135396923, -36.9789634047802], [174.582133216245, -36.9789612877326], [174.582130917724, -36.9789592308435], [174.582128501362, -36.9789572341129], [174.582125967158, -36.9789552975408], [174.582123315112, -36.9789534211272], [174.58212054412, -36.9789516057881], [174.582117655268, -36.9789498497064], [174.582114648592, -36.9789481546842], [174.582111535176, -36.9789465133631], [174.5821084671, -36.9789448371862], [174.582105499889, -36.9789430947676], [174.582102631295, -36.9789412861371], [174.582099862441, -36.9789394112799], [174.582097192225, -36.978937471112], [174.582094621749, -36.9789354647174], [174.582092151014, -36.978933392096], [174.582089778896, -36.9789312532628], [174.582087506538, -36.978929049104], [174.582085333921, -36.9789267787185], [174.582083259941, -36.9789244430223], [174.582081285682, -36.9789220401983], [174.582079410079, -36.9789195729648], [174.582077634198, -36.9789170386034], [174.582075958057, -36.9789144380153], [174.582074380553, -36.9789117721167], [174.582072902808, -36.9789090408924], [174.582071524786, -36.9789062425403], [174.5820702454, -36.9789033788776], [174.582069065755, -36.9789004489882], [174.582068006515, -36.9788974742291], [174.582067136395, -36.9788945176803], [174.582066456574, -36.9788915820301], [174.582065969316, -36.9788886681497], [174.582065673499, -36.978885776054], [174.582065569123, -36.978882905743], [174.582065657292, -36.9788800563008], [174.582065936921, -36.9788772295444], [174.582066407971, -36.9788744236716], [174.582067071603, -36.9788716404697], [174.582067925535, -36.9788688781664], [174.58206897203, -36.978866137633], [174.582070211088, -36.9788634188692], [174.582071640464, -36.9788607219052], [174.582073262403, -36.9788580467109], [174.582075076907, -36.9788553932864], [174.582077081708, -36.9788527607604], [174.582079279092, -36.9788501509053], [174.582081667898, -36.9788475619338], [174.582084248144, -36.978844994747], [174.582087020972, -36.9788424502309], [174.582089922194, -36.978839921129], [174.582092907951, -36.978837405322], [174.582095977139, -36.9788349037257], [174.582099129702, -36.9788324136369], [174.582102366819, -36.9788299377439], [174.582105686205, -36.9788274742746], [174.582109090127, -36.9788250240999], [174.582112577461, -36.9788225872349], [174.582116148188, -36.9788201627785], [174.582119803468, -36.9788177525179], [174.582123542142, -36.9788153546658], [174.58212736421, -36.9788129692223], [174.582131269707, -36.9788105979896], [174.582135258598, -36.9788082391653], [174.582139332025, -36.9788058936358], [174.582143488844, -36.9788035605147], [174.582147729094, -36.9788012416044], [174.582152052737, -36.9787989351025], [174.582156460896, -36.9787966409942], [174.582160951363, -36.9787943611115], [174.582165508637, -36.9787921064773], [174.582170000817, -36.9787899635767], [174.582174402442, -36.9787879507761], [174.582178715742, -36.9787860671445], [174.582182939612, -36.9787843135979], [174.582187074013, -36.9787826883342], [174.582191117861, -36.9787811931705], [174.582195073383, -36.9787798271758], [174.582198939475, -36.9787785912662], [174.582202714976, -36.9787774836545], [174.582206402169, -36.9787765061128], [174.582209998791, -36.9787756577702], [174.582213505963, -36.9787749386116], [174.58221692481, -36.978774348622], [174.582220253103, -36.9787738887325], [174.582223491948, -36.978773558027], [174.582226642467, -36.9787733564906], [174.582229702432, -36.9787732850544], [174.58223267293, -36.9787733419011], [174.582235553997, -36.9787735288329], [174.582238345616, -36.9787738449489], [174.582241070589, -36.9787742520882], [174.582243769072, -36.9787746821143], [174.582246441029, -36.978775133225], [174.582249086478, -36.9787756063214], [174.582251706524, -36.9787761004875], [174.582254301185, -36.9787766166244], [174.582256869319, -36.9787771538458], [174.582259412069, -36.9787777130379], [174.582261928311, -36.9787782942158], [174.582264418027, -36.9787788964783], [174.582266882339, -36.9787795198105], [174.582269320144, -36.9787801651284], [174.582271732563, -36.978780832417], [174.58227411958, -36.9787815207753], [174.582276478965, -36.9787822311343], [174.582278814071, -36.978782962548], [174.582281121526, -36.9787837150612], [174.582283404739, -36.9787844904314], [174.582285660284, -36.9787852860001], [174.582287891586, -36.9787861044256], [174.582290100779, -36.9787869402715], [174.58229241222, -36.978787722476], [174.582294881377, -36.9787884169496], [174.582297506021, -36.9787890246235], [174.582300288399, -36.9787895454677], [174.582303228511, -36.9787899794821], [174.582306324111, -36.9787903266968], [174.582309577426, -36.9787905861805], [174.582312986247, -36.9787907597655], [174.582316552783, -36.9787908456196], [174.582320275949, -36.97879084556], [174.582324155707, -36.9787907577845], [174.582328193199, -36.9787905831791], [174.582332387301, -36.9787903217588], [174.582336736891, -36.9787899735386], [174.582341244196, -36.9787895375875], [174.582345908131, -36.9787890157225], [174.58235072978, -36.9787884061265], [174.582355706936, -36.9787877106315], [174.582360841806, -36.9787869274056], [174.582366133287, -36.9787860573646], [174.582371516329, -36.9787851058826], [174.582376738521, -36.9787840907461], [174.582381774066, -36.9787830141019], [174.582386624107, -36.978781876836], [174.582391287521, -36.9787806789634], [174.58239576427, -36.978779418682], [174.582400054392, -36.978778097794], [174.58240415901, -36.9787767162844], [174.582408076981, -36.9787752732671], [174.58241180943, -36.9787737687272], [174.582415354128, -36.9787722035958], [174.582418713304, -36.9787705769417], [174.582421886975, -36.9787688896662], [174.582424872878, -36.978767140898], [174.582427673276, -36.9787653315084], [174.582430287028, -36.9787634606112], [174.582432714134, -36.9787615282065], [174.582434955718, -36.9787595342792], [174.582437010693, -36.9787574806467], [174.582438879003, -36.9787553646054], [174.582440561809, -36.9787531879428], [174.582442191827, -36.978751011984], [174.582443901772, -36.9787488980541], [174.582445691682, -36.9787468479552], [174.582447563746, -36.9787448589542], [174.582449514633, -36.9787429328982], [174.582451547713, -36.9787410697422], [174.582453660739, -36.9787392695162], [174.582455854815, -36.978737531304], [174.582458128836, -36.9787358560219], [174.582460483909, -36.9787342427536], [174.582462918927, -36.9787326924153], [174.582465434995, -36.9787312040909], [174.582468032133, -36.9787297786815], [174.582470709217, -36.978728416202], [174.582473467351, -36.9787271157363], [174.582476305412, -36.9787258772996], [174.582479224561, -36.9787247026788], [174.582482223638, -36.9787235900869], [174.582485304888, -36.9787225394939], [174.58248846496, -36.9787215518457], [174.582491718532, -36.9787206305522], [174.582495181883, -36.9787198029061], [174.582498884442, -36.9787190793314], [174.582502828416, -36.9787184579958], [174.582507011579, -36.9787179398304], [174.582511435052, -36.9787175248202], [174.582516097696, -36.9787172120791], [174.582521001773, -36.9787170024781], [174.58252614502, -36.9787168951461], [174.582531528578, -36.9787168909691], [174.582537151325, -36.9787169899622], [174.582543015487, -36.9787171911942], [174.582549118837, -36.9787174955962], [174.582555462499, -36.978717903153], [174.582562046472, -36.9787184138648], [174.582568869615, -36.9787190268452], [174.582575934174, -36.9787197420645], [174.58258323794, -36.9787205613545], [174.58259078198, -36.9787214819971], [174.582598565227, -36.9787225067104], [174.582606589891, -36.9787236336622], [174.582614711964, -36.9787248530552], [174.582622611873, -36.978726140307], [174.582630273876, -36.9787274947264], [174.5826377002, -36.9787289153822], [174.582644889722, -36.9787304022896], [174.582651842461, -36.9787319563497], [174.582658559539, -36.9787335775475], [174.582665039816, -36.978735264997], [174.582671283309, -36.9787370195993], [174.58267729002, -36.9787388413544], [174.582683059928, -36.9787407293612], [174.582688594176, -36.978742684506], [174.582693891622, -36.9787447059027], [174.582698952285, -36.9787467944523], [174.582703776146, -36.9787489492537], [174.582708364347, -36.9787511711933], [174.582712715764, -36.9787534602859], [174.58271683038, -36.9787558156305], [174.582720708212, -36.9787582381282], [174.582724350384, -36.978760727764], [174.582727759068, -36.9787632809036], [174.58273115568, -36.9787657936434], [174.582734663659, -36.9787682048482], [174.582738284128, -36.9787705145029], [174.582742015963, -36.9787727226226], [174.582745860289, -36.9787748291923], [174.582749815982, -36.978776834227], [174.582753884164, -36.9787787377116], [174.582758063714, -36.9787805396611], [174.582762355753, -36.9787822400605], [174.582766759159, -36.9787838389249], [174.582771275055, -36.9787853362392], [174.582775902318, -36.9787867320183], [174.582780642071, -36.9787880262474], [174.58278549319, -36.9787892189412], [174.5827904568, -36.978790310085], [174.582795531776, -36.9787912996935], [174.582800719241, -36.9787921877519], [174.582806018074, -36.9787929742751], [174.582811428273, -36.9787936592631], [174.582816952085, -36.9787942426859], [174.582822554674, -36.9787947241067], [174.582828077543, -36.9787950993297], [174.582833497088, -36.9787953677682], [174.582838812186, -36.9787955294373], [174.582844023978, -36.9787955852231], [174.582849132427, -36.9787955333234], [174.582854136447, -36.9787953755555], [174.582859038266, -36.9787951109883], [174.582863834533, -36.9787947405677], [174.582868528581, -36.9787942624468], [174.582873118199, -36.9787936784576], [174.582877604474, -36.9787929867831], [174.58288198632, -36.9787921892404], [174.582886265984, -36.9787912857994], [174.582890441182, -36.9787902746882], [174.582894511931, -36.9787891568076], [174.582898480499, -36.978787933029], [174.582902344618, -36.9787866024811], [174.58290610429, -36.978785165164], [174.582909761761, -36.9787836210477], [174.582913314802, -36.9787819710632], [174.582916770583, -36.9787802358461], [174.582920139828, -36.978778444998], [174.582923421413, -36.9787765985337], [174.582926615358, -36.9787746973544], [174.582929722766, -36.978772740544], [174.582932741392, -36.9787707281325], [174.582935673501, -36.978768660991], [174.58293851795, -36.9787665382334], [174.58294127474, -36.9787643598598], [174.58294394387, -36.97876212587], [174.582946526483, -36.9787598371504], [174.582949020314, -36.9787574928296], [174.582951427627, -36.978755093779], [174.582953747262, -36.9787526382111], [174.58295598038, -36.9787501279134], [174.582958124715, -36.9787475620146], [174.582960182532, -36.9787449413859], [174.582962152691, -36.9787422651411], [174.58296403519, -36.9787395332804], [174.58296583003, -36.9787367458036], [174.582967542714, -36.9787338972292], [174.582969247787, -36.9787308982309], [174.582970969325, -36.9787277178416], [174.582972708449, -36.9787243560462], [174.58297446518, -36.978720813746], [174.582976238374, -36.9787170900549], [174.582978028051, -36.9787131858738], [174.582979835296, -36.9787090993856], [174.582981660165, -36.9787048332936], [174.58298350148, -36.9787003849096], [174.582985360419, -36.9786957569218], [174.582987235803, -36.9786909466418], [174.582989128793, -36.978685955857], [174.582991038246, -36.9786807836812], [174.582992965305, -36.9786754310005], [174.582994909951, -36.9786698969138], [174.582996871061, -36.9786641814361], [174.582998849776, -36.9786582854535], [174.583000844955, -36.9786522080799], [174.58300285772, -36.9786459493003], [174.583004886968, -36.9786395100308], [174.583006917999, -36.9786329941228], [174.583008904464, -36.9786267131601], [174.583010843406, -36.9786206870119], [174.583012734825, -36.9786149156783], [174.583014578739, -36.9786094000604], [174.58301637513, -36.978604139257], [174.583018123997, -36.9785991332682], [174.58301982536, -36.9785943829951], [174.5830214792, -36.9785898875365], [174.583023085516, -36.9785856468925], [174.583024643205, -36.9785816619791], [174.583026154494, -36.9785779318653], [174.583027617136, -36.9785744565811], [174.583029033398, -36.9785712369976], [174.583030401013, -36.9785682722436], [174.583031722246, -36.9785655631904], [174.583032994834, -36.9785631089666], [174.583034219898, -36.9785609095575], [174.583035397458, -36.978558965864], [174.583036527495, -36.9785572769852], [174.583037611095, -36.9785558411037], [174.583038654881, -36.9785543814168], [174.583039667979, -36.9785526877881], [174.583040650428, -36.9785507620197], [174.583041601085, -36.9785486032257], [174.583042519951, -36.9785462114059], [174.583043408167, -36.9785435874466], [174.583044264573, -36.9785407295604], [174.583045090329, -36.9785376395347], [174.583045885417, -36.9785343164682], [174.58304664759, -36.978530760391], [174.583047380218, -36.9785269712581], [174.583048079932, -36.9785229491145], [174.583048750119, -36.9785186948163], [174.583049387372, -36.9785142066063], [174.583049995099, -36.9785094862417], [174.583050569912, -36.9785045328664], [174.583051114074, -36.9784993473515], [174.58305162755, -36.9784939278947], [174.583052109234, -36.9784882754123], [174.583052559145, -36.9784823908053], [174.583052979415, -36.9784763227181], [174.583053377288, -36.9784704207781], [174.583053753041, -36.9784647525828], [174.583054106656, -36.9784593172311], [174.583054439292, -36.9784541165104], [174.58305474979, -36.9784491486332], [174.583055039291, -36.9784444144858], [174.583055306654, -36.978439913182], [174.583055553039, -36.9784356465091], [174.583055777285, -36.9784316126798], [174.583055980553, -36.9784278134814], [174.583056161683, -36.9784242471266], [174.583056321816, -36.9784209145016], [174.58305645983, -36.9784178156213], [174.583056575704, -36.9784149495847], [174.583056671706, -36.9784123172628], [174.583056744483, -36.9784099196018], [174.583056796244, -36.9784077547694], [174.583056825886, -36.9784058236817], [174.583056834513, -36.9784041254227], [174.583056822162, -36.9784026617946], [174.583056868603, -36.9784012703917], [174.583057120798, -36.9783996698354], [174.583057578634, -36.9783978547191], [174.583058244358, -36.9783958250129], [174.583059116828, -36.9783935798305], [174.583060197185, -36.9783911200581], [174.583061483165, -36.9783884448246], [174.583062977033, -36.9783855550012], [174.583064677664, -36.9783824506027], [174.583066586183, -36.9783791316142], [174.583068700325, -36.9783755971645], [174.583071022354, -36.9783718481248], [174.583073551147, -36.97836788451], [174.583076286704, -36.9783637063202], [174.583079230129, -36.9783593126392], [174.583082379196, -36.9783547043981], [174.583085736131, -36.9783498806658], [174.583089299829, -36.9783448423584], [174.583093071415, -36.9783395894609], [174.583097049764, -36.9783341219881], [174.583101232575, -36.9783284372668], [174.583105587409, -36.9783224879581], [174.583110095848, -36.9783162526751], [174.58311476128, -36.9783097322741], [174.583119580298, -36.9783029249976], [174.583124555167, -36.978295831717], [174.583129684782, -36.9782884533481], [174.583134970248, -36.978280788975], [174.583140410422, -36.9782728377114], [174.583146005343, -36.9782646013596], [174.583151756114, -36.9782560790034], [174.583157661613, -36.9782472706579], [174.58316372298, -36.9782381772091], [174.583169939055, -36.9782287968697], [174.583176309876, -36.978219131442], [174.583182836528, -36.9782091791087], [174.583189517925, -36.9781989416871], [174.583196354048, -36.9781884182759], [174.583203346021, -36.9781776088602], [174.58321049272, -36.9781665134549], [174.583217795287, -36.9781551329462], [174.583225244357, -36.9781435575938], [174.583232805787, -36.9781321456894], [174.583240476937, -36.9781209324208], [174.583248257823, -36.9781099186889], [174.583256148429, -36.9780991035929], [174.583264148772, -36.9780884880336], [174.583272258835, -36.97807807111], [174.583280477511, -36.9780678537382], [174.58328880703, -36.978057834987], [174.583297246287, -36.9780480157726], [174.583305794139, -36.9780383952087], [174.583314452852, -36.9780289741666], [174.583323220162, -36.9780197517749], [174.583332098313, -36.9780107280038], [174.583341085079, -36.9780019037843], [174.583350181583, -36.9779932791014], [174.583359387806, -36.9779848530539], [174.583368703748, -36.9779766256419], [174.583378129428, -36.9779685977663], [174.583387664827, -36.9779607685261], [174.583486248575, -36.9778768896909], [174.583525230752, -36.9778181613291], [174.583543636897, -36.9777388907816], [174.58352192015, -36.9776608135062], [174.58352484044, -36.9776191510893], [174.583578185399, -36.9774962289094], [174.583640412242, -36.9773966179039], [174.583631972864, -36.977358999075], [174.583567240255, -36.9772605780732], [174.583568220822, -36.9772245767743], [174.583877987897, -36.9769345380036], [174.583935043532, -36.9768440697424], [174.583993718177, -36.9766998034803], [174.584024183407, -36.9766653348879], [174.584173056654, -36.9765629349141], [174.584222341212, -36.9765386932976], [174.584253906394, -36.9765468249118], [174.58436320944, -36.9766284055892], [174.584390413598, -36.9766306365502], [174.584437322044, -36.9766153328048], [174.584460056071, -36.9765994702237], [174.584472891539, -36.9765775411877], [174.584509282576, -36.976432232731], [174.584539427438, -36.9764110433734], [174.584581924741, -36.9764126762443], [174.584643306943, -36.9764388486228], [174.584924284776, -36.9766307243999], [174.585280045059, -36.9769746166536], [174.585311138749, -36.9769883282297], [174.585386432555, -36.9769865311901], [174.585424266614, -36.9769950853161], [174.585660984165, -36.9771153640403], [174.585840302067, -36.9771331108597], [174.585891317361, -36.9771277440378], [174.585937148454, -36.9771140657089], [174.58597397071, -36.9770753312246], [174.586063104379, -36.9769118863784], [174.58609392061, -36.9768906335777], [174.58614769787, -36.9769051630979], [174.586512438838, -36.9770582239186], [174.58653412299, -36.9770549542183], [174.586567653308, -36.9770225531747], [174.586601872522, -36.9770099113226], [174.586849080745, -36.977012502372], [174.58690979369, -36.977026026654], [174.587110961017, -36.9771116827825], [174.587245021423, -36.9771229957773], [174.587312200561, -36.9771041046643], [174.587559633519, -36.9769585904171], [174.587618240432, -36.9769197407229], [174.58765893059, -36.9768774792849], [174.587924335435, -36.9765559309131], [174.588038674304, -36.9762092562993], [174.588060154542, -36.9761689480732], [174.588095724229, -36.9761405591694], [174.588119512967, -36.9761342442056], [174.58814243813, -36.9761426472178], [174.588260406118, -36.9762442156511], [174.588294809639, -36.9762652768307], [174.588311730934, -36.9762600452071], [174.588351538949, -36.9762120780762], [174.588371604008, -36.9762038948178], [174.588426964774, -36.9762200236451], [174.588551764361, -36.9762795839836], [174.588577113477, -36.9763137916652], [174.588605053982, -36.9764787955949], [174.588612340878, -36.9764994516494], [174.588626480491, -36.9765079397014], [174.588675098723, -36.9764877071609], [174.588732570912, -36.9764462518863], [174.588843640104, -36.9763370710069], [174.588944427544, -36.9762192007438], [174.589004012429, -36.9761744442563], [174.589063759794, -36.9761667815193], [174.589326357846, -36.9761825743861], [174.589386164545, -36.97619634389], [174.589505491568, -36.9762872839811], [174.589616087147, -36.9763426717678], [174.589686985325, -36.9763663074744], [174.589846992401, -36.9763992070855], [174.589893270295, -36.9764197446016], [174.590196191391, -36.9766935511714], [174.590224017459, -36.976730405018], [174.590259182081, -36.9768196280999], [174.590384665255, -36.9769271345279], [174.590407940211, -36.9769348320607], [174.590431123184, -36.9769279100297], [174.590555126831, -36.9768349128551], [174.590591613016, -36.9768248380721], [174.590620387078, -36.9768431077121], [174.5906669497, -36.97689192275], [174.590725966145, -36.9770164663015], [174.590748762163, -36.9770445947659], [174.591159151686, -36.9772419003829], [174.591189559668, -36.9772480392486], [174.591242235914, -36.9772458954243], [174.591476466085, -36.9772169494435], [174.591547789618, -36.9772003186439], [174.591851102523, -36.9770795607355], [174.592012265858, -36.9769716339905], [174.592058452716, -36.9769579431284], [174.592223156722, -36.9769763882678], [174.592278305781, -36.9769922125638], [174.592303954916, -36.9770177065634], [174.592382366235, -36.9771349387206], [174.592469842498, -36.9771889277104], [174.592522302767, -36.9772045076446], [174.592549700049, -36.9771883880746], [174.592579647204, -36.9771541433041], [174.5926785417, -36.9770023360931], [174.592737677056, -36.9769593747646], [174.592782737696, -36.9769468506587], [174.592837388251, -36.9769442550995], [174.592971764678, -36.9769710813139], [174.593012931583, -36.9769713878059], [174.593075266833, -36.9769489819002], [174.59317804846, -36.9768951321253], [174.59333440256, -36.976780805481], [174.593539297387, -36.9765593884335], [174.593612558905, -36.9764979982222], [174.593693431523, -36.9764697313113], [174.593756904139, -36.9764561015414], [174.593814362386, -36.9764597835907], [174.593882923039, -36.9764799229848], [174.593924314726, -36.9764838549767], [174.594174458392, -36.9764747855823], [174.594239476614, -36.9764634638828], [174.594262703997, -36.9764439955328], [174.594291811332, -36.9763460245109], [174.594323894476, -36.9763051734718], [174.59439331286, -36.9762552977647], [174.594587180852, -36.976148679573], [174.594984520721, -36.9758144188378], [174.595032919408, -36.9758010477311], [174.595226452741, -36.9757846643672], [174.595296372279, -36.9757706803379], [174.595348971521, -36.9757470944421], [174.595499081567, -36.9756447052517], [174.595600953968, -36.9755970822288], [174.595849725932, -36.9755161938514], [174.596081948186, -36.9754892406925], [174.596120222133, -36.9754634945636], [174.596227600111, -36.97534339791], [174.596270418183, -36.9753208264678], [174.596340154177, -36.9753065829056], [174.596374356557, -36.975312286344], [174.596405319978, -36.975342178674], [174.596508715799, -36.9754781662359], [174.596561096914, -36.9755063751591], [174.596611254845, -36.9755141010616], [174.596691348278, -36.9754916590108], [174.596885970162, -36.9754180821337], [174.597066408813, -36.975249435804], [174.597287014032, -36.9751114687239], [174.597363660991, -36.9750823999157], [174.597613881984, -36.9750138179211], [174.597792755083, -36.9749924134092], [174.598106753489, -36.9749771176881], [174.598398458162, -36.9749332718752], [174.598471747277, -36.9749405890596], [174.598646457549, -36.9749794764688], [174.599477185212, -36.9749776672768], [174.599516965118, -36.9749694048655], [174.599581839354, -36.974918248891], [174.59963382773, -36.974897719508], [174.600188027044, -36.974841311703], [174.600294157168, -36.9748137832448]]}, "properties": {"OBJECTID": 3067, "TRACKNAME": "Parau Track", "CONDITIONSOFUSE": "Waitakere South Regional Park", "STATUS": "Closed upgrade", "WEBLINK": "https://www.aucklandcouncil.govt.nz/en/parks-recreation/find-park-beach/park-detail/212.html", "VALIDATIONSTATE": 3, "created_user": "AC_owner", "last_edited_user": "AC_owner", "last_edited_date": 1789875254325, "created_date": 1789875254325, "PARK_SAPSITEID": null, "TRACK_ID": null, "KAURIDIEBACK_TRACK": null, "KAURIDIEBACK_MITIGATED": null, "SegmentID": null, "GlobalID": "7688fc22-e077-486a-b29a-718b59e773f6", "Shape__Length": 2812.9188779896344}}]}