{"type": "FeatureCollection", "features": [{"type": "Feature", "id": 12250, "geometry": {"type": "LineString", "coordinates": [[174.4965092282, -37.014168892477], [174.496693112155, -37.0141041308524], [174.496711128662, -37.0140792578344], [174.496589951001, -37.014044847454], [174.496482120145, -37.0139925164244], [174.496287243304, -37.0138198478882], [174.495854805438, -37.0137028826719], [174.495745882426, -37.0136560819264], [174.495723086062, -37.0136169980772], [174.495852104419, -37.0135699163014], [174.496092476528, -37.0134745743532], [174.496290437089, -37.01337301019]]}, "properties": {"OBJECTID": 12250, "TRACKNAME": "Parahara Valley Track", "CONDITIONSOFUSE": "Waitakere South Regional Park", "STATUS": "Open", "WEBLINK": "https://www.aucklandcouncil.govt.nz/en/parks-recreation/find-park-beach/park-detail/212.html", "VALIDATIONSTATE": 3, "created_user": "AC_owner", "last_edited_user": "AC_owner", "last_edited_date": 1789875254325, "created_date": 1789875254325, "PARK_SAPSITEID": null, "TRACK_ID": null, "KAURIDIEBACK_TRACK": null, "KAURIDIEBACK_MITIGATED": null, "SegmentID": null, "GlobalID": "b35e46cc-c120-462b-941b-a4ac0d188e97", "Shape__Length": 183.3318465810852}}, {"type": "Feature", "id": 12258, "geometry": {"type": "LineString", "coordinates": [[174.496290437089, -37.01337301019], [174.49636497563, -37.0133217186913], [174.496397598741, -37.0132895326942], [174.496412791114, -37.0132377484091], [174.496426336507, -37.0131340776285], [174.496418364151, -37.013076937585], [174.496376807767, -37.013037193598], [174.496150025205, -37.0128636760598], [174.496122829983, -37.0128561402124], [174.496073552335, -37.0128625563498], [174.495928745968, -37.0129187725409], [174.495889736338, -37.0129250997122], [174.495765297989, -37.0128991193872], [174.495627386057, -37.0128860160735], [174.495372280696, -37.0128902669654], [174.495268199082, -37.0128613660632], [174.495105065075, -37.012804487455], [174.494674881265, -37.0126014306912], [174.494250809285, -37.0123593802318], [174.492812487714, -37.0117492281936], [174.492721489476, -37.0117161989666], [174.49219593378, -37.0115652513081], [174.492121587673, -37.0115639030913], [174.491929205655, -37.0116024701141], [174.491647977918, -37.0116995935652], [174.491402776952, -37.0117941814112], [174.491213311224, -37.0118167295777], [174.491129849197, -37.0118005246755], [174.49030538326, -37.0115299143865], [174.490258732616, -37.0115076671274], [174.490220365611, -37.0114764996488], [174.489769773709, -37.0110507783664], [174.489739901466, -37.0109944238255], [174.489582383233, -37.0105967352654], [174.48945392706, -37.010335110124], [174.48943627142, -37.010315665939], [174.489410819577, -37.0103035656157], [174.489249305809, -37.0102465061678], [174.489232197512, -37.0101513185765]]}, "properties": {"OBJECTID": 12258, "TRACKNAME": "Parahara Valley Track", "CONDITIONSOFUSE": "Waitakere South Regional Park", "STATUS": "Open", "WEBLINK": "https://www.aucklandcouncil.govt.nz/en/parks-recreation/find-park-beach/park-detail/212.html", "VALIDATIONSTATE": 3, "created_user": "AC_owner", "last_edited_user": "AC_owner", "last_edited_date": 1789875254325, "created_date": 1789875254325, "PARK_SAPSITEID": null, "TRACK_ID": null, "KAURIDIEBACK_TRACK": null, "KAURIDIEBACK_MITIGATED": null, "SegmentID": null, "GlobalID": "94908a57-e027-478f-938b-48ee51daf04b", "Shape__Length": 829.2003592619496}}]}