{"type": "FeatureCollection", "features": [{"type": "Feature", "id": 4278, "geometry": {"type": "MultiLineString", "coordinates": [[[174.988960645148, -36.8034273806498], [174.98896063467, -36.8034273222394], [174.988956804913, -36.8034048849024], [174.988911913259, -36.8033437847729], [174.988880953984, -36.8033248576674], [174.988799488565, -36.8032750553734], [174.988797535371, -36.8032719947235], [174.988797490018, -36.8032714546913], [174.988800636126, -36.8032643907063], [174.988802112152, -36.8032643002181], [174.9888556306, -36.8032379237429], [174.988855765095, -36.8032377069791], [174.988845338492, -36.8031564004341], [174.988804634729, -36.8030536298541], [174.988803920748, -36.8030518094181], [174.988780611753, -36.8029916118282], [174.988744477413, -36.8029192014012], [174.988701039894, -36.8028648592771], [174.988657487992, -36.8028223416417], [174.988579426926, -36.8027774692324], [174.988517676074, -36.8027570804745], [174.988507107178, -36.8027542360328], [174.988424855574, -36.8027321161892], [174.988416003644, -36.8027274899579], [174.988260209706, -36.8026462098632], [174.988207375515, -36.8026114472106], [174.988136329511, -36.80256841575], [174.988088037609, -36.802519981594], [174.988041740771, -36.8024487900139], [174.988197968799, -36.8023046920708], [174.988275647735, -36.80222001021], [174.988577668067, -36.8020226048316], [174.988585229819, -36.8019380933094], [174.988529036476, -36.8017794637992], [174.988524758504, -36.8016908933827], [174.988594703267, -36.8016345195024], [174.988745380054, -36.8015974641632], [174.988918117136, -36.801515427021], [174.989019950761, -36.8014066025645], [174.989152515939, -36.8013363630416], [174.989315168843, -36.8013021296342], [174.989505084435, -36.8012521110647], [174.989638848606, -36.801180589998], [174.989647582883, -36.8011736577997], [174.989458030937, -36.8008957924898], [174.989547325526, -36.8008453403992], [174.989693618189, -36.8007577923793], [174.989829929473, -36.8006830459225], [174.989853440861, -36.8006515443071], [174.98986833883, -36.8006310792858], [174.989982105199, -36.8004747936693], [174.990088216661, -36.8002877821493], [174.990175783503, -36.8001423487368], [174.990327436198, -36.7999443176459], [174.990480935273, -36.79982045289], [174.99048098599, -36.7998204204948], [174.990661470417, -36.7997339545793], [174.990932630526, -36.7996214369842], [174.990934277654, -36.7996209452224], [174.990972440588, -36.7996125322667], [174.990980461955, -36.799611277599], [174.991294279589, -36.7995904957482], [174.991294698505, -36.7995904427645], [174.991509483106, -36.7995496486207], [174.991713569243, -36.7994841731573], [174.991971745148, -36.7993226434349], [174.992065905842, -36.7991845412779], [174.992113466359, -36.7990348141387], [174.99217496546, -36.7986283463354], [174.992183852757, -36.7983758381894], [174.989443685308, -36.7976028195545], [174.989450358637, -36.7976010170142], [174.989466199818, -36.7975818080185], [174.989468092728, -36.7975795113293], [174.98947277628, -36.7975738357673], [174.98950281312, -36.7975427288617], [174.98953907997, -36.7975241776215], [174.989565391535, -36.7975015648773], [174.989585795931, -36.7974785291164], [174.989604592784, -36.7974439130686], [174.989616468863, -36.7973956884513], [174.989636234172, -36.7973478680935], [174.989675100772, -36.7973028862943], [174.98970029727, -36.7972623487248], [174.989720289707, -36.7972488206382], [174.989771676846, -36.7972310735305], [174.989824532873, -36.7972196353849], [174.989848071693, -36.7972166041708], [174.989867273342, -36.7971978111715], [174.989919487688, -36.7971362424523], [174.989935373826, -36.7971159204156], [174.98994018108, -36.7970989600551], [174.989931727504, -36.7970764009266], [174.989921872775, -36.7970507142375], [174.989931905335, -36.7970326019631], [174.989975768446, -36.7970033645017], [174.990025849279, -36.7969861637182], [174.990073476099, -36.7969753447684], [174.990088934472, -36.7969640034026], [174.990113369457, -36.7969699234569], [174.990131978409, -36.7969791163737], [174.990150921598, -36.7969756311492], [174.990166472151, -36.7969679818353], [174.990176043963, -36.7969577917345], [174.990204978671, -36.7969599437445], [174.990236976527, -36.7969541353981], [174.990237313243, -36.7969414671327], [174.990219995858, -36.7969063982801], [174.990231562874, -36.7968713650725], [174.990251457363, -36.7968288151685], [174.990269328583, -36.796788114387], [174.99029521683, -36.796713960341], [174.990326413848, -36.7966421419661], [174.990376111185, -36.796559130448], [174.990438068456, -36.796479253049], [174.990438826722, -36.7964778928829], [174.990453002665, -36.7964382715268], [174.990435854856, -36.7963955512716], [174.990427953535, -36.7962967358569], [174.99041584165, -36.7962420834522], [174.990446811926, -36.7961985360053], [174.990498278204, -36.7961202330554], [174.990495519221, -36.7960654276784], [174.99049808494, -36.7960094596853], [174.990507658891, -36.7959662794461], [174.990493828815, -36.7958965974763], [174.990438854117, -36.7958394350356], [174.990367978152, -36.7957879196407], [174.990358976711, -36.7957504267416], [174.990378108357, -36.795714615227], [174.990458244713, -36.7956817851804], [174.990460378107, -36.7956822010253]], [[174.99726431597, -36.8041393082059], [174.997153190682, -36.8042301665876], [174.997153130838, -36.8042301928298], [174.997067812574, -36.8042409285675], [174.997002086744, -36.8042507240409], [174.996999912282, -36.8042516717986], [174.996947135712, -36.8042972041512], [174.996933643783, -36.8042989143481], [174.99690791132, -36.8043021830266], [174.996876199808, -36.804306209189]], [[174.996876007807, -36.8043061961903], [174.996859297127, -36.8043410144368], [174.996873268494, -36.804384946091], [174.996885048887, -36.8044219834182], [174.996887286031, -36.804429014869], [174.996872159642, -36.8044602733436], [174.996849963472, -36.8044532328364], [174.996803101598, -36.8044582119753], [174.996787597901, -36.8044672214613], [174.996765277031, -36.8044676351205], [174.996695868442, -36.8045046390451], [174.996677612482, -36.8044979180919], [174.996675351866, -36.804500770872], [174.99665853067, -36.8045254267969], [174.99663150464, -36.804543755614], [174.99662945489, -36.8045676740347]], [[174.996612236077, -36.8045756406376], [174.99659400019, -36.8046301115391], [174.99657644454, -36.8046356826858], [174.996559687852, -36.8046403399965], [174.99652021115, -36.8046681524385], [174.996477205955, -36.8047201749091], [174.996434677274, -36.8048010360085], [174.996368699823, -36.8048637039068], [174.996356050042, -36.8049511944466], [174.996384392802, -36.8050112265983], [174.996367527735, -36.8050847418026], [174.996367634982, -36.805123313658], [174.996434097224, -36.8051454244917], [174.996545098156, -36.8052238758073], [174.99658514736, -36.8052681996422], [174.996592958024, -36.8052768526984], [174.996584802504, -36.8052863822893], [174.996557498025, -36.8053182544469], [174.99657442238, -36.8053824504134], [174.99662597503, -36.8054157273806], [174.996614827424, -36.8054748219621], [174.996638843648, -36.8055206822971], [174.996543547041, -36.8056110804978], [174.99655050981, -36.8056488422998], [174.996554323571, -36.8056694941137], [174.996556762208, -36.8056827295536], [174.996590348977, -36.8057260244515], [174.996683110944, -36.8057839687299], [174.996697292293, -36.8057866102531], [174.996749956835, -36.8057964000016], [174.996763440935, -36.8057989090173], [174.996806418654, -36.8058705619752], [174.996875321646, -36.8059047921171], [174.996920856116, -36.8059647480602], [174.996932323151, -36.805982634952], [174.996967718375, -36.8060794375655], [174.997068664943, -36.8061865406544], [174.997040494597, -36.8062345312892], [174.997051817668, -36.806246571943], [174.997101282808, -36.8062991719309], [174.997095253196, -36.8063513143392], [174.997124750702, -36.8063908624966], [174.997166631236, -36.8064433825674], [174.997163527427, -36.806453602462], [174.997150649976, -36.806496019339], [174.997177875984, -36.8066015901216], [174.997190483587, -36.8066238959058], [174.99721194595, -36.8066618566115], [174.997178050128, -36.8066985877787], [174.997167127171, -36.8067209761149], [174.99710817531, -36.8068417928976], [174.997077598063, -36.8069631631938], [174.997066171064, -36.8070188311842]], [[174.987930597151, -36.8055234507866], [174.987926909773, -36.8054971939578], [174.987976167415, -36.8054546933264], [174.987987473093, -36.8054449259634], [174.987959235553, -36.8053734170889], [174.987925888502, -36.8052313167854], [174.987924053975, -36.805181829945], [174.987907244031, -36.805145400346], [174.987934065397, -36.8050967015855], [174.987982892268, -36.8050462648386], [174.987985131612, -36.8050169606906], [174.98798786663, -36.8049811218089], [174.988085878511, -36.8048370709265], [174.988096690749, -36.8047940982314], [174.98816725185, -36.8047297141803], [174.988193992502, -36.8046727921837], [174.988288054308, -36.8045997472468], [174.988430965179, -36.8043430374969], [174.988445527024, -36.8042664198414], [174.988479438846, -36.8041800904044], [174.988498361297, -36.8041064435569], [174.988531464113, -36.8040466471214], [174.988591968306, -36.8039340888406], [174.988600974128, -36.8038627205417], [174.988650145632, -36.8038366584201], [174.988683758294, -36.8038146916538], [174.988766078476, -36.803709389897], [174.988778905672, -36.8036732713062], [174.988812885425, -36.8036362535599], [174.98886682422, -36.8036119917488], [174.988867365635, -36.8036117339275], [174.98892620622, -36.8035926880344], [174.988961678417, -36.8035433080348], [174.988969538984, -36.8034794145735], [174.98896063467, -36.8034273222394], [174.988967300777, -36.8034662909707]], [[174.988538050241, -36.8093195797927], [174.988541864639, -36.8093096988371], [174.988522774184, -36.8092677941517], [174.988526033892, -36.8092421485176], [174.988507230508, -36.8092153685426], [174.98850171487, -36.8092127829896], [174.988478715337, -36.809202011197], [174.988464420584, -36.809191101007], [174.988459341255, -36.809167641752], [174.988452181218, -36.8091235897475], [174.988433048008, -36.8090958869194], [174.988381595393, -36.8090552616919], [174.988377003297, -36.8090516322821], [174.98836650213, -36.8090412571023], [174.988352339477, -36.8090272621822], [174.988341050931, -36.8089882689161], [174.988339143829, -36.8089336548313], [174.988321685942, -36.8088963988381], [174.988316540537, -36.8088898818456], [174.988279180761, -36.8088426070821], [174.988273755016, -36.8088357387559], [174.988238291641, -36.8087530952027], [174.988235104735, -36.808745678383], [174.988234556999, -36.8087443499885], [174.988226544843, -36.8086999787294], [174.988182629159, -36.8086556545314], [174.988168008601, -36.8086143753475], [174.988164370443, -36.8086041161061], [174.988164321897, -36.8086039727071], [174.988157861056, -36.8085857299325], [174.988143139472, -36.8085607383429], [174.988142044323, -36.8085588738057], [174.988181470546, -36.8085173883486], [174.988178421357, -36.808504374745], [174.988165655224, -36.8084498512285], [174.988160157571, -36.8084263773209], [174.988147204497, -36.8083745491638], [174.98817565121, -36.8083038905123], [174.988172120534, -36.808276291726], [174.988168345132, -36.808246815081], [174.988179916927, -36.8082039865206], [174.98817160449, -36.8081757367368], [174.988166841611, -36.8081566615885], [174.988168154113, -36.8081331711277], [174.988212883383, -36.808081297614], [174.988206470234, -36.8080676273286], [174.988206452426, -36.8080675888698], [174.988196801619, -36.8080470082501], [174.988196776763, -36.8080469572907], [174.988171677638, -36.8079934349941], [174.988175601888, -36.807876428797], [174.988157196844, -36.8077751517867], [174.98817949153, -36.8077015748006], [174.988181813774, -36.8076989221414], [174.98818587196, -36.8076522282022], [174.988159352839, -36.8076016535213], [174.988115862232, -36.8075508552184], [174.988070101373, -36.8075168089018], [174.988044633729, -36.8075091382637], [174.988027664724, -36.8075040276492], [174.988026637589, -36.8075031885739], [174.988026773981, -36.8075020046654], [174.988053668141, -36.8074648487461], [174.988064611674, -36.8074497363074], [174.988020158525, -36.8074109920639], [174.988003538021, -36.807396515432], [174.987977180344, -36.8073735417659], [174.988014397082, -36.8073227051853], [174.987986357074, -36.8072513237344], [174.987977743143, -36.807202263938], [174.987975090206, -36.807133836085], [174.987957447733, -36.8070849543041], [174.987914814574, -36.8070177979824], [174.987909616401, -36.8069426167494], [174.98790199425, -36.8068945426253], [174.987875029132, -36.8068657124113], [174.987869254815, -36.8068595312873], [174.987863223948, -36.8067684016331], [174.987886572161, -36.8066806897318], [174.987917287861, -36.8066646247728], [174.9879219316, -36.806658511896], [174.987947234686, -36.8066211698941], [174.987948399322, -36.8065865848759], [174.987934127105, -36.8064666508139], [174.987909296687, -36.8063636767414], [174.987952572937, -36.8061530568514], [174.987980636412, -36.806016543531], [174.987980960832, -36.8060085875797], [174.987988645472, -36.8058223909818], [174.987933486463, -36.8055460661154], [174.987933454588, -36.8055458737664], [174.987930597151, -36.8055234507866], [174.987930574495, -36.8055232681979]], [[174.997066177971, -36.8070187950155], [174.997066171064, -36.8070188311842], [174.997061477245, -36.8070471924446], [174.997013646605, -36.8070818592978], [174.996922982241, -36.8071729452047], [174.996921711928, -36.807232559785], [174.996963625166, -36.807205513855], [174.997018979195, -36.8072290898926], [174.99697525328, -36.8073222688397], [174.996948615284, -36.8073315356889], [174.996889072612, -36.8073528812875], [174.996861139557, -36.807466678414], [174.996864480543, -36.8074930272608], [174.996870577119, -36.8075410966124], [174.996838815908, -36.8076097948717], [174.996785661655, -36.8076163254321], [174.996732026221, -36.8076231028998], [174.996714807533, -36.8076274750708], [174.996679713193, -36.8076367757362], [174.996629711457, -36.8076795348705], [174.996583577783, -36.8076930335778], [174.996541522791, -36.807743636762], [174.996482663476, -36.8077595465621], [174.996414011477, -36.8077794045143], [174.99634968789, -36.8078320463307], [174.996341160885, -36.8078590911173], [174.99632177188, -36.8079554267469], [174.996328197186, -36.8079235032781]], [[174.99632177188, -36.8079554267469], [174.996324745744, -36.8079905200371], [174.996323519898, -36.8080257099904], [174.996314771496, -36.8080520861106], [174.996266449178, -36.8080682028213], [174.996181309795, -36.8081132300617], [174.996135937282, -36.8081750435048], [174.99605300309, -36.8082362798562], [174.995965985587, -36.8082580718966], [174.995924747126, -36.8082540296627], [174.995903254429, -36.8082779193797], [174.995810847126, -36.808303795532], [174.995692046871, -36.8082948651026], [174.995624717296, -36.8083105958102], [174.995569949376, -36.808319885714], [174.995538005959, -36.8083217811149], [174.99550026679, -36.8083135889178], [174.995422773441, -36.8083609046068], [174.995341205715, -36.8084286511766], [174.995319319604, -36.8085316559465], [174.995248472613, -36.8085913549199], [174.995239039418, -36.8086110141299], [174.995238954953, -36.8086112147385], [174.995211946596, -36.8086663914723], [174.995225646119, -36.8086966134245], [174.995227890141, -36.808701751121], [174.995237264943, -36.8087266936389], [174.995230466138, -36.8087574615236], [174.995261007235, -36.8087960164891], [174.995305991448, -36.8088528024106], [174.995280721758, -36.8089748718239], [174.995274164644, -36.8089837309589], [174.995251222005, -36.8090147373562], [174.995183153843, -36.8090387470926]], [[174.995183445654, -36.8090385024448], [174.995191733555, -36.8091159675957], [174.995102529753, -36.809140507772], [174.995084762075, -36.8091855428051], [174.995091617065, -36.8092418790141], [174.995124880496, -36.8092617166502], [174.99513092232, -36.8093129794729], [174.995102183508, -36.8093484418856], [174.995087979684, -36.8094001039738], [174.994993301188, -36.8094703858281], [174.99495392717, -36.8094947548204]], [[174.994953352657, -36.809494429172], [174.994914281868, -36.8095206786168], [174.994842837565, -36.8095930833232], [174.994836907144, -36.8095931828393], [174.994822277162, -36.8095716822758], [174.994792016457, -36.809567776314], [174.994792365084, -36.8095850532075], [174.994797219173, -36.8096610446675], [174.994799180836, -36.809666402524], [174.994803440213, -36.8096779733551], [174.994802419625, -36.8096940185915], [174.994842812531, -36.8097411637281], [174.994911025567, -36.8098210023293], [174.99494242937, -36.8098744731963], [174.994939596135, -36.8099483827208], [174.994931953455, -36.8100252887127], [174.994911816472, -36.8100937544416], [174.994880712058, -36.8101254565498], [174.994852498796, -36.8101542340335], [174.994793076888, -36.81017545851], [174.994756059519, -36.8102253005564], [174.994738261855, -36.8102492425321], [174.994668627657, -36.8102633619807], [174.994621180079, -36.8102377937017], [174.994575128076, -36.8102058323845], [174.994553520514, -36.8101773428846], [174.994526651234, -36.8101590859787]], [[174.98845629946, -36.8098817866341], [174.988467536684, -36.8098700014181], [174.988484637323, -36.8098613313194], [174.988500785629, -36.8098528520039], [174.988535134841, -36.8098421403124], [174.988565408175, -36.8097926446032], [174.98853808585, -36.8097456824324], [174.98850164345, -36.8096956316714], [174.988452723512, -36.8096587271196], [174.988472569155, -36.8096314665011], [174.9884659873, -36.8096241506413], [174.988475525058, -36.809598756017], [174.988430815439, -36.8095740299328], [174.988426413991, -36.8095614797018], [174.988428983278, -36.8095261726802], [174.988432802051, -36.8095106539142], [174.988468089647, -36.809496271705], [174.988504073185, -36.8094811477772], [174.988534513683, -36.8094612539523], [174.988537404937, -36.8094330646548], [174.988511966936, -36.8093871390146], [174.988537825836, -36.809319397875]], [[174.98839522014, -36.8100478088629], [174.988390449231, -36.8099774326808], [174.988451776489, -36.8099323045188], [174.988468463958, -36.8098993012566]], [[174.994511442443, -36.8101680235334], [174.994511513713, -36.8101681782654], [174.994536092557, -36.8102211057867], [174.99448723433, -36.8102635483215], [174.994387327038, -36.8102140720883], [174.994387231238, -36.8102140088008], [174.994333198288, -36.8101650238232], [174.994330216608, -36.8101610485658], [174.994303431452, -36.8101054234186], [174.994301411375, -36.8101023063054], [174.99429723728, -36.8100978219784], [174.994296349168, -36.810097117627], [174.994141255418, -36.8100153075023], [174.99391715958, -36.8099531261376], [174.993690330988, -36.8099219603154], [174.993497644328, -36.8099159342843], [174.993469943449, -36.8099033306177], [174.993396346181, -36.8099021239925], [174.993344020362, -36.809916769921], [174.993152582332, -36.8099275977447], [174.993120966714, -36.8099205928154], [174.992695429334, -36.8100074022014], [174.992608861949, -36.8100557947458], [174.992556140484, -36.8100500438544], [174.992448325392, -36.8100771869601], [174.992405235951, -36.8100940490356], [174.992404949704, -36.8100941628925], [174.992404860886, -36.8100941959271], [174.992404825406, -36.8100942109429], [174.992404734301, -36.8100942422133], [174.992404685422, -36.8100942592562], [174.992404624359, -36.8100942819112], [174.992310563391, -36.8101310448616], [174.992272083665, -36.8101925989395], [174.992267221797, -36.8102823145713], [174.992185883684, -36.810355039452], [174.992129500987, -36.8104208151379], [174.99208261728, -36.8104889823446], [174.992015481904, -36.8105690527867], [174.991951444473, -36.8106155972772], [174.991854889375, -36.8107083599206], [174.991838074755, -36.8107236467817], [174.991827371821, -36.8107485933986], [174.99176512282, -36.8108209485771], [174.991756903354, -36.8108476499017], [174.99173014445, -36.810877108023], [174.991710290563, -36.8109153500503], [174.991717204585, -36.8109436860757], [174.99172295204, -36.8109672331211], [174.991706175371, -36.8109998192022], [174.99168452762, -36.8110861494902], [174.9916774714, -36.8111211901312], [174.991667911061, -36.8111686910685], [174.991432928235, -36.8113483385865], [174.991375626413, -36.8114049530144], [174.991298629249, -36.8114343864443], [174.991254493512, -36.8114803439207], [174.991244279417, -36.8115264190773], [174.991116676558, -36.8116234614956], [174.99099194384, -36.8116388414737], [174.990914097793, -36.8116298513194], [174.990670639351, -36.8117274752657], [174.990588679454, -36.8117834936672], [174.990517768669, -36.8117748954648], [174.990483723383, -36.8117865436203], [174.990434346506, -36.8118260080434], [174.990402886927, -36.8119105339213], [174.990392606074, -36.8119175650812], [174.990131116094, -36.8121375876403], [174.990000607915, -36.8122801868128], [174.989941092919, -36.8122939060881], [174.989923947214, -36.8122978623642], [174.989884669251, -36.8122646681995], [174.989842452229, -36.8122602671152], [174.9897891676, -36.8123041248112], [174.989768771167, -36.8123538475663], [174.989741131986, -36.8123538135731], [174.989738702446, -36.8123094175136], [174.989727702424, -36.8123046948637], [174.989725384659, -36.8123037133678], [174.989588365554, -36.8122788942038], [174.989539497116, -36.8122637669005], [174.989499574996, -36.8122294116747], [174.989464455548, -36.8122133052399], [174.989458248337, -36.8122104717305], [174.989412176546, -36.8121969388679], [174.989363776493, -36.8121461178092], [174.989325372335, -36.8121140598133], [174.989278511718, -36.8120874142187], [174.989177067595, -36.8120840301391], [174.989144565048, -36.8120533893442], [174.989092298004, -36.8120306349947], [174.989074507513, -36.811977323239], [174.989051774652, -36.8119210179821], [174.988977969903, -36.8118478067953], [174.988905814715, -36.8118226955901], [174.988860181208, -36.811804038398], [174.988805434179, -36.8117584716129], [174.988779543807, -36.8117349991269], [174.988767588503, -36.8117349837233], [174.988701538094, -36.8117349088953], [174.988697370698, -36.8117124366712], [174.98866984533, -36.8116980344277], [174.988625831902, -36.8116927706535], [174.988591726971, -36.8116889103034], [174.988513159242, -36.8117049187619], [174.988481749356, -36.811707741631], [174.9884751571, -36.811708262903], [174.988432240322, -36.811731045026], [174.98842642691, -36.8117307348716], [174.988355334818, -36.8117245205879], [174.98831588552, -36.811730031315], [174.988260927759, -36.8117244439203], [174.988244003828, -36.8116809887616], [174.988253353462, -36.8115856118254], [174.988264585171, -36.8115473883818], [174.988267454058, -36.811537524152], [174.988281087325, -36.8114685995295], [174.988292890987, -36.8114106727349], [174.988294547946, -36.8113621081859], [174.988295492942, -36.8113342488875], [174.988285699125, -36.8112622289014], [174.988277884137, -36.8111892258279], [174.988277183087, -36.8111827084111], [174.988272223795, -36.8111139766852], [174.988273290021, -36.8110541023707], [174.98828718086, -36.8109966102509], [174.988337520274, -36.8109168561465], [174.988369604516, -36.8108847815041]], [[174.988369863874, -36.8108848411595], [174.98841131389, -36.8108615337929], [174.988426952892, -36.8107736118846], [174.988405794368, -36.810729036031], [174.988406894862, -36.8106853947665], [174.988402741913, -36.810606715235], [174.988452780139, -36.8105370834071], [174.988480311406, -36.8105103116325], [174.988519157313, -36.8104741814846], [174.988544677462, -36.8104472315269], [174.988567804558, -36.8103904798792], [174.988580102585, -36.8103718196852], [174.988585197607, -36.8103117445757], [174.988563005376, -36.8102535112517], [174.988526429336, -36.8102131663238], [174.988506708743, -36.8101787594284], [174.988501648345, -36.8101318160387], [174.988455259765, -36.8100890421341], [174.98839522014, -36.8100478088629]]]}, "properties": {"OBJECTID": 4278, "TRACKNAME": "Park Point Walkway", "CONDITIONSOFUSE": "Park Point Walkway", "STATUS": "Open", "WEBLINK": null, "VALIDATIONSTATE": 3, "created_user": "AC_owner", "last_edited_user": "AC_owner", "last_edited_date": 1789875254325, "created_date": 1789875254325, "PARK_SAPSITEID": null, "TRACK_ID": null, "KAURIDIEBACK_TRACK": null, "KAURIDIEBACK_MITIGATED": null, "SegmentID": null, "GlobalID": "44ada37b-3380-4e72-bfc9-dc660db55666", "Shape__Length": 4093.6965438035118}}]}