{"type": "FeatureCollection", "features": [{"type": "Feature", "id": 12235, "geometry": {"type": "LineString", "coordinates": [[174.608047530717, -36.9424302212465], [174.608042734189, -36.9427100749594], [174.60799652999, -36.9429357322937], [174.607897280337, -36.943265150535], [174.607762185483, -36.9436250240233], [174.607640336944, -36.9438281801764], [174.607604741669, -36.9438715664865], [174.607406436903, -36.9439483694631], [174.607320094157, -36.9439975803989], [174.607274593545, -36.9440323846261], [174.607154483538, -36.9442088096898], [174.607142709487, -36.9443400346731], [174.607111642352, -36.9443953295017], [174.607054410423, -36.9444602533782], [174.606928059074, -36.944527257422], [174.606805928371, -36.9446342873441]]}, "properties": {"OBJECTID": 12235, "TRACKNAME": "Parker Track", "CONDITIONSOFUSE": "Waitakere Central Regional Park", "STATUS": "Open", "WEBLINK": "https://www.aucklandcouncil.govt.nz/en/parks-recreation/find-park-beach/park-detail/204.html", "VALIDATIONSTATE": 3, "created_user": "AC_owner", "last_edited_user": "AC_owner", "last_edited_date": 1789875254325, "created_date": 1789875254325, "PARK_SAPSITEID": null, "TRACK_ID": null, "KAURIDIEBACK_TRACK": null, "KAURIDIEBACK_MITIGATED": null, "SegmentID": null, "GlobalID": "4208bec4-95c7-4ef0-b45d-73443fb43963", "Shape__Length": 283.21826733663914}}]}