{"type": "FeatureCollection", "features": [{"type": "Feature", "id": 12180, "geometry": {"type": "LineString", "coordinates": [[175.024057426552, -36.8786646524207], [175.024028070593, -36.8786389066637], [175.023984238006, -36.8786066387674], [175.023953835307, -36.8785871388272], [175.023915919695, -36.8785614126945], [175.023874117818, -36.8785274427481], [175.023845759965, -36.8784859522063], [175.023811076502, -36.8784628117905], [175.02360689391, -36.8783878137131], [175.023561043269, -36.8783721640036], [175.023487509135, -36.8783405640924], [175.023425468057, -36.878314239281], [175.023361065719, -36.8782843133913], [175.02331028832, -36.8782541463919], [175.023253958366, -36.8781857505408], [175.023134384332, -36.8780454262275], [175.0230899922, -36.8779987286448], [175.023069019325, -36.8779790047863], [175.02304602203, -36.8779684455983], [175.022901990392, -36.8779343955781], [175.022735069118, -36.8778934345759], [175.02255173422, -36.8778414053851], [175.022411842513, -36.8777839495415], [175.022329263056, -36.8777543325327], [175.0222146624, -36.8777161303599], [175.022169004893, -36.8777077773694], [175.022118902182, -36.8777031593181], [175.022064161331, -36.8776949609033], [175.022018407862, -36.8776829682231], [175.021970137283, -36.8776618881672], [175.021923950733, -36.8776334720647], [175.021858875765, -36.8775779958313], [175.021830422902, -36.8775328471088], [175.02180670441, -36.8774949273721], [175.021789996238, -36.8774641798633], [175.021761880323, -36.8774318058676], [175.021731584204, -36.8774031192471], [175.02167833916, -36.8773656929689], [175.021634429333, -36.8773372380028], [175.021590748954, -36.8773179093173], [175.021553982655, -36.8773021042229], [175.021494604521, -36.8772903431882], [175.021419132369, -36.8772715464112], [175.021361982497, -36.8772579177477], [175.021321059616, -36.8772567934329], [175.021223360192, -36.877256626122], [175.021104447638, -36.8772616416122], [175.021054718179, -36.8772647859913], [175.020990598736, -36.8772744662562], [175.020915200734, -36.8772874208131], [175.020881565569, -36.877304423763], [175.020830351729, -36.8773436183961], [175.020752357692, -36.8774015289596], [175.020712251997, -36.8774314133977], [175.020676639978, -36.8774594007532], [175.020663784253, -36.8774888216556], [175.020632857983, -36.8775222002066], [175.020579607936, -36.8775705595718], [175.020486048406, -36.8776415061857], [175.02041047436, -36.8777048462813], [175.02025430349, -36.8778133603564], [175.020143020526, -36.8779010388755], [175.020091554476, -36.8779311162949], [175.020021932794, -36.8779615024189], [175.019956553159, -36.8779808655351], [175.019853199536, -36.8780246056114], [175.019745483037, -36.8780632913604], [175.019563233304, -36.8781426941937], [175.019517800918, -36.8781616278251], [175.019479665635, -36.8781798875949], [175.019447743436, -36.8781963562954], [175.019431332745, -36.8782075410412], [175.019416042143, -36.8782212123677], [175.019406286148, -36.8782473718049], [175.019402556094, -36.8782642084707], [175.019402997694, -36.8782809742215], [175.01941211258, -36.8783569794184], [175.019415253988, -36.8783897785278], [175.019427708027, -36.8784315495317], [175.01943789682, -36.8784733590419], [175.019450361864, -36.8785151208425], [175.019459177897, -36.8785495359593], [175.01946543417, -36.878576216342], [175.019471907404, -36.8786107073367], [175.019474120693, -36.8786419179006], [175.01947506089, -36.8786776115586], [175.019478624103, -36.8787076815573], [175.019484979653, -36.878737704086], [175.019496581237, -36.8787564792953], [175.019506597971, -36.8787674761586], [175.019513803923, -36.8787773941758], [175.01951976621, -36.8787929124031], [175.019519051508, -36.8788185936738], [175.019515596323, -36.8788454391494], [175.019503632655, -36.8788657325867], [175.019484774781, -36.8788883694439], [175.019466122876, -36.87891882611], [175.019424169767, -36.8789608280074], [175.019387650197, -36.8789982760728], [175.01936590488, -36.8790165005439], [175.01931699907, -36.8790586296063], [175.019282720412, -36.8790759494952], [175.019247033201, -36.8790921847139], [175.019203072393, -36.8791107867735], [175.019181033255, -36.8791178580697], [175.019135505558, -36.8791297900536], [175.019109470993, -36.8791436259316], [175.019077973385, -36.879160898493], [175.019056227948, -36.8791791229107], [175.019030663356, -36.8792108056044], [175.019004757637, -36.8792291097349], [175.018978722777, -36.8792429365767], [175.018940136844, -36.8792547595188], [175.018886100548, -36.8792601393312], [175.018852918571, -36.8792662823233], [175.018817319189, -36.8792858597578], [175.018762567908, -36.8793169207871], [175.018655523508, -36.8793667342596], [175.018566463711, -36.8794139977919], [175.01849369783, -36.8794464824247], [175.018429252903, -36.8794788256307], [175.018407478046, -36.8794959418284], [175.018379043697, -36.8795243202965], [175.018357562444, -36.8795525896336], [175.018342787799, -36.8795718131012], [175.018325672431, -36.8796078135421], [175.01831022329, -36.8796538352046], [175.018300196379, -36.8796952942754], [175.018291618856, -36.8797389639526], [175.018292676179, -36.8797791260965], [175.018291766656, -36.8797969963707], [175.018289484748, -36.8798160075781], [175.018292970793, -36.8798427350881], [175.018293881072, -36.8798773116483], [175.018304121383, -36.8798972277171], [175.018314783944, -36.8799327561991], [175.018315577069, -36.8799628823101], [175.018312121191, -36.8799897187512], [175.018311083055, -36.8800031297582], [175.018300674488, -36.8800300933401], [175.018295446399, -36.8800424579189], [175.018284714789, -36.8800571512354], [175.018282297276, -36.8800705856779], [175.018280073942, -36.8800918221087], [175.018280866822, -36.8801219392105], [175.018282012383, -36.8801654527017], [175.018280141493, -36.8802000765127], [175.018275442056, -36.8802325221613], [175.018266306399, -36.8802549936482], [175.01825552715, -36.880267452539], [175.018232625657, -36.8802946283673], [175.018220503411, -36.8803093453046], [175.0181977487, -36.8803420977006], [175.018183649322, -36.8803869787967], [175.018171028509, -36.880435178607], [175.018168248252, -36.8804876816979], [175.018179281471, -36.8805377148757], [175.01818417997, -36.8805635441253], [175.018201703672, -36.8805975950789], [175.018216367986, -36.8806133801255], [175.018216389703, -36.8806133527174], [175.01824901866, -36.8806454165275], [175.018267200283, -36.8806656753644], [175.018282447899, -36.8806746366387], [175.018303007495, -36.8806842196883], [175.018334116097, -36.8806921994414], [175.018348235138, -36.8806919595493], [175.018367647416, -36.8806916297188], [175.018395036792, -36.8806925793916], [175.018414497761, -36.8806936727853], [175.018435801411, -36.880698276988], [175.018451905044, -36.8807065116655], [175.018460824068, -36.8807099022385], [175.018480684429, -36.880726590395], [175.018483332816, -36.8807274647233], [175.018488915407, -36.8807370859139], [175.018501635929, -36.8807510562808], [175.018522176832, -36.8807599275797], [175.0185445529, -36.8807715977835], [175.018571179776, -36.8807768235364]]}, "properties": {"OBJECTID": 12180, "TRACKNAME": "Perimeter Walk", "CONDITIONSOFUSE": "Omana Regional Park", "STATUS": "Open", "WEBLINK": null, "VALIDATIONSTATE": 3, "created_user": "AC_owner", "last_edited_user": "AC_owner", "last_edited_date": 1789875254325, "created_date": 1789875254325, "PARK_SAPSITEID": null, "TRACK_ID": null, "KAURIDIEBACK_TRACK": null, "KAURIDIEBACK_MITIGATED": null, "SegmentID": null, "GlobalID": "ed869591-bace-4893-bbcd-d14f7febb11c", "Shape__Length": 874.8735429433367}}]}