{"type": "FeatureCollection", "features": [{"type": "Feature", "id": 1558, "geometry": {"type": "LineString", "coordinates": [[174.774343211019, -36.4438566694244], [174.774364040164, -36.443891433174], [174.774395180508, -36.4439395285389], [174.774429482447, -36.4439794823229], [174.774433933984, -36.4440279745003], [174.774437944583, -36.4440575979377], [174.774445116539, -36.444079070792], [174.774465811693, -36.4441084371335], [174.774506487277, -36.444134811194], [174.774547520386, -36.4441773690498], [174.774581453853, -36.4442011391397], [174.774632133699, -36.4442273643924]]}, "properties": {"OBJECTID": 1558, "TRACKNAME": "Pigsty Track", "CONDITIONSOFUSE": "Scandrett Regional Park", "STATUS": "Open", "WEBLINK": "https://www.aucklandcouncil.govt.nz/en/parks-recreation/find-park-beach/park-detail/225.html", "VALIDATIONSTATE": 3, "created_user": "AC_owner", "last_edited_user": "AC_owner", "last_edited_date": 1789875254325, "created_date": 1789875254325, "PARK_SAPSITEID": null, "TRACK_ID": null, "KAURIDIEBACK_TRACK": null, "KAURIDIEBACK_MITIGATED": null, "SegmentID": null, "GlobalID": "08aadf29-2598-4d6c-845e-a58f1ad674bb", "Shape__Length": 50.70549649819043}}, {"type": "Feature", "id": 1580, "geometry": {"type": "LineString", "coordinates": [[174.773926668975, -36.4426456123218], [174.773968861506, -36.442667114507], [174.774012747907, -36.4426880416441], [174.774053411429, -36.4427144160553], [174.774090924585, -36.4427489318498], [174.77412158397, -36.4427754459402], [174.774166207579, -36.4428287403204], [174.77419734735, -36.4428768357601], [174.774214903046, -36.4429143524074], [174.774226330706, -36.4429762258227], [174.774225871658, -36.4431030324717], [174.774215838293, -36.4432488567563], [174.774218233795, -36.4433540414667], [174.774215943255, -36.4433999387083], [174.774217233052, -36.4434565724692], [174.774224957746, -36.4435023208154], [174.774239290278, -36.4435452667247], [174.774272931844, -36.4436551879617], [174.77429050446, -36.4437414429881], [174.774322013294, -36.4438057220235], [174.774343211019, -36.4438566694244]]}, "properties": {"OBJECTID": 1580, "TRACKNAME": "Pigsty Track", "CONDITIONSOFUSE": "Scandrett Regional Park", "STATUS": "Open", "WEBLINK": "https://www.aucklandcouncil.govt.nz/en/parks-recreation/find-park-beach/park-detail/225.html", "VALIDATIONSTATE": 3, "created_user": "AC_owner", "last_edited_user": "AC_owner", "last_edited_date": 1789875254325, "created_date": 1789875254325, "PARK_SAPSITEID": null, "TRACK_ID": null, "KAURIDIEBACK_TRACK": null, "KAURIDIEBACK_MITIGATED": null, "SegmentID": null, "GlobalID": "5636b1a4-d7c7-4d6f-8de8-ac31f79381b6", "Shape__Length": 146.6791890908517}}]}