{"type": "FeatureCollection", "features": [{"type": "Feature", "id": 12204, "geometry": {"type": "LineString", "coordinates": [[174.469119589197, -36.9531959535603], [174.468616013394, -36.9530738613935], [174.468134496663, -36.9527859599942], [174.46786528753, -36.952113418047], [174.467485702712, -36.9514128532601], [174.467182716761, -36.9508876553345], [174.466951254447, -36.9502734155064], [174.466938294386, -36.9495977047484], [174.466999106715, -36.9489504679486], [174.467137068487, -36.9485079771975], [174.467191409222, -36.9481274421684], [174.467172682535, -36.9478764424415], [174.467027283167, -36.9475488475289], [174.466755747209, -36.9471725638846], [174.466409003033, -36.9468642044379], [174.46613329987, -36.9466331262171], [174.465741633006, -36.946380054137], [174.465406580231, -36.9460903327476], [174.465327891073, -36.9454478492362], [174.465374273049, -36.9446570837968], [174.465610873423, -36.9441602928349], [174.465850307982, -36.9438116280137], [174.46590141466, -36.9432677393366], [174.466202359654, -36.9429183144072], [174.466814313149, -36.9430000712958]]}, "properties": {"OBJECTID": 12204, "TRACKNAME": "Piha Beach", "CONDITIONSOFUSE": "LES WAYGOOD PARK", "STATUS": "Open", "WEBLINK": null, "VALIDATIONSTATE": 3, "created_user": "AC_owner", "last_edited_user": "AC_owner", "last_edited_date": 1789875254325, "created_date": 1789875254325, "PARK_SAPSITEID": null, "TRACK_ID": null, "KAURIDIEBACK_TRACK": null, "KAURIDIEBACK_MITIGATED": null, "SegmentID": null, "GlobalID": "1de69ede-db0c-4541-94c6-8b67fa993a55", "Shape__Length": 1349.505070961794}}]}