{"type": "FeatureCollection", "features": [{"type": "Feature", "id": 10, "geometry": {"type": "LineString", "coordinates": [[174.484545618907, -36.9520892018353], [174.484746590812, -36.9519417942667], [174.484828073016, -36.9518605257982], [174.484851354604, -36.951814599398], [174.48485599294, -36.9516852585221], [174.484874649838, -36.9516307828138], [174.485061075849, -36.9513702351461], [174.485093322398, -36.9513521713482], [174.485182120923, -36.9513333280418], [174.485216505538, -36.95131716098], [174.485383351479, -36.9511603119809], [174.485892531659, -36.9508036385261], [174.48607672887, -36.950738349362], [174.486192096678, -36.9507119717432], [174.486451972284, -36.9507462982372], [174.486666060201, -36.9507901940215], [174.486769646902, -36.9507906230453], [174.486994485249, -36.9507044427643], [174.487215383619, -36.9505881273869], [174.487378582646, -36.9505341725109], [174.487555785759, -36.950498044931], [174.487601082897, -36.9504795988189], [174.487797444629, -36.9502446104499], [174.487859950714, -36.9500820383864], [174.487887584001, -36.9499391817091], [174.487951738069, -36.9498538359671], [174.487953966806, -36.9498129960085], [174.487925718341, -36.949631599572], [174.487937080363, -36.9495114737112], [174.487954155385, -36.9494638578137], [174.488190992889, -36.9492678458607], [174.488228987472, -36.9492557672523], [174.488406409351, -36.9492283996626], [174.48878576282, -36.949063102236], [174.488817187975, -36.9490191478998], [174.488921765819, -36.9487737404271], [174.489101303908, -36.9486306351738], [174.489148770877, -36.9486209234411], [174.489317606073, -36.9486342551944], [174.489501795789, -36.9485612154302], [174.489551455515, -36.9485563253755], [174.489758152538, -36.9486192956237], [174.48994997691, -36.9487031042273], [174.490099787539, -36.9487475904319], [174.49019694559, -36.9487551179053], [174.490332069816, -36.9487285045588], [174.490420013707, -36.9487293656321], [174.490703065463, -36.9488334992423], [174.490793953826, -36.9488505954172], [174.491049328112, -36.9487894534344], [174.491088149772, -36.9487607315371], [174.4912124937, -36.9486263474282], [174.491300710478, -36.9485929426258], [174.491429179758, -36.9485618804592], [174.491618187725, -36.9485440882864], [174.491920602192, -36.9484641891636], [174.492313572334, -36.9484404419213]]}, "properties": {"OBJECTID": 10, "TRACKNAME": "Piha Valley Track", "CONDITIONSOFUSE": "Waitakere West Regional Park", "STATUS": "Closed Dieback", "WEBLINK": "https://www.aucklandcouncil.govt.nz/en/parks-recreation/find-park-beach/park-detail/3451.html", "VALIDATIONSTATE": 3, "created_user": "AC_owner", "last_edited_user": "AC_owner", "last_edited_date": 1789875254325, "created_date": 1789875254325, "PARK_SAPSITEID": null, "TRACK_ID": null, "KAURIDIEBACK_TRACK": null, "KAURIDIEBACK_MITIGATED": null, "SegmentID": null, "GlobalID": "44e3c2b8-1780-4bf3-a41d-e1e6d08ad851", "Shape__Length": 931.8309164468279}}, {"type": "Feature", "id": 300, "geometry": {"type": "LineString", "coordinates": [[174.492313572334, -36.9484404419213], [174.49266903259, -36.9486386907586], [174.492762113765, -36.9486831431326], [174.493107813572, -36.9487755308333], [174.493173727956, -36.9487812791772], [174.493318724902, -36.9487777898932], [174.493856590269, -36.9487266054896], [174.494160715485, -36.9487148214419], [174.494440927827, -36.9487131561681], [174.494724401057, -36.9487962342676], [174.495026496525, -36.948852851991], [174.495469135043, -36.9490047496894], [174.495603872713, -36.9490388493502], [174.495851438446, -36.9490427081072], [174.496131377984, -36.9489966689845], [174.496502842889, -36.9489750338475], [174.496554325133, -36.9489656119712], [174.49664491149, -36.9489315045363], [174.496691315368, -36.9489248407936], [174.496740969627, -36.9489459692971], [174.496880325638, -36.9490671748484], [174.496908264178, -36.9490805197546], [174.496942580201, -36.9490609709719], [174.497072422023, -36.9489275264445], [174.497106196007, -36.9489082900122], [174.497138651281, -36.9489282272792], [174.497285654863, -36.9490930421835], [174.497329063278, -36.9491254270233], [174.497388922668, -36.949125145338], [174.497604872167, -36.9490882482615], [174.497796494439, -36.9490081262837], [174.497894078917, -36.948995687657], [174.498378237385, -36.9490834530535], [174.498404276481, -36.949104676065], [174.498442928448, -36.9492097614767], [174.498461348248, -36.949222697944], [174.49862050606, -36.9491249183107], [174.498682123329, -36.9491155406514], [174.498735638366, -36.9491470537747], [174.498758901632, -36.9491449619018], [174.499059926396, -36.9489991877713], [174.499116510501, -36.9489870260242], [174.499163239874, -36.9490036250262], [174.499416417603, -36.9491274518879], [174.499469668446, -36.9491344175542], [174.49967114498, -36.9491350727722], [174.499851063837, -36.9491857940371], [174.500094226011, -36.9493246382902], [174.500175908234, -36.9494243688629], [174.500212207017, -36.9494424449728], [174.500245602329, -36.949439888577], [174.500279848682, -36.9494223777017], [174.500470728974, -36.9492770606281], [174.500505976664, -36.9492661178936], [174.500544568298, -36.9492737550711], [174.500672205809, -36.9493303718313], [174.500711199627, -36.9493576454963], [174.500722851233, -36.9493874658777], [174.500734428774, -36.9494886040233], [174.500750657215, -36.9495159256571], [174.500813497032, -36.949546986461], [174.50096275366, -36.9496000432498], [174.500988006296, -36.949597284019], [174.501009160813, -36.9495823874455], [174.501154140959, -36.9494164602823], [174.501197349321, -36.9493806562232], [174.50126785469, -36.9493677540829], [174.501493215425, -36.9493575303], [174.501533294968, -36.9493801416272], [174.501619328379, -36.9494715055832], [174.501740882316, -36.94964365924], [174.501772004681, -36.949676110394], [174.501889928772, -36.9497311523183], [174.501981310955, -36.9497270687138], [174.501997010042, -36.9497375891348], [174.502041589695, -36.9499686243193], [174.502032916211, -36.9500868190225], [174.502038299217, -36.9501070153856], [174.502073179068, -36.9500986078687], [174.50231857165, -36.9499754712121], [174.502368632124, -36.9499577073592], [174.50237903731, -36.9499618283306], [174.502387304225, -36.9499796716804], [174.502411159067, -36.9501242586522], [174.502434045832, -36.9501451826394], [174.502478036429, -36.9501540100666], [174.502502185359, -36.9501502288124], [174.502524831312, -36.9501263084733], [174.502606011835, -36.9499379750109], [174.502629787927, -36.9499007010661], [174.50266194031, -36.9498855784833], [174.502775488398, -36.9498696672611], [174.502820085118, -36.949851678529], [174.50300875664, -36.9496612522875], [174.503086689658, -36.9495631392565], [174.503171660865, -36.9494276106923], [174.503180069881, -36.9493872502244], [174.503161177507, -36.9493615102982], [174.50308046217, -36.9492946576399], [174.503042324967, -36.9492472951357], [174.503005609481, -36.9491590657114], [174.503002969271, -36.9491096917732], [174.503033809659, -36.9490650867639], [174.503292512095, -36.9487879582762], [174.503330432681, -36.9487635099825], [174.503381732405, -36.9487605096818]]}, "properties": {"OBJECTID": 300, "TRACKNAME": "Piha Valley Track", "CONDITIONSOFUSE": "Waitakere West Regional Park", "STATUS": "Closed Dieback", "WEBLINK": "https://www.aucklandcouncil.govt.nz/en/parks-recreation/find-park-beach/park-detail/3451.html", "VALIDATIONSTATE": 3, "created_user": "AC_owner", "last_edited_user": "AC_owner", "last_edited_date": 1789875254325, "created_date": 1789875254325, "PARK_SAPSITEID": null, "TRACK_ID": null, "KAURIDIEBACK_TRACK": null, "KAURIDIEBACK_MITIGATED": null, "SegmentID": null, "GlobalID": "35b986ca-fba5-4d7e-81f7-cdd149814f64", "Shape__Length": 1309.9438650843622}}]}