{"type": "FeatureCollection", "features": [{"type": "Feature", "id": 329, "geometry": {"type": "LineString", "coordinates": [[174.478604087993, -36.9669080201955], [174.478642346472, -36.9669462752814], [174.478680496832, -36.9669795201165], [174.478737512959, -36.96702001126], [174.478931918621, -36.9671399135965], [174.479140518697, -36.9672671110529], [174.479473294183, -36.9674751633195], [174.479595013782, -36.9675510373975], [174.479746850656, -36.9676490069378], [174.479874995415, -36.9677335438602], [174.480022942426, -36.9678678594521], [174.480162075712, -36.9680273156208], [174.480220793113, -36.9681103291888], [174.480317306957, -36.9682453578217], [174.480455949056, -36.9684536195813], [174.480558793627, -36.9685935716187], [174.480717612535, -36.9687977956719], [174.480837143529, -36.9689512851074], [174.480918828931, -36.9690502363319], [174.480981252647, -36.9691244329899], [174.481044864564, -36.9691811012948], [174.481127402511, -36.9692475025068], [174.481203407541, -36.9693002393811], [174.481295048923, -36.9693552598392], [174.481384961411, -36.9694027934421], [174.481479376203, -36.969441509534], [174.481576685458, -36.9694701752764], [174.481681704653, -36.9694949770062], [174.481767773369, -36.9695087842031], [174.481906765658, -36.9695180998789], [174.481998790912, -36.9695193035972], [174.482158492855, -36.9695133076606], [174.482318631753, -36.9694910364442], [174.482487946441, -36.9694611420645], [174.482607662956, -36.9694444409284], [174.482736939706, -36.969437616379], [174.482863213964, -36.969435840775], [174.482977203661, -36.9694429977818], [174.483180240573, -36.969457668176], [174.483315395503, -36.969469526922], [174.483541765549, -36.9694813632916], [174.483795647459, -36.9694677974502], [174.483968359781, -36.9694503513886], [174.48410199418, -36.9694284451538], [174.484189130799, -36.9694197121742], [174.484275882437, -36.9693934704582], [174.484384855713, -36.9693494012714], [174.484448057357, -36.9693159816072], [174.48467309777, -36.9691951968628], [174.484987614048, -36.9690306128884], [174.485195661214, -36.9689175751346], [174.485369904348, -36.9688275391498], [174.485566886337, -36.9687434377578], [174.485673606227, -36.9687031542825], [174.485794316715, -36.9686614066541], [174.486011167646, -36.9685945422887], [174.486432630998, -36.9684709887811], [174.486696776871, -36.9683922008209], [174.48710427342, -36.9682726055858], [174.487426556088, -36.968177971848], [174.487706094298, -36.968090200502], [174.487894973185, -36.9680274780069], [174.488125460869, -36.9679428983609], [174.488349715482, -36.9678584144465], [174.48854850548, -36.9677855435012], [174.488655379641, -36.9677527547706], [174.488791987345, -36.9677245505441], [174.489004933193, -36.9676927656973], [174.489196615576, -36.9676875579987], [174.489500615846, -36.9676845281759], [174.489572260117, -36.9676501886486]]}, "properties": {"OBJECTID": 329, "TRACKNAME": "Piha Road", "CONDITIONSOFUSE": null, "STATUS": "Open", "WEBLINK": null, "VALIDATIONSTATE": 3, "created_user": "AC_owner", "last_edited_user": "AC_owner", "last_edited_date": 1789875254325, "created_date": 1789875254325, "PARK_SAPSITEID": null, "TRACK_ID": null, "KAURIDIEBACK_TRACK": null, "KAURIDIEBACK_MITIGATED": null, "SegmentID": null, "GlobalID": "05edda08-055d-4b9e-b6c6-4daadd982a84", "Shape__Length": 1153.9731498894819}}]}