{"type": "FeatureCollection", "features": [{"type": "Feature", "id": 245, "geometry": {"type": "LineString", "coordinates": [[174.601715998516, -36.9992228161872], [174.601731100283, -36.9992971896444], [174.601777098521, -36.9993439074183], [174.601907824126, -36.9993748706677], [174.602146191622, -36.9995314882203], [174.602220863814, -36.9995629735336], [174.602353911985, -36.999598555866]]}, "properties": {"OBJECTID": 245, "TRACKNAME": "Pine Ave Carpark to Beach", "CONDITIONSOFUSE": "Waitakere South Regional Park", "STATUS": "Open", "WEBLINK": "https://www.aucklandcouncil.govt.nz/en/parks-recreation/find-park-beach/park-detail/212.html", "VALIDATIONSTATE": 3, "created_user": "AC_owner", "last_edited_user": "AC_owner", "last_edited_date": 1789875254325, "created_date": 1789875254325, "PARK_SAPSITEID": null, "TRACK_ID": null, "KAURIDIEBACK_TRACK": null, "KAURIDIEBACK_MITIGATED": null, "SegmentID": null, "GlobalID": "c972719c-2bdd-447d-b13f-8b382ad17075", "Shape__Length": 74.51175826744101}}]}