{"type": "FeatureCollection", "features": [{"type": "Feature", "id": 2496, "geometry": {"type": "LineString", "coordinates": [[174.599244050752, -36.9566287314964], [174.599184988573, -36.9565322442419], [174.599149391361, -36.9564326557091], [174.599135515198, -36.9563727855753], [174.599190916236, -36.956251808053], [174.599242777072, -36.9561575762231], [174.59931112642, -36.9560564161954], [174.599444332292, -36.9558841941367], [174.599495508187, -36.9557599293804], [174.599587843842, -36.9556183629298], [174.59966340027, -36.9554703795347], [174.599702484413, -36.95536298867], [174.599675449834, -36.9552732808891], [174.599606272164, -36.9551608409922], [174.599517170017, -36.9550854175956], [174.599440321316, -36.9549997970058], [174.599426456457, -36.95493992674], [174.599482852894, -36.9548623086984], [174.599602563531, -36.9547070604503], [174.599662666482, -36.9547261074096], [174.599804010195, -36.9547239775121], [174.599985921081, -36.9546778555931], [174.60015542767, -36.9546352536133], [174.600342118211, -36.954615755749], [174.600512563661, -36.9546131966669], [174.600637987359, -36.9545791562315], [174.600763655357, -36.954502604635], [174.600932071013, -36.9544132992157], [174.601149928085, -36.9543032086118], [174.601418585544, -36.9542324163369], [174.601617667409, -36.9542093963057], [174.60179557249, -36.9541699956729], [174.601916040751, -36.9541648459733], [174.601991185091, -36.954177063866], [174.602158182976, -36.9542045909908], [174.602362115129, -36.9542115282711], [174.60251108076, -36.9541792502483], [174.602642861345, -36.9541238590252], [174.602762319374, -36.9540753400673], [174.602952383785, -36.954022406516], [174.603084012748, -36.9539603468553], [174.603243570201, -36.9538478037867], [174.603423444278, -36.9537149220403]]}, "properties": {"OBJECTID": 2496, "TRACKNAME": "Pipeline Road", "CONDITIONSOFUSE": "Waitakere Central Regional Park", "STATUS": "Temp Closed", "WEBLINK": "https://www.aucklandcouncil.govt.nz/en/parks-recreation/find-park-beach/park-detail/204.html", "VALIDATIONSTATE": 3, "created_user": "AC_owner", "last_edited_user": "AC_owner", "last_edited_date": 1789875254325, "created_date": 1789875254325, "PARK_SAPSITEID": null, "TRACK_ID": null, "KAURIDIEBACK_TRACK": null, "KAURIDIEBACK_MITIGATED": null, "SegmentID": null, "GlobalID": "eb2f33e7-34a0-48b7-bbde-5c0ab12bcbe6", "Shape__Length": 609.3704533449201}}, {"type": "Feature", "id": 3229, "geometry": {"type": "LineString", "coordinates": [[174.603423444278, -36.9537149220403], [174.603532599277, -36.9536408673747], [174.603594975165, -36.9535987384816], [174.603683518567, -36.9535546598005], [174.603929064649, -36.9534371289391], [174.604109356919, -36.9533638513806], [174.604272650147, -36.9532959445629], [174.604340289662, -36.953266468532], [174.604647874817, -36.9530806740567], [174.60472914168, -36.9529993463671], [174.604805707859, -36.9528947191394], [174.604916145571, -36.952816295958], [174.605011454429, -36.9528015142988], [174.605123157816, -36.952776451834], [174.605325447099, -36.9527133262172], [174.60552782849, -36.9526535340121], [174.60570100491, -36.9525908465241], [174.605820085639, -36.9525256366007], [174.606005746001, -36.9524627527774], [174.60622905908, -36.9524093191945], [174.606416056318, -36.9524031566983], [174.606537230655, -36.9524280258006], [174.606738585953, -36.9525017535449], [174.606897448737, -36.952537739645], [174.607058307359, -36.9525457746615], [174.607263752693, -36.9525522324012], [174.607388778565, -36.9525636904655], [174.607492394579, -36.9525487763239], [174.607629254048, -36.9525333488553], [174.607849517718, -36.9525266885676], [174.608028114248, -36.9525173113127], [174.608202079706, -36.952487986532], [174.608359206845, -36.9524488936277], [174.608462030654, -36.9524006033401], [174.608598598059, -36.9523718477362], [174.608801663562, -36.9523420737185], [174.608975243486, -36.9522960600185], [174.609156990866, -36.9522432473444], [174.609345522939, -36.9522145256659], [174.609503150463, -36.9521971289994], [174.609832420186, -36.9521404134449], [174.610140639544, -36.9520723280044], [174.610405475993, -36.9520165928581], [174.610591247838, -36.9519587119034], [174.610718910836, -36.9519050441618], [174.61084440408, -36.9518480797396], [174.61101551943, -36.9517854125152], [174.611122990356, -36.9517579231509], [174.611207748202, -36.9517366097227], [174.611327126362, -36.9516847392917], [174.611436691375, -36.9516580414536], [174.611552393173, -36.9516262487062], [174.611636871145, -36.9515932662832], [174.611726249483, -36.9515919087617], [174.611784765585, -36.9516043822525], [174.611922917517, -36.951644004825], [174.612069948622, -36.9517068606626], [174.612152034473, -36.9517490018626], [174.612214237888, -36.9518298285548], [174.612356206523, -36.9520312723053], [174.612484208719, -36.9521695135913], [174.612560595386, -36.952234274675], [174.612665611001, -36.9522794120187], [174.612792877193, -36.9522975039457], [174.61293617585, -36.9522903294013], [174.613079132194, -36.9522624021397], [174.613277127263, -36.95222448979], [174.613368799697, -36.9522070071431], [174.61353599315, -36.9521544035965], [174.613643446106, -36.9521260829566], [174.613782788505, -36.9521272986546], [174.613967590143, -36.9521161516193], [174.614201894548, -36.9520884134113], [174.614481511388, -36.9520424371703], [174.614745096889, -36.9520217628871], [174.614933970408, -36.9520072149606], [174.615188569611, -36.9519582874298], [174.61548646858, -36.9518936905956], [174.615767909603, -36.9518368522881], [174.615977177467, -36.9518053051085], [174.616268364787, -36.9517207786934], [174.61651163001, -36.9516319826987], [174.616690930859, -36.9515641753699], [174.616899086408, -36.9514859157421], [174.617014739002, -36.951452450866], [174.617161469439, -36.9514143442503], [174.617263168087, -36.9514061177143], [174.617368459697, -36.9513744881699], [174.617555879271, -36.9512982044186], [174.617714666842, -36.9512423925841], [174.617824427937, -36.9512240417161], [174.617978078295, -36.9511961512443], [174.618070761138, -36.9511769062026], [174.618098898226, -36.9511771221242], [174.618309949876, -36.9512241667785], [174.618415794656, -36.951260102962], [174.618514440078, -36.9512986609744], [174.61857440512, -36.9513286155665], [174.618643498918, -36.951361140706], [174.618689248228, -36.9513927852897], [174.618743375854, -36.9514403596463], [174.618804602056, -36.9514794816772], [174.618894083615, -36.9515265198274], [174.619000209985, -36.9515741331321], [174.619129360917, -36.951627660666], [174.619268677642, -36.9516722612487], [174.619392241319, -36.9517095953359], [174.619464328864, -36.9517243586214], [174.619528959677, -36.9517317153392], [174.619601699406, -36.9517306058922], [174.619680017259, -36.9517266801994], [174.619784530398, -36.9517240735794], [174.619889283694, -36.951730684396], [174.619959572934, -36.9517406046283], [174.620004654809, -36.9517566103747], [174.620049882661, -36.9517784458428], [174.620106774178, -36.9518101180975], [174.620156461405, -36.9518452416571], [174.620200216512, -36.9518929749067], [174.620260442167, -36.9519775829045], [174.620303204298, -36.9520505313946], [174.620365193695, -36.9521870960826], [174.62042558219, -36.952366821163], [174.620446302751, -36.9524516167158], [174.620482910348, -36.9525929083171], [174.62050944601, -36.9526600932389], [174.62054067534, -36.9527055095954], [174.620573870933, -36.9527467258564], [174.620617159202, -36.9527909410341], [174.620665393256, -36.9528364136648], [174.620904657623, -36.9530787288734], [174.620986630726, -36.9531528723331], [174.621153825923, -36.9533002313877], [174.621193587832, -36.9533232316713], [174.621232021648, -36.953341328711], [174.621300058859, -36.9533678456785], [174.621506441413, -36.9534384870386], [174.621563127813, -36.9534513952815], [174.621599686845, -36.9534419815934], [174.621647543979, -36.953444212231], [174.621741621497, -36.9534572856622], [174.62183009708, -36.9534667580411], [174.621906176995, -36.9534700271586], [174.622038733264, -36.9534773558644], [174.622106747919, -36.9534763184342], [174.622203486022, -36.9534723917586], [174.622246353176, -36.9534707514414], [174.622279486668, -36.9534724529173], [174.622327217711, -36.9534692678959], [174.622382228718, -36.9534630179342], [174.62243622629, -36.9534656420565], [174.622496479704, -36.9534735707267], [174.622552027116, -36.9534899552406], [174.622626094655, -36.9535121797258], [174.622700554042, -36.9535248174696], [174.622785454054, -36.9535377901711], [174.6228707806, -36.9535438706756], [174.623003378742, -36.9535531626692], [174.62308260284, -36.9535595788228], [174.62316200961, -36.9535746003071], [174.623301306345, -36.9536116340351], [174.623439558683, -36.9536454911045], [174.623534368867, -36.9536660703379], [174.623580571676, -36.9536697199071], [174.623614004571, -36.9536643593536], [174.623652926931, -36.9536514785755], [174.623701931392, -36.9536241645058], [174.623755925012, -36.9536012078021], [174.623838047458, -36.9535748648496], [174.623897775357, -36.9535606808951], [174.623953773306, -36.9535443215999], [174.623994347357, -36.9535235493434], [174.624018863533, -36.9535023567752], [174.624054116974, -36.9534335973651], [174.624077542577, -36.9533874974104], [174.624122657569, -36.953299746861], [174.624145734273, -36.9532647202286], [174.624171453269, -36.9532377695828], [174.624198606257, -36.9532196415449], [174.624231260743, -36.9532014382356], [174.624255254094, -36.9531794325445], [174.624279163791, -36.9531534890991], [174.62429425331, -36.9531178416206], [174.624289703022, -36.9531175451382]]}, "properties": {"OBJECTID": 3229, "TRACKNAME": "Pipeline Road", "CONDITIONSOFUSE": "Waitakere Central Regional Park", "STATUS": "Open", "WEBLINK": "https://www.aucklandcouncil.govt.nz/en/parks-recreation/find-park-beach/park-detail/204.html", "VALIDATIONSTATE": 3, "created_user": "AC_owner", "last_edited_user": "AC_owner", "last_edited_date": 1789875254325, "created_date": 1789875254325, "PARK_SAPSITEID": null, "TRACK_ID": null, "KAURIDIEBACK_TRACK": null, "KAURIDIEBACK_MITIGATED": null, "SegmentID": null, "GlobalID": "7e63638c-e233-4896-8be2-cc0c563461f6", "Shape__Length": 2135.469190647044}}]}