{"type": "FeatureCollection", "features": [{"type": "Feature", "id": 204, "geometry": {"type": "LineString", "coordinates": [[174.601967209932, -36.9533566978816], [174.601860561288, -36.9533674162907], [174.601851525934, -36.9533735772541], [174.601842453687, -36.9533795854849], [174.601833333129, -36.9533854321236], [174.601824152846, -36.9533911083106], [174.601814935669, -36.9533966317649], [174.601805670183, -36.953401993627], [174.601796356387, -36.9534071938969], [174.601786982864, -36.9534122237152], [174.601777572449, -36.9534171008007], [174.601768113724, -36.9534218162939], [174.601758595273, -36.9534263613355], [174.601749039929, -36.9534307536442], [174.601739436087, -36.9534349753497], [174.601729772896, -36.9534390446254], [174.601720072624, -36.9534429521573], [174.601710323854, -36.953446689086], [174.601700526964, -36.9534502734332], [174.601690670348, -36.9534536873287], [174.601680776839, -36.9534569484912], [174.601670823605, -36.953460039202], [174.601660878767, -36.9534629945959], [174.601651067528, -36.9534658941055], [174.601641423383, -36.9534687282656], [174.601631924066, -36.9534715063899], [174.601622580805, -36.9534742283272], [174.601613405015, -36.9534769029369], [174.601604373863, -36.9534795125001], [174.601595509995, -36.9534820657249], [174.601586790955, -36.9534845629141], [174.601578228158, -36.9534870129274], [174.601569832457, -36.9534893975914], [174.601561581582, -36.9534917262199], [174.601553497992, -36.9534939985102], [174.601545559417, -36.9534962237762], [174.601537787937, -36.9534983836929], [174.601530161286, -36.9535004875744], [174.601522701917, -36.9535025351177], [174.601515387377, -36.9535045266258], [174.601508240308, -36.9535064708067], [174.601501237879, -36.9535083499415], [174.601494402734, -36.9535101727383], [174.601487712416, -36.9535119395], [174.601481178154, -36.9535136500751], [174.60147460719, -36.9535152169287], [174.601467943195, -36.9535166318071], [174.601461185981, -36.9535178856993], [174.601454335359, -36.9535189695943], [174.601447391707, -36.953519901514], [174.601440354648, -36.9535206634365], [174.601433224558, -36.9535212733836], [174.60142600125, -36.9535217223445], [174.601418684534, -36.9535220013081], [174.601411274788, -36.9535221282963], [174.601403771635, -36.9535220852872], [174.601396175452, -36.9535218903027], [174.601388485861, -36.9535215253209], [174.601380703241, -36.9535210083636], [174.601372827214, -36.9535203214089], [174.601364858157, -36.9535194824787], [174.601356795692, -36.9535184735511], [174.60134864001, -36.953517303637], [174.601340391298, -36.9535159817474], [174.601332049179, -36.9535144898602], [174.60132361403, -36.9535128459975], [174.601315085475, -36.9535110321372], [174.601306500593, -36.9535092100226], [174.601297930713, -36.9535075679753], [174.601289353567, -36.9535061153091], [174.601280791235, -36.9535048336993], [174.60127222145, -36.9535037324598], [174.601263666666, -36.9535028112877], [174.601255104428, -36.9535020704857], [174.60124655738, -36.953501518762], [174.60123800269, -36.9535011383977], [174.601229463001, -36.9535009381007], [174.601220916047, -36.9535009271849], [174.601212372677, -36.9535010874769], [174.601203844309, -36.9535014278364], [174.601195308487, -36.953501948566], [174.601186787854, -36.953502658374], [174.601178259579, -36.9535035395413], [174.601169746304, -36.9535046007759], [174.601161225764, -36.9535058513918], [174.601152720036, -36.9535072730641], [174.601144207042, -36.9535088841176], [174.60113570886, -36.9535106662275], [174.601127203412, -36.9535126377187], [174.601118756555, -36.9535147255948], [174.601110521327, -36.9535167294946], [174.601102542072, -36.9535186217796], [174.601094807186, -36.9535203845792], [174.601087317046, -36.9535220359156], [174.601080071653, -36.9535235757887], [174.601073082044, -36.9535249950361], [174.601066325765, -36.9535262939609], [174.601059825461, -36.953527481271], [174.601053569714, -36.9535285481072], [174.601047558524, -36.9535294944692], [174.601041803309, -36.9535303292168], [174.601036281424, -36.9535310436419], [174.601031015513, -36.9535316464526], [174.60102599416, -36.9535321287894], [174.601021217364, -36.9535324906523], [174.601016685315, -36.9535327410524], [174.601012409052, -36.9535328708272], [174.601008366119, -36.9535328802797], [174.601004579161, -36.9535327781179], [174.601001036949, -36.9535325644935], [174.600997739106, -36.9535322213843], [174.600994686198, -36.9535317758233], [174.600991710565, -36.9535312661257], [174.600988757009, -36.9535307381031], [174.600985825343, -36.9535301827448], [174.600982904339, -36.9535296002021], [174.600980005413, -36.9535289993346], [174.600977128377, -36.9535283711313], [174.600974262002, -36.9535277157435], [174.600971428745, -36.9535270328686], [174.600968594922, -36.9535263229607], [174.600965794405, -36.9535255945765], [174.600963004361, -36.953524829997], [174.600960236396, -36.9535240470927], [174.60095749032, -36.9535232368526], [174.600954755094, -36.9535224084391], [174.60095204157, -36.9535215436788], [174.600949338896, -36.9535206607451], [174.600946669339, -36.9535197503242], [174.600944010444, -36.9535188127189], [174.6009413624, -36.9535178569402], [174.600938747473, -36.9535168736744], [174.600936143019, -36.9535158542132], [174.600933549605, -36.9535148255895], [174.600930945906, -36.9535138421721], [174.600928256535, -36.9535130582072], [174.600925481493, -36.9535124736948], [174.600922620401, -36.953512070613], [174.600919684866, -36.9535118668324], [174.600916652431, -36.9535118626556], [174.600913545364, -36.953512048769], [174.600910352436, -36.953512425324], [174.600907073836, -36.9535130013314], [174.600903709376, -36.9535137677803], [174.600900259244, -36.9535147336818], [174.600896734479, -36.9535158898733], [174.600893112814, -36.9535172456688], [174.600889416328, -36.9535187827433], [174.600885634358, -36.9535205282813], [174.60088176634, -36.9535224552497], [174.600877812649, -36.9535245816706], [174.600873784514, -36.9535269073926], [174.60086965929, -36.9535294237074], [174.600865459433, -36.9535321303123], [174.600861173904, -36.9535350363695], [174.600856802514, -36.9535381328682], [174.600852366964, -36.9535413834617], [174.600848030765, -36.9535445515937], [174.600843804769, -36.9535476190908], [174.60083967737, -36.9535505680827], [174.600835671401, -36.9535534162885], [174.600831775257, -36.9535561458375], [174.600827978087, -36.9535587749032], [174.60082430197, -36.9535612851608], [174.600820736056, -36.9535636947837], [174.600817268739, -36.9535659859013], [174.600813922852, -36.9535681762328], [174.60081068679, -36.9535702479077], [174.60080756093, -36.9535722189479], [174.600804544896, -36.9535740713315], [174.600801627647, -36.9535758142208], [174.600798831829, -36.9535774563241], [174.600796145836, -36.9535789797708], [174.600793570046, -36.9535804025829], [174.600791092853, -36.9535817068897], [174.600788736902, -36.9535829013995], [174.600786491153, -36.9535839952747], [174.60078435523, -36.9535849704934], [174.600782318282, -36.9535858452288], [174.600780314828, -36.9535867104991], [174.600778290239, -36.9535876391489], [174.600776244137, -36.9535886131563], [174.600774165673, -36.9535896506947], [174.600772077113, -36.9535907424502], [174.60076996704, -36.9535918795633], [174.600767824604, -36.9535930802074], [174.600765671884, -36.9535943260577], [174.600763498028, -36.9535956352875], [174.600761291432, -36.9535969900263], [174.600759074929, -36.9535984079933], [174.600756837102, -36.9535998803288], [174.600754566535, -36.9536013981733], [174.60075228606, -36.953602979246], [174.600749984072, -36.9536046056762], [174.600747649722, -36.9536062956374], [174.600745305087, -36.9536080308048], [174.600742939317, -36.9536098293517], [174.600740540995, -36.9536116824186], [174.600738132388, -36.9536135806916], [174.600735702646, -36.9536155423442], [174.600733240353, -36.9536175585167], [174.600730755415, -36.953619565981], [174.600728234719, -36.9536214747787], [174.60072565562, -36.9536232762016], [174.600723029158, -36.9536249610872], [174.60072035571, -36.9536265474577], [174.60071762386, -36.9536280264533], [174.600714867291, -36.95362939762], [174.60071205213, -36.9536306524009], [174.600709189984, -36.9536318086665], [174.600706280663, -36.9536328574059], [174.600703312939, -36.9536337987704], [174.600700320308, -36.953634623295], [174.600697269463, -36.9536353494558], [174.600694171444, -36.9536359680902], [174.600691014833, -36.9536364703389], [174.600687822465, -36.9536368739209], [174.600684582921, -36.9536371699767], [174.600681296015, -36.9536373494952], [174.600677962123, -36.9536374304985], [174.600674581056, -36.9536374039754], [174.600671152627, -36.9536372609152], [174.600667677211, -36.9536370193397], [174.600664166226, -36.9536366881084], [174.600660667035, -36.9536363837586], [174.600657180203, -36.9536361333232], [174.600653728186, -36.9536359364994], [174.600650299756, -36.9536357934385], [174.600646894914, -36.9536357041407], [174.600643513659, -36.9536356686058], [174.600640144763, -36.9536356869853], [174.600636810682, -36.9536357589764], [174.600633500377, -36.9536358937415], [174.600630213471, -36.9536360732587], [174.600626950152, -36.9536363065388], [174.600623699192, -36.9536365937333], [174.600620483047, -36.9536369345394], [174.600617290489, -36.9536373291086], [174.600614121519, -36.9536377774407], [174.600610976324, -36.9536382885469], [174.6006078433, -36.9536388445564], [174.600604745091, -36.9536394541776], [174.600601670469, -36.9536401175618], [174.600598619435, -36.9536408347091], [174.600595591987, -36.9536416056193], [174.600592576899, -36.953642430444], [174.600589448401, -36.9536432027164], [174.60058608148, -36.9536438520139], [174.600582487363, -36.953644378185], [174.600578666049, -36.9536447812298], [174.600574617352, -36.9536450521373], [174.600570341647, -36.9536452089293], [174.600565838746, -36.9536452425949], [174.600561119877, -36.9536451529826], [174.600556162396, -36.9536449313843], [174.600550977907, -36.9536445956704], [174.600545566223, -36.9536441368299], [174.600539927344, -36.9536435548629], [174.600534061079, -36.9536428407583], [174.600527967808, -36.9536420125381], [174.600521647341, -36.9536410611911], [174.60051509949, -36.9536399777065], [174.600508324632, -36.9536387801061], [174.600501322579, -36.9536374593789], [174.600494093141, -36.9536360065139], [174.600486636697, -36.9536344395329], [174.600478953057, -36.9536327494251], [174.600471042033, -36.9536309271793], [174.600463017223, -36.9536290343587], [174.600455138941, -36.9536271666029], [174.60044741879, -36.9536253417824], [174.600439856394, -36.9536235418754], [174.600432440903, -36.9536217850551], [174.600425194394, -36.953620052997], [174.600418105828, -36.9536183548634], [174.600411175395, -36.9536166996652], [174.600404402716, -36.9536150693807], [174.600397788169, -36.9536134820316], [174.600391331376, -36.9536119195963], [174.600385032527, -36.9536103910856], [174.60037889181, -36.9536089055105], [174.600372920076, -36.9536074446977], [174.600367095245, -36.953606026972], [174.600361428169, -36.9536046341601], [174.600355919036, -36.9536032752729], [174.600350568035, -36.9536019593214], [174.600345374789, -36.9536006682838], [174.600340339674, -36.953599420182], [174.600335462314, -36.9535981969941], [174.600330743085, -36.953597016742], [174.600326159156, -36.9535958617064], [174.600321520596, -36.9535947795153], [174.600316760229, -36.9535937800875], [174.600311888904, -36.9535928452497], [174.60030690681, -36.953591984013], [174.600301813947, -36.9535911963773], [174.600296621543, -36.9535904821912], [174.600291307142, -36.9535898417575], [174.600285881972, -36.9535892749247], [174.600280346034, -36.9535887816929], [174.600274699515, -36.953588371073], [174.600268953266, -36.9535880248917], [174.60026308502, -36.9535877524627], [174.600257106005, -36.9535875536346], [174.600251016222, -36.9535874284073], [174.600244815669, -36.9535873767809], [174.600238504347, -36.9535873987553], [174.600232093672, -36.9535875031902], [174.600225560812, -36.9535876723662], [174.600218917183, -36.9535879151431], [174.600212162784, -36.9535882315207], [174.600205297617, -36.953588621499], [174.600198321868, -36.9535890940891], [174.600191245636, -36.9535895950737], [174.600184091375, -36.9535901241501], [174.60017683644, -36.95359067261], [174.600169492061, -36.9535912403021], [174.600162058237, -36.9535918272262], [174.600154534967, -36.9535924333825], [174.600146922253, -36.9535930587709], [174.600139231132, -36.9535936942291], [174.600131439527, -36.9535943580817], [174.600123558477, -36.9535950411663], [174.600115587982, -36.9535957434829], [174.600107528042, -36.9535964650315], [174.600099378656, -36.9535972058122], [174.600091151053, -36.9535979656735], [174.600082822777, -36.953598744918], [174.600074404867, -36.9535995343835], [174.600065897701, -36.953600352092], [174.600057301089, -36.9536011890323], [174.600048615032, -36.9536020452045], [174.60003983953, -36.9536029206086], [174.600030974583, -36.9536038152445], [174.60002202019, -36.9536047291122], [174.600013044473, -36.9536056973478], [174.600004218487, -36.9536068438351], [174.599995542045, -36.9536081595632], [174.599987037977, -36.9536096622515], [174.599978694869, -36.9536113430404], [174.599970501304, -36.9536131930702], [174.599962480113, -36.9536152300603], [174.599954619882, -36.953617445151], [174.599946909194, -36.9536198294828], [174.59993937088, -36.9536224007749], [174.599931993526, -36.9536251501678], [174.59992477713, -36.9536280776615], [174.599917710277, -36.9536311743963], [174.599910815799, -36.9536344580917], [174.599904082279, -36.9536379198879], [174.599897509719, -36.953641559785], [174.5998910867, -36.9536453689234], [174.599884836057, -36.9536493650224], [174.599878746372, -36.9536535392223], [174.599872817646, -36.9536578915233], [174.599867049879, -36.9536624219253], [174.599861431842, -36.9536671305796], [174.599855962783, -36.9536719814424], [174.599850320215, -36.9536765912781], [174.599844422907, -36.9536808349921], [174.599838271235, -36.9536847306063], [174.59983186501, -36.9536882691097], [174.599825204044, -36.9536914414913], [174.599818288714, -36.9536942657729], [174.599811118643, -36.9536967239327], [174.599803705436, -36.9536988338411], [174.599796015033, -36.9537005779301], [174.599788081494, -36.9537019737677], [174.599779893215, -36.9537030034831], [174.599771450572, -36.9537036850984], [174.599762753189, -36.9537040005914], [174.599753801254, -36.9537039589731], [174.599744594956, -36.9537035692544], [174.599735133919, -36.9537028134132], [174.59972541833, -36.9537017004606], [174.599715448189, -36.9537002303964], [174.599705223686, -36.9536984122316], [174.599694733216, -36.9536962280954], [174.599683999424, -36.9536936866961], [174.59967301108, -36.9536907881849], [174.599655408396, -36.9536900699297], [174.599638595083, -36.9536921893076], [174.599622040385, -36.9536943232257], [174.599605732697, -36.9536964538134], [174.599589672207, -36.9536985900817], [174.599573870145, -36.9537007318797], [174.599558315092, -36.9537028703474], [174.599543007238, -36.9537050144963], [174.599527957811, -36.9537071641749], [174.599513155582, -36.9537093195348], [174.599498600364, -36.9537114715649], [174.599484303761, -36.9537136381361], [174.599470254168, -36.9537158013778], [174.599456451586, -36.9537179612901], [174.599442907619, -36.9537201357437], [174.599429610662, -36.9537223068681], [174.599416560905, -36.9537244836743], [174.599403769574, -36.9537266660111], [174.599391225253, -36.9537288450189], [174.599378928132, -36.9537310297087], [174.599366889437, -36.9537332199294], [174.599355097942, -36.9537354158323], [174.599343609408, -36.9537375986392], [174.599332512903, -36.9537397310964], [174.599321808805, -36.9537418312258], [174.599311496736, -36.9537438810057], [174.599301565658, -36.9537458895983], [174.599292026799, -36.9537478568525], [174.599282880157, -36.9537497827684], [174.599274125734, -36.9537516673461], [174.59926576353, -36.9537535105857], [174.599257782316, -36.9537553126385], [174.599250193132, -36.9537570643423], [174.599242996355, -36.9537587837192], [174.599236191608, -36.9537604527473], [174.599229768041, -36.9537620895999], [174.599223736504, -36.9537636761038], [174.599218108413, -36.9537652211188], [174.599212861313, -36.9537667249474], [174.599207995205, -36.9537681875899], [174.599203532543, -36.9537696087435], [174.599199450871, -36.9537709887109], [174.599195761419, -36.953772327341], [174.599192463997, -36.9537736156227], [174.59918937915, -36.9537748649869], [174.599186113527, -36.9537760627049], [174.599182667128, -36.9537772087768], [174.599179039766, -36.9537782941914], [174.599175220589, -36.9537793371222], [174.599171220447, -36.9537803193957], [174.599167039531, -36.953781250023], [174.599162666611, -36.9537821291552], [174.599158112915, -36.9537829566412], [174.599153367028, -36.9537837236212], [174.599148440554, -36.9537844479657], [174.599143333116, -36.953785111653], [174.59913804509, -36.9537857327049], [174.599132564873, -36.9537862932507], [174.599126892653, -36.9537868023012], [174.599121039658, -36.9537872597054], [174.599115005698, -36.953787656452], [174.599108791152, -36.9537880105632], [174.599102384413, -36.9537883041681], [174.5990957969, -36.9537885461264], [174.599089017571, -36.9537887456003], [174.599082057279, -36.9537888844167], [174.599074849599, -36.9537890085376], [174.599067195444, -36.953789264861], [174.599059095004, -36.9537896623975], [174.599050525446, -36.9537901834277], [174.599041498374, -36.9537908458221], [174.599032024828, -36.9537916404185], [174.599022082541, -36.9537925765302], [174.59901169378, -36.9537936448437], [174.599000847316, -36.9537948455099], [174.598989532111, -36.9537961876912], [174.598977770432, -36.9537976620737], [174.598965551049, -36.9537992688088], [174.598952873965, -36.9538010078961], [174.598939739366, -36.9538028883467], [174.598926147064, -36.9538049011492], [174.598912097248, -36.9538070553146], [174.598897600957, -36.9538093416805], [174.598882635735, -36.9538117605491], [174.59886721281, -36.9538143117692], [174.598851343597, -36.9538170042002], [174.598835005454, -36.9538198291334], [174.598818221023, -36.9538227952773], [174.598801079184, -36.9538258563671], [174.598784036699, -36.9538288349948], [174.598767160934, -36.9538317302532], [174.598750440285, -36.9538345242718], [174.59873387494, -36.9538372260615], [174.598717475938, -36.9538398264602], [174.598701232429, -36.9538423436411], [174.598685144036, -36.9538447595824], [174.598669222175, -36.9538470831439], [174.598653455618, -36.9538493144768], [174.598637844178, -36.9538514445702], [174.598622399458, -36.953853491295], [174.598607109855, -36.9538554367805], [174.598591975557, -36.9538572900376], [174.598577007602, -36.9538590419043], [174.598562183914, -36.953860710705], [174.598547537797, -36.9538622779642], [174.598533035757, -36.9538637531465], [174.598518700063, -36.9538651269386], [174.598504519861, -36.9538664175138], [174.598490506005, -36.9538676066988], [174.598476647453, -36.953868703656], [174.598462944395, -36.9538697173963], [174.598449409943, -36.9538707378786], [174.59843602164, -36.9538717654052], [174.598422813546, -36.9538728175445], [174.598409751602, -36.9538738767282], [174.59839685864, -36.9538749606759], [174.598384123244, -36.953876060528], [174.598371545224, -36.9538771672735], [174.598359136187, -36.9538782987832], [174.598346884716, -36.9538794461973], [174.598334802037, -36.9538806093648], [174.598322876925, -36.9538817884368], [174.598311109378, -36.9538829834135], [174.598299499397, -36.9538841942947], [174.59828805821, -36.9538854209296], [174.598276774588, -36.9538866634691], [174.598265648532, -36.9538879219135], [174.598254691269, -36.9538891961116], [174.598243891761, -36.9538904952255], [174.598233260857, -36.9538918010822], [174.598222776292, -36.953893122995], [174.598212460708, -36.9538944696727], [174.598202324958, -36.9538958229421], [174.598192468961, -36.9538971273772], [174.59818293744, -36.9538983733624], [174.598173730584, -36.9538995699088], [174.598164836788, -36.9539006991456], [174.598156267657, -36.9539017789438], [174.598148022815, -36.9539027912814], [174.598140102449, -36.9539037451695], [174.598132506559, -36.9539046406082], [174.598125224107, -36.9539054867596], [174.598118277171, -36.9539062652996], [174.598111632256, -36.9539069856926], [174.598105323046, -36.9539076474852], [174.598099338312, -36.9539082508287], [174.598093666828, -36.9539087958742], [174.59808831982, -36.9539092824706], [174.598083297289, -36.9539097106181], [174.598078588007, -36.9539100804676], [174.59807421443, -36.9539103917171], [174.598070142873, -36.9539106448199], [174.598066407022, -36.9539108393228], [174.598062995648, -36.9539109753767], [174.598059886295, -36.9539110532842], [174.598056809872, -36.9539110946942], [174.598053665517, -36.9539111099779], [174.598050430963, -36.9539111084487], [174.598047128477, -36.9539110807932], [174.598043746831, -36.9539110271626], [174.598040297254, -36.9539109474057], [174.598036757289, -36.9539108418248], [174.598033149581, -36.9539107191285], [174.598029473941, -36.9539105703061], [174.598025707913, -36.9539103956595], [174.598021873953, -36.9539101948867], [174.598017960834, -36.9539099681386], [174.598013968743, -36.9539097244264], [174.598009897493, -36.9539094547389], [174.598005758123, -36.9539091499141], [174.598001539969, -36.9539088371361], [174.597997253696, -36.9539084892208], [174.597992877035, -36.9539081154813], [174.597988432631, -36.9539077246265], [174.597983920294, -36.9539073076453], [174.597979317571, -36.9539068648399], [174.597974647104, -36.9539064049192], [174.597969998527, -36.9539059176631], [174.59796541713, -36.953905420489], [174.597960914138, -36.953904913246], [174.597956489365, -36.9539043869229], [174.597952142999, -36.9539038505308], [174.597947875039, -36.9539033040698], [174.597943674069, -36.9539027386799], [174.597939551506, -36.953902163221], [174.59793550735, -36.9539015776932], [174.597931541411, -36.9539009730854], [174.597927642651, -36.9539003585598], [174.597923822298, -36.9538997339652], [174.597920080163, -36.9538990902907], [174.597916405207, -36.9538984366985], [174.597912819885, -36.9538977728861], [174.597909301553, -36.953897090145], [174.5979058504, -36.9538963974861], [174.597902488693, -36.9538956855962], [174.597899194165, -36.9538949637885], [174.597895978043, -36.9538942319119], [174.597892840328, -36.9538934899664], [174.597889769603, -36.9538927290922], [174.597886633206, -36.9538920502234], [174.597883275642, -36.9538915365746], [174.59787970795, -36.9538911789836], [174.597875930319, -36.9538909864615], [174.597871953789, -36.953890949846], [174.597867767318, -36.9538910782992], [174.597863359681, -36.9538913719723], [174.597858753144, -36.9538918215519], [174.597853936479, -36.9538924271893], [174.597848909874, -36.9538931978954], [174.597843684558, -36.9538941335189], [174.597838237886, -36.9538952253512], [174.597832581275, -36.9538964822521], [174.597826725763, -36.9538978950595], [174.597820649084, -36.9538994730864], [174.597814373505, -36.9539012070198], [174.597807887986, -36.9539031060216], [174.597801192527, -36.9539051700918], [174.597794286939, -36.9539073902194], [174.597787171224, -36.9539097664045], [174.597779845568, -36.9539123076578], [174.597772309973, -36.9539150139794], [174.597764662851, -36.9539177578555], [174.597756991579, -36.9539204209345], [174.597749307196, -36.9539229940542], [174.597741609514, -36.9539254682037], [174.59773389872, -36.953927852394], [174.597726174815, -36.953930146625], [174.59771842676, -36.9539323600589], [174.597710676633, -36.9539344743714], [174.597702901979, -36.9539364898647], [174.597695114403, -36.9539384244099], [174.597687313716, -36.9539402689957], [174.597679499729, -36.9539420146113], [174.597671661592, -36.9539436794297], [174.597663821384, -36.9539452451267], [174.597655956837, -36.9539467210156], [174.597648090407, -36.953948106794], [174.597640199638, -36.9539494027643], [174.597632284531, -36.9539506089264], [174.597624367353, -36.9539517159672], [174.597616437253, -36.9539527420596], [174.597608482625, -36.9539536693328], [174.597600526303, -36.9539545155066], [174.597592625556, -36.9539553338915], [174.597584929168, -36.9539562576882], [174.597577448368, -36.9539572867456], [174.597570171927, -36.9539584212148], [174.597563111074, -36.9539596609447], [174.597556265997, -36.9539610149465], [174.597549614052, -36.9539624745113], [174.597543188734, -36.9539640301749], [174.597536956736, -36.9539657004126], [174.597530951554, -36.9539674757602], [174.597525139692, -36.9539693656819], [174.597519554456, -36.9539713517026], [174.597514162353, -36.9539734432865], [174.597508997253, -36.9539756489914], [174.597504025285, -36.9539779602596], [174.597499268716, -36.9539803677779], [174.597494727923, -36.9539828895684], [174.597490391678, -36.9539855257822], [174.597486270832, -36.9539882582461], [174.597482354346, -36.9539910961224], [174.597478653636, -36.9539940482709], [174.597475157285, -36.9539971058317], [174.59747178557, -36.9540002157966], [174.597468289407, -36.9540032823682], [174.59746465738, -36.9540062966868], [174.597460900529, -36.9540092495901], [174.597457018854, -36.9540121410783], [174.597453001315, -36.9540149803133], [174.597448847912, -36.9540177672952], [174.597444569685, -36.9540204928618], [174.597440166822, -36.9540231660242], [174.597435627907, -36.9540257779223], [174.597430964356, -36.9540283374162], [174.597426164753, -36.9540308356459], [174.597421229286, -36.9540332816223], [174.597416180222, -36.9540356660323], [174.597410984067, -36.9540379983401], [174.597405663088, -36.9540402692326], [174.597400217472, -36.9540424877206], [174.597394635805, -36.9540446449444], [174.597388929501, -36.9540467497637], [174.597383087334, -36.9540488023297], [174.597377120342, -36.9540507934802], [174.597371017298, -36.9540527233663], [174.597364680164, -36.9540547375234], [174.597357681404, -36.9540573374472], [174.59734998809, -36.9540605596349], [174.597341611825, -36.9540644219572], [174.597332529587, -36.9540688976831], [174.597322764398, -36.9540740135432], [174.597312304652, -36.9540797516667], [174.597301161766, -36.9540861209131], [174.597289313282, -36.9540931215844], [174.597276781468, -36.9541007443673], [174.597263555472, -36.9541090074347], [174.597249634918, -36.9541178927643], [174.597235019804, -36.9541274003559], [174.597219710506, -36.9541375482312], [174.597203717875, -36.954148318217], [174.597187030683, -36.954159710464], [174.597169649305, -36.954171742994], [174.597151573364, -36.9541843977847], [174.597132803047, -36.9541976838467], [174.597113349582, -36.9542116010286], [174.597093190323, -36.9542261406214], [174.597072347915, -36.9542413113335], [174.597050987762, -36.9542569667233], [174.597029979553, -36.9542722658476], [174.597009467181, -36.9542871076226], [174.596989461497, -36.9543014738752], [174.596969951464, -36.9543153737679], [174.59695093708, -36.9543288073009], [174.596932429388, -36.9543417653123], [174.596914417535, -36.9543542659754], [174.596896901147, -36.9543662912684], [174.596879880411, -36.9543778502026], [174.596863366557, -36.954388942627], [174.596847348356, -36.9543995686931], [174.59683182581, -36.9544097284008], [174.59681679873, -36.9544194127395], [174.596802278534, -36.9544286305692], [174.596788254181, -36.9544373910522], [174.596774725297, -36.9544456761666], [174.596761691881, -36.9544534859126], [174.596749165538, -36.9544608381614], [174.596737134664, -36.954467715042], [174.596725599636, -36.9544741345767], [174.596714571305, -36.9544800785926], [174.596704005514, -36.9544855837378], [174.596693626457, -36.9544908880733], [174.596683378934, -36.954496037409], [174.596673263135, -36.9545010407559], [174.59666326783, -36.9545058982652], [174.596653415289, -36.9545106006239], [174.596643683243, -36.9545151571449], [174.596634082921, -36.9545195676774], [174.596624614134, -36.9545238232103], [174.596615265843, -36.9545279329056], [174.596606060504, -36.9545318964615], [174.596596975472, -36.9545357051689], [174.596588022164, -36.9545393678878], [174.59657920058, -36.9545428846183], [174.596570499304, -36.9545462465005], [174.59656194098, -36.9545494622433], [174.596553503152, -36.9545525321487], [174.59654519686, -36.9545554470548], [174.596537011064, -36.9545582161237], [174.596528968032, -36.9545608300423], [174.596521045497, -36.9545632981237], [174.596513254687, -36.9545656202168], [174.596505606828, -36.9545677961708], [174.596498215895, -36.9545699055747], [174.596491127363, -36.9545719748575], [174.596484330004, -36.9545740041704], [174.596477846274, -36.9545759932114], [174.596471653529, -36.9545779332715], [174.596465763373, -36.9545798422218], [174.596460175431, -36.9545817020403], [174.59645488989, -36.954583521738], [174.596449906938, -36.9545853103261], [174.596445226199, -36.9545870497825], [174.596440836634, -36.9545887492693], [174.596436749471, -36.9545904086355], [174.596432964708, -36.954592027881], [174.596429482159, -36.9545935979952], [174.5964263022, -36.9545951369997], [174.596423424454, -36.9545966268728], [174.59642083807, -36.9545980857874], [174.596418565127, -36.9545994954196], [174.596416583358, -36.9546008650824], [174.596414904178, -36.9546022036357], [174.596413527212, -36.9546034930576], [174.59641244142, -36.9546047425102], [174.596411355815, -36.9546060009737], [174.596410125189, -36.9546073064548], [174.596408760579, -36.9546086497917], [174.596407261987, -36.9546100309842], [174.596405629412, -36.9546114500325], [174.596403851626, -36.9546129070873], [174.596401939857, -36.9546144019978], [174.596399894106, -36.954615934764], [174.59639771456, -36.9546175143968], [174.596395389615, -36.9546191230252], [174.596392930875, -36.9546207785203], [174.596390337965, -36.95462246286], [174.596387600031, -36.9546241942173], [174.596384728115, -36.9546259634302], [174.596381722216, -36.9546277704987], [174.596378582334, -36.9546296154228], [174.596375297242, -36.9546314983535], [174.596371878166, -36.9546334191397], [174.596368325107, -36.9546353777815], [174.596364638254, -36.9546373832898], [174.596360806001, -36.9546394177936], [174.596356828726, -36.9546414993149], [174.596351709458, -36.9546442902325], [174.596344772322, -36.9546482322832], [174.596336028357, -36.9546533163047], [174.596325466523, -36.9546595514584], [174.596313087007, -36.9546669467551], [174.596298889244, -36.954675475161], [174.596282885024, -36.9546851635577], [174.59626506293, -36.9546960030844], [174.596245422773, -36.9547079847293], [174.596223976154, -36.9547211263626], [174.59620070024, -36.9547354102632], [174.596175628901, -36.9547508449883], [174.596148728262, -36.9547674219786], [174.596120021153, -36.9547851589531], [174.596089495968, -36.9548040380393], [174.596057153079, -36.954824077258], [174.596022992108, -36.9548452585857], [174.595987024468, -36.954867590881], [174.595949238928, -36.9548910742933], [174.595909635295, -36.9549156998098], [174.595868225171, -36.9549414852999], [174.595824996948, -36.9549684128907], [174.595812598317, -36.9549765114473], [174.595800509366, -36.9549843805021], [174.595788718679, -36.9549920111949], [174.595777237483, -36.9549994033751], [174.595766065969, -36.9550065660537], [174.59575519253, -36.9550134813598], [174.595744628773, -36.9550201671644], [174.595734374508, -36.9550266144566], [174.595724418509, -36.9550328233875], [174.59571477219, -36.9550388028171], [174.595705435177, -36.9550445347237], [174.595696396618, -36.9550500372801], [174.595687667552, -36.9550553013245], [174.595679236752, -36.9550603270079], [174.595671115635, -36.9550651231904], [174.595663304011, -36.9550696808611], [174.595655801693, -36.9550739910091], [174.59564859783, -36.9550780718073], [174.595641692421, -36.9550819232557], [174.595635107547, -36.9550855270307], [174.595628821128, -36.955088901456], [174.595622832975, -36.9550920375207], [174.595617011738, -36.9550950992337], [174.595611203609, -36.9550982509054], [174.595605419815, -36.9551014923849], [174.595599637901, -36.9551048239741], [174.595593869095, -36.9551082455221], [174.595588124437, -36.9551117478669], [174.595582393075, -36.9551153491815], [174.595576663592, -36.9551190406057], [174.595570958445, -36.9551228218378], [174.595565266406, -36.9551266930287], [174.595559598514, -36.9551306450164], [174.595553932691, -36.9551346961249], [174.595548279974, -36.9551388371921], [174.595542651594, -36.9551430680672], [174.595537024905, -36.9551473800409], [174.59553142274, -36.9551517908336], [174.595525833494, -36.955156282574], [174.595520257544, -36.9551608732842], [174.595514694513, -36.9551655449423], [174.595509144778, -36.9551703155701], [174.595503619191, -36.9551751669948], [174.595498095671, -36.9551801175402], [174.595492539218, -36.955185104582], [174.595486893129, -36.9551901018416], [174.595481145798, -36.9551950914481], [174.595475308831, -36.9552000912725], [174.59546938185, -36.9552050832927], [174.595463354005, -36.9552100856816], [174.595457247374, -36.9552150801155], [174.595451039879, -36.955220084918], [174.595444731142, -36.9552250820673], [174.595438343809, -36.9552300802725], [174.59543185561, -36.9552350888463], [174.595425277399, -36.9552400896159], [174.59541860955, -36.9552451006032], [174.59541184046, -36.9552501039371], [174.595404981733, -36.9552551174888], [174.595398032992, -36.9552601232362], [174.595390994615, -36.9552651392012], [174.595383854996, -36.9552701475128], [174.59537662574, -36.955275166042], [174.595369306471, -36.9552801767669], [174.595361897376, -36.9552851886984], [174.595354387416, -36.9552902109983], [174.595346909636, -36.9552951607572], [174.595339597643, -36.9552999820986], [174.595332451249, -36.9553046660114], [174.595325448187, -36.9553092218085], [174.595318621953, -36.9553136400263], [174.595311939051, -36.9553179301284], [174.595305433165, -36.9553220916621], [174.595299070423, -36.9553261160693], [174.595292873281, -36.955330003048], [174.595286841927, -36.9553337616095], [174.595280965133, -36.9553373919044], [174.595275253939, -36.9553408847711], [174.595269697305, -36.9553442493714], [174.595264295044, -36.9553474766943], [174.595259058571, -36.9553505756], [174.595253976471, -36.9553535372283], [174.595249060158, -36.9553563704394], [174.595244298219, -36.9553590663733], [174.595239702068, -36.95536163389], [174.595235260289, -36.9553640641294], [174.595230984299, -36.9553663659517], [174.59522686287, -36.9553685395078], [174.595222841365, -36.95537065764], [174.59521887694, -36.9553728200726], [174.595214957991, -36.9553750089347], [174.595211073666, -36.9553772423989], [174.59520725746, -36.9553795110019], [174.595203475691, -36.9553818151961], [174.595199739586, -36.9553841548307], [174.595196049144, -36.9553865299057], [174.595192415783, -36.9553889492812], [174.595188816669, -36.955391395237], [174.595185274635, -36.9553938854934], [174.595181778265, -36.9553964111902], [174.59517832756, -36.9553989723274], [174.595174922518, -36.955401568905], [174.59517156314, -36.955404200923], [174.595168260654, -36.9554068682307], [174.595164992791, -36.9554095801406], [174.595161781633, -36.9554123183291], [174.595158616327, -36.955415100969], [174.595155496685, -36.9554179190494], [174.595152422706, -36.9554207725703], [174.595149394392, -36.9554236615316], [174.595146367393, -36.9554266135698], [174.595143297549, -36.9554296653323], [174.595140184673, -36.9554328078081], [174.595137028764, -36.9554360409973], [174.59513383001, -36.9554393739107], [174.595130576996, -36.9554427976883], [174.595127292176, -36.9554463120284], [174.595123953284, -36.9554499262436], [174.595120571359, -36.955453631172], [174.595117146401, -36.9554574268138], [174.595113678599, -36.9554613221799], [174.595110167763, -36.9554653082593], [174.595106602667, -36.9554693852028], [174.595103005954, -36.9554735617197], [174.595099354979, -36.9554778291007], [174.595095660972, -36.955482187195], [174.595091935348, -36.9554866448627], [174.595088155463, -36.9554911933946], [174.595084321317, -36.9554958327905], [174.595080455553, -36.9555005717598], [174.595076546757, -36.9555054014424], [174.5950725837, -36.9555103219891], [174.595068554025, -36.9555152794848], [174.595064434338, -36.9555202291762], [174.595060224261, -36.9555251530413], [174.595055912756, -36.9555300602419], [174.595051511049, -36.9555349506272], [174.595047019141, -36.9555398241972], [174.59504243722, -36.9555446899629], [174.595037753494, -36.9555495210421], [174.595032990982, -36.955554344166], [174.595028115814, -36.9555591507763], [174.595023161672, -36.9555639404204], [174.595018106101, -36.9555687134], [174.595012960141, -36.9555734605531], [174.595007724167, -36.9555781999018], [174.595002397805, -36.9555829134241], [174.594996970201, -36.9555876192928], [174.594991452208, -36.9555922993351], [174.594985844013, -36.9555969625619], [174.594980134577, -36.9556016181351], [174.594974334752, -36.9556062478818], [174.594968444725, -36.955610860813], [174.594962464497, -36.9556154569287], [174.594956505221, -36.9556199806545], [174.594950677862, -36.9556243674049], [174.594944982608, -36.955628626191], [174.594939430499, -36.9556327478509], [174.594934021724, -36.9556367413958], [174.594928733825, -36.9556406071271], [174.5949236003, -36.9556443355816], [174.594918587464, -36.9556479272117], [174.594913717962, -36.9556513907267], [174.594908980564, -36.9556547262775], [174.594904386313, -36.9556579247023], [174.594899924166, -36.955660995163], [174.594895605166, -36.9556639284976], [174.594891407043, -36.9556667340189], [174.594887363293, -36.9556694022634], [174.594883451649, -36.9556719425438], [174.594879671923, -36.9556743458491], [174.594876024303, -36.9556766211903], [174.594872519828, -36.9556787594056], [174.594869147459, -36.9556807696568], [174.594865918424, -36.9556826517932], [174.594862821306, -36.9556843969545], [174.594859880067, -36.955686076927], [174.59485709602, -36.9556877547878], [174.594854468979, -36.9556894215258], [174.594852010547, -36.9556910950123], [174.594849709309, -36.9556927663871], [174.594847576491, -36.9556944354993], [174.594845600868, -36.9556961024997], [174.594843793477, -36.9556977582266], [174.594842143468, -36.9556994208529], [174.594840661881, -36.9557010812166], [174.594839337486, -36.9557027394687], [174.594838181514, -36.9557043954582], [174.594837182734, -36.9557060493361], [174.59483634096, -36.9557076920912], [174.594835667796, -36.9557093415949], [174.594835163053, -36.9557109888361], [174.594834804275, -36.9557126341165], [174.594834625147, -36.9557142769835], [174.594834603024, -36.9557159087278], [174.594834738283, -36.9557175473715], [174.594835041964, -36.9557191837528], [174.594835502837, -36.9557208180223], [174.594835619023, -36.9557226191656], [174.594834866559, -36.9557247744917], [174.594833256484, -36.9557272748387], [174.594830788799, -36.9557301202067], [174.594827463503, -36.9557333105956], [174.594823269369, -36.9557368461561], [174.594818217812, -36.9557407357483], [174.594812297416, -36.955744970512], [174.594805519221, -36.9557495412851], [174.59479788379, -36.9557544751006], [174.594789390559, -36.9557597449253], [174.594780028489, -36.9557653599209], [174.594769808994, -36.9557713289472], [174.594758720658, -36.955777643144], [174.594746774709, -36.9557843023602], [174.594733971147, -36.9557913065954], [174.594720310159, -36.9557986648606], [174.594705780141, -36.955806359284], [174.594690392695, -36.9558144077367], [174.594674147635, -36.9558228012074], [174.59465703373, -36.9558315398465], [174.59463906221, -36.9558406235028], [174.594620990195, -36.9558497355467], [174.594603574247, -36.9558585323162], [174.594586837196, -36.955867031532], [174.594570744985, -36.9558752156247], [174.594555331484, -36.9558830931532], [174.594540574239, -36.9558906644193], [174.594526484478, -36.9558979292725], [174.594513050974, -36.9559048878638], [174.594500284954, -36.9559115400426], [174.594488186418, -36.9559178858092], [174.59447674414, -36.9559239253145], [174.594465969348, -36.9559296584079], [174.594455850813, -36.9559350852403], [174.594446399765, -36.9559402056612], [174.594437616015, -36.9559450106597], [174.594429488711, -36.9559495184088], [174.594422028707, -36.9559537107357], [174.594415225149, -36.9559576058135], [174.594409100118, -36.9559611853186], [174.594403620307, -36.9559644677254], [174.594398819024, -36.9559674345598], [174.594394674, -36.9559700951343], [174.594390760821, -36.9559725633111], [174.594386643468, -36.9559749350811], [174.594382344586, -36.9559772191536], [174.59437783049, -36.955979415981], [174.594373134676, -36.9559815160999], [174.594368234877, -36.9559835288229], [174.594363131092, -36.95598545415], [174.594357845589, -36.9559872827684], [174.594352344873, -36.9559890241417], [174.594346662627, -36.9559906778173], [174.594340776208, -36.9559922350858], [174.594334685802, -36.9559937049583], [174.594328402451, -36.9559950782728], [174.594321926531, -36.9559963730514], [174.594315246437, -36.9559975714228], [174.594308373397, -36.9559986732362], [174.594301307788, -36.9559996965135], [174.594294037817, -36.9560006143725], [174.594286575276, -36.9560014536954], [174.594278908562, -36.956002196611], [174.594271049091, -36.9560028519793], [174.594262985634, -36.9560034199512], [174.594254990297, -36.9560040230618], [174.594247323958, -36.9560047839973], [174.594239986805, -36.9560057117688], [174.594232978838, -36.9560068063761], [174.594226299868, -36.9560080588086], [174.594219949897, -36.9560094690661], [174.594213929299, -36.9560110551707], [174.59420822647, -36.9560127992514], [174.594202863868, -36.9560147010065], [174.594197830451, -36.9560167695978], [174.594193114992, -36.9560190051763], [174.594188728531, -36.9560213985802], [174.594184682483, -36.9560239586697], [174.594180954393, -36.9560266857463], [174.594177555301, -36.9560295706485], [174.594174485206, -36.9560326133761], [174.594171744486, -36.9560358319513], [174.594169332763, -36.956039208352], [174.594167250038, -36.9560427425783], [174.594165496499, -36.9560464436411], [174.594164060917, -36.9560503116914], [174.594162965562, -36.9560543374164], [174.594162038629, -36.9560583608799], [174.59416113077, -36.9560622218438], [174.594160253027, -36.9560659111465], [174.594159382942, -36.9560694290895], [174.594158531932, -36.9560727845329], [174.594157711224, -36.956075977326], [174.594156897988, -36.9560789897484], [174.594156115054, -36.9560818395206], [174.594155339966, -36.956084526944], [174.594154594994, -36.9560870427061], [174.594153868908, -36.9560893869577], [174.594153161897, -36.9560915687098], [174.594152473773, -36.9560935789514], [174.594151804536, -36.9560954176825], [174.594151154373, -36.9560970939141], [174.594150523285, -36.9560986076461], [174.594149910896, -36.9560999408567], [174.594149317582, -36.9561011115678], [174.594148754571, -36.9561021196285], [174.594148199218, -36.9561029563296], [174.594147673981, -36.9561036213694], [174.594147156589, -36.9561041240604], [174.594146560601, -36.9561046278069], [174.594145788344, -36.9561052961636], [174.594144828777, -36.9561061382923], [174.594143693129, -36.9561071540423], [174.594142369984, -36.9561083345533], [174.59414087057, -36.9561096796746], [174.594139184034, -36.9561112075788], [174.594137310001, -36.9561129002441], [174.594135270927, -36.9561147573688], [174.594133033315, -36.9561167884163], [174.594130619622, -36.956118993085], [174.594128018432, -36.9561213625147], [174.59412524116, -36.9561239055655], [174.594122287806, -36.9561266222376], [174.594119146956, -36.9561295036705], [174.594115818607, -36.9561325498644], [174.594112314365, -36.9561357786904], [174.594108622625, -36.9561391722773], [174.594104754615, -36.9561427304743], [174.594100699296, -36.9561464624431], [174.594096467895, -36.956150368033], [174.594092048996, -36.9561544383837], [174.594087541586, -36.9561585730174], [174.594083033612, -36.9561626806179], [174.594078524699, -36.9561667431633], [174.594074015033, -36.9561707696645], [174.594069504616, -36.9561747601216], [174.594064993446, -36.9561787145344], [174.594060470297, -36.9561826330539], [174.594055957436, -36.9561865063675], [174.594051444011, -36.9561903526479], [174.594046929646, -36.9561941538732], [174.594042414529, -36.9561979190543], [174.594037898661, -36.9562016481913], [174.59403338204, -36.9562053412841], [174.594028864668, -36.9562089983327], [174.594024346356, -36.9562126103262], [174.594019827481, -36.9562161952865], [174.594015307665, -36.9562197351917], [174.594010775869, -36.9562232392035], [174.59400625455, -36.9562267070203], [174.594001732479, -36.956230138793], [174.593997209656, -36.9562335345215], [174.593992686082, -36.9562368942059], [174.593988151091, -36.9562402450299], [174.593983593831, -36.9562436051662], [174.593979003449, -36.9562469927876], [174.593974402215, -36.9562503985816], [174.5939697789, -36.9562538226989], [174.593965122275, -36.9562572652903], [174.593960454797, -36.9562607260543], [174.593955754011, -36.9562642052923], [174.593951042371, -36.9562677027029], [174.59394629761, -36.9562712275986], [174.593941530579, -36.9562747618066], [174.593936741468, -36.9562783143379], [174.593931930463, -36.9562818942036], [174.59392709719, -36.9562854833815], [174.593922242023, -36.9562890998938], [174.593917364774, -36.9562927347293], [174.593912465257, -36.9562963788772], [174.593907543847, -36.9563000503593], [174.593902589127, -36.9563037403155], [174.593897623554, -36.9563074484443], [174.593892624671, -36.956311175047], [174.593887614936, -36.9563149198224], [174.593882414885, -36.9563186941931], [174.59387686751, -36.9563225092808], [174.593870972999, -36.9563263740962], [174.593864730977, -36.9563302706174], [174.59385814182, -36.9563342168663], [174.593851205339, -36.9563382038319], [174.593843921534, -36.956342231514], [174.593836290406, -36.9563462999127], [174.593828311954, -36.9563504090279], [174.593819986178, -36.9563545588594], [174.593811313266, -36.9563587584182], [174.59380229303, -36.9563629986933], [174.593792925282, -36.9563672706736], [174.593783210398, -36.956371592381], [174.59377314819, -36.9563759548043], [174.593762738657, -36.9563803579436], [174.593751981988, -36.9563848108097], [174.593740889034, -36.9563892952298], [174.593729437716, -36.9563938295273], [174.593717638886, -36.9563983955293], [174.593705492918, -36.9564030112578], [174.593692999626, -36.9564076677016], [174.59368058568, -36.9564123591331], [174.593668688983, -36.9564170796739], [174.59365730972, -36.9564218383352], [174.593646425061, -36.9564266173967], [174.593636057838, -36.956431434579], [174.593626207675, -36.9564362718603], [174.593616863719, -36.9564411474133], [174.593608037011, -36.9564460520765], [174.593599716323, -36.9564509860008], [174.593591901843, -36.9564559581972], [174.593584604423, -36.9564609504931], [174.593577813024, -36.9564659720503], [174.593571539061, -36.9564710317292], [174.593565782346, -36.9564761205189], [174.593560520424, -36.9564812387208], [174.59355577575, -36.9564863860337], [174.593551548325, -36.9564915624575], [174.593547826922, -36.956496768143], [174.593544622955, -36.9565020119506], [174.593541924821, -36.9565072760091], [174.593539732896, -36.9565125783403], [174.59353805822, -36.9565179097828], [174.593536708224, -36.9565231917995], [174.593535490525, -36.9565283548647], [174.593534404935, -36.9565333899673], [174.593533462871, -36.9565383059676], [174.593532652917, -36.9565430940053], [174.59353197526, -36.9565477630915], [174.593531441128, -36.9565523130755], [174.593531039107, -36.9565567350968], [174.593530769194, -36.9565610291557], [174.593530642995, -36.9565652131232], [174.593530648719, -36.9565692601172], [174.593530786739, -36.9565731881597], [174.593531068285, -36.9565769970998], [174.593531470901, -36.9565806872392], [174.593532016667, -36.9565842402542], [174.593532706146, -36.956587683178], [174.593533527735, -36.9565909981393], [174.593534481434, -36.9565941851379], [174.593535567431, -36.956597253185], [174.593536796953, -36.9566002021298], [174.593538158585, -36.9566030231121], [174.593539652515, -36.9566057251427]]}, "properties": {"OBJECTID": 204, "TRACKNAME": "Pipeline Track", "CONDITIONSOFUSE": "Waitakere Central Regional Park", "STATUS": "Temp Closed", "WEBLINK": "https://www.aucklandcouncil.govt.nz/en/parks-recreation/find-park-beach/park-detail/204.html", "VALIDATIONSTATE": 3, "created_user": "AC_owner", "last_edited_user": "AC_owner", "last_edited_date": 1789875254325, "created_date": 1789875254325, "PARK_SAPSITEID": null, "TRACK_ID": null, "KAURIDIEBACK_TRACK": null, "KAURIDIEBACK_MITIGATED": null, "SegmentID": null, "GlobalID": "32164981-87fe-4546-a73a-1a77965ed6c0", "Shape__Length": 884.9848928476268}}, {"type": "Feature", "id": 3230, "geometry": {"type": "LineString", "coordinates": [[174.60342910246, -36.9537110671583], [174.603369040684, -36.9536202848042], [174.603394638695, -36.9535286610543], [174.603447512276, -36.9533394068079], [174.603375451281, -36.9532726002093], [174.603279901794, -36.9532658243894], [174.602891116487, -36.9533328328437], [174.602551077321, -36.9533604636021], [174.602254484405, -36.9533687877901], [174.601967209932, -36.9533566978816]]}, "properties": {"OBJECTID": 3230, "TRACKNAME": "Pipeline Track", "CONDITIONSOFUSE": "Waitakere Central Regional Park", "STATUS": "Open", "WEBLINK": "https://www.aucklandcouncil.govt.nz/en/parks-recreation/find-park-beach/park-detail/204.html", "VALIDATIONSTATE": 3, "created_user": "AC_owner", "last_edited_user": "AC_owner", "last_edited_date": 1789875254325, "created_date": 1789875254325, "PARK_SAPSITEID": null, "TRACK_ID": null, "KAURIDIEBACK_TRACK": null, "KAURIDIEBACK_MITIGATED": null, "SegmentID": null, "GlobalID": "1f14f47c-397a-4600-85bf-3453fb9686bf", "Shape__Length": 179.5863677629267}}, {"type": "Feature", "id": 3231, "geometry": {"type": "LineString", "coordinates": [[174.582972384598, -36.9599005332586], [174.583350011578, -36.9595794073104], [174.583417064782, -36.9595434647809], [174.583509271628, -36.9595002030207], [174.583612787949, -36.9594537004904], [174.583741544385, -36.9593959800252], [174.58388067824, -36.9593402923291], [174.583966044962, -36.9592965148658], [174.584044242384, -36.9592529564877], [174.584144005995, -36.9592064233509], [174.584241383344, -36.9591680503751], [174.584331247411, -36.9591348684294], [174.584452780762, -36.9591083664074], [174.584559853019, -36.9590902586895], [174.584647987085, -36.9590671523846], [174.58473672277, -36.9590402360777], [174.584835192295, -36.9590141010293], [174.584939205129, -36.95898132644], [174.585018485488, -36.9589502267898], [174.585127716806, -36.9589121076469], [174.585240568142, -36.9588683615937], [174.585398780186, -36.9588175938486], [174.585582044698, -36.9587705798334], [174.585714021748, -36.9587350515072], [174.585822353845, -36.9586898915575], [174.585873356438, -36.9586437838817], [174.585904523491, -36.95857361906], [174.585903687864, -36.9584940218484], [174.5859016613, -36.9584262104092], [174.585899905028, -36.9583600042732], [174.585895806322, -36.9582873234636], [174.58589438461, -36.9582112547615], [174.585893806968, -36.9581366755352], [174.585890385282, -36.9580535308877], [174.58589723202, -36.9579766369561], [174.585901263251, -36.9579153506028], [174.585912164007, -36.9578753047991], [174.58594176062, -36.9578486232735], [174.585985507977, -36.9578336424437], [174.586027625694, -36.9578370204907], [174.586099999135, -36.9578595698846], [174.586166412328, -36.9578910672775], [174.58622317882, -36.9579432479734], [174.586290766123, -36.9580153607871], [174.586352767749, -36.9580998543669], [174.586423785519, -36.9581952464667], [174.586490867774, -36.9582732571494], [174.586541274145, -36.9583364723108], [174.586599268831, -36.9583815616864], [174.586680633235, -36.9584049991709], [174.586792918386, -36.9584042429264], [174.586924680741, -36.9583840247064], [174.587121418929, -36.9583543766582], [174.587218601603, -36.9583327753304], [174.587321833109, -36.958294434249], [174.587382129089, -36.9582631677343], [174.587476464088, -36.9582240810778], [174.587565527814, -36.9581919097092], [174.587652903674, -36.9581710043187], [174.5877840079, -36.9581357296461], [174.587984178249, -36.9580751863835], [174.58821859205, -36.958017118582], [174.588370275681, -36.9579720722031], [174.588501368365, -36.9579333555341], [174.588619145279, -36.9578917450969], [174.58869737156, -36.9578553409381], [174.588740945675, -36.9578089691117], [174.588769189991, -36.957752067316], [174.588770863378, -36.9577025507548], [174.588739872501, -36.9576433257006], [174.588663158055, -36.9576228559437], [174.588586233524, -36.9576021654125], [174.588507668539, -36.9575807387434], [174.588422216267, -36.9575388686565], [174.588348053372, -36.9575011847744], [174.588280890248, -36.95745042682], [174.588229269234, -36.9574097732789], [174.58819868213, -36.9573758003762], [174.588186235427, -36.9573337889908], [174.588186806839, -36.9572768924758], [174.588197339967, -36.9572167764636], [174.588219522413, -36.9571311414445], [174.588239193296, -36.957063503979], [174.588258447154, -36.9569807122385]]}, "properties": {"OBJECTID": 3231, "TRACKNAME": "Pipeline Track", "CONDITIONSOFUSE": "Waitakere Central Regional Park", "STATUS": "Temp Closed", "WEBLINK": "https://www.aucklandcouncil.govt.nz/en/parks-recreation/find-park-beach/park-detail/204.html", "VALIDATIONSTATE": 3, "created_user": "AC_owner", "last_edited_user": "AC_owner", "last_edited_date": 1789875254325, "created_date": 1789875254325, "PARK_SAPSITEID": null, "TRACK_ID": null, "KAURIDIEBACK_TRACK": null, "KAURIDIEBACK_MITIGATED": null, "SegmentID": null, "GlobalID": "2a16326b-3e5c-4157-a589-160a1ef7c40a", "Shape__Length": 804.0592195786552}}]}