{"type": "FeatureCollection", "features": [{"type": "Feature", "id": 11983, "geometry": {"type": "LineString", "coordinates": [[175.007745288583, -36.7908967026869], [175.007815076688, -36.7908107196252], [175.007877996487, -36.7907213736813], [175.007933798415, -36.7906290192715], [175.007982261144, -36.7905340227449], [175.008069317773, -36.7904572811958], [175.008160492198, -36.7903836979615], [175.008255607466, -36.7903134158437], [175.008354478978, -36.7902465712373], [175.008442560719, -36.7902004188319], [175.008532264842, -36.7901563342412], [175.008623516326, -36.7901143543323], [175.008716238855, -36.7900745142118], [175.008754488812, -36.7900503061385], [175.008791053478, -36.7900244683112], [175.008825825643, -36.7899970764897], [175.008858703354, -36.7899682109902], [175.00888959021, -36.7899379564501], [175.00891839565, -36.7899064015792], [175.008945035217, -36.7898736388999], [175.008969430802, -36.7898397644762], [175.008991510879, -36.7898048776315], [175.00901121071, -36.7897690806575], [175.009028472536, -36.7897324785146], [175.009043245747, -36.7896951785237], [175.009055487031, -36.7896572900517], [175.0090651605, -36.7896189241909], [175.009072237793, -36.7895801934331], [175.009076698163, -36.7895412113399], [175.009091510169, -36.7895262487813], [175.009109648731, -36.7895138806813], [175.009130425117, -36.7895045766625], [175.009153050438, -36.7894986900028], [175.009176665599, -36.7894964442212], [175.009200373921, -36.789497924591], [175.00922327519, -36.7895030749018], [175.009244499834, -36.7895116995939], [175.009313929544, -36.7895175551006], [175.009383615995, -36.7895208990305], [175.009453418811, -36.7895217246479], [175.009523197379, -36.7895200302898], [175.009592811137, -36.7895158193697], [175.009662119856, -36.7895091003701], [175.009730983919, -36.7894998868261], [175.009799264606, -36.7894881972977], [175.009900252182, -36.7894683005942], [175.010001837598, -36.789450481195], [175.010103954814, -36.7894347506839], [175.010206537445, -36.7894211192869], [175.010309518805, -36.7894095958652], [175.010412831946, -36.7894001879097], [175.010516409707, -36.7893929015362], [175.010620184753, -36.789387741481], [175.010675613889, -36.7894036353527], [175.010732519748, -36.7894156894935], [175.010790491969, -36.7894238169781], [175.010849112499, -36.7894279591974], [175.01090795861, -36.7894280862812], [175.010966605948, -36.7894241973133], [175.011024631593, -36.7894163203383], [175.011081617106, -36.7894045121593], [175.011172206454, -36.7893871690688], [175.011263397322, -36.7893720018435], [175.011355108942, -36.7893590239166], [175.011447260088, -36.7893482467822], [175.011539769141, -36.7893396799852], [175.011632554168, -36.789333331113], [175.01172553299, -36.7893292057883], [175.011818623257, -36.7893273076647], [175.011911742521, -36.789327638423], [175.012004808308, -36.7893301977701], [175.01209773819, -36.789334983439], [175.012190449861, -36.7893419911907], [175.012282861208, -36.7893512148185], [175.012374890384, -36.7893626461528], [175.012466455878, -36.7893762750688], [175.012557476593, -36.7893920894953], [175.012851999466, -36.7894304229251], [175.013145723924, -36.7894725337893], [175.013438575096, -36.7895184113521], [175.013730478328, -36.7895680439175], [175.014021359211, -36.7896214188322], [175.014311143595, -36.7896785224893], [175.014599757609, -36.789739340331], [175.014887127679, -36.7898038568529], [175.01517318055, -36.7898720556075], [175.015457843299, -36.789943919209], [175.01574104336, -36.7900194293371], [175.016022708537, -36.7900985667419], [175.016302767025, -36.7901813112488], [175.01658114743, -36.790267641764], [175.016857778782, -36.790357536279], [175.017132590559, -36.790450971877], [175.017181061593, -36.7904642569368], [175.017228398519, -36.7904799662266], [175.017274414119, -36.7904980376163], [175.017318926403, -36.790518399634], [175.017361759323, -36.7905409717481], [175.017402743476, -36.7905656646862], [175.017441716767, -36.7905923807879], [175.017478525055, -36.7906210143914], [175.017513022762, -36.7906514522507], [175.017545073446, -36.7906835739842], [175.017574550345, -36.7907172525501], [175.017601336872, -36.7907523547495], [175.017625327085, -36.7907887417528], [175.017646426096, -36.7908262696485], [175.017664550454, -36.790864790013], [175.017679628474, -36.7909041504971], [175.017691600515, -36.7909441954287], [175.017700419224, -36.7909847664284], [175.017706049716, -36.7910257030359], [175.017708469719, -36.7910668433449], [175.017707669655, -36.791108024643], [175.017703652683, -36.7911490840554], [175.017696434687, -36.7911898591891], [175.017686044208, -36.7912301887754], [175.017672522337, -36.7912699133072], [175.017655922549, -36.7913088756705], [175.017636310493, -36.7913469217654], [175.017613763733, -36.7913839011155], [175.017588371438, -36.7914196674635], [175.017560234036, -36.7914540793494], [175.017529462808, -36.79148700067], [175.017496179456, -36.7915183012173], [175.017449752951, -36.7915711887395], [175.017407480886, -36.7916262837294], [175.017369525016, -36.7916833753759], [175.017336030583, -36.7917422452273], [175.01730712576, -36.7918026680276], [175.017282921156, -36.7918644125778], [175.017263509398, -36.7919272426211], [175.017248964777, -36.7919909177467], [175.017239342956, -36.7920551943092], [175.017234680766, -36.7921198263618], [175.017234996057, -36.7921845665963], [175.017240287637, -36.7922491672903], [175.017250535269, -36.7923133812546], [175.017265699755, -36.7923769627791], [175.017285723081, -36.7924396685733], [175.017310528639, -36.7925012586969], [175.017340021524, -36.7925614974782], [175.017374088894, -36.7926201544158], [175.0174126004, -36.7926770050605], [175.017455408688, -36.7927318318747], [175.017502349961, -36.7927844250643], [175.017553244608, -36.7928345833819], [175.017607897887, -36.7928821148965], [175.017666100672, -36.7929268377287], [175.017727630257, -36.7929685807459], [175.0177922512, -36.7930071842177], [175.017859716233, -36.7930425004272], [175.017929767202, -36.7930743942358], [175.018002136057, -36.7931027436012], [175.018076545877, -36.7931274400435], [175.018152711932, -36.793148389061], [175.018230342768, -36.7931655104915], [175.018308488466, -36.7932228383764], [175.01838089217, -36.7932848517157], [175.018447120838, -36.7933511796228], [175.018506778356, -36.7934214254058], [175.018559507908, -36.79349516894], [175.018604994109, -36.7935719691803], [175.018642964894, -36.7936513667985], [175.018673193143, -36.7937328869311], [175.018695498039, -36.7938160420184], [175.018709746156, -36.7939003347209], [175.01871585225, -36.7939852608935], [175.018713779774, -36.7940703126008], [175.018703541097, -36.794154981155], [175.018685197428, -36.7942387601581], [175.018658858454, -36.7943211485309], [175.018624681683, -36.7944016535098], [175.018604627774, -36.794449509027], [175.018590541354, -36.7944987221187], [175.01858255984, -36.7945488127315], [175.018580761102, -36.7945992922513], [175.018585162697, -36.7946496682693], [175.018595721702, -36.7946994493855], [175.01861233513, -36.7947481500019], [175.018634840931, -36.7947952950596], [175.018663019581, -36.7948404246729], [175.018696596212, -36.7948830986154], [175.018735243304, -36.7949229006142], [175.01877858387, -36.7949594424112], [175.018826195141, -36.7949923675501], [175.018877612682, -36.7950213548539], [175.018932334932, -36.7950461215579], [175.018989828089, -36.7950664260685], [175.01904953132, -36.7950820703193], [175.019110862233, -36.7950929017042], [175.019173222556, -36.7950988145653], [175.019236003976, -36.7950997512242], [175.019298594072, -36.7950957025444], [175.019360382289, -36.7950867080202], [175.019420765895, -36.7950728553919], [175.019479155861, -36.7950542797896], [175.019534982606, -36.7950311624148], [175.019587701556, -36.7950037287729], [175.01963679845, -36.7949722464733], [175.019681794367, -36.7949370226187], [175.019722250387, -36.7948984008095], [175.01975777188, -36.7948567577913], [175.019788012353, -36.7948124997806], [175.019812676827, -36.7947660585014], [175.019862127256, -36.794645267411], [175.019915808837, -36.7945256503845], [175.019973678539, -36.7944073032677], [175.020035689971, -36.7942903208887], [175.020101793427, -36.7941747969814], [175.020171935922, -36.7940608241108], [175.020246061236, -36.7939484935984], [175.020324109958, -36.7938378954497], [175.020406019534, -36.7937291182814], [175.020491724318, -36.793622249251], [175.020581155622, -36.7935173739866], [175.020674241776, -36.7934145765184], [175.02077090818, -36.7933139392116], [175.020871077368, -36.7932155427], [175.020974669067, -36.7931194658219], [175.021081600264, -36.7930257855565], [175.021123613515, -36.7929972154114], [175.021168511133, -36.7929716400377], [175.021215964064, -36.7929492468756], [175.021265624527, -36.792930200043], [175.021317128561, -36.7929146391326], [175.021370098698, -36.7929026781887], [175.021424146722, -36.7928944048719], [175.02147887652, -36.7928898798165], [175.021533886983, -36.792889136186], [175.021588774942, -36.79289217943], [175.02164313813, -36.7928989872447], [175.021696578124, -36.7929095097359], [175.021748703265, -36.7929236697851], [175.021799131533, -36.7929413636141], [175.021847493342, -36.7929624615461], [175.02189343425, -36.7929868089557]]}, "properties": {"OBJECTID": 11983, "TRACKNAME": "Piritahi to Surfdale", "CONDITIONSOFUSE": "Blackpool Cemetery Reserve", "STATUS": "Open", "WEBLINK": "https://www.aucklandcouncil.govt.nz/en/parks-recreation/find-park-beach/park-detail/1111.html", "VALIDATIONSTATE": 3, "created_user": "AC_owner", "last_edited_user": "AC_owner", "last_edited_date": 1789875254325, "created_date": 1789875254325, "PARK_SAPSITEID": null, "TRACK_ID": null, "KAURIDIEBACK_TRACK": null, "KAURIDIEBACK_MITIGATED": null, "SegmentID": null, "GlobalID": "a3177ae2-434a-49e1-8c61-e66af3e1b2b2", "Shape__Length": 1952.078148371043}}]}