{"type": "FeatureCollection", "features": [{"type": "Feature", "id": 8908, "geometry": {"type": "MultiLineString", "coordinates": [[[175.005993066849, -36.7912738555533], [175.005991172941, -36.7912696441049], [175.005906933459, -36.7912272982488], [175.005906928931, -36.7912272965226], [175.005769131241, -36.7911732014254], [175.005685310816, -36.7911402986505], [175.005685300617, -36.7911402943159], [175.005602144672, -36.7911076443581], [175.005555644425, -36.7910797848555], [175.005555629652, -36.7910797769928], [175.005513582839, -36.7910589645632], [175.005513578288, -36.791058961936], [175.005471518987, -36.7910381424912], [175.00547151558, -36.791038140746], [175.005458160561, -36.7910327129417], [175.005458149195, -36.7910327068242], [175.005425617176, -36.7910141052435], [175.00540878865, -36.7910044836046], [175.005402357741, -36.7910008047355], [175.005400872111, -36.7909999582189], [175.005400456891, -36.7909997209651], [175.005400274871, -36.7909996167783], [175.005400057517, -36.7909994897533], [175.005399898347, -36.7909994023062], [175.005399552466, -36.7909992026396], [175.005399312403, -36.7909990642805], [175.005399121258, -36.7909989539384], [175.005398752739, -36.7909987456404], [175.005398134961, -36.7909983901253], [175.005397675421, -36.7909981292834], [175.005397173754, -36.790997843014], [175.005396667512, -36.7909975532164], [175.005396190818, -36.7909972791442], [175.005395885943, -36.7909971049241], [175.005393123869, -36.790995526435], [175.00538919, -36.7909932754979], [175.005385445037, -36.7909911349405], [175.005378025593, -36.7909868922946], [175.005370496972, -36.7909825883974], [175.005364492746, -36.7909791565012], [175.005339095828, -36.790964635595], [175.005322458373, -36.7909551206816], [175.005290078868, -36.7909366066222], [175.005290033357, -36.7909365803502], [175.00526876817, -36.7909244196967], [175.005258433158, -36.7909182982969], [175.005240648611, -36.7909077680053], [175.005217573653, -36.7908941047233], [175.005217563407, -36.7908940985868], [175.005025077869, -36.790797293022], [175.005025075606, -36.7907972921588], [175.004970740592, -36.7907769688616], [175.004911351322, -36.790754746064], [175.004854087068, -36.7907433239442], [175.004766012097, -36.7907257569576], [175.004662512993, -36.7907051051693], [175.004578195515, -36.7906893836809], [175.004517451762, -36.7906831638783], [175.004517446138, -36.7906831630718], [175.004471196489, -36.7906787836378], [175.004387447923, -36.7906825253866], [175.004387445706, -36.7906825263253], [175.004335807885, -36.7906880746502], [175.004335805668, -36.7906880755889], [175.004257895219, -36.7906925336224], [175.004195586089, -36.7906941030898], [175.004195571527, -36.7906941033353], [175.004151016375, -36.7906943288872], [175.004010679791, -36.7906773294787], [175.004010674144, -36.7906773277712], [175.003964057355, -36.790669178708], [175.003924331577, -36.7906592739897], [175.003898605414, -36.7906496506706], [175.003847120869, -36.7906357908322], [175.003784967384, -36.7906108569204], [175.003784962856, -36.7906108551941], [175.003740600634, -36.7905893627961], [175.003740592675, -36.7905893584237], [175.003595658955, -36.7905058295205], [175.003534452134, -36.7904670253685], [175.003534447583, -36.7904670227412], [175.003478633181, -36.7904346667539], [175.003478630917, -36.7904346658907], [175.003327491664, -36.7903438639286], [175.003327487137, -36.7903438622022], [175.003040131096, -36.7902800005086], [175.003040127712, -36.7902799996643], [175.003036860788, -36.7902791281453]], [[175.007088407105, -36.7913658864868], [175.007092515571, -36.7913666661739], [175.007096312032, -36.7913682010235], [175.007114183128, -36.7913755497243], [175.007121771773, -36.791377854276], [175.007124114579, -36.7913785664256], [175.007138289903, -36.7913828706711], [175.007143592268, -36.7913844819467], [175.007154459424, -36.7913885707393], [175.007164774187, -36.7913924480333], [175.007179512423, -36.7913970230807], [175.007183773993, -36.7913978722853], [175.007192020359, -36.7913988416945], [175.007204841927, -36.7914003539725], [175.007210167464, -36.791400620089], [175.007216969852, -36.7914004935362], [175.007228953859, -36.7914002713961], [175.007229332556, -36.7914002253451], [175.007250280487, -36.7913947594345], [175.00725533427, -36.7913931148382], [175.007265969152, -36.7913875733648], [175.007273054921, -36.7913824604459], [175.00728102496, -36.7913744736207], [175.007287450687, -36.7913652393057], [175.007292198488, -36.7913567228252], [175.007293895493, -36.7913515404454], [175.007298355641, -36.7913441969277], [175.007305072003, -36.7913226970906], [175.007306075152, -36.7913194831838], [175.007306792447, -36.7913161371026], [175.007310886736, -36.7912970510945], [175.007310880287, -36.7912964175775], [175.007263263669, -36.7908928518946], [175.007264236373, -36.7908665719967], [175.007264237399, -36.7908665683741], [175.007287568468, -36.7908412521795], [175.007287571735, -36.7908412485191], [175.007311023243, -36.7908200754437], [175.007311026557, -36.7908200735851], [175.007351855439, -36.7908054995001], [175.007351863257, -36.7908054984667], [175.007398175369, -36.790801872026], [175.007455134755, -36.7908104859516], [175.007455143763, -36.7908104876021], [175.00750903309, -36.7908316140427], [175.007509037642, -36.7908316166698], [175.007556062794, -36.7908528607863], [175.007556068488, -36.7908528642954], [175.007597928909, -36.7908742046116], [175.007597932293, -36.7908742054558], [175.00763275301, -36.790890141353], [175.007632764305, -36.7908901447675], [175.007669030797, -36.7908963833082], [175.007669039782, -36.7908963840578], [175.007710015289, -36.7908970017755], [175.007710639258, -36.7908969930419], [175.007718005459, -36.7908966586508]], [[175.003013864027, -36.7901049230895], [175.003024782744, -36.790273022391], [175.003036860788, -36.7902791281453]], [[175.005993066849, -36.7912738555533], [175.006001245146, -36.7912740636797], [175.006027917979, -36.7912842600256], [175.006027929298, -36.7912842643412], [175.006052894563, -36.7912938702861], [175.006079361127, -36.7912999817259], [175.006079363367, -36.7912999816881], [175.006122530834, -36.791309956495], [175.006153498338, -36.7913202083375], [175.006153500579, -36.7913202082997], [175.006206581242, -36.7913279896517], [175.006249594868, -36.7913342995483], [175.006300874376, -36.7913333486447], [175.006347840337, -36.7913324768168], [175.006393185551, -36.7913316368265], [175.006393188888, -36.7913316358689], [175.006443675241, -36.7913205143062], [175.006482865167, -36.7913118727011], [175.006527545214, -36.7913020316153], [175.006527547431, -36.7913020306766], [175.006575549083, -36.7912914602339], [175.006575552444, -36.7912914601772], [175.006621940419, -36.7912905997981], [175.006655162684, -36.7912899832303], [175.006700437603, -36.79130148334], [175.006745483733, -36.7913129332146], [175.006819682718, -36.7913317838568], [175.006880302738, -36.7913306588266], [175.006934174164, -36.7913296602958], [175.006980885834, -36.7913362653292], [175.006983915755, -36.7913370695348], [175.007027979746, -36.7913554138296], [175.00703891756, -36.7913584315769], [175.007055459509, -36.7913606679201], [175.007064030145, -36.7913618247463], [175.007088407105, -36.7913658864868]]]}, "properties": {"OBJECTID": 8908, "TRACKNAME": "Piritahi Reserve track", "CONDITIONSOFUSE": "Piritaha Esplanade Reserve", "STATUS": "Open", "WEBLINK": "https://www.aucklandcouncil.govt.nz/en/parks-recreation/find-park-beach/park-detail/1075.html", "VALIDATIONSTATE": 3, "created_user": "AC_owner", "last_edited_user": "AC_owner", "last_edited_date": 1789875254325, "created_date": 1789875254325, "PARK_SAPSITEID": null, "TRACK_ID": null, "KAURIDIEBACK_TRACK": null, "KAURIDIEBACK_MITIGATED": null, "SegmentID": null, "GlobalID": "54304bfe-8f33-4ca9-b642-a4d6ace6b103", "Shape__Length": 535.9334611953933}}]}