{"type": "FeatureCollection", "features": [{"type": "Feature", "id": 12094, "geometry": {"type": "LineString", "coordinates": [[175.071789349341, -36.8081187733084], [175.071773665233, -36.8081146275578], [175.071773623465, -36.8081146165687], [175.07175880872, -36.8081105376835]]}, "properties": {"OBJECTID": 12094, "TRACKNAME": "Piwakawaka track", "CONDITIONSOFUSE": "Onetangi Sports Park (Rangihoua)", "STATUS": "Open", "WEBLINK": "https://www.aucklandcouncil.govt.nz/en/parks-recreation/find-park-beach/park-detail/120.html", "VALIDATIONSTATE": 3, "created_user": "AC_owner", "last_edited_user": "AC_owner", "last_edited_date": 1789875254325, "created_date": 1789875254325, "PARK_SAPSITEID": null, "TRACK_ID": null, "KAURIDIEBACK_TRACK": null, "KAURIDIEBACK_MITIGATED": null, "SegmentID": null, "GlobalID": "ff37b341-83ee-4dfc-afe9-526538b1d2b7", "Shape__Length": 2.874567094197972}}, {"type": "Feature", "id": 12095, "geometry": {"type": "LineString", "coordinates": [[175.071789349341, -36.8081187733084], [175.071742215689, -36.8081040670816], [175.07174218057, -36.8081040532728], [175.071742134077, -36.808104033353], [175.071727345381, -36.8080977602348], [175.071727251323, -36.8080977222166], [175.071727199301, -36.8080977050971], [175.071710412474, -36.8080924861748], [175.071693794898, -36.8080872255444], [175.071693732696, -36.8080872049971], [175.071693687421, -36.8080871886614], [175.071679481896, -36.8080821329505], [175.071679441174, -36.8080821192393], [175.071666064767, -36.8080775502029], [175.071665988999, -36.8080775253854], [175.071665921195, -36.8080775049358], [175.071651515059, -36.8080733233778], [175.071651403294, -36.8080732937798], [175.071651287825, -36.8080732930882]]}, "properties": {"OBJECTID": 12095, "TRACKNAME": "Piwakawaka track", "CONDITIONSOFUSE": "Onetangi Sports Park (Rangihoua)", "STATUS": "Open", "WEBLINK": "https://www.aucklandcouncil.govt.nz/en/parks-recreation/find-park-beach/park-detail/120.html", "VALIDATIONSTATE": 3, "created_user": "AC_owner", "last_edited_user": "AC_owner", "last_edited_date": 1789875254325, "created_date": 1789875254325, "PARK_SAPSITEID": null, "TRACK_ID": null, "KAURIDIEBACK_TRACK": null, "KAURIDIEBACK_MITIGATED": null, "SegmentID": null, "GlobalID": "fcd80771-4523-4cac-8e41-312d2b3cb687", "Shape__Length": 13.324849713857944}}, {"type": "Feature", "id": 12096, "geometry": {"type": "LineString", "coordinates": [[175.07175880872, -36.8081105376835], [175.071789349341, -36.8081187733084]]}, "properties": {"OBJECTID": 12096, "TRACKNAME": "Piwakawaka track", "CONDITIONSOFUSE": "Onetangi Sports Park (Rangihoua)", "STATUS": "Open", "WEBLINK": "https://www.aucklandcouncil.govt.nz/en/parks-recreation/find-park-beach/park-detail/120.html", "VALIDATIONSTATE": 3, "created_user": "AC_owner", "last_edited_user": "AC_owner", "last_edited_date": 1789875254325, "created_date": 1789875254325, "PARK_SAPSITEID": null, "TRACK_ID": null, "KAURIDIEBACK_TRACK": null, "KAURIDIEBACK_MITIGATED": null, "SegmentID": null, "GlobalID": "ace155a9-58b8-4ba3-9f2b-2034ca199460", "Shape__Length": 2.874512802305887}}, {"type": "Feature", "id": 12097, "geometry": {"type": "LineString", "coordinates": [[175.07175880872, -36.8081105376835], [175.071758693522, -36.8081105054416]]}, "properties": {"OBJECTID": 12097, "TRACKNAME": "Piwakawaka track", "CONDITIONSOFUSE": "Onetangi Sports Park (Rangihoua)", "STATUS": "Open", "WEBLINK": "https://www.aucklandcouncil.govt.nz/en/parks-recreation/find-park-beach/park-detail/120.html", "VALIDATIONSTATE": 3, "created_user": "AC_owner", "last_edited_user": "AC_owner", "last_edited_date": 1789875254325, "created_date": 1789875254325, "PARK_SAPSITEID": null, "TRACK_ID": null, "KAURIDIEBACK_TRACK": null, "KAURIDIEBACK_MITIGATED": null, "SegmentID": null, "GlobalID": "fd0da14c-612e-4daf-9918-f8b0557a8bca", "Shape__Length": 0.010884851353894864}}, {"type": "Feature", "id": 12098, "geometry": {"type": "LineString", "coordinates": [[175.071982503058, -36.8080990445451], [175.071960449676, -36.8080983753052], [175.071960348331, -36.8080983996042], [175.071960294967, -36.8080984158565], [175.071950859064, -36.8081014798171], [175.071950804604, -36.8081014969897], [175.071950766803, -36.8081015084643], [175.071934889053, -36.8081061466178], [175.071934838977, -36.8081061601088], [175.071914731378, -36.8081112685575], [175.071914596617, -36.8081113006494], [175.071914471696, -36.8081113235566], [175.071895114056, -36.8081144811262], [175.07189506722, -36.8081144900543], [175.071895010349, -36.8081145009599], [175.071877434006, -36.8081180826389], [175.071877380472, -36.808118092585], [175.071877335828, -36.8081180996722], [175.071860224412, -36.8081206746002], [175.071860113837, -36.8081206891457], [175.071860016585, -36.8081206989524], [175.071843727791, -36.8081221473311], [175.071843602433, -36.8081221540224], [175.071843430873, -36.8081221516046], [175.071824816552, -36.8081214070791], [175.071824742463, -36.8081214029625], [175.071824662724, -36.8081213971418], [175.071806510052, -36.8081198568275], [175.071806469598, -36.808119853026], [175.071806430313, -36.8081198510068], [175.07178956559, -36.8081188119009], [175.071789453264, -36.8081188030429], [175.071789349341, -36.8081187733084]]}, "properties": {"OBJECTID": 12098, "TRACKNAME": "Piwakawaka track", "CONDITIONSOFUSE": "Onetangi Sports Park (Rangihoua)", "STATUS": "Open", "WEBLINK": "https://www.aucklandcouncil.govt.nz/en/parks-recreation/find-park-beach/park-detail/120.html", "VALIDATIONSTATE": 3, "created_user": "AC_owner", "last_edited_user": "AC_owner", "last_edited_date": 1789875254325, "created_date": 1789875254325, "PARK_SAPSITEID": null, "TRACK_ID": null, "KAURIDIEBACK_TRACK": null, "KAURIDIEBACK_MITIGATED": null, "SegmentID": null, "GlobalID": "176ad28d-1262-4eaa-ae2d-f9d4547e8895", "Shape__Length": 17.621229824338617}}, {"type": "Feature", "id": 12099, "geometry": {"type": "LineString", "coordinates": [[175.071982503058, -36.8080990445451], [175.071987517548, -36.8080950409755], [175.07198760567, -36.8080949835587], [175.072011251224, -36.8080789986793], [175.072011343633, -36.8080789339773], [175.07201138485, -36.8080788413258]]}, "properties": {"OBJECTID": 12099, "TRACKNAME": "Piwakawaka track", "CONDITIONSOFUSE": "Onetangi Sports Park (Rangihoua)", "STATUS": "Open", "WEBLINK": "https://www.aucklandcouncil.govt.nz/en/parks-recreation/find-park-beach/park-detail/120.html", "VALIDATIONSTATE": 3, "created_user": "AC_owner", "last_edited_user": "AC_owner", "last_edited_date": 1789875254325, "created_date": 1789875254325, "PARK_SAPSITEID": null, "TRACK_ID": null, "KAURIDIEBACK_TRACK": null, "KAURIDIEBACK_MITIGATED": null, "SegmentID": null, "GlobalID": "147e1cae-f05d-492c-9da9-695f2741d6c7", "Shape__Length": 3.419226291364243}}, {"type": "Feature", "id": 12100, "geometry": {"type": "LineString", "coordinates": [[175.07201138485, -36.8080788413258], [175.072018577781, -36.8080626763387], [175.072018615831, -36.8080625909529]]}, "properties": {"OBJECTID": 12100, "TRACKNAME": "Piwakawaka track", "CONDITIONSOFUSE": "Onetangi Sports Park (Rangihoua)", "STATUS": "Open", "WEBLINK": "https://www.aucklandcouncil.govt.nz/en/parks-recreation/find-park-beach/park-detail/120.html", "VALIDATIONSTATE": 3, "created_user": "AC_owner", "last_edited_user": "AC_owner", "last_edited_date": 1789875254325, "created_date": 1789875254325, "PARK_SAPSITEID": null, "TRACK_ID": null, "KAURIDIEBACK_TRACK": null, "KAURIDIEBACK_MITIGATED": null, "SegmentID": null, "GlobalID": "358dd1d9-9099-47c7-b5fb-c76d34234d85", "Shape__Length": 1.9153721945670998}}, {"type": "Feature", "id": 12101, "geometry": {"type": "LineString", "coordinates": [[175.07201138485, -36.8080788413258], [175.072018620149, -36.8080625016485], [175.072019233969, -36.8080416960539], [175.072019233562, -36.8080415978188], [175.07201911834, -36.8080415646763], [175.071998604793, -36.8080356464459], [175.07199849863, -36.8080356167507], [175.071998386838, -36.8080356277122], [175.071986006455, -36.8080370305192], [175.071985927105, -36.8080370391127], [175.0719858857, -36.808037041637], [175.071974905605, -36.8080375412641], [175.071974861936, -36.8080375429266], [175.071974822797, -36.8080375463127], [175.071961898965, -36.8080387062241], [175.071961787052, -36.8080387126812], [175.071961625624, -36.8080387118896], [175.071950223121, -36.8080384275316], [175.071950052488, -36.8080384178874], [175.071949960255, -36.8080384059754], [175.071935273548, -36.8080356254627], [175.071935216095, -36.8080356147471], [175.071935171062, -36.8080356074203], [175.071917987823, -36.8080328974577], [175.071917942791, -36.8080328901308], [175.071917901192, -36.808032885448], [175.071900458147, -36.8080308911403], [175.071900346892, -36.8080308804611], [175.071900244697, -36.8080308732292], [175.071880996959, -36.8080298738673], [175.071880908403, -36.8080298736081], [175.071862376965, -36.808029999205], [175.071847834718, -36.8080302075931], [175.071847709166, -36.8080302070774], [175.071847586368, -36.8080301839811], [175.071833387688, -36.8080272534452], [175.071833291826, -36.8080272316821]]}, "properties": {"OBJECTID": 12101, "TRACKNAME": "Piwakawaka track", "CONDITIONSOFUSE": "Onetangi Sports Park (Rangihoua)", "STATUS": "Open", "WEBLINK": "https://www.aucklandcouncil.govt.nz/en/parks-recreation/find-park-beach/park-detail/120.html", "VALIDATIONSTATE": 3, "created_user": "AC_owner", "last_edited_user": "AC_owner", "last_edited_date": 1789875254325, "created_date": 1789875254325, "PARK_SAPSITEID": null, "TRACK_ID": null, "KAURIDIEBACK_TRACK": null, "KAURIDIEBACK_MITIGATED": null, "SegmentID": null, "GlobalID": "daf40744-cc07-49de-be06-d15276c43e8b", "Shape__Length": 21.100779566370523}}, {"type": "Feature", "id": 12102, "geometry": {"type": "LineString", "coordinates": [[175.071651287825, -36.8080732930882], [175.071633173575, -36.8080732194012]]}, "properties": {"OBJECTID": 12102, "TRACKNAME": "Piwakawaka track", "CONDITIONSOFUSE": "Onetangi Sports Park (Rangihoua)", "STATUS": "Open", "WEBLINK": "https://www.aucklandcouncil.govt.nz/en/parks-recreation/find-park-beach/park-detail/120.html", "VALIDATIONSTATE": 3, "created_user": "AC_owner", "last_edited_user": "AC_owner", "last_edited_date": 1789875254325, "created_date": 1789875254325, "PARK_SAPSITEID": null, "TRACK_ID": null, "KAURIDIEBACK_TRACK": null, "KAURIDIEBACK_MITIGATED": null, "SegmentID": null, "GlobalID": "e658a5d2-160f-4750-b3bc-09d55cb9610c", "Shape__Length": 1.6164773588941614}}, {"type": "Feature", "id": 12103, "geometry": {"type": "LineString", "coordinates": [[175.071651287825, -36.8080732930882], [175.071641870565, -36.808072557701], [175.071641597932, -36.8080725480313], [175.071641324736, -36.8080725591014], [175.071633173575, -36.8080732194012]]}, "properties": {"OBJECTID": 12103, "TRACKNAME": "Piwakawaka track", "CONDITIONSOFUSE": "Onetangi Sports Park (Rangihoua)", "STATUS": "Open", "WEBLINK": "https://www.aucklandcouncil.govt.nz/en/parks-recreation/find-park-beach/park-detail/120.html", "VALIDATIONSTATE": 3, "created_user": "AC_owner", "last_edited_user": "AC_owner", "last_edited_date": 1789875254325, "created_date": 1789875254325, "PARK_SAPSITEID": null, "TRACK_ID": null, "KAURIDIEBACK_TRACK": null, "KAURIDIEBACK_MITIGATED": null, "SegmentID": null, "GlobalID": "742d943f-1f92-42ad-b743-c8a0a173044e", "Shape__Length": 1.62414643751275}}, {"type": "Feature", "id": 12104, "geometry": {"type": "LineString", "coordinates": [[175.071621864698, -36.8080737057981], [175.071621733617, -36.8080737080824]]}, "properties": {"OBJECTID": 12104, "TRACKNAME": "Piwakawaka track", "CONDITIONSOFUSE": "Onetangi Sports Park (Rangihoua)", "STATUS": "Open", "WEBLINK": "https://www.aucklandcouncil.govt.nz/en/parks-recreation/find-park-beach/park-detail/120.html", "VALIDATIONSTATE": 3, "created_user": "AC_owner", "last_edited_user": "AC_owner", "last_edited_date": 1789875254325, "created_date": 1789875254325, "PARK_SAPSITEID": null, "TRACK_ID": null, "KAURIDIEBACK_TRACK": null, "KAURIDIEBACK_MITIGATED": null, "SegmentID": null, "GlobalID": "5623783d-a163-445c-a48e-6f848b99e1e5", "Shape__Length": 0.011699999682605267}}, {"type": "Feature", "id": 12105, "geometry": {"type": "LineString", "coordinates": [[175.071621864698, -36.8080737057981], [175.071651287825, -36.8080732930882]]}, "properties": {"OBJECTID": 12105, "TRACKNAME": "Piwakawaka track", "CONDITIONSOFUSE": "Onetangi Sports Park (Rangihoua)", "STATUS": "Open", "WEBLINK": "https://www.aucklandcouncil.govt.nz/en/parks-recreation/find-park-beach/park-detail/120.html", "VALIDATIONSTATE": 3, "created_user": "AC_owner", "last_edited_user": "AC_owner", "last_edited_date": 1789875254325, "created_date": 1789875254325, "PARK_SAPSITEID": null, "TRACK_ID": null, "KAURIDIEBACK_TRACK": null, "KAURIDIEBACK_MITIGATED": null, "SegmentID": null, "GlobalID": "53279c0a-899b-432e-9ff6-4e3542aace84", "Shape__Length": 2.6260234596925778}}, {"type": "Feature", "id": 12106, "geometry": {"type": "LineString", "coordinates": [[175.071633173575, -36.8080732194012], [175.071632836932, -36.8080732468992], [175.071632796672, -36.8080732503047], [175.071632744064, -36.8080732530241], [175.071621864698, -36.8080737057981]]}, "properties": {"OBJECTID": 12106, "TRACKNAME": "Piwakawaka track", "CONDITIONSOFUSE": "Onetangi Sports Park (Rangihoua)", "STATUS": "Open", "WEBLINK": "https://www.aucklandcouncil.govt.nz/en/parks-recreation/find-park-beach/park-detail/120.html", "VALIDATIONSTATE": 3, "created_user": "AC_owner", "last_edited_user": "AC_owner", "last_edited_date": 1789875254325, "created_date": 1789875254325, "PARK_SAPSITEID": null, "TRACK_ID": null, "KAURIDIEBACK_TRACK": null, "KAURIDIEBACK_MITIGATED": null, "SegmentID": null, "GlobalID": "0a5e0656-5a22-43c5-9e67-c86ebb73b67c", "Shape__Length": 1.010650898088904}}, {"type": "Feature", "id": 12107, "geometry": {"type": "LineString", "coordinates": [[175.071633173575, -36.8080732194012], [175.071610954243, -36.8080731298231], [175.071610834074, -36.8080731211016], [175.071610721238, -36.808073093325], [175.071600050363, -36.808070219354], [175.071599940791, -36.8080701879152], [175.071599841277, -36.8080701553998], [175.071590118575, -36.8080668205614], [175.071590049578, -36.8080667974285], [175.071589964823, -36.8080667718664], [175.071576495913, -36.8080628876205], [175.071576388533, -36.8080628543409], [175.071576304825, -36.8080628260566], [175.071564568035, -36.8080585393859], [175.071555379521, -36.8080552285839], [175.071555264153, -36.8080551900356], [175.071555135899, -36.8080551724419], [175.071546920453, -36.8080542376458], [175.07154679797, -36.8080542262606], [175.071546675585, -36.808054218479], [175.07153500962, -36.8080537241618], [175.071534896246, -36.8080537180257], [175.071534776005, -36.8080537066015], [175.071517852014, -36.8080518401907], [175.071517794657, -36.8080518330784], [175.07151775077, -36.8080518266328], [175.071498530695, -36.808048817719], [175.071498495795, -36.8080488120181], [175.07147972534, -36.8080456005846], [175.071479660044, -36.8080455900054], [175.071479607169, -36.808045582815], [175.071460041356, -36.8080430540059], [175.071459878371, -36.8080430370173], [175.071459747047, -36.8080430302927], [175.071440017362, -36.8080426142896], [175.071439979221, -36.8080426131516], [175.071420743875, -36.8080419487844], [175.071420567615, -36.8080419383362], [175.071420478744, -36.8080419263652], [175.071401798408, -36.8080384402537], [175.071401708246, -36.808038421996], [175.071401624781, -36.8080384027204], [175.07138519581, -36.8080343996849], [175.071385033192, -36.8080343547494], [175.071384878882, -36.8080342853338], [175.071371929701, -36.8080279332496], [175.07137178869, -36.8080278581945], [175.07137174081, -36.8080278283844], [175.07137170764, -36.8080278037259], [175.071360867691, -36.8080197366586], [175.071360806953, -36.8080196872439], [175.071360704498, -36.8080195871817], [175.071350715096, -36.8080092249926], [175.071350663151, -36.8080091691155], [175.071350606433, -36.808009102506], [175.071342472804, -36.8079991829676], [175.071342441462, -36.807999142955], [175.071337068092, -36.8079922009996], [175.071336997372, -36.807992113904], [175.071336952391, -36.8079920669186]]}, "properties": {"OBJECTID": 12107, "TRACKNAME": "Piwakawaka track", "CONDITIONSOFUSE": "Onetangi Sports Park (Rangihoua)", "STATUS": "Open", "WEBLINK": "https://www.aucklandcouncil.govt.nz/en/parks-recreation/find-park-beach/park-detail/120.html", "VALIDATIONSTATE": 3, "created_user": "AC_owner", "last_edited_user": "AC_owner", "last_edited_date": 1789875254325, "created_date": 1789875254325, "PARK_SAPSITEID": null, "TRACK_ID": null, "KAURIDIEBACK_TRACK": null, "KAURIDIEBACK_MITIGATED": null, "SegmentID": null, "GlobalID": "b4780f91-e51a-42c5-8916-5b3795b61265", "Shape__Length": 29.21724959273721}}, {"type": "Feature", "id": 12108, "geometry": {"type": "LineString", "coordinates": [[175.071833291826, -36.8080272316821], [175.071812255707, -36.8080134027646], [175.071812249894, -36.8080133118341], [175.071811756255, -36.8080024831526], [175.071811754632, -36.8080023813335]]}, "properties": {"OBJECTID": 12108, "TRACKNAME": "Piwakawaka track", "CONDITIONSOFUSE": "Onetangi Sports Park (Rangihoua)", "STATUS": "Open", "WEBLINK": "https://www.aucklandcouncil.govt.nz/en/parks-recreation/find-park-beach/park-detail/120.html", "VALIDATIONSTATE": 3, "created_user": "AC_owner", "last_edited_user": "AC_owner", "last_edited_date": 1789875254325, "created_date": 1789875254325, "PARK_SAPSITEID": null, "TRACK_ID": null, "KAURIDIEBACK_TRACK": null, "KAURIDIEBACK_MITIGATED": null, "SegmentID": null, "GlobalID": "92ccd6cb-0cb3-44db-9406-3b875f5a3b39", "Shape__Length": 3.6486287235846286}}, {"type": "Feature", "id": 12109, "geometry": {"type": "LineString", "coordinates": [[175.071811754632, -36.8080023813335], [175.071811815016, -36.8080022928546]]}, "properties": {"OBJECTID": 12109, "TRACKNAME": "Piwakawaka track", "CONDITIONSOFUSE": "Onetangi Sports Park (Rangihoua)", "STATUS": "Open", "WEBLINK": "https://www.aucklandcouncil.govt.nz/en/parks-recreation/find-park-beach/park-detail/120.html", "VALIDATIONSTATE": 3, "created_user": "AC_owner", "last_edited_user": "AC_owner", "last_edited_date": 1789875254325, "created_date": 1789875254325, "PARK_SAPSITEID": null, "TRACK_ID": null, "KAURIDIEBACK_TRACK": null, "KAURIDIEBACK_MITIGATED": null, "SegmentID": null, "GlobalID": "4e00edff-9949-424e-9804-8b5dc2bc3b61", "Shape__Length": 0.011200446226698921}}, {"type": "Feature", "id": 12110, "geometry": {"type": "LineString", "coordinates": [[175.071811754632, -36.8080023813335], [175.071845248409, -36.8079799166179], [175.071845362785, -36.8079798767697], [175.071845479523, -36.8079798413868], [175.071860220648, -36.8079756592868], [175.071860281806, -36.8079756410961], [175.071860349613, -36.8079756200856], [175.071871258587, -36.8079720248266], [175.071871347607, -36.8079720007425], [175.071871517051, -36.8079719662436], [175.071884417213, -36.8079697206828], [175.07188459026, -36.8079696951342], [175.071884764694, -36.8079696794757], [175.071901411134, -36.8079686097154], [175.071901520831, -36.8079686041983], [175.071901620542, -36.8079686024604], [175.071913354975, -36.8079685601735], [175.071913423365, -36.8079685607842], [175.071913482817, -36.8079685624519], [175.071928136028, -36.8079691029084], [175.071928175289, -36.8079691040268], [175.071928232475, -36.8079691048327], [175.071943096397, -36.8079691873574], [175.071943178304, -36.8079691904363], [175.071943313159, -36.807969203408], [175.071955785764, -36.8079705984499], [175.071955925076, -36.8079706104426], [175.071956040472, -36.8079706084313], [175.071972623892, -36.8079699868064], [175.071972683222, -36.8079699839697], [175.071972729107, -36.8079699813673], [175.071992802994, -36.807968447169], [175.071992967321, -36.8079684307852], [175.071993066644, -36.8079684146332]]}, "properties": {"OBJECTID": 12110, "TRACKNAME": "Piwakawaka track", "CONDITIONSOFUSE": "Onetangi Sports Park (Rangihoua)", "STATUS": "Open", "WEBLINK": "https://www.aucklandcouncil.govt.nz/en/parks-recreation/find-park-beach/park-detail/120.html", "VALIDATIONSTATE": 3, "created_user": "AC_owner", "last_edited_user": "AC_owner", "last_edited_date": 1789875254325, "created_date": 1789875254325, "PARK_SAPSITEID": null, "TRACK_ID": null, "KAURIDIEBACK_TRACK": null, "KAURIDIEBACK_MITIGATED": null, "SegmentID": null, "GlobalID": "4d6ce78c-0863-44ed-896f-cf3f68987ea3", "Shape__Length": 17.298453523671395}}, {"type": "Feature", "id": 12111, "geometry": {"type": "LineString", "coordinates": [[175.071336952391, -36.8079920669186], [175.071321577585, -36.8079818859907], [175.071321522526, -36.8079817977209], [175.071319775327, -36.8079788953196], [175.071319732029, -36.8079788275749], [175.071319687659, -36.8079787616515], [175.071316546392, -36.8079743314942], [175.071316459283, -36.8079742185463], [175.071316362139, -36.8079741075759], [175.071313016092, -36.8079705219038], [175.071312947903, -36.8079704455798]]}, "properties": {"OBJECTID": 12111, "TRACKNAME": "Piwakawaka track", "CONDITIONSOFUSE": "Onetangi Sports Park (Rangihoua)", "STATUS": "Open", "WEBLINK": "https://www.aucklandcouncil.govt.nz/en/parks-recreation/find-park-beach/park-detail/120.html", "VALIDATIONSTATE": 3, "created_user": "AC_owner", "last_edited_user": "AC_owner", "last_edited_date": 1789875254325, "created_date": 1789875254325, "PARK_SAPSITEID": null, "TRACK_ID": null, "KAURIDIEBACK_TRACK": null, "KAURIDIEBACK_MITIGATED": null, "SegmentID": null, "GlobalID": "276455e2-918a-4cec-8b52-69659ba8ee61", "Shape__Length": 3.2665910061602608}}, {"type": "Feature", "id": 12112, "geometry": {"type": "LineString", "coordinates": [[175.071993066644, -36.8079684146332], [175.072005664843, -36.8079658615698], [175.072005791907, -36.8079658350199]]}, "properties": {"OBJECTID": 12112, "TRACKNAME": "Piwakawaka track", "CONDITIONSOFUSE": "Onetangi Sports Park (Rangihoua)", "STATUS": "Open", "WEBLINK": "https://www.aucklandcouncil.govt.nz/en/parks-recreation/find-park-beach/park-detail/120.html", "VALIDATIONSTATE": 3, "created_user": "AC_owner", "last_edited_user": "AC_owner", "last_edited_date": 1789875254325, "created_date": 1789875254325, "PARK_SAPSITEID": null, "TRACK_ID": null, "KAURIDIEBACK_TRACK": null, "KAURIDIEBACK_MITIGATED": null, "SegmentID": null, "GlobalID": "bf87f014-5094-4ac7-b94f-30545a069016", "Shape__Length": 1.1710924571429568}}, {"type": "Feature", "id": 12113, "geometry": {"type": "LineString", "coordinates": [[175.071993066644, -36.8079684146332], [175.072005897882, -36.807965774588], [175.072013398853, -36.80796145278], [175.072013500322, -36.8079613915253], [175.072013525629, -36.8079613739594], [175.07201356628, -36.8079613435078], [175.072024767701, -36.8079524641974], [175.07202481588, -36.8079524218977], [175.072024904175, -36.8079523293269], [175.072038323742, -36.8079374185794], [175.072038398909, -36.8079373379544], [175.072038483039, -36.8079372571732], [175.072053945307, -36.8079230291587], [175.072054167929, -36.80792284682], [175.072054412445, -36.8079226866323], [175.072070579957, -36.807913289933], [175.072070670515, -36.8079132396841], [175.072070775293, -36.8079132180291], [175.072086115169, -36.8079102917974], [175.072086256701, -36.80791026139], [175.072086326773, -36.8079102412412], [175.072101421939, -36.807905222839], [175.072101506333, -36.8079051934275], [175.07210161372, -36.8079051437865], [175.072118124721, -36.8078971381154], [175.072118187561, -36.8078970991653], [175.072118296605, -36.8078970278641], [175.072134284524, -36.8078864580845], [175.072134367922, -36.8078863917368], [175.072146234042, -36.8078766409843], [175.072146272429, -36.8078766096708], [175.072146298783, -36.8078765893828], [175.072155500659, -36.8078695024584], [175.072155579818, -36.8078694451976], [175.072155669425, -36.8078694012743], [175.072166375751, -36.8078642773035], [175.072166489277, -36.8078642059241], [175.072176827361, -36.8078573137029], [175.072176940886, -36.8078572423235], [175.072176976252, -36.807857223681], [175.072177023844, -36.80785720122], [175.072187082904, -36.8078526401284], [175.072187191338, -36.8078525877652], [175.072187251965, -36.8078525082949]]}, "properties": {"OBJECTID": 12113, "TRACKNAME": "Piwakawaka track", "CONDITIONSOFUSE": "Onetangi Sports Park (Rangihoua)", "STATUS": "Open", "WEBLINK": "https://www.aucklandcouncil.govt.nz/en/parks-recreation/find-park-beach/park-detail/120.html", "VALIDATIONSTATE": 3, "created_user": "AC_owner", "last_edited_user": "AC_owner", "last_edited_date": 1789875254325, "created_date": 1789875254325, "PARK_SAPSITEID": null, "TRACK_ID": null, "KAURIDIEBACK_TRACK": null, "KAURIDIEBACK_MITIGATED": null, "SegmentID": null, "GlobalID": "7ec1376b-547e-4194-a515-d8f7cc6ed18a", "Shape__Length": 22.041993247421487}}, {"type": "Feature", "id": 12114, "geometry": {"type": "LineString", "coordinates": [[175.071312947903, -36.8079704455798], [175.071314534321, -36.8079611840727], [175.071314503957, -36.8079610971752], [175.071313467009, -36.8079582220556], [175.071313445337, -36.8079581665523], [175.071313421304, -36.8079581065836], [175.071311376858, -36.8079534076536], [175.071311349415, -36.8079533459418], [175.071311318635, -36.8079532851894], [175.071307706316, -36.8079463071399], [175.07130766034, -36.8079462232183], [175.071307606449, -36.8079461367308], [175.071303029881, -36.8079391060818], [175.07130296805, -36.8079390161274], [175.071302871974, -36.8079389447958], [175.071296063357, -36.807934145912], [175.071296013066, -36.8079341098347], [175.071295960437, -36.807934070193], [175.071289737815, -36.807929221441], [175.071289566878, -36.8079290757042], [175.071289412405, -36.8079289170622], [175.071284442543, -36.8079233470694], [175.07128436381, -36.8079232538043], [175.071284294064, -36.8079231612839], [175.071280087671, -36.8079173057943], [175.07128007021, -36.8079172817633], [175.071275056882, -36.8079105146938], [175.071270769447, -36.8079048129364], [175.071270629227, -36.8079046008691], [175.071270519063, -36.8079043810677], [175.071268045234, -36.8078985972372], [175.071268014211, -36.807898527476], [175.071267975516, -36.8078984641575], [175.071263525148, -36.8078913330659], [175.071263491153, -36.8078912777773], [175.071263458157, -36.8078912179648], [175.071258608843, -36.8078822182092], [175.071258540706, -36.8078821022268], [175.071258522077, -36.8078820764136], [175.071258473444, -36.8078820186762], [175.071251494333, -36.8078740537734], [175.071251419277, -36.8078739721611], [175.071251323347, -36.8078739062347], [175.071243909296, -36.8078690178518], [175.071243796197, -36.807868938705], [175.071243702996, -36.8078688492971], [175.071238377733, -36.8078634423216], [175.071238344345, -36.8078634095551], [175.071238308691, -36.8078633759267], [175.071233505115, -36.8078588602647], [175.07123348327, -36.8078588399153], [175.071233449882, -36.8078588071488], [175.071228060052, -36.80785341662], [175.071228035845, -36.8078533918052], [175.071228005794, -36.8078533580792], [175.071221777471, -36.8078461759452], [175.071221745106, -36.8078461395557], [175.07122171744, -36.8078461111959], [175.071213527296, -36.8078380862737], [175.071213447977, -36.8078380128474], [175.071213406698, -36.8078379784157], [175.071202516478, -36.8078298743543], [175.071202478681, -36.8078298443685], [175.071202408616, -36.8078297815966], [175.071193652839, -36.8078215637345], [175.071193586063, -36.8078214982014], [175.071193545859, -36.8078214204884]]}, "properties": {"OBJECTID": 12114, "TRACKNAME": "Piwakawaka track", "CONDITIONSOFUSE": "Onetangi Sports Park (Rangihoua)", "STATUS": "Open", "WEBLINK": "https://www.aucklandcouncil.govt.nz/en/parks-recreation/find-park-beach/park-detail/120.html", "VALIDATIONSTATE": 3, "created_user": "AC_owner", "last_edited_user": "AC_owner", "last_edited_date": 1789875254325, "created_date": 1789875254325, "PARK_SAPSITEID": null, "TRACK_ID": null, "KAURIDIEBACK_TRACK": null, "KAURIDIEBACK_MITIGATED": null, "SegmentID": null, "GlobalID": "5fed4ac7-5096-42e8-bc43-05bf436f149d", "Shape__Length": 20.185683547952035}}, {"type": "Feature", "id": 12116, "geometry": {"type": "LineString", "coordinates": [[175.072187251965, -36.8078525082949], [175.072194284058, -36.8078442244031], [175.072194374156, -36.8078441155773]]}, "properties": {"OBJECTID": 12116, "TRACKNAME": "Piwakawaka track", "CONDITIONSOFUSE": "Onetangi Sports Park (Rangihoua)", "STATUS": "Open", "WEBLINK": "https://www.aucklandcouncil.govt.nz/en/parks-recreation/find-park-beach/park-detail/120.html", "VALIDATIONSTATE": 3, "created_user": "AC_owner", "last_edited_user": "AC_owner", "last_edited_date": 1789875254325, "created_date": 1789875254325, "PARK_SAPSITEID": null, "TRACK_ID": null, "KAURIDIEBACK_TRACK": null, "KAURIDIEBACK_MITIGATED": null, "SegmentID": null, "GlobalID": "864dd1c0-ceda-452a-b49b-25e1a9700de8", "Shape__Length": 1.1275798370788421}}, {"type": "Feature", "id": 12117, "geometry": {"type": "LineString", "coordinates": [[175.072187251965, -36.8078525082949], [175.072199653469, -36.8078354674675], [175.072199711758, -36.8078353844327], [175.07219978142, -36.8078353075089], [175.072206117474, -36.8078293944631], [175.072206209178, -36.8078293036354], [175.072206255945, -36.8078292505445], [175.07221726129, -36.8078151786143], [175.0722173197, -36.8078151000839], [175.072217372557, -36.8078150234529], [175.072226866372, -36.8078004307787], [175.072226936475, -36.8078003286106], [175.072227016684, -36.8078002271676], [175.07223764296, -36.8077873948279], [175.072237703853, -36.8077873252672], [175.072237781771, -36.8077872635216], [175.072255139484, -36.807774203879], [175.072255168006, -36.8077741808492], [175.072269940497, -36.8077626831656], [175.072270027134, -36.8077626122549], [175.07227005252, -36.8077625144714], [175.072273660547, -36.8077465056977], [175.072273675798, -36.8077464477484], [175.072273688173, -36.8077464078753], [175.072282112882, -36.8077221781594], [175.072282150616, -36.807722081062], [175.072282176168, -36.8077220310448], [175.072287306458, -36.8077127203664], [175.072287340731, -36.8077126611842], [175.072287365454, -36.8077126219971], [175.072296827509, -36.8076990140955], [175.072296897708, -36.8076989155308], [175.072296997571, -36.8076988362778], [175.072349202191, -36.80765905025], [175.07234928342, -36.8076589866439], [175.072349330481, -36.8076589029035], [175.072384531021, -36.8075928689725], [175.072384568242, -36.8075927944166], [175.072384589583, -36.8075927129272], [175.072392725077, -36.8075577996764], [175.072392740938, -36.807557722789], [175.072392745647, -36.8075576064386], [175.072393105718, -36.8075038211287], [175.072393106432, -36.8075037228741]]}, "properties": {"OBJECTID": 12117, "TRACKNAME": "Piwakawaka track", "CONDITIONSOFUSE": "Onetangi Sports Park (Rangihoua)", "STATUS": "Open", "WEBLINK": "https://www.aucklandcouncil.govt.nz/en/parks-recreation/find-park-beach/park-detail/120.html", "VALIDATIONSTATE": 3, "created_user": "AC_owner", "last_edited_user": "AC_owner", "last_edited_date": 1789875254325, "created_date": 1789875254325, "PARK_SAPSITEID": null, "TRACK_ID": null, "KAURIDIEBACK_TRACK": null, "KAURIDIEBACK_MITIGATED": null, "SegmentID": null, "GlobalID": "882c0f92-8a48-45e8-8903-9361f919265e", "Shape__Length": 44.42611624303602}}, {"type": "Feature", "id": 12118, "geometry": {"type": "LineString", "coordinates": [[175.071193545859, -36.8078214204884], [175.071187772575, -36.8078125729251], [175.071187742135, -36.8078125247851], [175.071187722069, -36.8078124872799], [175.071187671592, -36.8078123610754], [175.071184906729, -36.8078046363971], [175.071184864555, -36.8078045271727], [175.07118481578, -36.8078044225699], [175.071181480621, -36.8077977046707]]}, "properties": {"OBJECTID": 12118, "TRACKNAME": "Piwakawaka track", "CONDITIONSOFUSE": "Onetangi Sports Park (Rangihoua)", "STATUS": "Open", "WEBLINK": "https://www.aucklandcouncil.govt.nz/en/parks-recreation/find-park-beach/park-detail/120.html", "VALIDATIONSTATE": 3, "created_user": "AC_owner", "last_edited_user": "AC_owner", "last_edited_date": 1789875254325, "created_date": 1789875254325, "PARK_SAPSITEID": null, "TRACK_ID": null, "KAURIDIEBACK_TRACK": null, "KAURIDIEBACK_MITIGATED": null, "SegmentID": null, "GlobalID": "95f10cad-8029-4513-b644-a7170a408b74", "Shape__Length": 2.853944366460516}}, {"type": "Feature", "id": 12119, "geometry": {"type": "LineString", "coordinates": [[175.071193545859, -36.8078214204884], [175.071181480621, -36.8077977046707]]}, "properties": {"OBJECTID": 12119, "TRACKNAME": "Piwakawaka track", "CONDITIONSOFUSE": "Onetangi Sports Park (Rangihoua)", "STATUS": "Open", "WEBLINK": "https://www.aucklandcouncil.govt.nz/en/parks-recreation/find-park-beach/park-detail/120.html", "VALIDATIONSTATE": 3, "created_user": "AC_owner", "last_edited_user": "AC_owner", "last_edited_date": 1789875254325, "created_date": 1789875254325, "PARK_SAPSITEID": null, "TRACK_ID": null, "KAURIDIEBACK_TRACK": null, "KAURIDIEBACK_MITIGATED": null, "SegmentID": null, "GlobalID": "966436eb-1d2e-429c-8320-cd90ca7fc204", "Shape__Length": 2.843602911680057}}, {"type": "Feature", "id": 12120, "geometry": {"type": "LineString", "coordinates": [[175.071193545859, -36.8078214204884], [175.071181430612, -36.8077975126628], [175.071181263652, -36.8077904430346], [175.071181011883, -36.8077812243713], [175.071180515183, -36.8077691555438], [175.071180505039, -36.8077690286366], [175.071180494401, -36.8077689666319]]}, "properties": {"OBJECTID": 12120, "TRACKNAME": "Piwakawaka track", "CONDITIONSOFUSE": "Onetangi Sports Park (Rangihoua)", "STATUS": "Open", "WEBLINK": "https://www.aucklandcouncil.govt.nz/en/parks-recreation/find-park-beach/park-detail/120.html", "VALIDATIONSTATE": 3, "created_user": "AC_owner", "last_edited_user": "AC_owner", "last_edited_date": 1789875254325, "created_date": 1789875254325, "PARK_SAPSITEID": null, "TRACK_ID": null, "KAURIDIEBACK_TRACK": null, "KAURIDIEBACK_MITIGATED": null, "SegmentID": null, "GlobalID": "4c9571a3-3a02-49c4-8a5d-415dde9eed65", "Shape__Length": 6.034166381723723}}, {"type": "Feature", "id": 12121, "geometry": {"type": "LineString", "coordinates": [[175.071181480621, -36.8077977046707], [175.071181434354, -36.8077976099385]]}, "properties": {"OBJECTID": 12121, "TRACKNAME": "Piwakawaka track", "CONDITIONSOFUSE": "Onetangi Sports Park (Rangihoua)", "STATUS": "Open", "WEBLINK": "https://www.aucklandcouncil.govt.nz/en/parks-recreation/find-park-beach/park-detail/120.html", "VALIDATIONSTATE": 3, "created_user": "AC_owner", "last_edited_user": "AC_owner", "last_edited_date": 1789875254325, "created_date": 1789875254325, "PARK_SAPSITEID": null, "TRACK_ID": null, "KAURIDIEBACK_TRACK": null, "KAURIDIEBACK_MITIGATED": null, "SegmentID": null, "GlobalID": "defb3745-a57c-4d1a-bb14-63769d1c790d", "Shape__Length": 0.011294689884220945}}, {"type": "Feature", "id": 12122, "geometry": {"type": "LineString", "coordinates": [[175.071180494401, -36.8077689666319], [175.071177596205, -36.8077572920558], [175.071177583788, -36.8077572472069], [175.071177571614, -36.8077572113668], [175.071177519235, -36.8077570978137], [175.071180494401, -36.8077689666319]]}, "properties": {"OBJECTID": 12122, "TRACKNAME": "Piwakawaka track", "CONDITIONSOFUSE": "Onetangi Sports Park (Rangihoua)", "STATUS": "Open", "WEBLINK": "https://www.aucklandcouncil.govt.nz/en/parks-recreation/find-park-beach/park-detail/120.html", "VALIDATIONSTATE": 3, "created_user": "AC_owner", "last_edited_user": "AC_owner", "last_edited_date": 1789875254325, "created_date": 1789875254325, "PARK_SAPSITEID": null, "TRACK_ID": null, "KAURIDIEBACK_TRACK": null, "KAURIDIEBACK_MITIGATED": null, "SegmentID": null, "GlobalID": "6ddcad9b-a562-4b56-840a-60da10a7d5a6", "Shape__Length": 2.6874744039406098}}, {"type": "Feature", "id": 12123, "geometry": {"type": "LineString", "coordinates": [[175.071180494401, -36.8077689666319], [175.071172041235, -36.8077461468677], [175.071171983838, -36.8077460550333], [175.071166616523, -36.8077379638007], [175.071166590807, -36.8077379245913], [175.071161944448, -36.8077305075913], [175.071161805762, -36.8077303108193], [175.071161641575, -36.807730124406], [175.071154696822, -36.8077230593017], [175.071154607031, -36.8077229716369], [175.071154515219, -36.8077228921191], [175.071145054441, -36.8077150074006], [175.071135073112, -36.8077066477501], [175.071134998517, -36.8077065832545], [175.071134955927, -36.8077065001752]]}, "properties": {"OBJECTID": 12123, "TRACKNAME": "Piwakawaka track", "CONDITIONSOFUSE": "Onetangi Sports Park (Rangihoua)", "STATUS": "Open", "WEBLINK": "https://www.aucklandcouncil.govt.nz/en/parks-recreation/find-park-beach/park-detail/120.html", "VALIDATIONSTATE": 3, "created_user": "AC_owner", "last_edited_user": "AC_owner", "last_edited_date": 1789875254325, "created_date": 1789875254325, "PARK_SAPSITEID": null, "TRACK_ID": null, "KAURIDIEBACK_TRACK": null, "KAURIDIEBACK_MITIGATED": null, "SegmentID": null, "GlobalID": "54e7313d-f670-44c8-9055-5d8ca1ae150f", "Shape__Length": 8.194313965599724}}, {"type": "Feature", "id": 12124, "geometry": {"type": "LineString", "coordinates": [[175.071134955927, -36.8077065001752], [175.071128424666, -36.8076955621697], [175.071128376425, -36.8076954773862], [175.071128351542, -36.8076953858867], [175.071134955927, -36.8077065001752]]}, "properties": {"OBJECTID": 12124, "TRACKNAME": "Piwakawaka track", "CONDITIONSOFUSE": "Onetangi Sports Park (Rangihoua)", "STATUS": "Open", "WEBLINK": "https://www.aucklandcouncil.govt.nz/en/parks-recreation/find-park-beach/park-detail/120.html", "VALIDATIONSTATE": 3, "created_user": "AC_owner", "last_edited_user": "AC_owner", "last_edited_date": 1789875254325, "created_date": 1789875254325, "PARK_SAPSITEID": null, "TRACK_ID": null, "KAURIDIEBACK_TRACK": null, "KAURIDIEBACK_MITIGATED": null, "SegmentID": null, "GlobalID": "557c23cc-435d-4f7a-a6b3-117e7880e4f0", "Shape__Length": 2.734266996952022}}, {"type": "Feature", "id": 12125, "geometry": {"type": "LineString", "coordinates": [[175.071134955927, -36.8077065001752], [175.071125025656, -36.8076820648665], [175.07112501556, -36.8076819397611], [175.071124519907, -36.8076705333736], [175.071124517864, -36.8076704991596], [175.071124515991, -36.8076704712519], [175.071123520245, -36.8076577684882], [175.071123510999, -36.8076576749136], [175.071123503136, -36.8076576326893], [175.071120181592, -36.8076442647254], [175.071120158023, -36.8076441804133], [175.071120131167, -36.8076440988625], [175.071115969212, -36.807632445401], [175.071111798824, -36.8076211444963], [175.071111777129, -36.8076210880921], [175.071111753193, -36.8076210317269], [175.071107706485, -36.8076118665619], [175.071107668401, -36.8076117843053], [175.071107607178, -36.8076117168729], [175.071099576124, -36.8076032718661], [175.071099539229, -36.8076032337528], [175.07109949778, -36.807603193015], [175.071090306671, -36.8075943752496], [175.07109023539, -36.8075943088937], [175.071090191821, -36.8075942726992]]}, "properties": {"OBJECTID": 12125, "TRACKNAME": "Piwakawaka track", "CONDITIONSOFUSE": "Onetangi Sports Park (Rangihoua)", "STATUS": "Open", "WEBLINK": "https://www.aucklandcouncil.govt.nz/en/parks-recreation/find-park-beach/park-detail/120.html", "VALIDATIONSTATE": 3, "created_user": "AC_owner", "last_edited_user": "AC_owner", "last_edited_date": 1789875254325, "created_date": 1789875254325, "PARK_SAPSITEID": null, "TRACK_ID": null, "KAURIDIEBACK_TRACK": null, "KAURIDIEBACK_MITIGATED": null, "SegmentID": null, "GlobalID": "d9a2c824-237a-47b2-9b37-65be6f3ef423", "Shape__Length": 13.34811187929191}}, {"type": "Feature", "id": 12126, "geometry": {"type": "LineString", "coordinates": [[175.071090191821, -36.8075942726992], [175.071081764098, -36.807587703908], [175.071081689601, -36.8075876430159], [175.071081629377, -36.8075875710594], [175.071075688018, -36.8075801387626]]}, "properties": {"OBJECTID": 12126, "TRACKNAME": "Piwakawaka track", "CONDITIONSOFUSE": "Onetangi Sports Park (Rangihoua)", "STATUS": "Open", "WEBLINK": "https://www.aucklandcouncil.govt.nz/en/parks-recreation/find-park-beach/park-detail/120.html", "VALIDATIONSTATE": 3, "created_user": "AC_owner", "last_edited_user": "AC_owner", "last_edited_date": 1789875254325, "created_date": 1789875254325, "PARK_SAPSITEID": null, "TRACK_ID": null, "KAURIDIEBACK_TRACK": null, "KAURIDIEBACK_MITIGATED": null, "SegmentID": null, "GlobalID": "013c7f54-7573-43f3-b48b-7599a778c674", "Shape__Length": 2.047007052386567}}, {"type": "Feature", "id": 12127, "geometry": {"type": "LineString", "coordinates": [[175.071090191821, -36.8075942726992], [175.071071201796, -36.807573714009], [175.071071129301, -36.807573602609], [175.071071100859, -36.807573545421], [175.071066711715, -36.8075634019956], [175.071066681934, -36.8075633367192], [175.071066648744, -36.8075632696996], [175.071061857699, -36.8075541012771], [175.071061821148, -36.8075540343161], [175.071061789418, -36.8075539798893], [175.07105835313, -36.8075483750566], [175.071058303745, -36.8075482893917], [175.071058306847, -36.8075481965033], [175.071061151106, -36.8074977171531], [175.071061153594, -36.8074976846628], [175.071062586353, -36.8074551388517], [175.0710625848, -36.8074550811953], [175.071062570441, -36.8074549642758], [175.071054793633, -36.8074049529744], [175.071054772722, -36.8074048424782], [175.071054716154, -36.8074047398137], [175.071043247291, -36.8073842672988], [175.071043196838, -36.8073841419952], [175.071033508684, -36.8073570418071], [175.071033459352, -36.807356916484], [175.071033421462, -36.8073568414345], [175.071011117554, -36.8073178700296], [175.071011097586, -36.8073178361279], [175.071011072991, -36.8073177968989], [175.070996812279, -36.8072950855059], [175.070996779429, -36.8072950310986], [175.070996750037, -36.8072949802363], [175.070992561913, -36.8072873461429], [175.070992494922, -36.8072872310416], [175.070992424324, -36.8072871484502], [175.070987469236, -36.8072815835941], [175.070987393962, -36.8072814938737], [175.070987356752, -36.8072814440489], [175.070983551206, -36.8072756122086], [175.070983532431, -36.80727558099], [175.070979452393, -36.8072690464073], [175.070979427798, -36.8072690071784], [175.070979404445, -36.8072689724344], [175.070974881614, -36.8072623527312], [175.070974820784, -36.8072622582526], [175.070974761999, -36.807262156528], [175.070970846192, -36.8072548115149], [175.070970792084, -36.8072547169192], [175.070970709235, -36.8072546372451]]}, "properties": {"OBJECTID": 12127, "TRACKNAME": "Piwakawaka track", "CONDITIONSOFUSE": "Onetangi Sports Park (Rangihoua)", "STATUS": "Open", "WEBLINK": "https://www.aucklandcouncil.govt.nz/en/parks-recreation/find-park-beach/park-detail/120.html", "VALIDATIONSTATE": 3, "created_user": "AC_owner", "last_edited_user": "AC_owner", "last_edited_date": 1789875254325, "created_date": 1789875254325, "PARK_SAPSITEID": null, "TRACK_ID": null, "KAURIDIEBACK_TRACK": null, "KAURIDIEBACK_MITIGATED": null, "SegmentID": null, "GlobalID": "78e30c82-8a00-4c84-b042-f6bdc6132fe3", "Shape__Length": 40.1981275458059}}, {"type": "Feature", "id": 12128, "geometry": {"type": "LineString", "coordinates": [[175.071075688018, -36.8075801387626], [175.071090191821, -36.8075942726992]]}, "properties": {"OBJECTID": 12128, "TRACKNAME": "Piwakawaka track", "CONDITIONSOFUSE": "Onetangi Sports Park (Rangihoua)", "STATUS": "Open", "WEBLINK": "https://www.aucklandcouncil.govt.nz/en/parks-recreation/find-park-beach/park-detail/120.html", "VALIDATIONSTATE": 3, "created_user": "AC_owner", "last_edited_user": "AC_owner", "last_edited_date": 1789875254325, "created_date": 1789875254325, "PARK_SAPSITEID": null, "TRACK_ID": null, "KAURIDIEBACK_TRACK": null, "KAURIDIEBACK_MITIGATED": null, "SegmentID": null, "GlobalID": "8db06cf6-b261-475d-8b88-644d74ce83a9", "Shape__Length": 2.033581677249016}}, {"type": "Feature", "id": 12130, "geometry": {"type": "LineString", "coordinates": [[175.070970709235, -36.8072546372451], [175.070961837162, -36.8072460933151]]}, "properties": {"OBJECTID": 12130, "TRACKNAME": "Piwakawaka track", "CONDITIONSOFUSE": "Onetangi Sports Park (Rangihoua)", "STATUS": "Open", "WEBLINK": "https://www.aucklandcouncil.govt.nz/en/parks-recreation/find-park-beach/park-detail/120.html", "VALIDATIONSTATE": 3, "created_user": "AC_owner", "last_edited_user": "AC_owner", "last_edited_date": 1789875254325, "created_date": 1789875254325, "PARK_SAPSITEID": null, "TRACK_ID": null, "KAURIDIEBACK_TRACK": null, "KAURIDIEBACK_MITIGATED": null, "SegmentID": null, "GlobalID": "c6ba993b-1836-4eb4-948d-2f7c5c34b846", "Shape__Length": 1.2352566576966966}}, {"type": "Feature", "id": 12131, "geometry": {"type": "LineString", "coordinates": [[175.070970709235, -36.8072546372451], [175.070964876992, -36.8072488821716], [175.070964842459, -36.8072488485236], [175.070964812578, -36.8072488211037], [175.070961837162, -36.8072460933151]]}, "properties": {"OBJECTID": 12131, "TRACKNAME": "Piwakawaka track", "CONDITIONSOFUSE": "Onetangi Sports Park (Rangihoua)", "STATUS": "Open", "WEBLINK": "https://www.aucklandcouncil.govt.nz/en/parks-recreation/find-park-beach/park-detail/120.html", "VALIDATIONSTATE": 3, "created_user": "AC_owner", "last_edited_user": "AC_owner", "last_edited_date": 1789875254325, "created_date": 1789875254325, "PARK_SAPSITEID": null, "TRACK_ID": null, "KAURIDIEBACK_TRACK": null, "KAURIDIEBACK_MITIGATED": null, "SegmentID": null, "GlobalID": "c8d839ac-536b-4f1f-a223-af23ccac6c62", "Shape__Length": 1.23543575152627}}, {"type": "Feature", "id": 12132, "geometry": {"type": "LineString", "coordinates": [[175.070961837162, -36.8072460933151], [175.070958339933, -36.8072428852085]]}, "properties": {"OBJECTID": 12132, "TRACKNAME": "Piwakawaka track", "CONDITIONSOFUSE": "Onetangi Sports Park (Rangihoua)", "STATUS": "Open", "WEBLINK": "https://www.aucklandcouncil.govt.nz/en/parks-recreation/find-park-beach/park-detail/120.html", "VALIDATIONSTATE": 3, "created_user": "AC_owner", "last_edited_user": "AC_owner", "last_edited_date": 1789875254325, "created_date": 1789875254325, "PARK_SAPSITEID": null, "TRACK_ID": null, "KAURIDIEBACK_TRACK": null, "KAURIDIEBACK_MITIGATED": null, "SegmentID": null, "GlobalID": "af7a7f36-d265-49c6-94bd-44a3f3efd2f4", "Shape__Length": 0.4734445904955797}}, {"type": "Feature", "id": 12133, "geometry": {"type": "LineString", "coordinates": [[175.070961837162, -36.8072460933151], [175.070952860326, -36.8072374466581], [175.070952783811, -36.8072373524528], [175.070949325674, -36.8072328079313], [175.070949249159, -36.807232713726], [175.070949189081, -36.8072326471747]]}, "properties": {"OBJECTID": 12133, "TRACKNAME": "Piwakawaka track", "CONDITIONSOFUSE": "Onetangi Sports Park (Rangihoua)", "STATUS": "Open", "WEBLINK": "https://www.aucklandcouncil.govt.nz/en/parks-recreation/find-park-beach/park-detail/120.html", "VALIDATIONSTATE": 3, "created_user": "AC_owner", "last_edited_user": "AC_owner", "last_edited_date": 1789875254325, "created_date": 1789875254325, "PARK_SAPSITEID": null, "TRACK_ID": null, "KAURIDIEBACK_TRACK": null, "KAURIDIEBACK_MITIGATED": null, "SegmentID": null, "GlobalID": "287723c2-aad5-452f-bc51-7cd2d52db46b", "Shape__Length": 1.8753562531651595}}, {"type": "Feature", "id": 12134, "geometry": {"type": "LineString", "coordinates": [[175.070958339933, -36.8072428852085], [175.070970709235, -36.8072546372451]]}, "properties": {"OBJECTID": 12134, "TRACKNAME": "Piwakawaka track", "CONDITIONSOFUSE": "Onetangi Sports Park (Rangihoua)", "STATUS": "Open", "WEBLINK": "https://www.aucklandcouncil.govt.nz/en/parks-recreation/find-park-beach/park-detail/120.html", "VALIDATIONSTATE": 3, "created_user": "AC_owner", "last_edited_user": "AC_owner", "last_edited_date": 1789875254325, "created_date": 1789875254325, "PARK_SAPSITEID": null, "TRACK_ID": null, "KAURIDIEBACK_TRACK": null, "KAURIDIEBACK_MITIGATED": null, "SegmentID": null, "GlobalID": "974f2816-88d0-4bd0-87cd-c8ecb5215f8f", "Shape__Length": 1.7086026254038735}}, {"type": "Feature", "id": 12136, "geometry": {"type": "LineString", "coordinates": [[175.070949189081, -36.8072326471747], [175.070937303274, -36.8072223242938]]}, "properties": {"OBJECTID": 12136, "TRACKNAME": "Piwakawaka track", "CONDITIONSOFUSE": "Onetangi Sports Park (Rangihoua)", "STATUS": "Open", "WEBLINK": "https://www.aucklandcouncil.govt.nz/en/parks-recreation/find-park-beach/park-detail/120.html", "VALIDATIONSTATE": 3, "created_user": "AC_owner", "last_edited_user": "AC_owner", "last_edited_date": 1789875254325, "created_date": 1789875254325, "PARK_SAPSITEID": null, "TRACK_ID": null, "KAURIDIEBACK_TRACK": null, "KAURIDIEBACK_MITIGATED": null, "SegmentID": null, "GlobalID": "036c792b-cc28-405e-9e50-ea725c12c04d", "Shape__Length": 1.561214991656115}}, {"type": "Feature", "id": 12137, "geometry": {"type": "LineString", "coordinates": [[175.070949189081, -36.8072326471747], [175.070946049091, -36.8072294688965], [175.070945982315, -36.8072294033632], [175.070945911058, -36.807229337908], [175.070941904491, -36.8072258628748], [175.070941879237, -36.8072258407822], [175.070941852911, -36.8072258205108], [175.070937667677, -36.8072225784227], [175.070937601338, -36.8072225291053], [175.070937536217, -36.8072224833719], [175.070937303274, -36.8072223242938]]}, "properties": {"OBJECTID": 12137, "TRACKNAME": "Piwakawaka track", "CONDITIONSOFUSE": "Onetangi Sports Park (Rangihoua)", "STATUS": "Open", "WEBLINK": "https://www.aucklandcouncil.govt.nz/en/parks-recreation/find-park-beach/park-detail/120.html", "VALIDATIONSTATE": 3, "created_user": "AC_owner", "last_edited_user": "AC_owner", "last_edited_date": 1789875254325, "created_date": 1789875254325, "PARK_SAPSITEID": null, "TRACK_ID": null, "KAURIDIEBACK_TRACK": null, "KAURIDIEBACK_MITIGATED": null, "SegmentID": null, "GlobalID": "1eca25b0-3402-475c-9c0c-2ce9a388815c", "Shape__Length": 1.5636376306992734}}, {"type": "Feature", "id": 12138, "geometry": {"type": "LineString", "coordinates": [[175.070937303274, -36.8072223242938], [175.070937145682, -36.8072222161787]]}, "properties": {"OBJECTID": 12138, "TRACKNAME": "Piwakawaka track", "CONDITIONSOFUSE": "Onetangi Sports Park (Rangihoua)", "STATUS": "Open", "WEBLINK": "https://www.aucklandcouncil.govt.nz/en/parks-recreation/find-park-beach/park-detail/120.html", "VALIDATIONSTATE": 3, "created_user": "AC_owner", "last_edited_user": "AC_owner", "last_edited_date": 1789875254325, "created_date": 1789875254325, "PARK_SAPSITEID": null, "TRACK_ID": null, "KAURIDIEBACK_TRACK": null, "KAURIDIEBACK_MITIGATED": null, "SegmentID": null, "GlobalID": "d06c5c12-56c6-472d-9151-364d4872b719", "Shape__Length": 0.01848594021489641}}, {"type": "Feature", "id": 12139, "geometry": {"type": "LineString", "coordinates": [[175.070937303274, -36.8072223242938], [175.070928523236, -36.8072146998913]]}, "properties": {"OBJECTID": 12139, "TRACKNAME": "Piwakawaka track", "CONDITIONSOFUSE": "Onetangi Sports Park (Rangihoua)", "STATUS": "Open", "WEBLINK": "https://www.aucklandcouncil.govt.nz/en/parks-recreation/find-park-beach/park-detail/120.html", "VALIDATIONSTATE": 3, "created_user": "AC_owner", "last_edited_user": "AC_owner", "last_edited_date": 1789875254325, "created_date": 1789875254325, "PARK_SAPSITEID": null, "TRACK_ID": null, "KAURIDIEBACK_TRACK": null, "KAURIDIEBACK_MITIGATED": null, "SegmentID": null, "GlobalID": "5edb5513-e1d7-45bd-8a80-08a58b07f7ed", "Shape__Length": 1.153178828109578}}, {"type": "Feature", "id": 12140, "geometry": {"type": "LineString", "coordinates": [[175.070937145682, -36.8072222161787], [175.070949189081, -36.8072326471747]]}, "properties": {"OBJECTID": 12140, "TRACKNAME": "Piwakawaka track", "CONDITIONSOFUSE": "Onetangi Sports Park (Rangihoua)", "STATUS": "Open", "WEBLINK": "https://www.aucklandcouncil.govt.nz/en/parks-recreation/find-park-beach/park-detail/120.html", "VALIDATIONSTATE": 3, "created_user": "AC_owner", "last_edited_user": "AC_owner", "last_edited_date": 1789875254325, "created_date": 1789875254325, "PARK_SAPSITEID": null, "TRACK_ID": null, "KAURIDIEBACK_TRACK": null, "KAURIDIEBACK_MITIGATED": null, "SegmentID": null, "GlobalID": "9cd1fc91-2200-49b7-8ba1-acb79746c369", "Shape__Length": 1.5795748538395724}}, {"type": "Feature", "id": 12141, "geometry": {"type": "LineString", "coordinates": [[175.070937145682, -36.8072222161787], [175.070933338722, -36.8072196182426], [175.070933254118, -36.8072195566251], [175.070933151762, -36.807219460166], [175.070928623444, -36.807214841453]]}, "properties": {"OBJECTID": 12141, "TRACKNAME": "Piwakawaka track", "CONDITIONSOFUSE": "Onetangi Sports Park (Rangihoua)", "STATUS": "Open", "WEBLINK": "https://www.aucklandcouncil.govt.nz/en/parks-recreation/find-park-beach/park-detail/120.html", "VALIDATIONSTATE": 3, "created_user": "AC_owner", "last_edited_user": "AC_owner", "last_edited_date": 1789875254325, "created_date": 1789875254325, "PARK_SAPSITEID": null, "TRACK_ID": null, "KAURIDIEBACK_TRACK": null, "KAURIDIEBACK_MITIGATED": null, "SegmentID": null, "GlobalID": "171fd5ec-6d49-4d45-a513-13c0334147da", "Shape__Length": 1.122532759836345}}, {"type": "Feature", "id": 12142, "geometry": {"type": "LineString", "coordinates": [[175.070928623444, -36.807214841453], [175.070937145682, -36.8072222161787]]}, "properties": {"OBJECTID": 12142, "TRACKNAME": "Piwakawaka track", "CONDITIONSOFUSE": "Onetangi Sports Park (Rangihoua)", "STATUS": "Open", "WEBLINK": "https://www.aucklandcouncil.govt.nz/en/parks-recreation/find-park-beach/park-detail/120.html", "VALIDATIONSTATE": 3, "created_user": "AC_owner", "last_edited_user": "AC_owner", "last_edited_date": 1789875254325, "created_date": 1789875254325, "PARK_SAPSITEID": null, "TRACK_ID": null, "KAURIDIEBACK_TRACK": null, "KAURIDIEBACK_MITIGATED": null, "SegmentID": null, "GlobalID": "d4034331-e14d-4759-b6c7-bfab32cb68cb", "Shape__Length": 1.117219248891483}}, {"type": "Feature", "id": 12143, "geometry": {"type": "LineString", "coordinates": [[175.070928623444, -36.807214841453], [175.070928549898, -36.8072147742351], [175.070928523236, -36.8072146998913]]}, "properties": {"OBJECTID": 12143, "TRACKNAME": "Piwakawaka track", "CONDITIONSOFUSE": "Onetangi Sports Park (Rangihoua)", "STATUS": "Open", "WEBLINK": "https://www.aucklandcouncil.govt.nz/en/parks-recreation/find-park-beach/park-detail/120.html", "VALIDATIONSTATE": 3, "created_user": "AC_owner", "last_edited_user": "AC_owner", "last_edited_date": 1789875254325, "created_date": 1789875254325, "PARK_SAPSITEID": null, "TRACK_ID": null, "KAURIDIEBACK_TRACK": null, "KAURIDIEBACK_MITIGATED": null, "SegmentID": null, "GlobalID": "2801f63e-9d3f-467c-8818-29cc30827f8d", "Shape__Length": 0.018522411538845655}}, {"type": "Feature", "id": 12144, "geometry": {"type": "LineString", "coordinates": [[175.070928523236, -36.8072146998913], [175.070927248889, -36.8072108753229], [175.070927219623, -36.8072107875049]]}, "properties": {"OBJECTID": 12144, "TRACKNAME": "Piwakawaka track", "CONDITIONSOFUSE": "Onetangi Sports Park (Rangihoua)", "STATUS": "Open", "WEBLINK": "https://www.aucklandcouncil.govt.nz/en/parks-recreation/find-park-beach/park-detail/120.html", "VALIDATIONSTATE": 3, "created_user": "AC_owner", "last_edited_user": "AC_owner", "last_edited_date": 1789875254325, "created_date": 1789875254325, "PARK_SAPSITEID": null, "TRACK_ID": null, "KAURIDIEBACK_TRACK": null, "KAURIDIEBACK_MITIGATED": null, "SegmentID": null, "GlobalID": "0f80140d-4a17-434a-b48e-ce659a13af99", "Shape__Length": 0.4494965736491279}}]}