{"type": "FeatureCollection", "features": [{"type": "Feature", "id": 670, "geometry": {"type": "LineString", "coordinates": [[174.606131206455, -36.9448834013973], [174.606182332153, -36.944891822466], [174.606219814755, -36.9448885212153], [174.606316267856, -36.9448222919627], [174.60635793964, -36.9447842589769], [174.606398750588, -36.9447132571479], [174.606474075163, -36.9446179025044], [174.606577910626, -36.9445219727529], [174.606655908026, -36.9444870625594], [174.606758132719, -36.9444529331254], [174.606800024643, -36.944448923051], [174.606825093214, -36.9444635552585], [174.60684765961, -36.9445060821176], [174.60685183881, -36.9445462619184], [174.606832687543, -36.9445962847471], [174.606805928371, -36.9446342873441]]}, "properties": {"OBJECTID": 670, "TRACKNAME": "Plant ID Loop", "CONDITIONSOFUSE": "Waitakere Central Regional Park", "STATUS": "Open", "WEBLINK": "https://www.aucklandcouncil.govt.nz/en/parks-recreation/find-park-beach/park-detail/204.html", "VALIDATIONSTATE": 3, "created_user": "AC_owner", "last_edited_user": "AC_owner", "last_edited_date": 1789875254325, "created_date": 1789875254325, "PARK_SAPSITEID": null, "TRACK_ID": null, "KAURIDIEBACK_TRACK": null, "KAURIDIEBACK_MITIGATED": null, "SegmentID": null, "GlobalID": "d705df99-6e87-45dc-8212-eeb6302617a5", "Shape__Length": 104.82225158446501}}, {"type": "Feature", "id": 2205, "geometry": {"type": "LineString", "coordinates": [[174.606805928371, -36.9446342873441], [174.606594349509, -36.9447945986241], [174.606334596352, -36.9449742463208], [174.606285091736, -36.9450243101545], [174.606227501606, -36.9451043181051]]}, "properties": {"OBJECTID": 2205, "TRACKNAME": "Plant ID Loop", "CONDITIONSOFUSE": "Waitakere Central Regional Park", "STATUS": "Open", "WEBLINK": "https://www.aucklandcouncil.govt.nz/en/parks-recreation/find-park-beach/park-detail/204.html", "VALIDATIONSTATE": 3, "created_user": "AC_owner", "last_edited_user": "AC_owner", "last_edited_date": 1789875254325, "created_date": 1789875254325, "PARK_SAPSITEID": null, "TRACK_ID": null, "KAURIDIEBACK_TRACK": null, "KAURIDIEBACK_MITIGATED": null, "SegmentID": null, "GlobalID": "25d3baf0-b701-409a-9c3d-0f8a39da3e7f", "Shape__Length": 73.79619187024589}}]}