{"type": "FeatureCollection", "features": [{"type": "Feature", "id": 12780, "geometry": {"type": "LineString", "coordinates": [[175.152061717065, -37.0216234230743], [175.152795816209, -37.0211816091708], [175.153537940576, -37.020745946741], [175.154259692934, -37.0204240745984], [175.154448939209, -37.0201685830631], [175.154898446961, -37.019946171472], [175.15528814307, -37.0198319691048], [175.155639477836, -37.0194727080134], [175.155906570272, -37.0189133347464], [175.155957832489, -37.0185028150436], [175.156178840681, -37.0182593458997], [175.156960525732, -37.0181128058107], [175.157650629802, -37.0180624472814], [175.158023177206, -37.0178981367642], [175.158766842161, -37.0175191261596], [175.159735060039, -37.0170225988885], [175.160235944656, -37.016673204842], [175.160793234668, -37.0160959334858], [175.16113045264, -37.0158611770399], [175.161496019814, -37.0158061222586], [175.161984965708, -37.0158456061557], [175.162597176882, -37.0159755969942], [175.163321117272, -37.0161438758787], [175.163690571229, -37.0162258605661], [175.164344035762, -37.0165688313051], [175.16483139896, -37.0169067643729], [175.165001059666, -37.0172141986368], [175.16498176879, -37.0175976734815], [175.165020967019, -37.0179155540719], [175.165112721069, -37.0183131328806], [175.164894650566, -37.0187808922976], [175.164838004721, -37.019265869316], [175.164894908321, -37.0194987369991], [175.165173227344, -37.0199130753631], [175.165501246767, -37.0203063408651], [175.165604997017, -37.0205948123985], [175.165683155331, -37.0208676202969], [175.165996557867, -37.0212772828213], [175.166212839319, -37.021454811165], [175.166698399031, -37.0215507972675], [175.166909529156, -37.0215469405043], [175.167107513367, -37.0214344368062], [175.167207579674, -37.0212390312596], [175.167396869771, -37.0209976334906], [175.167583779804, -37.0210264814333], [175.167726938839, -37.0211085549753], [175.168004362548, -37.0214906393251], [175.168140920989, -37.0218712647238], [175.168255540355, -37.0221877661149], [175.168576100876, -37.0231248380149], [175.168820697451, -37.0234354330314], [175.169415922139, -37.0239160530497], [175.169718703352, -37.0240617472323], [175.170166636373, -37.0243371124991], [175.170663674567, -37.024680892379], [175.171419604035, -37.0252845876089], [175.171781685015, -37.0255804221069], [175.171929928857, -37.0260944168706], [175.17207010046, -37.0263249995677], [175.172360596916, -37.0265906367999], [175.173048230365, -37.0269651793659]]}, "properties": {"OBJECTID": 12780, "TRACKNAME": "Plows Road", "CONDITIONSOFUSE": "Hunua Ranges Regional Park", "STATUS": "Closed upgrade", "WEBLINK": "https://www.aucklandcouncil.govt.nz/en/parks-recreation/find-park-beach/park-detail/213.html", "VALIDATIONSTATE": 3, "created_user": "AC_owner", "last_edited_user": "AC_owner", "last_edited_date": 1789875254325, "created_date": 1789875254325, "PARK_SAPSITEID": null, "TRACK_ID": null, "KAURIDIEBACK_TRACK": null, "KAURIDIEBACK_MITIGATED": null, "SegmentID": null, "GlobalID": "2d62f787-c6b7-47f4-90d8-38dd15c0a815", "Shape__Length": 2996.289510518647}}]}