{"type": "FeatureCollection", "features": [{"type": "Feature", "id": 12279, "geometry": {"type": "LineString", "coordinates": [[175.114680646744, -36.8196710942489], [175.114680643407, -36.8196710952096], [175.11460100553, -36.8197428059279], [175.114601000051, -36.8197428105319], [175.114463487872, -36.8198296173009], [175.114463479082, -36.8198296237664], [175.114338397431, -36.8199443197776], [175.114338389736, -36.8199443253222], [175.114154647647, -36.8200460143148], [175.113965311337, -36.8201524396922], [175.113965101596, -36.8201525173288], [175.113786473456, -36.8201892025688], [175.113785361063, -36.8201895170754], [175.113657376059, -36.8202361458685], [175.113622379202, -36.8202488996544], [175.113621935638, -36.8202488723916], [175.113621725224, -36.8202485588771], [175.113622474312, -36.8201350408408], [175.113622469682, -36.8201350355153], [175.112226734782, -36.8196549941229], [175.112226725842, -36.819654995183], [175.111578701826, -36.8200696627934], [175.111576571436, -36.8200703414623], [175.111408173984, -36.8200816519527], [175.111408169477, -36.8200816511314], [175.110796678772, -36.8196913287422], [175.110795117896, -36.8196898864467], [175.110556274467, -36.8193635664098], [175.110555462462, -36.8193609409304], [175.11057452904, -36.819042551903], [175.11057298887, -36.8190401078959], [175.108532771181, -36.8179438499125]]}, "properties": {"OBJECTID": 12279, "TRACKNAME": "Poderi Cresi to Te Matuku", "CONDITIONSOFUSE": "Te Matuku To Awaroa Walkway", "STATUS": "Open pending closure", "WEBLINK": null, "VALIDATIONSTATE": 3, "created_user": "AC_owner", "last_edited_user": "AC_owner", "last_edited_date": 1789875254325, "created_date": 1789875254325, "PARK_SAPSITEID": null, "TRACK_ID": null, "KAURIDIEBACK_TRACK": null, "KAURIDIEBACK_MITIGATED": null, "SegmentID": null, "GlobalID": "a7e2584f-2cfb-4433-9c4c-1f1b742dcb3f", "Shape__Length": 720.3945696016749}}, {"type": "Feature", "id": 12625, "geometry": {"type": "MultiLineString", "coordinates": [[[175.12465509028, -36.8208143571633], [175.124651129733, -36.8208123351557], [175.124649959105, -36.8208002462934], [175.124676173856, -36.8207623874993], [175.124666468366, -36.8207720561261], [175.124649554316, -36.8207959056864], [175.124647510426, -36.8208127612719], [175.12465509028, -36.8208143571633]], [[175.121853033003, -36.8194772156428], [175.121848560909, -36.8194972979124], [175.121887237625, -36.8195070768981], [175.121916824696, -36.8195032878186], [175.121971363967, -36.8194792527235], [175.121993404585, -36.8194633001835], [175.122014575535, -36.8194493460142], [175.122052269431, -36.8194204165617], [175.122081115936, -36.8194044281199], [175.122114478355, -36.8194004679389], [175.1221387372, -36.8194054894548], [175.122141410456, -36.8194060428895], [175.122150256622, -36.8194233763745], [175.122132877642, -36.8194606893176], [175.12210390106, -36.8195022462205], [175.12209226514, -36.8195354206238], [175.122059254316, -36.8195824311734], [175.122003382651, -36.8196197589575], [175.121947900936, -36.8196712075491], [175.121888756842, -36.8197072769103], [175.121876305552, -36.8197148699802], [175.121790341448, -36.8197534072398], [175.121690476463, -36.8197733555162], [175.121592729081, -36.8197791363127], [175.121561113631, -36.8197857564334], [175.121510000542, -36.8197833042271], [175.121406195486, -36.8197817933632], [175.121290791607, -36.8197845254129], [175.121201482891, -36.8197928474492], [175.121067436539, -36.8198174412113], [175.120962031151, -36.8198489242788], [175.120882683709, -36.819884651552], [175.120787650196, -36.8198977846964], [175.120726017622, -36.8199083029166], [175.120662748168, -36.8199201968445], [175.120619254607, -36.8199512473387], [175.120588845413, -36.8200015756087], [175.120582355572, -36.8200696418207], [175.120598672624, -36.820115099531], [175.120636606292, -36.8201554622978], [175.120686622106, -36.8201787895166], [175.120758979055, -36.8201929719239], [175.120852822709, -36.8201973532606], [175.12093817302, -36.8201971750124], [175.121032295623, -36.8201813676334], [175.121050566403, -36.8201763323242], [175.121066941492, -36.8201632570425], [175.121077387766, -36.8201475971958], [175.121073820305, -36.8201395870597], [175.121050791235, -36.820123851323], [175.121038190991, -36.8200917827825], [175.12104503158, -36.8200667687513], [175.121052913358, -36.82004913577], [175.12107268877, -36.8200380178074], [175.121098618039, -36.820037555088], [175.121141422519, -36.8200421737432], [175.121203073285, -36.8200626027417], [175.121278813124, -36.8200780700931], [175.12132825349, -36.8200805513488], [175.121385852982, -36.8200754873301], [175.121458267083, -36.8200614117991], [175.121519492243, -36.820036098507], [175.121559582583, -36.820033364925], [175.121596607923, -36.820040777836], [175.121613874232, -36.8200599799625], [175.121628240676, -36.8200651051528], [175.121645656941, -36.8200594126401], [175.121679559561, -36.8200446787719], [175.121725598424, -36.8200452025817], [175.121766078733, -36.8200565897631], [175.121816746107, -36.8200731776074], [175.121850342555, -36.8200741893669], [175.121872858362, -36.820074867166], [175.121934547712, -36.8200663653362], [175.121987426836, -36.8200418740701], [175.122007445907, -36.8200092232792], [175.122037908671, -36.8199911870905], [175.122109412395, -36.8199744370538], [175.122148852516, -36.8199784421457], [175.122233662746, -36.8199890376754], [175.122266732998, -36.8199798894055], [175.122293456194, -36.819972496616], [175.122364419989, -36.8199362448414], [175.122399511211, -36.8199039981215], [175.122463970245, -36.8198745906049], [175.122494824071, -36.8198706751106], [175.122632401546, -36.8198527448458], [175.12268593055, -36.8198517888893], [175.122753283002, -36.8198474215852], [175.122786168074, -36.8198452894523], [175.122833749608, -36.8198410751168], [175.122858171994, -36.8198466938241], [175.12289028906, -36.8198582308929], [175.122917369977, -36.8198691837345], [175.122932833617, -36.8198837085987], [175.12292891211, -36.8198931980698], [175.122919087649, -36.8198971454611], [175.122918542592, -36.8199004232903], [175.122899791255, -36.8199048969482], [175.122891108858, -36.8199069681738], [175.122858283852, -36.8199140744091], [175.122843694482, -36.8199172335427], [175.122806283468, -36.81992369703], [175.122777531122, -36.8199305574572], [175.122745780043, -36.8199472387623], [175.122736109439, -36.8199540774477], [175.122714629108, -36.8199706699514], [175.122710717345, -36.8199720331698], [175.122707438486, -36.8199731759846], [175.122692250036, -36.8199784701502], [175.122673920934, -36.819979157104], [175.122645640973, -36.8199841677186], [175.122623405136, -36.8199921212706], [175.122612126188, -36.8200012860683], [175.122586380843, -36.8200234183628], [175.122570218417, -36.8200290048011], [175.122568984375, -36.820029783926], [175.122563637956, -36.8200312791123], [175.122543278056, -36.8200383158805], [175.122532493849, -36.8200399874858], [175.122515008376, -36.8200448765075], [175.122437253558, -36.8200611733013], [175.122434305467, -36.8200617910565], [175.122432521838, -36.8200623979324], [175.122373836417, -36.8200823649262], [175.122373644936, -36.8200824945266], [175.122344215332, -36.8201024203931], [175.122324498114, -36.8201151111863], [175.122317876123, -36.820119372679], [175.12231626138, -36.8201204118628], [175.122295684161, -36.8201271721669], [175.122277284436, -36.8201332176162], [175.122276084585, -36.8201335301583], [175.122224033851, -36.8201442602158], [175.122219081125, -36.8201446677052], [175.122165523098, -36.8201466505467], [175.122115432521, -36.8201509085129], [175.122073259457, -36.8201691537955], [175.122071055912, -36.8201710768429], [175.122069150961, -36.8201719184134], [175.122060199165, -36.820180554011], [175.122036854597, -36.8202009308662], [175.122027407116, -36.8202056231341], [175.121987871957, -36.8201982623777], [175.121933264235, -36.8201904911174], [175.121906158689, -36.8201990217778], [175.121896722796, -36.8202005620011], [175.121842729091, -36.8202149822303], [175.121786039712, -36.8202227214907], [175.121725707405, -36.8202197615912], [175.121678162698, -36.8202253204621], [175.121676279034, -36.8202259994133], [175.121675671353, -36.8202260372996], [175.12164418569, -36.8202373634912], [175.121642805948, -36.8202380631896], [175.121625134777, -36.820244431717], [175.121593462313, -36.820263080644], [175.121590544711, -36.820264559472], [175.121506904084, -36.8202963277967], [175.121502749064, -36.8202974898225], [175.121467834044, -36.8203057704156], [175.12140909486, -36.8203111801851], [175.121404398411, -36.8203116128093], [175.121397172985, -36.8203111153699], [175.121395179452, -36.8203111040834], [175.121390638303, -36.8203106650871], [175.121348192031, -36.8203065610795], [175.121270017412, -36.8202938275947], [175.121203849055, -36.8202916448538], [175.121192408888, -36.8202958309403], [175.12117390511, -36.8202982341425], [175.121159436627, -36.8203086192976], [175.121126991494, -36.82032665459], [175.121085152252, -36.820357003365], [175.121015656125, -36.8203858276646], [175.120978042578, -36.8203978822226], [175.120920064595, -36.8204090626781], [175.120890058673, -36.8204193383965], [175.120878943202, -36.8204231455233], [175.12087861559, -36.8204232577219], [175.1208815142, -36.8204373337958], [175.120909170559, -36.8204691336905], [175.120924323438, -36.8204724513556], [175.120944596296, -36.820479266612], [175.12098061657, -36.8204806418476], [175.120987893694, -36.8204799252468], [175.121001527284, -36.8204802687016], [175.121018869265, -36.8204768750051], [175.12103068999, -36.8204757113956], [175.121055356438, -36.8204704736267], [175.121088996838, -36.8204659247276], [175.12112590983, -36.8204693028884], [175.121161298434, -36.8204780898731], [175.121208491297, -36.8204968508128], [175.121228191053, -36.820506498202], [175.121258096445, -36.820528839345], [175.121281530338, -36.8205417314388], [175.121293594487, -36.8205483686708], [175.121297183681, -36.820550343342], [175.121335973865, -36.8205610884647], [175.121381114014, -36.8205621421816], [175.121393777938, -36.8205634204157], [175.121443032947, -36.8205591776637], [175.121456139109, -36.8205562533723], [175.121463013803, -36.8205554564996], [175.121472480885, -36.8205526079749], [175.121498755601, -36.8205467456525], [175.121535805344, -36.8205357095423], [175.121551815979, -36.8205325765723], [175.121598541631, -36.8205289746595], [175.121601187278, -36.8205287706097], [175.121604992643, -36.8205293984839], [175.121659628315, -36.8205384176861], [175.121665088464, -36.8205397397594], [175.121684232316, -36.8205360344005], [175.121725068166, -36.8205299229184], [175.121743548302, -36.8205273929693], [175.121785307281, -36.8205224366708], [175.121805852506, -36.8205212911889], [175.121850197293, -36.8205193224645], [175.121893091324, -36.8205235598003], [175.121910054869, -36.8205259076677], [175.121927532722, -36.8205283274674], [175.121988236711, -36.8205447351508], [175.122042342026, -36.820564626047], [175.122070680658, -36.8205741902615], [175.122153712737, -36.8205976213758], [175.122212858025, -36.8206030925243], [175.122255084391, -36.820601866285], [175.122287424241, -36.8205969887635], [175.122313372583, -36.820591406984], [175.12235446243, -36.8205755802031], [175.122373816587, -36.8205681260992], [175.122391773541, -36.8205533135367], [175.122420469767, -36.8205302903858], [175.12244521213, -36.8205099894407], [175.122455682012, -36.820501644863], [175.122483554548, -36.8204868706327], [175.122525931036, -36.8204705485391], [175.122580074531, -36.8204615078548], [175.122615025517, -36.8204614695326], [175.122620240476, -36.8204614638273], [175.122625968577, -36.8204631109448], [175.122659885235, -36.8204728656198], [175.122673417077, -36.8204780064876], [175.122681172063, -36.8204904473592], [175.12268369525, -36.8204944941746], [175.122688716238, -36.8205129891972], [175.122690459859, -36.8205194140302], [175.122688274637, -36.8205222434639], [175.122688118279, -36.820525510745], [175.122661427461, -36.8205589531614], [175.122654091586, -36.8205750713328], [175.122647227101, -36.820590154511], [175.122644590509, -36.820602128427], [175.122645330293, -36.8206123899726], [175.122646760967, -36.8206388120079], [175.122647040534, -36.8206439804455], [175.122647352253, -36.8206552626907], [175.122642334092, -36.8206725354877], [175.122642003408, -36.8206736725179], [175.122620881334, -36.8207041322339], [175.122620274387, -36.8207050083157], [175.122623155403, -36.8207080483052], [175.122629883541, -36.8207196377682], [175.122644399934, -36.8207301426852], [175.122659789385, -36.8207419776411], [175.122664964336, -36.8207498553693], [175.122670922839, -36.8207624373805], [175.122672641406, -36.8207743254067], [175.122658822668, -36.8207978355052], [175.122639563763, -36.8208633926057], [175.122641108457, -36.8208835945734], [175.122655252342, -36.8209109251965], [175.12265740406, -36.8209148758985], [175.122667594421, -36.8209335796337], [175.122682668058, -36.8209339827994], [175.122694190419, -36.8209186109389], [175.122698001648, -36.8209135262687], [175.122721738032, -36.8208942643989], [175.122766904104, -36.8208631823712], [175.122807460213, -36.8208469846195], [175.122830154281, -36.8208506161969], [175.122834764458, -36.8208660072804], [175.122839763727, -36.8208955201056], [175.122826101994, -36.8209159476956], [175.122816313279, -36.820931011908], [175.122782757668, -36.8209826533179], [175.122780675318, -36.8210284393115], [175.12280322016, -36.8210872417887], [175.122870131859, -36.8211768710562], [175.122923809893, -36.8212418447044], [175.122974905669, -36.8212738978064], [175.12302302699, -36.8212891849619], [175.123094325348, -36.8212953119379], [175.123144194695, -36.821282983707], [175.12315982556, -36.8212732859661], [175.123156963642, -36.8212605540317], [175.123140662652, -36.8212460441616], [175.123107838821, -36.821208955484], [175.123082561151, -36.8211724043694], [175.123070962663, -36.8211160976871], [175.123073826116, -36.821068279741], [175.123086278796, -36.8210041438192], [175.12310051697, -36.8209440119985], [175.123109234243, -36.8209263639641], [175.123120757668, -36.8209194308635], [175.123128948141, -36.8209184589733], [175.12313357855, -36.8209188404277], [175.123153447157, -36.8209413594656], [175.123155591212, -36.8209442611885], [175.123202999276, -36.821008424688], [175.123237161533, -36.8210474173002], [175.123253071859, -36.8210556620294], [175.123259340917, -36.821058910966], [175.123271666851, -36.8210604086427], [175.123273907956, -36.8210609805863], [175.123274437308, -36.8210607449051], [175.123278652068, -36.8210612572561], [175.123306222596, -36.821046627929], [175.123308627996, -36.8210455592851], [175.123310906638, -36.8210410400472], [175.123326829292, -36.8210180114359], [175.123326921783, -36.8209910989378], [175.123326978222, -36.8209628414511], [175.123337142537, -36.8209558947552], [175.123341725444, -36.8209539490068], [175.123354445258, -36.8209546501048], [175.123358556828, -36.8209548767837], [175.123358551045, -36.8209579935627], [175.123358501521, -36.82098313425], [175.123365518694, -36.8209894792816], [175.123372622937, -36.8209993396077], [175.123391766806, -36.8209956339728], [175.123399751221, -36.8209868416092], [175.123404503752, -36.8209823124224], [175.123410599511, -36.8209606743034], [175.123416480751, -36.820940238738], [175.123420524982, -36.8209261856093], [175.123442458174, -36.8209022465497], [175.123462531955, -36.8209018879209], [175.123464960379, -36.8209035993556], [175.12346537113, -36.8209034937762], [175.12346851157, -36.8209061027975], [175.123483014638, -36.8209163230385], [175.123482685335, -36.8209178746415], [175.123486782659, -36.8209212768303], [175.123484221515, -36.8209257957109], [175.123497131353, -36.8210239386341], [175.123488642921, -36.8210162400143], [175.123497337027, -36.8210254987052], [175.123508399033, -36.821037280174], [175.123514133569, -36.8210393606552], [175.123520893741, -36.8210454921557], [175.123535911647, -36.8210438782104], [175.12353685762, -36.8210314198432], [175.123538305857, -36.8210293453267], [175.123537626804, -36.8210212854672], [175.123534569185, -36.8209850089227], [175.123538974774, -36.8209785138973], [175.123539053083, -36.8209758717059], [175.123549103284, -36.8209635805532], [175.123555242038, -36.8209560721511], [175.123581672899, -36.8209434901335], [175.123591430417, -36.8209332240071], [175.123588530654, -36.82092869634], [175.123589827668, -36.8209254906965], [175.123573991944, -36.8208975171501], [175.123571094504, -36.8208694287068], [175.123571833594, -36.8208473364954], [175.123581909808, -36.8208228873164], [175.123599884512, -36.8207926630257], [175.123616611156, -36.8207743103475], [175.123658375217, -36.8207412707715], [175.123672306433, -36.8207191645702], [175.123676813761, -36.8207120115798], [175.123702574755, -36.8206449465477], [175.123716126653, -36.8206274094707], [175.123722410446, -36.8206160247057], [175.123774081045, -36.8205478234424], [175.123839432192, -36.8204901427634], [175.123866847437, -36.820482924723], [175.123988440683, -36.820461914867], [175.123992301054, -36.8204650184381], [175.123994662832, -36.8204648058885], [175.124004011922, -36.8204700204479], [175.124003778985, -36.8204742462729], [175.12400726902, -36.820477051824], [175.124003215041, -36.820484462607], [175.124002896757, -36.8204902239601], [175.123996920071, -36.8204959683595], [175.123996117582, -36.8204974346851], [175.123970056582, -36.82052322496], [175.123958394725, -36.8205383245388], [175.123950674043, -36.8205487048132], [175.123937365868, -36.8205819083646], [175.123935984418, -36.820595319073], [175.12394048413, -36.8206541508638], [175.123922343602, -36.8206638944527], [175.123891552699, -36.8206840036521], [175.123863855991, -36.8207076852631], [175.123851424061, -36.8207301297197], [175.123850306111, -36.8207321478656], [175.123852377428, -36.8207465703175], [175.123853826576, -36.8207566542406], [175.123874440395, -36.8207725064857], [175.123881662779, -36.8207766630824], [175.123883517717, -36.8207794870391], [175.123888435351, -36.820786973642], [175.123891509192, -36.8207945941368], [175.123880624498, -36.8208283185861], [175.12386833191, -36.8208592913044], [175.123877336215, -36.820882648778], [175.123881663164, -36.8208977627737], [175.123884629348, -36.8209015700137], [175.12389509126, -36.8209150007222], [175.12390595651, -36.8209289496769], [175.12390879733, -36.820929033206], [175.123909613009, -36.8209298685508], [175.123917121188, -36.8209292774278], [175.123934430896, -36.8209297864868], [175.123959186686, -36.8209261201788], [175.123960266325, -36.8209259602839], [175.123961118952, -36.8209260234602], [175.123978166866, -36.82092728166], [175.124003634985, -36.8209417979412], [175.124004517695, -36.8209423004111], [175.124061133293, -36.8209924199877], [175.124071038936, -36.8209963528683], [175.124087880117, -36.8209971478762], [175.124096136255, -36.8209975375026], [175.124115931191, -36.8209870928565], [175.124114629368, -36.8209747566742], [175.124116614073, -36.8209712449136], [175.124113687801, -36.8209658407743], [175.124113663323, -36.8209656041714], [175.124111576645, -36.8209619407486], [175.124100740964, -36.8209419264764], [175.124093659337, -36.8209182092938], [175.124092380322, -36.8208919792533], [175.124108364964, -36.8208345073756], [175.124137608909, -36.820781437497], [175.124139441794, -36.8207781114119], [175.124179402575, -36.8207403946204], [175.124179874053, -36.8207400527154], [175.12418620148, -36.8207338567992], [175.124201878262, -36.8207240850983], [175.124249544549, -36.8206943764692], [175.124285602443, -36.8206668211872], [175.124288027035, -36.8206578523371], [175.12429547169, -36.8206303145304], [175.124331593827, -36.8205906915598], [175.124352016037, -36.8205670974987], [175.124355335019, -36.8205646488474], [175.12436085897, -36.8205605736073], [175.12439219975, -36.8205374504465], [175.124395532463, -36.8205361876518], [175.124451825724, -36.8205148554993], [175.124524889531, -36.8204940392279], [175.124601392064, -36.8204765250743], [175.124630084085, -36.8204724277502], [175.124631658551, -36.8204722031239], [175.124718501309, -36.8204646508292], [175.124744515784, -36.8204714808635], [175.124749689999, -36.820472839451], [175.12474598306, -36.820485702292], [175.124743375638, -36.8204947465227], [175.12474052782, -36.8205046242413], [175.124711394226, -36.8205220623302], [175.124707880892, -36.8205247388878], [175.124706518386, -36.8205257771999], [175.124662450656, -36.8205662579424], [175.124612843459, -36.8206218478413], [175.124556261979, -36.8206801481971], [175.124529902456, -36.8207166242643], [175.124498630143, -36.8207548726574], [175.124493146322, -36.8207684260973], [175.124493976597, -36.8207693026367], [175.124493476715, -36.8207700767705], [175.124494931549, -36.8207703094378], [175.124516170824, -36.820773708024], [175.124558381904, -36.8207568068313], [175.124587599229, -36.8207407705971], [175.124615744353, -36.8207231771584], [175.124624478075, -36.8207205280606], [175.124626798184, -36.8207192545187], [175.124639120604, -36.8207160861169], [175.124674663584, -36.8207053048952], [175.124687509792, -36.8207036458059], [175.124699919032, -36.8207004551161], [175.124714787927, -36.8207237365292], [175.124707197192, -36.8207312321898], [175.124697414425, -36.8207412275676], [175.124676173856, -36.8207623874993], [175.124677317611, -36.8207607357114]], [[175.127110484417, -36.8214308602758], [175.127031294842, -36.8213723910035], [175.12693391753, -36.8212387755162], [175.12685280389, -36.8210658456028], [175.126807185185, -36.8210183606714], [175.126753129237, -36.8209543040876], [175.126614641355, -36.8208559903329], [175.126584930591, -36.8208396469949], [175.126508649296, -36.8208046815353], [175.126488377253, -36.8208050442258], [175.126426321653, -36.8207983303196], [175.12634981788, -36.8207935584752], [175.126310737958, -36.8207893852105], [175.126253023871, -36.8207765828166], [175.126232925427, -36.8207647875087], [175.126197089512, -36.8207398624671], [175.126165417594, -36.8207389319805], [175.126140221608, -36.8207359217239], [175.126035392658, -36.820757980448], [175.125951198142, -36.8207627148621], [175.125890688693, -36.820765526735], [175.125838021035, -36.8207733636378], [175.12583499159, -36.82077367469], [175.125826239073, -36.8207751164786], [175.125798183662, -36.8207792910332], [175.125794403929, -36.8207803608735], [175.125780012442, -36.820782731802], [175.125715294643, -36.8208027263131], [175.125713880511, -36.8208031544826], [175.125706848293, -36.8208051450277], [175.125704660853, -36.8208059457424], [175.125653884309, -36.8208213169079], [175.125605632811, -36.8208315992539], [175.125521881551, -36.820829060107], [175.125468351965, -36.8208300173617], [175.125467444364, -36.8208301552666], [175.125418353085, -36.8208376387144], [175.125372817161, -36.8208510566779], [175.125280015936, -36.8208456923006], [175.125257489676, -36.8208408765962], [175.125236760412, -36.8208431913398], [175.125252512864, -36.8208441020882], [175.125224457251, -36.8208464883442], [175.125147954515, -36.8208640029053], [175.125124312635, -36.8208674079971], [175.125117681449, -36.8208689424928], [175.125114768992, -36.8208687818608], [175.125094610908, -36.8208716848266], [175.125078289231, -36.8208667716734], [175.125071586317, -36.8208664021134], [175.125063247248, -36.8208622439244], [175.125043979563, -36.8208564433887], [175.125006549672, -36.8208338628074], [175.1249977632, -36.8208293764299], [175.124977173526, -36.8208281862039], [175.124962897043, -36.8208294878455], [175.124928147727, -36.8208437132298], [175.124863502911, -36.8208663972395], [175.124850064757, -36.8208666374781], [175.124844028754, -36.8208684524364], [175.124818843298, -36.8208655390508], [175.124813452569, -36.8208609333696], [175.124808077204, -36.8208593152034], [175.124758860397, -36.8208155674616], [175.124725151386, -36.8208136193942], [175.124707979668, -36.8208126266925], [175.124671078762, -36.8208177225003], [175.12465509028, -36.8208143571633], [175.12466640903, -36.8208201349194]]]}, "properties": {"OBJECTID": 12625, "TRACKNAME": "Poderi Cresi to Te Matuku", "CONDITIONSOFUSE": "Te Matuku To Awaroa Walkway", "STATUS": "Open", "WEBLINK": null, "VALIDATIONSTATE": 3, "created_user": "AC_owner", "last_edited_user": "AC_owner", "last_edited_date": 1789875254325, "created_date": 1789875254325, "PARK_SAPSITEID": null, "TRACK_ID": null, "KAURIDIEBACK_TRACK": null, "KAURIDIEBACK_MITIGATED": null, "SegmentID": null, "GlobalID": "c8aa3ebc-47a0-4de3-a84a-d7a54d2fac12", "Shape__Length": 1709.7498474065517}}, {"type": "Feature", "id": 12626, "geometry": {"type": "LineString", "coordinates": [[175.124728249074, -36.8204622684059], [175.124730327019, -36.8203585617012], [175.124689117752, -36.8203182020482], [175.12461850233, -36.8202836775498], [175.124602979322, -36.8202340629841], [175.124609627662, -36.8201529259059], [175.124538445245, -36.8200959043718], [175.124434286931, -36.8200834580609], [175.124326505892, -36.8200472290609], [175.124278425999, -36.8200304202986], [175.124209698758, -36.820006393427], [175.1242599729, -36.8199408297673], [175.124269645946, -36.8199174206202], [175.124287290887, -36.8198747191957], [175.124175028247, -36.8198204856778], [175.12396541524, -36.8198289174048], [175.123965407397, -36.819828917545], [175.123836581056, -36.8198077922127], [175.123836576549, -36.8198077913919], [175.123754495143, -36.8197905120185], [175.12375448837, -36.8197905103369], [175.123654798028, -36.8197688614997], [175.123654790185, -36.8197688616399], [175.123538778706, -36.8197896776833], [175.12353877649, -36.8197896786241], [175.123365286527, -36.8197843942381], [175.123181749214, -36.8198084973258], [175.123048471369, -36.819854346534], [175.122952221343, -36.8198874577959]]}, "properties": {"OBJECTID": 12626, "TRACKNAME": "Poderi Cresi to Te Matuku", "CONDITIONSOFUSE": "Te Matuku To Awaroa Walkway", "STATUS": "Closed", "WEBLINK": null, "VALIDATIONSTATE": 3, "created_user": "AC_owner", "last_edited_user": "AC_owner", "last_edited_date": 1789875254325, "created_date": 1789875254325, "PARK_SAPSITEID": null, "TRACK_ID": null, "KAURIDIEBACK_TRACK": null, "KAURIDIEBACK_MITIGATED": null, "SegmentID": null, "GlobalID": "bcb898ef-37e8-4c81-9c5c-f3b3b73a005c", "Shape__Length": 219.70540221225312}}, {"type": "Feature", "id": 12627, "geometry": {"type": "LineString", "coordinates": [[175.127112841793, -36.8214219854095], [175.127209344738, -36.8213848491873], [175.127357615784, -36.8213101793864], [175.127417506055, -36.8212810681816], [175.127467869184, -36.8212660326355], [175.127467874712, -36.8212660298327], [175.127773041811, -36.8211293496018], [175.12777305065, -36.8211293449371], [175.128164707969, -36.8209582947347], [175.128164711281, -36.8209582928728], [175.128515460037, -36.8207832908812], [175.12851546671, -36.8207832889591], [175.128928225997, -36.8205773451488], [175.128928237052, -36.820577339543], [175.129130592982, -36.8204723247526], [175.129130597414, -36.8204723228706], [175.129401595809, -36.8203643655374], [175.129401599146, -36.8203643645763], [175.129642926578, -36.8202381850568], [175.129642933226, -36.8202381822338], [175.129885043599, -36.820140111259], [175.129885048031, -36.820140109377], [175.13020212088, -36.8200125722917], [175.130202132034, -36.8200125702892], [175.130301446104, -36.8200201709805]]}, "properties": {"OBJECTID": 12627, "TRACKNAME": "Poderi Cresi to Te Matuku", "CONDITIONSOFUSE": "Te Matuku To Awaroa Walkway", "STATUS": "Open pending closure", "WEBLINK": null, "VALIDATIONSTATE": 3, "created_user": "AC_owner", "last_edited_user": "AC_owner", "last_edited_date": 1789875254325, "created_date": 1789875254325, "PARK_SAPSITEID": null, "TRACK_ID": null, "KAURIDIEBACK_TRACK": null, "KAURIDIEBACK_MITIGATED": null, "SegmentID": null, "GlobalID": "9fb678b3-16d8-4639-a2ab-3597a2b76fad", "Shape__Length": 326.1974589546993}}, {"type": "Feature", "id": 12743, "geometry": {"type": "MultiLineString", "coordinates": [[[175.119546403128, -36.8200577003417], [175.119539434659, -36.8200612738629]], [[175.121852963227, -36.819477530539], [175.121919107203, -36.8193796128633], [175.12196579072, -36.8193395641088], [175.121985991877, -36.8193233749226], [175.122021585666, -36.8192790086432], [175.122044636741, -36.8192394106121], [175.12204668569, -36.8192360311291], [175.122051927036, -36.8192099117656], [175.122056983133, -36.819184715931], [175.122055943063, -36.8191470594771], [175.122035462245, -36.8191326240658], [175.122052228304, -36.8190731204839], [175.122034013779, -36.8190196230528], [175.122013607293, -36.8190078775762], [175.121977288179, -36.819026018308], [175.121930152646, -36.8190766455211], [175.121882607009, -36.8191730279588], [175.121847202883, -36.8192079858006], [175.121845136029, -36.8192100271771], [175.121794208853, -36.8192445753285], [175.121707743815, -36.8192649558694], [175.121672615687, -36.8192655829204], [175.121647226583, -36.8192552719553], [175.121631651888, -36.8192367119999], [175.121611615659, -36.819238415276], [175.121601616674, -36.819239939388], [175.121557232889, -36.8192084382202], [175.121547332338, -36.8192051638793], [175.121530209205, -36.8191995020388], [175.121481586701, -36.819196332994], [175.121442445047, -36.8192041770781], [175.121429990945, -36.819206673329], [175.121398394243, -36.8192139645338], [175.121374482879, -36.8192035379068], [175.121362820525, -36.8191984527479], [175.12134493718, -36.8191815382623], [175.121333334884, -36.8191774506632], [175.121313715319, -36.8191778008193], [175.121282007213, -36.8191810570816], [175.121254833911, -36.819166740974], [175.121227513231, -36.8191470458582], [175.121192088083, -36.8191369130006], [175.121143577022, -36.8191377787278], [175.121103578847, -36.8191438750526], [175.121047112944, -36.8191596837633], [175.12101391763, -36.8191696955612], [175.120932433933, -36.8191886410154], [175.120914007687, -36.8191992040161], [175.120891246593, -36.8192122508213], [175.120866748583, -36.8192342162843], [175.120845819072, -36.819264191869], [175.120816006563, -36.8192754888854], [175.120777644011, -36.8192802093825], [175.120749057762, -36.8192753378031], [175.120731476299, -36.8192447037329], [175.120702816913, -36.8192371412788], [175.120663115609, -36.8192539963257], [175.120648209343, -36.8192596448122], [175.120622783245, -36.8192479886528], [175.120609401362, -36.8192482274036], [175.120594495068, -36.8192538749827], [175.1205779148, -36.8192595533266], [175.120546058158, -36.8192574304107], [175.120527100874, -36.8192375859223], [175.120504649342, -36.8192124203343], [175.120487624774, -36.8192019598918], [175.120464409255, -36.8191949699217], [175.120445433974, -36.8191892571455], [175.120406775628, -36.8191832186327], [175.120376627892, -36.8191824108182], [175.120341611126, -36.8191870723889], [175.120319572619, -36.8191936060555], [175.120288490766, -36.8192028210599], [175.120255221092, -36.8192101427067], [175.120216747206, -36.8192108290093], [175.120157977248, -36.8192038035307], [175.120104114607, -36.8191926544916], [175.120049992215, -36.819172091527], [175.120016944944, -36.8191572066365], [175.119985385221, -36.8191658424409], [175.119953305071, -36.8191859258556], [175.119927932683, -36.8192065610902], [175.11989847256, -36.8192306337603], [175.119878434219, -36.8192626121865], [175.119848230943, -36.8192900617321], [175.119819364301, -36.8193053767292], [175.119770426522, -36.8193210514772], [175.119734943699, -36.8193391766171], [175.119723066067, -36.8193484707926], [175.119719775445, -36.8193656847285], [175.119724041907, -36.819382621488], [175.119671706367, -36.8194735139896], [175.119666065183, -36.8194794820225], [175.119644977439, -36.8195056107923], [175.119640389506, -36.8195139574861], [175.119633025055, -36.8195273531778], [175.119632749957, -36.8195415588897], [175.119632620134, -36.819548271347], [175.119643444318, -36.8195951430473], [175.119660027007, -36.8196264422235], [175.119662983454, -36.8196399017163], [175.119666456661, -36.8196471835297], [175.119665371874, -36.8196507729051], [175.119661778348, -36.8196626565738], [175.119654186729, -36.8196877695491], [175.119619001656, -36.8197166535136], [175.11960054319, -36.8197452391855], [175.119606155919, -36.8197720057998], [175.119615095068, -36.8197873648871], [175.119616211118, -36.8197918163096], [175.119621302089, -36.8198000363641], [175.119618624198, -36.819824304622], [175.11959266241, -36.8198536559074], [175.119576652548, -36.8198802204686], [175.119563495506, -36.8199055174061], [175.119560121372, -36.8199188121927], [175.119557653909, -36.819949855337], [175.119560029581, -36.8200056536106], [175.119559944736, -36.8200063572325], [175.119557991034, -36.820022458558], [175.119547508793, -36.8200546530493], [175.119547704907, -36.8200544991614], [175.119546403128, -36.8200577003417], [175.119546974203, -36.8200562949533], [175.119547508793, -36.8200546530493], [175.119545093359, -36.8200565484094], [175.119539963518, -36.8200605731387], [175.119538377908, -36.8200618163598], [175.119539434659, -36.8200612738629], [175.119538986955, -36.8200618685896], [175.119537453988, -36.8200625412534], [175.119534063529, -36.8200640293648], [175.119523300203, -36.8200695488553], [175.119520792927, -36.8200698513361], [175.119484098854, -36.8200742775891], [175.119477427159, -36.8200750770361], [175.119471730144, -36.82007723538], [175.119456666046, -36.8200808288775], [175.11945548392, -36.8200828409177], [175.119457006669, -36.8200828137645], [175.119455067358, -36.820083548652], [175.119438680127, -36.8201072465955], [175.119435754322, -36.8201114771712], [175.119433837055, -36.8201115888704], [175.119431628286, -36.8201135687445], [175.119416536242, -36.8201124922242], [175.119391650241, -36.8200900620058], [175.119385031823, -36.820084096278], [175.11936676311, -36.8200676309008], [175.119352677722, -36.820058871809], [175.119328934718, -36.8200525570825], [175.119322788915, -36.82005092266], [175.119303477013, -36.8200485766354], [175.119297212435, -36.8200542186822], [175.119294080202, -36.820056696311], [175.119289573291, -36.8200602610777], [175.119293885209, -36.8200778721113], [175.119297118141, -36.8200910743205], [175.119307097579, -36.8201191528856], [175.119313434446, -36.8201365322313], [175.119312104248, -36.8201378907675], [175.119312691299, -36.8201399091153], [175.11930883768, -36.8201412288249], [175.11930204064, -36.8201481728233], [175.119295268936, -36.8201458753908], [175.11929196616, -36.8201470068217], [175.119279804045, -36.820140629801], [175.119277544179, -36.8201398634359], [175.119270971388, -36.8201359987083], [175.119259701087, -36.8201300897798], [175.119254620336, -36.8201263850162], [175.119237565045, -36.8201163566644], [175.119209517628, -36.820093678137], [175.1191871869, -36.8200836969694], [175.119175469547, -36.8200797878656], [175.119159489419, -36.8200750859141], [175.119134189656, -36.8200697596849], [175.119090314531, -36.8200595271992], [175.119059267516, -36.8200536031132], [175.119037454398, -36.8200408457126], [175.119028981663, -36.8200358909288], [175.119024449011, -36.8200332390105], [175.118974535438, -36.8199851452736], [175.118956563721, -36.8199706645965], [175.118949928933, -36.8199689000724], [175.118937047815, -36.8199609207126], [175.118913564158, -36.8199594547531], [175.118893249211, -36.8199585812331], [175.118880654895, -36.8199604316874], [175.118876789939, -36.8199606493011], [175.118864457046, -36.8199584023119], [175.118856847313, -36.819957016582], [175.118843148858, -36.8199545208415], [175.118791051456, -36.8199467033781], [175.118736796517, -36.8199517074213], [175.118736225931, -36.8199518302542], [175.118714670855, -36.8199564758092], [175.118683582559, -36.8199640934191], [175.118652580094, -36.8199626280403], [175.118649170094, -36.8199618632369], [175.118642177491, -36.8199602943455], [175.118610651622, -36.819953223216], [175.118553200074, -36.8199342231757], [175.118545430394, -36.8199308988866], [175.118531598281, -36.8199235961808], [175.118510855208, -36.8199126438308], [175.118481160338, -36.8199064782795], [175.118438467328, -36.8199058944777], [175.118415122103, -36.8199090009267], [175.118413119426, -36.8199092267936], [175.118386758225, -36.8199121977186], [175.118378178041, -36.8199122073343], [175.118350756755, -36.8199114937224], [175.118308852978, -36.8199088778078], [175.118296260774, -36.8199077556908], [175.118294609369, -36.8199081582582], [175.118261095192, -36.8199070367703], [175.118212007239, -36.819917331025], [175.118184058306, -36.8199478584631], [175.118161022879, -36.8199730185444], [175.118149542451, -36.8199844911283], [175.118074466386, -36.8200595198199], [175.11807065674, -36.8200647530315], [175.118069362122, -36.8200853761073], [175.118078150229, -36.8201309683509], [175.118078152138, -36.8201338840072], [175.11808008266, -36.8201403524506], [175.11807816371, -36.8201556518851], [175.118078167099, -36.8201619149257], [175.118076852238, -36.8201661077488], [175.1180739085, -36.8201895749571], [175.118046247312, -36.8202485997984], [175.118012980927, -36.8202801791294], [175.118003884985, -36.8202903942629], [175.11794578001, -36.820337850867], [175.117894720518, -36.8203676904648], [175.117887418991, -36.8203711012827], [175.117887285695, -36.820371186577], [175.117886925358, -36.8203713317972], [175.117846801743, -36.820390072642], [175.11782280646, -36.8203934348107], [175.117799330698, -36.8203983190185], [175.117794977419, -36.8203973339573], [175.117769016776, -36.8203914586073], [175.117762182441, -36.8203765990475], [175.117765618242, -36.8203592257495], [175.117756975683, -36.8203492879346], [175.117725824772, -36.8203424424249], [175.117673194721, -36.8203201465424], [175.117672071995, -36.8203193535774], [175.117644966832, -36.8202869617522], [175.117640405904, -36.8202793783963], [175.117627860358, -36.8202507487447], [175.117625337129, -36.8202184236764], [175.117624989068, -36.8202166146687], [175.117625783801, -36.8202042879134], [175.117619224874, -36.8201788386248], [175.11760404201, -36.820144125346], [175.117586739583, -36.8201235776321], [175.117585997879, -36.8201231050481], [175.117585884026, -36.820122919607], [175.117557726859, -36.8201032376424], [175.117541379362, -36.8201011476618], [175.117540089001, -36.820100861506], [175.117534147802, -36.8201002228819], [175.117428402687, -36.8200867045048], [175.117370953038, -36.8200668719604], [175.117344936835, -36.8200579177786], [175.117325181646, -36.8200511188169], [175.117296994145, -36.8200482311673], [175.117260848139, -36.8200493220928], [175.117255987616, -36.8200481540711], [175.117177451827, -36.8200292792785], [175.117162720763, -36.8200159564485], [175.117128127872, -36.8199702802877], [175.11709668274, -36.8199224011628], [175.117068788356, -36.8198818584204], [175.117024146562, -36.819840941597], [175.116977177512, -36.8198026276882], [175.116967647456, -36.819794853407], [175.116906127621, -36.8197791291264], [175.116824758742, -36.8197415576048], [175.116754205405, -36.8197320499313], [175.116707618983, -36.8197395176177], [175.116697552803, -36.8197411317436], [175.116622462479, -36.819749197133], [175.116541221161, -36.819746606932], [175.116501684366, -36.8197421717744], [175.116425930396, -36.8197230946225], [175.116417838786, -36.8197190675064], [175.116379535751, -36.8196932478302], [175.116365287112, -36.8196784255648], [175.116349861739, -36.8196652438782], [175.116324002923, -36.8196497036028], [175.116310720711, -36.8196417211804], [175.116213664119, -36.819611829093], [175.116133056217, -36.8196018267939], [175.116119850388, -36.8196019077836], [175.116075325844, -36.8196021813239], [175.116051372662, -36.8196045834044], [175.116001889951, -36.8196095444991], [175.115957727886, -36.8196163855933], [175.115936074046, -36.8196201347126], [175.115896289298, -36.8196106411879], [175.115776030078, -36.8195819441075], [175.115694174157, -36.8195874380717], [175.115620849313, -36.8195988350373], [175.11557415991, -36.8196050477062], [175.115494849749, -36.8196118418561], [175.115438756353, -36.819610822208], [175.115403461292, -36.8196053954725], [175.11539916691, -36.8196047553715], [175.115291008159, -36.819591768336], [175.115249194171, -36.8195946845971], [175.115195142813, -36.8196070839388], [175.11516781952, -36.8196176619841], [175.115132802164, -36.8196223220357], [175.115089364803, -36.8196251130075], [175.115042823435, -36.8196367053728], [175.115022029887, -36.8196447895729], [175.115004737958, -36.8196515117923], [175.114961541221, -36.8196630446112], [175.114922194067, -36.8196623991055], [175.114867605808, -36.8196552975004], [175.114792293189, -36.8196552918802], [175.114750959455, -36.8196553756616], [175.114680100835, -36.8196715843521]]]}, "properties": {"OBJECTID": 12743, "TRACKNAME": "Poderi Cresi to Te Matuku", "CONDITIONSOFUSE": "Te Matuku To Awaroa Walkway", "STATUS": "Open", "WEBLINK": null, "VALIDATIONSTATE": 3, "created_user": "AC_owner", "last_edited_user": "AC_owner", "last_edited_date": 1789875254325, "created_date": 1789875254325, "PARK_SAPSITEID": null, "TRACK_ID": null, "KAURIDIEBACK_TRACK": null, "KAURIDIEBACK_MITIGATED": null, "SegmentID": null, "GlobalID": "7f182a82-533f-4122-8fca-eda607773c2f", "Shape__Length": 932.7013421799819}}]}