{"type": "FeatureCollection", "features": [{"type": "Feature", "id": 1064, "geometry": {"type": "LineString", "coordinates": [[174.478277117666, -36.9885915226357], [174.478326116852, -36.9885345231725], [174.478337752224, -36.9884849025329], [174.47832230264, -36.9884402161989], [174.47823514784, -36.9883202849939], [174.478253906, -36.9881591493785], [174.478226130068, -36.9879867224136], [174.478226770168, -36.9879443234236], [174.47829377988, -36.9877984688035], [174.478433128804, -36.987664872944], [174.478481724669, -36.9875946194153], [174.478540996159, -36.9874849695807], [174.478699938456, -36.9873298301601], [174.478748778656, -36.9873006575242], [174.479027255385, -36.9872932216211], [174.479252198959, -36.9872977373243], [174.479425568177, -36.9872795862796], [174.479479468896, -36.987266313373]]}, "properties": {"OBJECTID": 1064, "TRACKNAME": "Pohutukawa Glade Walk", "CONDITIONSOFUSE": "Waitakere West Regional Park", "STATUS": "Open", "WEBLINK": "https://www.aucklandcouncil.govt.nz/en/parks-recreation/find-park-beach/park-detail/3451.html", "VALIDATIONSTATE": 3, "created_user": "AC_owner", "last_edited_user": "AC_owner", "last_edited_date": 1789875254325, "created_date": 1789875254325, "PARK_SAPSITEID": null, "TRACK_ID": null, "KAURIDIEBACK_TRACK": null, "KAURIDIEBACK_MITIGATED": null, "SegmentID": null, "GlobalID": "37834fe0-4494-46ef-b744-803e9d0afc8f", "Shape__Length": 227.64951234368903}}, {"type": "Feature", "id": 1395, "geometry": {"type": "LineString", "coordinates": [[174.47523623204, -36.9905853220168], [174.475297828367, -36.9905799594191], [174.475449343086, -36.9905823393602], [174.475566526296, -36.9905536974573], [174.475622015047, -36.990525921665], [174.475711159477, -36.9904976823105], [174.475806018539, -36.9904738515946], [174.475906570125, -36.9904544478054], [174.476024145698, -36.9904438007554], [174.476114369847, -36.9904650414096], [174.476198486362, -36.990463869003], [174.476332202184, -36.9904214912832], [174.476420855035, -36.9903707505275], [174.476548277681, -36.9902969663107], [174.476648054281, -36.9902415711772], [174.47682122706, -36.9902076525033], [174.476971776109, -36.9901862826456], [174.477028032592, -36.990173260941], [174.477239570202, -36.990098293943], [174.477517053681, -36.9899594103512], [174.47777602646, -36.9897442851328], [174.477976977465, -36.9894399711493], [174.478032882508, -36.989173679911], [174.478154633746, -36.9888389755174], [174.478228042966, -36.9886540871214], [174.478277117666, -36.9885915226357]]}, "properties": {"OBJECTID": 1395, "TRACKNAME": "Pohutukawa Glade Walk", "CONDITIONSOFUSE": "Waitakere West Regional Park", "STATUS": "Open", "WEBLINK": "https://www.aucklandcouncil.govt.nz/en/parks-recreation/find-park-beach/park-detail/3451.html", "VALIDATIONSTATE": 3, "created_user": "AC_owner", "last_edited_user": "AC_owner", "last_edited_date": 1789875254325, "created_date": 1789875254325, "PARK_SAPSITEID": null, "TRACK_ID": null, "KAURIDIEBACK_TRACK": null, "KAURIDIEBACK_MITIGATED": null, "SegmentID": null, "GlobalID": "c9e64421-a78c-463f-87d4-c52e4cd0ccc5", "Shape__Length": 390.1322491174325}}, {"type": "Feature", "id": 1747, "geometry": {"type": "LineString", "coordinates": [[174.479479468896, -36.987266313373], [174.479486518863, -36.9872352457094], [174.479446975535, -36.98709931761], [174.479460668891, -36.9870573778434], [174.479513882009, -36.9869581506757], [174.479550733463, -36.9869174094634], [174.479692437005, -36.9868695923766], [174.47975960076, -36.98681539444]]}, "properties": {"OBJECTID": 1747, "TRACKNAME": "Pohutukawa Glade Walk", "CONDITIONSOFUSE": "Waitakere West Regional Park", "STATUS": "Open", "WEBLINK": "https://www.aucklandcouncil.govt.nz/en/parks-recreation/find-park-beach/park-detail/3451.html", "VALIDATIONSTATE": 3, "created_user": "AC_owner", "last_edited_user": "AC_owner", "last_edited_date": 1789875254325, "created_date": 1789875254325, "PARK_SAPSITEID": null, "TRACK_ID": null, "KAURIDIEBACK_TRACK": null, "KAURIDIEBACK_MITIGATED": null, "SegmentID": null, "GlobalID": "4126833a-7b61-438d-aaeb-eafdc18a0261", "Shape__Length": 63.535551252500085}}]}