{"type": "FeatureCollection", "features": [{"type": "Feature", "id": 12008, "geometry": {"type": "LineString", "coordinates": [[175.086533961071, -36.7899139928807], [175.086320206448, -36.7899407839405], [175.086319555198, -36.7899408188021], [175.086258387238, -36.7899396821214], [175.086258381613, -36.7899396813188], [175.086145514425, -36.7899288812256], [175.08614550656, -36.7899288804623], [175.086042515451, -36.7899256870469], [175.086042509851, -36.7899256871451], [175.08596327509, -36.7899326365378], [175.085963268394, -36.7899326375566], [175.085808759218, -36.7899653436303], [175.085808753642, -36.7899653446295], [175.085710747644, -36.7899931692965], [175.085593870538, -36.7900124416492], [175.085593847089, -36.7900124447644], [175.085346372448, -36.7900295579026], [175.085346357912, -36.7900295590588], [175.085249215006, -36.7900379333781], [175.085249211646, -36.790037933437], [175.08513997392, -36.7900592858688], [175.08506698931, -36.790067791567], [175.08506698595, -36.7900677916259], [175.084781918572, -36.7900641379276], [175.084774086123, -36.7900636650813], [175.084559293319, -36.7900400350758], [175.084559268774, -36.7900400391114], [175.084422697767, -36.7900968614597], [175.084422684497, -36.7900968680014], [175.08359785227, -36.7905490560168], [175.083597840095, -36.7905490616379], [175.083129289542, -36.7907773515678]]}, "properties": {"OBJECTID": 12008, "TRACKNAME": "Pohukawa Reserve ", "CONDITIONSOFUSE": "Pohutukawa Reserve Onetangi", "STATUS": "Open", "WEBLINK": "https://www.aucklandcouncil.govt.nz/en/parks-recreation/find-park-beach/park-detail/1255.html", "VALIDATIONSTATE": 3, "created_user": "AC_owner", "last_edited_user": "AC_owner", "last_edited_date": 1789875254325, "created_date": 1789875254325, "PARK_SAPSITEID": null, "TRACK_ID": null, "KAURIDIEBACK_TRACK": null, "KAURIDIEBACK_MITIGATED": null, "SegmentID": null, "GlobalID": "45f86bb5-bf2a-4e14-94b0-3f69b3b44751", "Shape__Length": 330.21429401762185}}]}