{"type": "FeatureCollection", "features": [{"type": "Feature", "id": 950, "geometry": {"type": "LineString", "coordinates": [[174.49936478714, -36.9414922213222], [174.499552322227, -36.9413756411262], [174.499666198355, -36.9413412670671], [174.49976633937, -36.9413383167197], [174.499806525056, -36.9413295255978], [174.500247037834, -36.9411456796642], [174.500296333024, -36.9411118325038], [174.500462925476, -36.9409598664934], [174.500605879293, -36.9408433702647], [174.500697765173, -36.9406852272279], [174.500924908406, -36.9403852572703], [174.5009716471, -36.9403356141718], [174.501101445187, -36.9402269001861], [174.501134304763, -36.9401829939029], [174.501193024204, -36.9400343194757], [174.501208346966, -36.9399625303052], [174.501217512922, -36.9396221670062], [174.501239266295, -36.9393790821593], [174.50133828997, -36.9392077335111], [174.50155597986, -36.9389859942005], [174.501587063659, -36.9389626433523], [174.501624855337, -36.9389475182589], [174.501874266964, -36.9388866134744], [174.502166605731, -36.9389137603377], [174.5023554495, -36.9389078288589], [174.502432567729, -36.9388739893466], [174.502672015756, -36.9387426230355], [174.502808314329, -36.9386312560526], [174.502838929039, -36.9385897663316], [174.502824298121, -36.9383576696326], [174.502923225331, -36.9381027643254], [174.502967597367, -36.9378395898811], [174.502989423771, -36.9377937405811], [174.503400498287, -36.9375760579109], [174.503549179375, -36.9374755660291], [174.503838724238, -36.9372396806937], [174.504306854479, -36.9369538862505], [174.504508103433, -36.936711086658], [174.504676578855, -36.9364524954641], [174.504731561628, -36.9364346187216], [174.504951909362, -36.9364122847185], [174.504982641872, -36.9364037198376], [174.504991394073, -36.9363914224519]]}, "properties": {"OBJECTID": 950, "TRACKNAME": "Pole Line Track", "CONDITIONSOFUSE": "Waitakere West Regional Park", "STATUS": "Temp Closed", "WEBLINK": "https://www.aucklandcouncil.govt.nz/en/parks-recreation/find-park-beach/park-detail/3451.html", "VALIDATIONSTATE": 3, "created_user": "AC_owner", "last_edited_user": "AC_owner", "last_edited_date": 1789875254325, "created_date": 1789875254325, "PARK_SAPSITEID": null, "TRACK_ID": null, "KAURIDIEBACK_TRACK": null, "KAURIDIEBACK_MITIGATED": null, "SegmentID": null, "GlobalID": "b7316b11-e31a-41f2-87ba-680cec213b34", "Shape__Length": 830.3386553820052}}]}