{"type": "FeatureCollection", "features": [{"type": "Feature", "id": 4602, "geometry": {"type": "LineString", "coordinates": [[175.069574881058, -36.8110461949375], [175.069710492783, -36.8110492479827], [175.069711067125, -36.8110493055806], [175.06979964257, -36.8110655046145], [175.069965114224, -36.8111142833701], [175.069965126645, -36.811114286759], [175.070083218851, -36.8111367466934], [175.070083223381, -36.8111367484171], [175.070203205814, -36.8111725768077], [175.070203209176, -36.8111725767492], [175.070331921637, -36.8111642621113], [175.070331927214, -36.8111642611129], [175.07036236646, -36.8111550450948], [175.070362367532, -36.8111550432736], [175.070367732883, -36.8111298503049], [175.070367731666, -36.8111298467209], [175.07029824428, -36.8110486524981], [175.070216926376, -36.8109951134896], [175.070216924087, -36.8109951117269], [175.070161326491, -36.8109670246255], [175.070161321888, -36.8109670201991], [175.070047790542, -36.8108356339926], [175.070047787036, -36.8108356286458], [175.070008986716, -36.8107394185949], [175.0700430025, -36.8106701423485], [175.070043007957, -36.8106701368457], [175.070116554278, -36.8106173555569], [175.070215072259, -36.8105829270245], [175.070215074475, -36.8105829260846], [175.07023262487, -36.8105666222834], [175.070232629157, -36.8105666149983], [175.070236164494, -36.8105482208974], [175.070236162108, -36.8105482155311], [175.070186965991, -36.8105228191053], [175.070186963726, -36.8105228182435], [175.070122477233, -36.8104980449902], [175.070121871978, -36.8104978383161], [175.069979830585, -36.8104564561547], [175.069978903359, -36.8104563226843], [175.069816834858, -36.8104530275827]]}, "properties": {"OBJECTID": 4602, "TRACKNAME": "Pond Loop", "CONDITIONSOFUSE": "Onetangi Sports Park (Rangihoua)", "STATUS": "Open", "WEBLINK": "https://www.aucklandcouncil.govt.nz/en/parks-recreation/find-park-beach/park-detail/120.html", "VALIDATIONSTATE": 3, "created_user": "AC_owner", "last_edited_user": "AC_owner", "last_edited_date": 1789875254325, "created_date": 1789875254325, "PARK_SAPSITEID": null, "TRACK_ID": null, "KAURIDIEBACK_TRACK": null, "KAURIDIEBACK_MITIGATED": null, "SegmentID": null, "GlobalID": "3d88bbfb-3910-4001-b9a0-4e99cd47cba0", "Shape__Length": 201.45350452213097}}]}