{"type": "FeatureCollection", "features": [{"type": "Feature", "id": 838, "geometry": {"type": "LineString", "coordinates": [[174.706143361376, -36.5399106354863], [174.706150102708, -36.5399012275982], [174.706153801029, -36.5399022833891], [174.706163295653, -36.5398966760434], [174.706168487484, -36.5398930051761], [174.706173697566, -36.539888639973], [174.706178947045, -36.5398835260475], [174.706184234732, -36.5398776093331], [174.706189572785, -36.5398709347254], [174.706194894994, -36.5398635392279], [174.706200159065, -36.5398555316132], [174.706205387929, -36.5398469385951], [174.7062105385, -36.5398378329018], [174.706215942896, -36.5398275697895], [174.706218541315, -36.5398177164062], [174.706231257578, -36.5398123153402], [174.706230373462, -36.5397959766791], [174.706234010261, -36.5397871179978], [174.706238070644, -36.53977669384], [174.706241890304, -36.5397664984761], [174.70624539404, -36.5397566681916], [174.706248606762, -36.5397473198114], [174.706251475804, -36.5397385983126], [174.706254003147, -36.5397305938064], [174.706256221301, -36.5397232607578], [174.706258215841, -36.5397164266769], [174.706260018285, -36.5397100009732], [174.706261693063, -36.539703865543], [174.706263304008, -36.5396978752497], [174.706264916536, -36.5396919570453], [174.706266582919, -36.5396859479307], [174.706268368376, -36.5396797658467], [174.706270295836, -36.5396734375071], [174.706272399986, -36.5396670164991], [174.706274725695, -36.5396605111947], [174.706277286702, -36.5396540385785], [174.706280127479, -36.5396475890001], [174.706283283309, -36.5396412430802], [174.706286777119, -36.5396350275324], [174.706290676507, -36.5396289684312], [174.706295101932, -36.5396229558849], [174.7063002287, -36.5396168341475], [174.706306210375, -36.5396104748256], [174.706313210701, -36.5396037043105], [174.706321383043, -36.5395963851976], [174.706330891935, -36.5395883799227], [174.706341912682, -36.539579532739], [174.706354521075, -36.5395697343941], [174.706368562558, -36.5395590682251], [174.70638383751, -36.5395476001862], [174.706400103226, -36.5395354689602], [174.706417160483, -36.5395227585236], [174.706434788119, -36.5395095711951], [174.706452776534, -36.5394960271558], [174.70647088164, -36.5394822020111], [174.706488927339, -36.5394682154629], [174.706506715399, -36.5394541965438], [174.706524159058, -36.5394402636774], [174.706541059688, -36.5394265278744], [174.706557308789, -36.5394131349114], [174.706572718504, -36.5394001776172], [174.706587180532, -36.5393878107796], [174.706600540911, -36.5393761447703], [174.706612689757, -36.5393652622881], [174.70662371601, -36.5393551440324], [174.706633774028, -36.5393456976543], [174.706643006999, -36.5393368309649], [174.706651536376, -36.5393284791281], [174.706659505744, -36.539320567977], [174.706667047127, -36.5393130054822], [174.706674315871, -36.5393057443503], [174.706681410499, -36.5392986930314], [174.706688364511, -36.5392918510459], [174.706695166146, -36.5392851915205], [174.706701793665, -36.5392787418081], [174.706708269204, -36.539272492578], [174.706714548095, -36.5392664444697], [174.706720652671, -36.5392605971634], [174.706726570975, -36.5392549147746], [174.706732293026, -36.5392494515299], [174.70673783039, -36.5392442252916], [174.706743261432, -36.5392392439519], [174.706748587341, -36.5392345615775], [174.706753853181, -36.5392301955512], [174.706759082476, -36.53922619962], [174.706764297756, -36.5392225824753], [174.706769567016, -36.5392193882135], [174.706774891046, -36.5392166528791], [174.70678030315, -36.5392143669813], [174.706785848392, -36.539212547903], [174.706791492875, -36.5392111781014], [174.706797293028, -36.5392102838106], [174.706803293123, -36.5392098463688], [174.706809471024, -36.5392098751069], [174.706815860232, -36.5392103695452], [174.706822460748, -36.5392113296837], [174.706829205173, -36.5392127384593], [174.706836014348, -36.5392145519355], [174.706842754271, -36.5392167720308], [174.706849367916, -36.5392193454777], [174.706855721282, -36.5392222741948], [174.706861757741, -36.5392255229369], [174.706867398332, -36.5392290567788], [174.706872508655, -36.5392328596168], [174.706877156702, -36.5392369755473], [174.706881399497, -36.5392414578377], [174.706885293271, -36.5392463237108], [174.706888872714, -36.5392516267538], [174.706892206016, -36.5392574200742], [174.706895316105, -36.5392637303856], [174.706898316237, -36.5392706281783], [174.706901217379, -36.5392781042811], [174.706904041074, -36.53928612233], [174.706906818445, -36.5392945737118], [174.706909570636, -36.5393034040401], [174.706912317605, -36.5393125048617], [174.706915057569, -36.5393217950766], [174.706917856538, -36.5393312286699], [174.706920678238, -36.5393406799656], [174.706923577117, -36.5393500850864], [174.706926554166, -36.539359489088], [174.70692966502, -36.5393688821598], [174.706932899505, -36.5393783095173], [174.706936280152, -36.5393877798518], [174.706939841454, -36.5393973377393], [174.706943583805, -36.5394070012019], [174.706947327814, -36.5394162319709], [174.70695109872, -36.5394312583273], [174.706955249745, -36.5394361385426], [174.706953885369, -36.5394502919572], [174.706967116171, -36.5394591525364], [174.706971393173, -36.5394672218872], [174.706977133362, -36.5394773164563], [174.706983240279, -36.5394873246487], [174.706989768968, -36.5394972096206], [174.706996707073, -36.5395069174651], [174.707004022084, -36.5395164937173], [174.707011681292, -36.5395259749013], [174.707019629853, -36.5395354068721], [174.707027834266, -36.5395447901093], [174.707036251449, -36.5395541973413], [174.707044826161, -36.5395636564009], [174.707053525694, -36.5395732038121], [174.707061596182, -36.5395820841829], [174.707068958551, -36.539595337446], [174.7070782437, -36.5396010365259], [174.707083744648, -36.5396038061703], [174.707093899905, -36.5396089429391]]}, "properties": {"OBJECTID": 838, "TRACKNAME": "Puhoi Track", "CONDITIONSOFUSE": "Wenderholm Regional Park", "STATUS": "Open", "WEBLINK": "https://www.aucklandcouncil.govt.nz/en/parks-recreation/find-park-beach/park-detail/3411.html", "VALIDATIONSTATE": 3, "created_user": "AC_owner", "last_edited_user": "AC_owner", "last_edited_date": 1789875254325, "created_date": 1789875254325, "PARK_SAPSITEID": null, "TRACK_ID": null, "KAURIDIEBACK_TRACK": null, "KAURIDIEBACK_MITIGATED": null, "SegmentID": null, "GlobalID": "8d2f9a55-fa25-48a2-8d2b-cefbe8353bcb", "Shape__Length": 155.42926545101625}}, {"type": "Feature", "id": 1767, "geometry": {"type": "LineString", "coordinates": [[174.707096368794, -36.5396175880257], [174.707101514113, -36.5396209486684], [174.707109916945, -36.5396261465839], [174.707128953638, -36.5396364022999], [174.707147320398, -36.539644639466], [174.707165035127, -36.5396511643006], [174.707182058507, -36.5396562207437], [174.707198318907, -36.5396601072818], [174.707213732935, -36.5396630955281], [174.707228295565, -36.5396654649874], [174.707242035078, -36.5396674856736], [174.707255176001, -36.5396692084556], [174.707267808662, -36.5396706771098], [174.707280011626, -36.5396719085392], [174.707291874428, -36.5396729104757], [174.707303498164, -36.5396737085137], [174.707314961401, -36.5396743195559], [174.707326365235, -36.5396747691965], [174.707337776868, -36.5396750654871], [174.707349263301, -36.5396752074683], [174.707360858233, -36.5396752036712], [174.707372572831, -36.5396750539361], [174.707384440596, -36.5396747577831], [174.707396506197, -36.5396743145724], [174.707408769434, -36.5396737152928], [174.707421297509, -36.539672967996], [174.707434101786, -36.5396720815329], [174.707447159534, -36.5396710382011], [174.707460560686, -36.5396698637545], [174.707474249008, -36.5396685409703], [174.707488280732, -36.5396670870711], [174.707502656254, -36.5396655200789], [174.707517375377, -36.5396638309825], [174.707532471403, -36.5396620102908], [174.707547967063, -36.5396600757061], [174.707563728946, -36.5396580561808], [174.707579690248, -36.5396559616857], [174.707595761238, -36.5396537754778], [174.70761183183, -36.5396515712455], [174.707627823459, -36.5396493320863], [174.707643613685, -36.5396470777818], [174.707659125131, -36.5396448454961], [174.707674290398, -36.5396426181669], [174.707689199022, -36.5396404035258], [174.70770390644, -36.5396381827508], [174.707718501593, -36.5396359365403], [174.707733129056, -36.5396336357815], [174.7077478333, -36.5396312708234], [174.707762725796, -36.5396288310553], [174.70777791762, -36.5396262878442], [174.707793431105, -36.5396236408701], [174.707809199448, -36.5396209001037], [174.70782510001, -36.5396180763157], [174.707841010351, -36.5396151892878], [174.707856819195, -36.539612258642], [174.707872404104, -36.5396093041601], [174.707887642635, -36.5396063456242], [174.707902389619, -36.539603385114], [174.707916590014, -36.539600459474], [174.707930243422, -36.5395975506821], [174.707943405482, -36.5395946489276], [174.707956132225, -36.5395917624218], [174.707968456559, -36.5395888636517], [174.707980467819, -36.5395859513375], [174.707992177569, -36.5395830433415], [174.70800365182, -36.5395800936484], [174.708014946605, -36.5395771104695], [174.708026050559, -36.5395740849537], [174.708036907649, -36.5395710088899], [174.708047518072, -36.5395678912892], [174.708057836765, -36.5395647147694], [174.708067841393, -36.5395614796506], [174.708077475725, -36.5395581687104], [174.70808673976, -36.5395547819492], [174.70809558903, -36.539551329018], [174.708104011971, -36.5395477920546], [174.708112076179, -36.5395441971326], [174.708119770488, -36.5395405444119], [174.708127139565, -36.5395368332528], [174.708134205745, -36.5395330633352], [174.708141014092, -36.5395292520415], [174.708147575575, -36.5395253902006], [174.708153946029, -36.5395214770126], [174.708160137017, -36.5395175303398], [174.708166137571, -36.5395135593532], [174.708171926149, -36.5395096004174], [174.708177502555, -36.5395056445213], [174.708182900486, -36.5395017001959], [174.708188098005, -36.5394977857837], [174.708193095708, -36.5394939283178], [174.708197893198, -36.5394901097762], [174.708202600757, -36.539486265481], [174.708207295166, -36.5394823312346], [174.708212075142, -36.5394782244968], [174.708217017468, -36.53947388107], [174.708222254163, -36.5394692089229], [174.708227851041, -36.5394641530289], [174.708233928558, -36.5394586034946], [174.708240541954, -36.5394525324865], [174.708247614646, -36.5394460132135], [174.70825500305, -36.5394391198444], [174.7082626212, -36.5394320068481], [174.708270303178, -36.5394247487136], [174.708277940288, -36.5394174822075], [174.708285400709, -36.5394103083721], [174.708292563188, -36.5394033010565], [174.708299341168, -36.5393965876964], [174.70830567921, -36.5393901871139], [174.708311620395, -36.5393840265804], [174.708317231924, -36.5393781141468], [174.708322469129, -36.5393724504534], [174.708327353352, -36.5393669901245], [174.708331929064, -36.539361723509], [174.708336218202, -36.5393566322648], [174.708340209797, -36.5393517255629], [174.708343936954, -36.5393469849012], [174.708347411434, -36.539342437153], [174.708350678104, -36.5393380906894], [174.708353736964, -36.5393339455104], [174.708356643849, -36.5393300008159], [174.708359387988, -36.5393262747882], [174.708362014247, -36.5393227757984], [174.708364566502, -36.5393194671619], [174.70836703418, -36.5393163760722], [174.708369449988, -36.5393134660047], [174.708371825492, -36.5393107548217], [174.708374149126, -36.5393082246609], [174.708376465361, -36.5393058658712], [174.708378752457, -36.539303705806], [174.708381020392, -36.5393016902385], [174.708383336564, -36.539299836231], [174.708385655314, -36.5392980993678], [174.708388098487, -36.5392964328333], [174.708390621811, -36.5392948552897], [174.708393324401, -36.5392933022192], [174.708396195289, -36.5392917827928], [174.708399278349, -36.539290260326], [174.708402584748, -36.5392887346589], [174.708406136621, -36.5392871964601], [174.708409923397, -36.5392856729231], [174.708413922742, -36.5392841643679], [174.708418245928, -36.539282651172], [174.708422893749, -36.5392811693799], [174.708427910872, -36.5392797183514], [174.708433308663, -36.5392783069375], [174.70843913179, -36.5392769344983], [174.708445480953, -36.5392756086044], [174.70845236613, -36.5392742750292], [174.708459830798, -36.5392728790658], [174.708467886125, -36.539271420554], [174.708476519158, -36.5392698185539], [174.708485751637, -36.5392680457118], [174.708495604904, -36.539266056652], [174.708506089133, -36.5392638061588], [174.708517136928, -36.53926127717], [174.708528614679, -36.539258489628], [174.708540355876, -36.5392554909887], [174.708552204972, -36.5392523195368], [174.708564006624, -36.5392490225684], [174.708575583151, -36.5392456476995], [174.708586789977, -36.5392422240439], [174.708597449424, -36.5392387992179], [174.708607439249, -36.5392354020154], [174.708616803526, -36.5392320047629], [174.708625642163, -36.5392285789871], [174.708634010796, -36.5392251148767], [174.708641975831, -36.5392215844382], [174.708649647946, -36.5392179410159], [174.708657093945, -36.5392141746383], [174.708664380632, -36.5392102753342], [174.708671563046, -36.5392062062589], [174.708678686056, -36.5392019757835], [174.708685760827, -36.5391975837479], [174.708692788351, -36.5391930752076], [174.708699768628, -36.5391884501627], [174.708706734762, -36.5391836901107], [174.708713698714, -36.5391788309362], [174.708720638744, -36.5391738999925], [174.708727598728, -36.539168860595], [174.708734568092, -36.5391637399371], [174.708741535075, -36.5391585111455], [174.708748522408, -36.5391531919223], [174.708755484828, -36.5391477558744], [174.708762433897, -36.539142220864], [174.708769369419, -36.5391365778799], [174.708776246726, -36.5391308275623], [174.708783077181, -36.5391249787624], [174.708789805745, -36.5391190683249], [174.708796422638, -36.5391131594875], [174.70880285009, -36.5391072713928], [174.708809100655, -36.5391014669588], [174.708815108521, -36.5390958012122], [174.708820818054, -36.5390902839646], [174.708826230839, -36.5390849873049], [174.708831346281, -36.5390798841997], [174.70883623898, -36.5390748113288], [174.708840984524, -36.5390696504274], [174.708845635575, -36.5390642565174], [174.708850233627, -36.5390584847808], [174.708854865437, -36.5390522167929], [174.708859583864, -36.5390453165867], [174.708864441371, -36.5390376301729], [174.708869502974, -36.5390290664802], [174.708874748325, -36.5390197159397], [174.708880102228, -36.5390097148384], [174.708885489492, -36.5389991994635], [174.708890856662, -36.5389882787485], [174.708896150878, -36.5389770886604], [174.708901297146, -36.5389657744973], [174.708906220272, -36.5389544725464], [174.708910877574, -36.5389432735591], [174.708915279622, -36.5389321503419], [174.708919458133, -36.5389210213147], [174.708923445615, -36.5389098409418], [174.708927262419, -36.538898518792], [174.708930951824, -36.5388869911473], [174.708934534576, -36.5388751855987], [174.708938042591, -36.5388630295771], [174.708941519741, -36.5388504863979], [174.708944965431, -36.5388375290277], [174.708948392218, -36.5388242203842], [174.708951799704, -36.5388105424452], [174.708955211016, -36.538796530935], [174.708958626948, -36.538782221898], [174.708962069834, -36.5387676150141], [174.708965529102, -36.5387527374768], [174.70896902768, -36.5387376159991], [174.708972599465, -36.5387222681231], [174.708976243467, -36.5387066487932], [174.708980027281, -36.5386907840824], [174.708983972844, -36.5386746556483], [174.708988091323, -36.5386582633307], [174.708992438353, -36.5386415973183], [174.708997036268, -36.5386246572908], [174.709001895442, -36.5386074070438], [174.709007004707, -36.5385898467373], [174.709012318998, -36.5385719589892], [174.709017826951, -36.5385537349486], [174.709023461763, -36.538535184587], [174.709029200702, -36.5385162902022], [174.709034998507, -36.5384970254012], [174.709040844209, -36.5384773993553], [174.709046682767, -36.5384574489092], [174.709052515965, -36.5384372551628], [174.709058413583, -36.5384169433113], [174.709064366636, -36.5383966126369], [174.709070411004, -36.5383763707927], [174.709076582568, -36.5383563254318], [174.709082906241, -36.5383365933784], [174.70908940634, -36.5383172644235], [174.709096106984, -36.5382984193468], [174.709103029514, -36.5382800127726], [174.709110172938, -36.5382619996453], [174.709117535671, -36.5382443078761], [174.709125126894, -36.5382268471937], [174.709132968544, -36.5382095992556], [174.709141036899, -36.5381925013043], [174.709149341539, -36.5381754810908], [174.70915791517, -36.5381585020903], [174.709166713919, -36.5381416009875], [174.709175761309, -36.5381248315289], [174.70918504657, -36.5381082118967], [174.709194604194, -36.5380917866662], [174.709204424602, -36.5380756280863], [174.709214485459, -36.538059736477], [174.709224821457, -36.5380441654247], [174.709235410857, -36.5380289422829], [174.709246264429, -36.5380140488691], [174.709257348474, -36.5379994766525], [174.709268618127, -36.5379852172623], [174.70928008396, -36.537971243505], [174.709291690138, -36.5379575561809], [174.709303447035, -36.5379441190857], [174.709315299213, -36.5379309510418], [174.709327223944, -36.5379180343473], [174.709339232988, -36.5379053958753], [174.709351327338, -36.5378930806814], [174.709363529525, -36.5378810974565], [174.709375873646, -36.5378694727535], [174.709388337962, -36.5378582339259], [174.709400956172, -36.5378473895045], [174.709413774134, -36.5378369929155], [174.709426791053, -36.5378270081143], [174.709440204559, -36.5378172790302], [174.709454212676, -36.5378076676143], [174.709469001271, -36.5377979909223], [174.709484745637, -36.5377880932035], [174.709501632435, -36.5377778275578], [174.709519824997, -36.5377670023496], [174.709539521547, -36.5377554885408], [174.709560809233, -36.5377431857275], [174.709583488839, -36.5377301778911], [174.709607284768, -36.5377166312338], [174.709631976661, -36.5377026841241], [174.709657255221, -36.5376884942339], [174.709682900488, -36.5376742179543], [174.709708658603, -36.5376599941347], [174.709734264542, -36.5376459617849], [174.709759486383, -36.5376322414122], [174.709784402494, -36.5376188409071], [174.709809056151, -36.5376056965514], [174.709833557633, -36.537592743666], [174.709857996077, -36.5375799719588], [174.709882436695, -36.5375672993689], [174.709906979591, -36.5375547064329], [174.70993171271, -36.5375421287915], [174.709956658385, -36.5375295661245], [174.70998170614, -36.5375170740998], [174.710006702618, -36.5375047901263], [174.710031504241, -36.537492788375], [174.710055946088, -36.5374811883928], [174.710079862644, -36.5374700826935], [174.710103122492, -36.5374595903438], [174.710125549146, -36.5374498130289], [174.710147054666, -36.5374408151084], [174.710167760495, -36.5374325317433], [174.71018786565, -36.5374248699395], [174.710207502146, -36.5374177376643], [174.710226879769, -36.537411023741], [174.710246164234, -36.5374046446673], [174.710265543586, -36.5373985166199], [174.71028516081, -36.5373925383944], [174.710305170651, -36.537386635659], [174.710325584474, -36.5373808172647], [174.710346447939, -36.5373751276258], [174.710367783775, -36.5373695844439], [174.710389592379, -36.5373642057411], [174.710411941745, -36.5373590356114], [174.710434820706, -36.5373540742147], [174.710458274921, -36.5373493659654], [174.710482360421, -36.5373449190733], [174.710507143216, -36.5373406875211], [174.71053263308, -36.5373366080706], [174.710558951657, -36.5373326248923], [174.710586131653, -36.5373287014606], [174.710614205375, -36.5373247832277], [174.710643249204, -36.5373207879714], [174.710673274108, -36.5373167065198], [174.710704312196, -36.5373124753137], [174.710736196761, -36.5373081328001], [174.710768740156, -36.5373037808245], [174.710801776269, -36.5372994848675], [174.71083512723, -36.537295283537], [174.710868605189, -36.5372912696677], [174.710902010339, -36.5372875002105], [174.710935210071, -36.5372840401663], [174.710968038474, -36.5372809640276], [174.711000572921, -36.5372782346286], [174.711032891181, -36.5372758328256], [174.71106508239, -36.5372737483256], [174.711097212555, -36.5372719351114], [174.711129370414, -36.5372703648679], [174.711161656268, -36.5372690271414], [174.711194125355, -36.5372678940973], [174.711226855245, -36.5372669375799], [174.711259834773, -36.5372661577496], [174.711293019868, -36.5372655822804], [174.711326354697, -36.5372652119736], [174.711359839856, -36.5372650738624], [174.711393419115, -36.5372651507258], [174.711427071333, -36.5372654969511], [174.711460751048, -36.5372660771349], [174.711494425556, -36.5372669278023], [174.711527959864, -36.5372680058217], [174.711561208211, -36.5372692862437], [174.711593980365, -36.5372707537716], [174.711626129771, -36.5372723474122], [174.711657499697, -36.5372740513882], [174.711687943786, -36.5372758137177], [174.71171726084, -36.537277628276], [174.711745360729, -36.5372794603022], [174.711772323013, -36.5372813717526], [174.711798306209, -36.5372834595054], [174.711823490374, -36.5372857840737], [174.711848011496, -36.5372884336449], [174.711872060997, -36.5372914775827], [174.711895158314, -36.5372949047595], [174.711913799107, -36.5372963227129], [174.7119435899, -36.5373039173692], [174.711967937532, -36.5373093366896], [174.711994338758, -36.5373156910093], [174.712023218907, -36.5373230192893], [174.71204000151, -36.5373273988479]]}, "properties": {"OBJECTID": 1767, "TRACKNAME": "Puhoi Track", "CONDITIONSOFUSE": "Wenderholm Regional Park", "STATUS": "Open", "WEBLINK": "https://www.aucklandcouncil.govt.nz/en/parks-recreation/find-park-beach/park-detail/3411.html", "VALIDATIONSTATE": 3, "created_user": "AC_owner", "last_edited_user": "AC_owner", "last_edited_date": 1789875254325, "created_date": 1789875254325, "PARK_SAPSITEID": null, "TRACK_ID": null, "KAURIDIEBACK_TRACK": null, "KAURIDIEBACK_MITIGATED": null, "SegmentID": null, "GlobalID": "6168fcaf-5df4-4a6e-900e-fc3fc01d6a90", "Shape__Length": 580.3628236903303}}]}