{"type": "FeatureCollection", "features": [{"type": "Feature", "id": 1337, "geometry": {"type": "LineString", "coordinates": [[175.177817935126, -37.0850718194076], [175.178159271159, -37.0851621620929], [175.178030233091, -37.0854027606473], [175.177952010365, -37.0857979002094], [175.178268964434, -37.086446321265], [175.178674299657, -37.0873323719318], [175.17922140836, -37.0878926353741], [175.179337136286, -37.0884719763491], [175.179235574477, -37.0887983836923], [175.178772611825, -37.0891767310308], [175.178610301444, -37.089795168938], [175.178187797081, -37.0901279693204], [175.177947661768, -37.0909381173164], [175.178019789779, -37.0914624010155], [175.177790817532, -37.0921828403768], [175.178069501105, -37.0926135192288], [175.178910511358, -37.0931672197331], [175.179733504902, -37.0939884748096], [175.180015170956, -37.0945657631756], [175.179967969282, -37.0952937591247], [175.180263740809, -37.0958247694996], [175.181097165376, -37.096132525067], [175.181889175421, -37.0962976934271], [175.1826559283, -37.0965858913365], [175.183285973842, -37.0964691570183], [175.183879786972, -37.0962559504072], [175.184786856487, -37.096237828375], [175.185858000516, -37.0959907939264], [175.186562999769, -37.0958779503366], [175.187119436217, -37.0962583210713], [175.187929178718, -37.0967007329214], [175.188541445841, -37.0970799760205], [175.189231870235, -37.0972786764189], [175.189437707541, -37.0980575445313], [175.189701457533, -37.0984549438786], [175.190309595997, -37.0990127095982], [175.190606131979, -37.0997008018807], [175.190807111042, -37.1003231652346], [175.191708311349, -37.1010098096733], [175.193340145471, -37.1018383842428], [175.194071801179, -37.1020138694726], [175.194557852535, -37.102373245931], [175.19517715909, -37.1025285977308], [175.195603185948, -37.1027549490989], [175.195848840657, -37.103018473564], [175.196216598236, -37.1031676831038], [175.196289915201, -37.1037254931746], [175.196262786447, -37.1046432563012], [175.196211222358, -37.1056733707063], [175.196178057523, -37.106590984071], [175.195959763536, -37.1070095025395], [175.195214824767, -37.1073040949327], [175.1948471358, -37.1077994608467], [175.194322669977, -37.1082503951187], [175.193836477675, -37.1088061454292], [175.192820927322, -37.1098017457008], [175.192283936643, -37.1109422472659], [175.1920082845, -37.1115070463097], [175.19193084501, -37.1121573660105], [175.191544216988, -37.1127467566445], [175.190822582138, -37.1128954482921], [175.190475360017, -37.1134261660132], [175.190217334231, -37.1142659835597], [175.189578188466, -37.1150375618538], [175.189133140747, -37.1159569966271], [175.188797896004, -37.1169404089073], [175.189123643457, -37.1186887908209], [175.189161490235, -37.1196400401815], [175.188491072639, -37.1205371119788], [175.187633945393, -37.1208226989577], [175.18726120196, -37.1214118105982], [175.186921622656, -37.1217206078135]]}, "properties": {"OBJECTID": 1337, "TRACKNAME": "Pukapuka Track", "CONDITIONSOFUSE": "Hunua Ranges Regional Park", "STATUS": "Open", "WEBLINK": "https://www.aucklandcouncil.govt.nz/en/parks-recreation/find-park-beach/park-detail/213.html", "VALIDATIONSTATE": 3, "created_user": "AC_owner", "last_edited_user": "AC_owner", "last_edited_date": 1789875254325, "created_date": 1789875254325, "PARK_SAPSITEID": null, "TRACK_ID": null, "KAURIDIEBACK_TRACK": null, "KAURIDIEBACK_MITIGATED": null, "SegmentID": null, "GlobalID": "f8d6e8df-72e6-42f3-bbef-5f3f066a874a", "Shape__Length": 5575.923558149899}}]}