{"type": "FeatureCollection", "features": [{"type": "Feature", "id": 12237, "geometry": {"type": "LineString", "coordinates": [[174.532781612959, -37.0211757049009], [174.532818260158, -37.0210881781445], [174.532936091315, -37.0209932488703], [174.532993857779, -37.0208958236729], [174.533086067758, -37.0206684816372], [174.533113315866, -37.0205073466862], [174.533153810262, -37.0203534352362], [174.533259244036, -37.0201236904361], [174.53330015767, -37.0200543616378], [174.533373499979, -37.0199694376927], [174.533568264328, -37.0197979145483], [174.533657927795, -37.0197258003774], [174.533793340426, -37.0196403532471], [174.533849968744, -37.0195858826761], [174.533943353751, -37.0194861082147], [174.534030254878, -37.0193737562443], [174.53408264436, -37.019237748332], [174.534096367984, -37.0191700480297], [174.534044081174, -37.0190877791101], [174.534046850742, -37.0190072193619], [174.534096909297, -37.018900813981], [174.534230972997, -37.0187513491639], [174.534247537816, -37.0185703961795], [174.534243603936, -37.0185011593391], [174.534196728425, -37.0183647151377], [174.534159714928, -37.0182945350698], [174.534127236092, -37.0182516974111], [174.534040376644, -37.018174310133], [174.534013049756, -37.0181310957658], [174.533916897615, -37.0179086092462], [174.533878575445, -37.0177558696671], [174.533857566982, -37.0177075629676], [174.533831339434, -37.0176706537099], [174.533720650926, -37.0175579140903], [174.533657592175, -37.017452741177], [174.533528200193, -37.0170757129169], [174.53351468213, -37.0169924802421], [174.533516352396, -37.0169344296937], [174.533544659438, -37.0168548756627], [174.533587081368, -37.0168054858651], [174.533636082631, -37.0167665739404], [174.534044314187, -37.0166041028366], [174.534352213518, -37.016414871495], [174.534639751496, -37.0161060879697], [174.534798346478, -37.0158946402061], [174.53493005118, -37.0155075486557], [174.534976519376, -37.0151280836353], [174.53497444302, -37.0150668880436], [174.534941323359, -37.0148676600712], [174.534841983691, -37.0146070963771], [174.534853801704, -37.0145484945027], [174.534923469682, -37.0143824450645], [174.535001799828, -37.0142954464736], [174.535108072579, -37.014218238238], [174.535366665494, -37.0140742834202], [174.5354567898, -37.0140435781185], [174.535520124885, -37.0140307498089], [174.536149142047, -37.0139962866956], [174.536587388893, -37.0139916685338], [174.536843798879, -37.0140466092246], [174.537081831749, -37.0141321169717], [174.537173969806, -37.0141528631279]]}, "properties": {"OBJECTID": 12237, "TRACKNAME": "Puriri Ridge Track", "CONDITIONSOFUSE": "Waitakere South Regional Park", "STATUS": "Open", "WEBLINK": "https://www.aucklandcouncil.govt.nz/en/parks-recreation/find-park-beach/park-detail/212.html", "VALIDATIONSTATE": 3, "created_user": "AC_owner", "last_edited_user": "AC_owner", "last_edited_date": 1789875254325, "created_date": 1789875254325, "PARK_SAPSITEID": null, "TRACK_ID": null, "KAURIDIEBACK_TRACK": null, "KAURIDIEBACK_MITIGATED": null, "SegmentID": null, "GlobalID": "f3600fcb-5603-4445-8e39-2fb1f39b0e2f", "Shape__Length": 1083.9196240892616}}, {"type": "Feature", "id": 12243, "geometry": {"type": "LineString", "coordinates": [[174.529195547394, -37.0271639797529], [174.529183053832, -37.0270409983761], [174.52922384876, -37.026956250421], [174.529279516691, -37.0269017853752], [174.529549568678, -37.0266792850639], [174.52958431607, -37.0266371947192], [174.529609542749, -37.0265548015741], [174.529609964419, -37.0264917467158], [174.529597451083, -37.0264109668309], [174.529611372806, -37.0263831609671], [174.529840562716, -37.0261933830418], [174.529975984052, -37.0261442437586], [174.530139022244, -37.0260203867797], [174.530151289914, -37.0259801905986], [174.530148781369, -37.0258450655393], [174.530155697733, -37.0258014952179], [174.530281986227, -37.0255952869735], [174.530338564533, -37.0255380966304]]}, "properties": {"OBJECTID": 12243, "TRACKNAME": "Puriri Ridge Track", "CONDITIONSOFUSE": "Waitakere South Regional Park", "STATUS": "Open", "WEBLINK": "https://www.aucklandcouncil.govt.nz/en/parks-recreation/find-park-beach/park-detail/212.html", "VALIDATIONSTATE": 3, "created_user": "AC_owner", "last_edited_user": "AC_owner", "last_edited_date": 1789875254325, "created_date": 1789875254325, "PARK_SAPSITEID": null, "TRACK_ID": null, "KAURIDIEBACK_TRACK": null, "KAURIDIEBACK_MITIGATED": null, "SegmentID": null, "GlobalID": "ef37d873-d2e6-4c81-9d4e-d427d35ae68a", "Shape__Length": 220.9687487693573}}, {"type": "Feature", "id": 12249, "geometry": {"type": "LineString", "coordinates": [[174.530338558896, -37.0255380958018], [174.530341249529, -37.0255353759742], [174.530365465258, -37.0255108993251], [174.530432658603, -37.0254584564275], [174.530486847146, -37.0254322672243], [174.530595618504, -37.0253989814594], [174.530625484771, -37.0253764409688], [174.530817768448, -37.0251474977455], [174.530872946678, -37.0250336375173], [174.530899839311, -37.0249955816342], [174.531035271202, -37.0248446218334], [174.531209240298, -37.0246758360667], [174.531500930294, -37.0244663398021], [174.531660682326, -37.0243898476532], [174.531695209057, -37.0243591571148], [174.531781497371, -37.0242108219975], [174.531944264352, -37.0237295862249], [174.53201143168, -37.0236213528221], [174.532063241583, -37.0235773468944], [174.532171830824, -37.023504772213], [174.532433987382, -37.0234050014481], [174.532612434016, -37.0232130938739], [174.532856688173, -37.0230634140494], [174.532880804887, -37.0230261453121], [174.53292158479, -37.0229053224586], [174.532943310634, -37.022865379648], [174.533141467157, -37.0226867747294], [174.53329336801, -37.0225016484131], [174.533306846403, -37.0224512167525], [174.533302753335, -37.0222438996587], [174.533295086376, -37.0221999741031], [174.533266731128, -37.0221416130849], [174.533229970917, -37.0220868299716], [174.533095579055, -37.0219386739068], [174.532893836712, -37.0216431662443], [174.532867093741, -37.0216164568332], [174.532769312857, -37.0215530392073], [174.532717554156, -37.0214693198512], [174.532709275895, -37.0214188934954], [174.532734341489, -37.0212692574174], [174.532746446592, -37.0212310865904], [174.532781612959, -37.0211757049009]]}, "properties": {"OBJECTID": 12249, "TRACKNAME": "Puriri Ridge Track", "CONDITIONSOFUSE": "Waitakere South Regional Park", "STATUS": "Open", "WEBLINK": "https://www.aucklandcouncil.govt.nz/en/parks-recreation/find-park-beach/park-detail/212.html", "VALIDATIONSTATE": 3, "created_user": "AC_owner", "last_edited_user": "AC_owner", "last_edited_date": 1789875254325, "created_date": 1789875254325, "PARK_SAPSITEID": null, "TRACK_ID": null, "KAURIDIEBACK_TRACK": null, "KAURIDIEBACK_MITIGATED": null, "SegmentID": null, "GlobalID": "5d0cc567-6475-4001-92d5-7109c44caa61", "Shape__Length": 606.425682595573}}]}