{"type": "FeatureCollection", "features": [{"type": "Feature", "id": 11997, "geometry": {"type": "LineString", "coordinates": [[175.024338145238, -36.7825464689101], [175.024389318095, -36.7825437887775], [175.024384276376, -36.782697245147], [175.024430085971, -36.7827128971245], [175.024749656553, -36.7823495932137], [175.024890181211, -36.7823417230228], [175.02521292276, -36.7824439509567], [175.025665689939, -36.7827429779306], [175.026530212859, -36.7832486088234]]}, "properties": {"OBJECTID": 11997, "TRACKNAME": "Queens Drive", "CONDITIONSOFUSE": "Watters Glen", "STATUS": "Open", "WEBLINK": null, "VALIDATIONSTATE": 3, "created_user": "AC_owner", "last_edited_user": "AC_owner", "last_edited_date": 1789875254325, "created_date": 1789875254325, "PARK_SAPSITEID": null, "TRACK_ID": null, "KAURIDIEBACK_TRACK": null, "KAURIDIEBACK_MITIGATED": null, "SegmentID": null, "GlobalID": "551c6c89-e263-40cc-8f76-3f8b7c0a3a15", "Shape__Length": 266.6897517579274}}]}