{"type": "FeatureCollection", "features": [{"type": "Feature", "id": 11449, "geometry": {"type": "LineString", "coordinates": [[175.062224057279, -36.8089866014415], [175.062336264473, -36.8089422862501], [175.062336286711, -36.8089422795551], [175.06246692312, -36.8089114435087], [175.062466928698, -36.8089114425106], [175.062603224202, -36.8088904991059], [175.062603229804, -36.8088904990087], [175.062738140564, -36.8088838678778], [175.062738146142, -36.8088838668797], [175.06290325319, -36.8088767160937], [175.062903256551, -36.8088767160354], [175.062920770317, -36.8088773783081], [175.062937379615, -36.8088780021958], [175.062941740947, -36.8088781671586], [175.062958339187, -36.8088787966432], [175.063084741438, -36.8088835745909], [175.063084743703, -36.8088835754529], [175.063213503198, -36.8089127810011], [175.063213507728, -36.8089127827251], [175.063413118866, -36.8089993549084], [175.063413125661, -36.8089993574943], [175.063628160964, -36.8090642285291], [175.063628167734, -36.8090642302142], [175.063763798517, -36.8090847417539], [175.063763803023, -36.809084742577], [175.063893871988, -36.8091625248449], [175.064004156212, -36.8092978230025], [175.064004158525, -36.8092978256662], [175.064114587255, -36.8094388237642], [175.064114590737, -36.8094388282103], [175.06431245882, -36.809658357243], [175.064312462253, -36.8096583598873], [175.064564107551, -36.8097626158928], [175.064564114345, -36.8097626184787], [175.064843107279, -36.8098263701404], [175.06484311064, -36.809826370082], [175.065143427395, -36.8098897605476], [175.065143433021, -36.8098897613512], [175.065478511932, -36.8099239594488], [175.06547852204, -36.8099239601745], [175.065720299606, -36.8099254759239], [175.065720309665, -36.8099254748478], [175.06597537544, -36.8098924581917], [175.065975382138, -36.809892457174], [175.0662159271, -36.8098482521027], [175.066215936063, -36.809848251947], [175.066458469319, -36.8098783424583], [175.066458472656, -36.809878341499], [175.06682187377, -36.8096433445923], [175.066821883708, -36.8096433390117], [175.067095959101, -36.8095242383903], [175.067296821919, -36.8093263645815], [175.067296830664, -36.8093263563177], [175.067529520915, -36.8091222152497], [175.067529524204, -36.8091222124886], [175.067648209187, -36.8090612632378], [175.067651472941, -36.8090595859232], [175.067656073408, -36.8090572228992], [175.067659333873, -36.8090555483455], [175.067689971607, -36.809039812228], [175.067691692178, -36.8090388539565], [175.067816228284, -36.8089619596279]]}, "properties": {"OBJECTID": 11449, "TRACKNAME": "Rangihoua Loop Upper link", "CONDITIONSOFUSE": "Onetangi Sports Park (Rangihoua)", "STATUS": "Open", "WEBLINK": "https://www.aucklandcouncil.govt.nz/en/parks-recreation/find-park-beach/park-detail/120.html", "VALIDATIONSTATE": 3, "created_user": "AC_owner", "last_edited_user": "AC_owner", "last_edited_date": 1789875254325, "created_date": 1789875254325, "PARK_SAPSITEID": null, "TRACK_ID": null, "KAURIDIEBACK_TRACK": null, "KAURIDIEBACK_MITIGATED": null, "SegmentID": null, "GlobalID": "638bde31-7091-411a-aaa1-16d795d8dc1f", "Shape__Length": 581.9275548641222}}]}