{"type": "FeatureCollection", "features": [{"type": "Feature", "id": 12537, "geometry": {"type": "MultiLineString", "coordinates": [[[175.067659690776, -36.8090617737603], [175.067659177644, -36.8090730742345], [175.067677563702, -36.8091229922716], [175.067895996288, -36.8092809976684], [175.068046004392, -36.8094959865193], [175.06810794775, -36.8095476081729], [175.068115681544, -36.8095540495443], [175.068166006318, -36.8095959868875], [175.0681989944, -36.8097319903812], [175.068251002545, -36.8097929907368], [175.068235013854, -36.8098929982942], [175.068290217528, -36.8099966396411], [175.068289294315, -36.8099976635248], [175.068288580327, -36.8099987903834], [175.068288092933, -36.8099999928052], [175.068287843987, -36.8100012415406], [175.068178003401, -36.8100339979678], [175.067929999293, -36.8100579925134], [175.067706015413, -36.8099630092895], [175.06765099562, -36.8099210056033], [175.067584001161, -36.809926999156], [175.067428997037, -36.8097889977586], [175.067389001171, -36.8097299990244], [175.067310006636, -36.8096729889966], [175.06707799817, -36.8097060095477], [175.066985003767, -36.8097920004415], [175.066783010245, -36.8098789968264], [175.066723994649, -36.8098769980998], [175.0666520121, -36.8098959971559], [175.06663595206, -36.8099107233817], [175.066633085487, -36.8099267155011], [175.066635008536, -36.8099490019867], [175.066653596301, -36.8099529122639], [175.066753375314, -36.8099548873049], [175.066784004669, -36.8099509911042], [175.066891972899, -36.8099020269989], [175.066903405571, -36.8099092585734], [175.066811015023, -36.809982999113], [175.066766244188, -36.8100401631602], [175.066762774686, -36.8100582847329], [175.066777622045, -36.8100702410776], [175.066944001992, -36.8100669985114], [175.06696873489, -36.8100796716306], [175.066965369371, -36.8101014912572], [175.066947005589, -36.8101169984545], [175.066878995472, -36.8101490056118], [175.066808006127, -36.8102089896618], [175.066769004739, -36.810253991234], [175.066633753043, -36.8102947878522], [175.066527000441, -36.8103269987708], [175.066436003934, -36.8103019930501], [175.066400006338, -36.8102739942636], [175.066224003356, -36.8102720009167], [175.066166988266, -36.8102780067861], [175.066073006598, -36.81031399171], [175.065902002239, -36.8103329952388], [175.065768004473, -36.8103619989428], [175.065626001272, -36.8103010083865], [175.065588987426, -36.8102509928016], [175.065515008442, -36.8102250083769], [175.065446000616, -36.8102149942828], [175.065319995828, -36.8102590050355], [175.065141451615, -36.8103034363035], [175.064893993859, -36.8103419981589], [175.06465700207, -36.8103269934101], [175.064592882661, -36.8102968290561], [175.064453999455, -36.8102939909969], [175.064316002053, -36.8101359993028], [175.064182992507, -36.8100639972961], [175.064119997278, -36.8100210011023], [175.06388700655, -36.809970995232], [175.063825986262, -36.8099140024659], [175.063769999728, -36.8097920012393], [175.063434004026, -36.8094880038768], [175.063479013355, -36.8093879951519], [175.063475997506, -36.8093169948759], [175.063332998686, -36.8090890059556], [175.063258001148, -36.8091379993683], [175.063161988067, -36.809087993931], [175.063012996849, -36.8089200012706], [175.062956494679, -36.8088877515799], [175.062957810831, -36.8088878017451]], [[175.062919366228, -36.8088665761892], [175.062821995726, -36.8088109942106], [175.062783994302, -36.8086149923116], [175.062804999704, -36.8085310010528], [175.062787999354, -36.8084569969047], [175.062690993586, -36.8083030029998], [175.062569002304, -36.808132997295], [175.062587007956, -36.8080679963552], [175.062563001342, -36.807866006606], [175.0626789997, -36.8077419940467], [175.062581002437, -36.8074299957469], [175.062518012615, -36.8073659900082], [175.062486996639, -36.8073739954528], [175.062432996186, -36.8073650017459], [175.062370003646, -36.8074069976783], [175.062262000958, -36.8073790011604], [175.062185999443, -36.8073920005279], [175.062109992426, -36.8073869972544], [175.062101001073, -36.8073700022695], [175.062115998665, -36.8073340008187], [175.062112247327, -36.8072801533649], [175.062109461336, -36.8072401873056], [175.062074422331, -36.8071502895497], [175.062027104931, -36.8070894528671], [175.061674164939, -36.8065571854054], [175.061585890342, -36.8064171273873], [175.061493464936, -36.8061879407886], [175.061477160627, -36.8060395548392], [175.061558126601, -36.8056445331477], [175.061596898158, -36.8055801465263], [175.061566233843, -36.8054872290473], [175.061550180044, -36.8054138815245], [175.061578960669, -36.80537090565], [175.06164905208, -36.805325423355], [175.061693787633, -36.8052905502024], [175.061710310951, -36.8052722005594], [175.061733383903, -36.805246559319], [175.061762730195, -36.805215235595], [175.061811824626, -36.8051907698969], [175.061871003013, -36.805177287455], [175.061916658061, -36.8051610733417], [175.061971575885, -36.8051411059409], [175.062010587725, -36.8051358407217], [175.062056642908, -36.8051192942431], [175.06211861391, -36.8051188745433], [175.062175529999, -36.8051119809869], [175.062274260726, -36.8050827207604], [175.062301134225, -36.8050661887811], [175.062309583634, -36.8050470327492], [175.062324624564, -36.8050297109917], [175.062352996311, -36.8050233206465], [175.062379868813, -36.8050215421512], [175.062413954884, -36.8050150382359], [175.062439655707, -36.8050001687504], [175.062476140107, -36.8049923190186], [175.062508128131, -36.8049989808058], [175.062541397689, -36.804992499132], [175.062560396565, -36.8049711798813], [175.062590378571, -36.8049634402269], [175.062621082836, -36.8049678313339], [175.062675242316, -36.8049491881698], [175.062829453297, -36.8048907512482], [175.062945840345, -36.8048513562481], [175.063063826077, -36.8047951907258], [175.063078041828, -36.8047772414654], [175.063074900926, -36.8047517114929], [175.063084678898, -36.8047207171275], [175.063111775044, -36.8046972906174], [175.063165782091, -36.8046733970653], [175.063220201383, -36.8046652403526], [175.063282426015, -36.8046585831157], [175.063316879741, -36.8046356778019], [175.063357683076, -36.8046362873108], [175.063397775162, -36.8046408397474], [175.063451286731, -36.8046287653842], [175.063512000542, -36.8046119657144], [175.063550267038, -36.8045791572957], [175.063616596894, -36.8045583358011], [175.063684332493, -36.80454437134], [175.063742797615, -36.8045348291509], [175.063801629718, -36.8045082296512], [175.06382415243, -36.8044665110534], [175.063837365479, -36.8044118481795], [175.063867304986, -36.8043417953362], [175.063920917509, -36.8043034756788], [175.063990791393, -36.8042629205405], [175.064076276215, -36.8042266720506], [175.064138659372, -36.8042111580871], [175.064183003547, -36.8042220086665], [175.064206635323, -36.8042372152662], [175.064250673225, -36.804239163529], [175.064299452165, -36.8042287969225], [175.064337404126, -36.8041927679425], [175.064367170696, -36.8041677580535], [175.064411106172, -36.804165643145], [175.064450141141, -36.8041704046633], [175.064490652079, -36.804166980111], [175.06452226767, -36.8041473855679], [175.064567786034, -36.8041411502816], [175.064769890259, -36.8041077204649], [175.064954649906, -36.8041208267818], [175.065147004683, -36.8041719982214], [175.065292621303, -36.804201346831], [175.065496091793, -36.8042182317866], [175.065651732633, -36.804218233216], [175.065779400717, -36.8041847277719], [175.065874403784, -36.8041313815697], [175.06595916008, -36.8041060997713], [175.066104278945, -36.8040926926738], [175.066211747737, -36.8040622516565], [175.066236000483, -36.8040899986408], [175.06627212789, -36.8041060944442], [175.066348230868, -36.8041047734719], [175.066504389365, -36.8040612488418], [175.066598770333, -36.8040793458754], [175.066677149892, -36.8041579976385], [175.066804050203, -36.8042267756135], [175.066909993869, -36.8042490003424], [175.066991550496, -36.8043418724326], [175.067066963255, -36.8045038246109], [175.067092192675, -36.8046188125366], [175.067167001982, -36.8047280027844], [175.067200969434, -36.8048320627265], [175.067209283658, -36.8049836069836], [175.067220737054, -36.8050949597082], [175.067259994835, -36.8051579975411], [175.067414786422, -36.8053767384255], [175.067435615194, -36.8053895406608]], [[175.067384490912, -36.8083944533595], [175.067386811117, -36.8084366670938], [175.067433969546, -36.8085727479768], [175.06741730888, -36.8086209276766], [175.067593731336, -36.8089742524313], [175.067626134396, -36.8089833895847], [175.06765046298, -36.8090494178423], [175.06765330664, -36.8090479578386], [175.067651420738, -36.8090520203758], [175.067651036203, -36.8090509761426]], [[175.067273975311, -36.8066927019747], [175.067252334931, -36.8067534270013], [175.067240408498, -36.8067994207112], [175.067241487777, -36.8068360093612], [175.067244642523, -36.8068786691642], [175.0672583954, -36.8069272194653], [175.067268543703, -36.8070139910113], [175.067281771839, -36.8070762863264], [175.067313929003, -36.8071374502961], [175.067380748981, -36.8072803366661], [175.067405745116, -36.8073561289482], [175.067419412863, -36.8074336783989], [175.067421683535, -36.8075106824809], [175.06742979279, -36.8076118968278], [175.067425815269, -36.8077150122277], [175.067423649868, -36.8077707334239], [175.067426867015, -36.8078149153349], [175.067441987886, -36.8078779338987], [175.067465629301, -36.8079392711525], [175.06748023924, -36.8080167960891], [175.067477042439, -36.8081335571852], [175.067459020667, -36.8081979714388], [175.067426822018, -36.8082641797886], [175.067402388512, -36.8083522142846], [175.067395262539, -36.80837073926], [175.067394070136, -36.8083809988237], [175.067384470439, -36.8083908584094]], [[175.067273975311, -36.8066927019747], [175.067322839791, -36.8067383613726], [175.067414030629, -36.8068465878327], [175.067485025355, -36.8068931556606]], [[175.06712978045, -36.8053774854987], [175.067172219428, -36.8055751978969], [175.067172675239, -36.8055906473606], [175.06717287818, -36.805597527102], [175.067132795455, -36.8057161400896], [175.067112090012, -36.805814587403], [175.067099552372, -36.8058742383988], [175.06710055447, -36.8059082524671], [175.067104571432, -36.8059371316499], [175.067111812595, -36.8059689939707], [175.067136901297, -36.8060482565525], [175.067167568818, -36.8061443684629], [175.067207049933, -36.8062211509265], [175.06722179695, -36.8062498245871], [175.067235125586, -36.8062947752501], [175.067238978142, -36.8063185802312], [175.067236654895, -36.806346556593], [175.067226023299, -36.8063929748342], [175.067224585666, -36.8064300840452], [175.067229975783, -36.8064630069333], [175.067239560214, -36.8064882219255], [175.067258287179, -36.8065716491713], [175.067258941005, -36.8066097558086], [175.067259794393, -36.8066605340329], [175.067273975311, -36.8066927019747]]]}, "properties": {"OBJECTID": 12537, "TRACKNAME": "Rangihoua Loop", "CONDITIONSOFUSE": "Onetangi Sports Park (Rangihoua)", "STATUS": "Open", "WEBLINK": "https://www.aucklandcouncil.govt.nz/en/parks-recreation/find-park-beach/park-detail/120.html", "VALIDATIONSTATE": 3, "created_user": "AC_owner", "last_edited_user": "AC_owner", "last_edited_date": 1789875254325, "created_date": 1789875254325, "PARK_SAPSITEID": null, "TRACK_ID": null, "KAURIDIEBACK_TRACK": null, "KAURIDIEBACK_MITIGATED": null, "SegmentID": null, "GlobalID": "86b5ffd6-199d-4836-a89a-a5530740c3a1", "Shape__Length": 2443.307622851259}}]}