{"type": "FeatureCollection", "features": [{"type": "Feature", "id": 12028, "geometry": {"type": "MultiLineString", "coordinates": [[[175.06952388811, -36.8110262977372], [175.069526365072, -36.8110295344609], [175.06955379008, -36.8110434580391], [175.069556248349, -36.8110454593993], [175.069564294386, -36.811055160661], [175.069638442377, -36.8111445760947], [175.069711672961, -36.811206661877], [175.06985664798, -36.8112583249076], [175.069856673162, -36.8112583442978], [175.069875304936, -36.8112857214594], [175.069849996895, -36.8113066641071], [175.069743332945, -36.8113066619497], [175.069653338028, -36.811328336968], [175.069556661198, -36.8114016693418], [175.069514810393, -36.8114561634673], [175.069514764185, -36.8114561958174], [175.069432285946, -36.8114862373056], [175.069426883747, -36.811487719361], [175.069333151397, -36.8115039008605], [175.069333039449, -36.8115039478745], [175.069268083367, -36.8115544277414], [175.069267674696, -36.811554570051], [175.069257229299, -36.8115607933233], [175.06925569438, -36.8115626947556]], [[175.065011719368, -36.8106234550981], [175.065011600413, -36.8106231579312], [175.06503859813, -36.8106064456122], [175.065038828613, -36.8106063046099], [175.065063400737, -36.8105912639821], [175.065063709533, -36.8105910756527], [175.065073959962, -36.8105848885797], [175.065085884688, -36.8105776872929], [175.065086237695, -36.8105774756628], [175.065106044143, -36.8105657066345], [175.0651064028, -36.8105654967088], [175.065123881635, -36.8105553327795], [175.065124211718, -36.8105551440802], [175.065139402526, -36.8105465566228], [175.065139659849, -36.8105464133514], [175.065152632417, -36.8105393714115], [175.065152725247, -36.8105393220296], [175.065158088076, -36.8105365826302], [175.065168772764, -36.8105311225685], [175.065168998443, -36.8105310113925], [175.065188212726, -36.8105219844944], [175.065188686807, -36.8105217734645], [175.065205724493, -36.8105146320534], [175.065206204854, -36.8105144461508], [175.065221327282, -36.8105090712216], [175.065221528475, -36.81050900824], [175.065228137454, -36.8105072169921], [175.065254970683, -36.8104999459505], [175.065284852987, -36.8104940586091], [175.065299764056, -36.8104911217674], [175.065299833206, -36.810491108849], [175.065325188248, -36.8104867692815], [175.065325241833, -36.8104867611401], [175.065335692482, -36.8104853564967], [175.065340935136, -36.8104846525216], [175.065357548298, -36.8104824035388], [175.065380295964, -36.8104793107013], [175.065409187144, -36.8104753756515], [175.065426699996, -36.8104729866469], [175.065444102437, -36.8104706184857], [175.065444322476, -36.8104705894259], [175.065473856367, -36.8104669207952], [175.065474296638, -36.8104668698826], [175.065498584188, -36.8104642685167], [175.065499005703, -36.8104642287456], [175.065518278325, -36.8104626716995], [175.065518436131, -36.8104626626484], [175.065525564979, -36.8104624062866], [175.065539830517, -36.8104618934255], [175.065540097679, -36.8104619077107], [175.065564619023, -36.8104655032484], [175.065564820002, -36.8104655574396], [175.065575078293, -36.8104696748091], [175.065585361693, -36.8104738088662], [175.065585483882, -36.8104738509069], [175.065613202655, -36.8104819722086], [175.065613420513, -36.8104820288104], [175.065630858176, -36.8104860178162], [175.065639547076, -36.8104880038251], [175.065639730741, -36.8104880393897], [175.065660632203, -36.8104914508519], [175.065661081127, -36.8104915133527], [175.065685510805, -36.8104943668814], [175.065685962631, -36.8104944122069], [175.065714165811, -36.8104967422935], [175.065714389277, -36.8104967573376], [175.065730377388, -36.8104976521012], [175.065762574885, -36.8104994585066], [175.06576260969, -36.8104994606057], [175.06582164703, -36.8105043778519], [175.065848484658, -36.8105074896351], [175.065861857391, -36.8105090409174], [175.06586196083, -36.8105090526393], [175.065885023506, -36.8105115495328], [175.065885229216, -36.8105115711943], [175.065904622934, -36.8105134765976], [175.06590482068, -36.810513493891], [175.06592065772, -36.8105148148677], [175.065920732956, -36.8105148198693], [175.065926867365, -36.8105151819365], [175.06593914522, -36.8105159086167], [175.065939267319, -36.8105159055934], [175.065961608954, -36.8105135542649], [175.065961730471, -36.8105135296203], [175.065971796491, -36.8105104515731], [175.065976657208, -36.8105089664673], [175.065977120602, -36.8105088583687], [175.065990846288, -36.8105066099092], [175.065992131008, -36.81050644878], [175.066009840761, -36.8105048800604], [175.066011183535, -36.8105047936316], [175.066033624661, -36.8105038502016], [175.066034349384, -36.8105038312966], [175.066047947895, -36.8105036904895], [175.06606183778, -36.8105035473205], [175.066062006959, -36.8105035443801], [175.06608643861, -36.8105028430446], [175.066086793556, -36.8105028287637], [175.066107896256, -36.8105017166043], [175.066108245334, -36.8105016925109], [175.066126219439, -36.8105001588367], [175.066126355788, -36.8105001438486], [175.066133770056, -36.810499163248], [175.066141192142, -36.8104981816097], [175.066141326274, -36.8104981675614], [175.066158855467, -36.8104967623902], [175.066159203496, -36.8104967410188], [175.066179410527, -36.8104958769513], [175.066179765594, -36.8104958671745], [175.06620286117, -36.8104955432508], [175.06620302706, -36.8104955430713], [175.066216018182, -36.8104956579573], [175.066228758167, -36.810495770898], [175.066229406431, -36.8104957848665], [175.066250369654, -36.8104964894333], [175.066251570701, -36.8104965514767], [175.066268032526, -36.8104977218448], [175.066269171091, -36.8104978363485], [175.066281797999, -36.8104994969872], [175.066282216013, -36.8104995771477], [175.066286592278, -36.8105006691695], [175.066291259638, -36.8105018318409], [175.066295615071, -36.8105024825849], [175.066299814242, -36.8105022825093], [175.066307521596, -36.810501071477], [175.066311010703, -36.8105001014108], [175.066314628326, -36.8104980745837], [175.066317898902, -36.8104956887606], [175.066330943935, -36.8104861767593], [175.066343205973, -36.8104772263607], [175.066355493778, -36.810468275513], [175.066367461365, -36.8104624235092], [175.066373358346, -36.8104595413773], [175.066373564946, -36.8104594710894], [175.066387963143, -36.8104565132839], [175.06638822919, -36.8104564861265], [175.066396725513, -36.8104563952155], [175.066405309226, -36.8104563027847], [175.06640541335, -36.8104562982708], [175.06642051186, -36.8104552904286], [175.066420582275, -36.8104552828954], [175.06642709588, -36.810454364801], [175.066433559236, -36.810453453889], [175.06643373587, -36.8104534363976], [175.066453875038, -36.8104523418278], [175.066454237899, -36.8104523301121], [175.066467913662, -36.8104521446515], [175.06647485177, -36.8104520483756], [175.066494775311, -36.8104517723271], [175.066520758501, -36.8104514125642], [175.066552806942, -36.8104509689854], [175.066571856481, -36.8104507045129], [175.066590911646, -36.8104504408408], [175.066624018926, -36.810449981539], [175.066652122036, -36.8104495903], [175.06667522234, -36.8104492761167], [175.06668427143, -36.8104491494371], [175.06669319623, -36.8104490276216], [175.066693451437, -36.8104490141716], [175.06671506079, -36.810446902562], [175.066715719882, -36.8104468189986], [175.06674108321, -36.8104428746589], [175.066741749224, -36.8104427567255], [175.06677124235, -36.8104369082251], [175.066771574458, -36.8104368366557], [175.066788380064, -36.8104329509629], [175.066805359358, -36.8104290216893], [175.06683260307, -36.8104227246775], [175.066853132519, -36.8104179702656], [175.066866954964, -36.8104147781593], [175.066870508485, -36.8104139529683], [175.066884738519, -36.81041066184], [175.066899265809, -36.8104042109742], [175.066913793339, -36.8103977691156], [175.066930163703, -36.8103923713707], [175.066938338958, -36.8103896785285], [175.066952175833, -36.8103853144651], [175.066957841886, -36.8103836413645], [175.066963462367, -36.8103819825756], [175.066963545839, -36.8103819603942], [175.066978986263, -36.8103783706066], [175.066979148991, -36.8103783362314], [175.066988965597, -36.8103764061914], [175.067008772789, -36.8103725133408], [175.067025994831, -36.8103714008993], [175.067043212415, -36.8103702894341], [175.067057307724, -36.8103704084619], [175.067060828239, -36.8103704400788], [175.067076054941, -36.8103705736805], [175.067099456063, -36.8103707760397], [175.067131031654, -36.8103710489534], [175.067150911141, -36.8103712197071], [175.067170792869, -36.8103713904186], [175.067204353145, -36.8103716882857], [175.06723171312, -36.8103719245231], [175.067252883094, -36.8103721070674], [175.067260361317, -36.8103721716995], [175.06726779358, -36.8103722362292], [175.067267904765, -36.81037224421], [175.067282441686, -36.8103744041972], [175.067282758527, -36.8103744734954], [175.067296923133, -36.8103786273329], [175.067297291063, -36.8103787624391], [175.067311296345, -36.8103849523894], [175.067311458887, -36.810385036088], [175.067318404415, -36.8103891748655], [175.067325190522, -36.8103932208767], [175.067325645632, -36.8103934716364], [175.06733788765, -36.8103996589002], [175.067338858964, -36.8104000980682], [175.06734975775, -36.8104044375822], [175.067350764346, -36.8104047715851], [175.067360897911, -36.8104074993535], [175.067361306866, -36.8104075760626], [175.067366006326, -36.8104080982068], [175.067375591982, -36.8104091671876], [175.067375920511, -36.8104092543084], [175.067394631602, -36.8104175354537], [175.067394992775, -36.8104177526959], [175.067404136749, -36.8104249456106], [175.067413469782, -36.8104322911623], [175.067435688386, -36.8104497875284], [175.067448573959, -36.8104599383422], [175.067461469546, -36.8104700862763], [175.067492777076, -36.8104947278277], [175.067511190141, -36.8105092214238], [175.067520281702, -36.8105163818925], [175.067520536202, -36.8105165505165], [175.067543593167, -36.8105292084969], [175.067544329946, -36.8105295544014], [175.067572202344, -36.8105405864891], [175.067573027057, -36.8105408677727], [175.06760618399, -36.810550461388], [175.067606582347, -36.8105505608131], [175.067625828973, -36.8105546217102], [175.067644718109, -36.8105586022969], [175.06764580778, -36.81055881588], [175.067676625922, -36.810564346515], [175.067678544035, -36.8105646466341], [175.067702415701, -36.8105677960673], [175.067704242886, -36.8105679661771], [175.067722173502, -36.8105688998892], [175.067722857794, -36.8105688780719], [175.067728835543, -36.810568208073], [175.06773486578, -36.8105675308515], [175.067735434647, -36.8105675101407], [175.067751438006, -36.8105682205001], [175.067752945957, -36.810568357406], [175.067772866856, -36.8105710654088], [175.067774422943, -36.8105713249558], [175.067799126939, -36.8105761633573], [175.067799946625, -36.8105763410767], [175.067814691593, -36.8105798574478], [175.067829473874, -36.8105833857863], [175.067830207751, -36.810583582123], [175.067854484638, -36.8105908767876], [175.067855881919, -36.8105913581131], [175.067874934537, -36.8105988310788], [175.067876210363, -36.8105994226735], [175.067890823433, -36.8106073685384], [175.067891248218, -36.8106076585795], [175.067896303443, -36.8106119041127], [175.06790126805, -36.8106160728086], [175.06790176901, -36.8106164444446], [175.067911174566, -36.8106225250651], [175.067912357613, -36.8106231678451], [175.067921240979, -36.8106271295683], [175.067922420746, -36.8106275254477], [175.067931543477, -36.8106296767914], [175.067931998908, -36.8106297310587], [175.067936673062, -36.810629811981], [175.067941135342, -36.8106298920824], [175.067942054362, -36.8106300121919], [175.067953332959, -36.8106329678484], [175.067955645073, -36.810633746912], [175.067969292345, -36.8106393337292], [175.067971596386, -36.8106403959426], [175.067988923895, -36.8106492003846], [175.0679901491, -36.8106498685682], [175.068000621547, -36.8106559405355], [175.06801154952, -36.8106622785736], [175.068011977435, -36.8106624766267], [175.068040993066, -36.8106728758266], [175.068042227884, -36.8106732346949], [175.068078352311, -36.8106814236923], [175.068079684886, -36.8106816663938], [175.068123670138, -36.8106878078528], [175.068124354759, -36.8106878815658], [175.068150303094, -36.8106898897791], [175.06817656723, -36.8106919285445], [175.068176631214, -36.8106919319378], [175.068227098568, -36.8106934017817], [175.06822725664, -36.8106934026366], [175.068275669134, -36.8106922818099], [175.068275822482, -36.8106922737339], [175.068322245216, -36.8106885656129], [175.068322316751, -36.8106885580591], [175.068344540314, -36.8106854025706], [175.068366801967, -36.8106822464151], [175.068409056026, -36.8106762484751], [175.068449042201, -36.8106705738935], [175.068486775031, -36.8106652215183], [175.068504512974, -36.8106627019611], [175.068539984496, -36.8106576674213], [175.068602226558, -36.8106488321904], [175.068628997076, -36.8106450306028], [175.068642381249, -36.8106431311776], [175.068671483428, -36.8106390023897], [175.068702930422, -36.8106345353581], [175.068736711172, -36.8106297356812], [175.068754772992, -36.8106271725957], [175.068772785732, -36.8106246184733], [175.068772872928, -36.8106246097453], [175.068807737418, -36.8106227600852], [175.06880793692, -36.810622759317], [175.068841660615, -36.8106241687895], [175.068841828038, -36.8106241839018], [175.068874505176, -36.8106288553742], [175.068874573908, -36.8106288685989], [175.068890380467, -36.810632844051], [175.068922071382, -36.8106408116208], [175.06898220527, -36.8106559308025], [175.069010649313, -36.8106630805948], [175.069024837433, -36.8106666452628], [175.069024908624, -36.8106666665563], [175.069052549098, -36.8106764855681], [175.069052731567, -36.8106765599043], [175.069079648164, -36.8106890521602], [175.069079823251, -36.8106891437497], [175.069106112421, -36.8107043526367], [175.06910619681, -36.8107044061474], [175.069119032893, -36.8107133751257], [175.069170528104, -36.8107493583574], [175.069218750522, -36.8107830605517], [175.069242862306, -36.8107999116312], [175.069293471277, -36.810835281124], [175.069319969586, -36.8108537995167], [175.069326523538, -36.8108583767157], [175.069326667618, -36.8108584823641], [175.069341779652, -36.8108701318346], [175.069342142773, -36.8108704211412], [175.069359219295, -36.8108845086896], [175.069359688427, -36.8108849052085], [175.069378819843, -36.8109014995618], [175.06937932738, -36.810901948589], [175.069400560817, -36.8109210930895], [175.069401063068, -36.8109215539256], [175.069424447237, -36.8109433090128], [175.069424885436, -36.8109437222935], [175.06945048644, -36.8109681282753], [175.069450809834, -36.8109684408058], [175.069478258595, -36.8109951534987], [175.069479692623, -36.810996291216], [175.06950051904, -36.8110083107615], [175.069515899472, -36.8110158555023], [175.069520617203, -36.8110089369743], [175.069585511632, -36.810913731716], [175.069613444219, -36.8108197972565], [175.069631600811, -36.8107244737388], [175.069631604225, -36.810724434022], [175.069629659027, -36.8106115722946], [175.069629463132, -36.8106108744904], [175.06962211621, -36.8105979956787], [175.069507272005, -36.8103978577445], [175.069506866736, -36.810397251913], [175.069472757889, -36.8103521450769], [175.06947252892, -36.8103518840795], [175.069438862651, -36.8103192994637], [175.06941440873, -36.8102942750387], [175.069412478155, -36.81029280437], [175.069385020879, -36.8102767136778], [175.069378595971, -36.8102731806491], [175.069324560962, -36.8102416085352], [175.069324394524, -36.8102415050786], [175.069258580671, -36.8101979703656], [175.06921505562, -36.8101619097178], [175.069141198924, -36.8101117794888], [175.069116000374, -36.810079366447]], [[175.065059794508, -36.8105784893394], [175.064944146275, -36.810459670245], [175.064941201107, -36.8104572725591], [175.064903787435, -36.8104355430558], [175.064902749297, -36.8104351194493], [175.064826829765, -36.810418845619], [175.064826773503, -36.8104188375832], [175.06464102563, -36.8104019728832], [175.064506626306, -36.8103607596455], [175.064331829132, -36.8102884434398], [175.063740279015, -36.8099369847743], [175.063570779049, -36.8098294047117], [175.063369867983, -36.8097156684177], [175.063304026935, -36.8097067634881], [175.063250397635, -36.8097261079967], [175.063204458495, -36.8097218895699], [175.063187087274, -36.8096953943498], [175.063165012525, -36.8096488888556], [175.063097498141, -36.8096165608794], [175.063025738806, -36.8095809699002], [175.062893376313, -36.8095380484303], [175.062798306519, -36.8094877838849], [175.062717315487, -36.809418854981], [175.062676682559, -36.8093793726186], [175.062626178002, -36.8093601507316], [175.062580201714, -36.8093542463609], [175.062541655053, -36.8093532405479], [175.062505492123, -36.8093639148457], [175.062476350099, -36.8093644240695], [175.062446861002, -36.809352375105], [175.062413809335, -36.8093236452854], [175.062376104707, -36.8092765716877], [175.062347879791, -36.8092335174764], [175.062328307886, -36.8091988890639], [175.062290557681, -36.8091601803457], [175.062260431977, -36.8091321712375], [175.062251234421, -36.8091087120779], [175.062251694713, -36.8090801642427], [175.062259749509, -36.8090613251144], [175.062257899534, -36.8090377447971], [175.062243835675, -36.809015352481], [175.06222003488, -36.8089951002339], [175.062210896023, -36.8089916247074], [175.062202724236, -36.8089885154588], [175.062169648375, -36.8089871162844], [175.062130511604, -36.8089877970011], [175.062116865346, -36.8089903266448]], [[175.069114579829, -36.8100785205128], [175.069102713748, -36.8100735184143], [175.069085333968, -36.8100601904947], [175.06905456177, -36.8100404152054], [175.069019423567, -36.8100086447261], [175.068960956658, -36.8099589945992], [175.06893478594, -36.8099341008969], [175.068887295607, -36.8098997540181], [175.068855934353, -36.8098770795158], [175.068811264356, -36.8098490232979], [175.068798207727, -36.8098430558604], [175.068797889971, -36.8098429108725], [175.068782835016, -36.8098360363474], [175.068775698921, -36.8098327725338], [175.068769180513, -36.8098275123957], [175.06876282021, -36.8098223792937], [175.06875495205, -36.8098160295333], [175.068724494558, -36.8097914483295], [175.068623344408, -36.8096918361246], [175.068509106545, -36.8095649725865], [175.068501461848, -36.8095570533536], [175.068499454323, -36.8095549711211], [175.068495863668, -36.8095512490224], [175.068493860794, -36.8095491730181], [175.068406886688, -36.8094590354165], [175.068377105966, -36.8094306866058], [175.068348231754, -36.8094030340452], [175.068300472788, -36.8093595154103], [175.068266296897, -36.8093299091108], [175.068259416726, -36.8093235736718], [175.06825910585, -36.8093229761077], [175.068218677095, -36.809291975209], [175.06806436598, -36.8091695154866], [175.068064087379, -36.8091692841915], [175.067878817331, -36.8090076062464], [175.067873283156, -36.809001552912], [175.067867937176, -36.8089957036037], [175.067864239164, -36.8089916552773], [175.06785889774, -36.8089858085933], [175.06784372361, -36.8089692037267], [175.06783472346, -36.8089593521949], [175.067828521677, -36.8089525650921], [175.067824999151, -36.8089487065911], [175.067759222303, -36.8088496013096], [175.067732175858, -36.8088154589474], [175.067694086282, -36.8087721441025], [175.067634880634, -36.8087133398661], [175.067543782958, -36.8086082170157], [175.067502562041, -36.8085495748946], [175.067414484776, -36.8084091691913], [175.067402193123, -36.8083922067885], [175.067398755598, -36.8083874644179], [175.067386108939, -36.8083700133708], [175.0673772631, -36.8083578094155], [175.067377168716, -36.8083576758612], [175.067346559088, -36.8083154394614], [175.067259005622, -36.8082300789448], [175.06719144694, -36.8081487735378], [175.067147513653, -36.8080821153727], [175.067072480597, -36.8079343496323], [175.066983724596, -36.8078081608508], [175.066916036199, -36.8077224231064], [175.066900873592, -36.8076951834084], [175.066888023516, -36.8076714510384], [175.066879571336, -36.8076467445013], [175.066870819791, -36.8076122802294], [175.066861521713, -36.8075964653541], [175.066845353366, -36.8075727969813], [175.066796092811, -36.8075124593142], [175.066721233483, -36.8074082089303], [175.066698117156, -36.8073731255216], [175.066685215143, -36.8073389109469], [175.066656515363, -36.8071607765711], [175.066651864007, -36.8071318948861], [175.066636421539, -36.8070901940625], [175.066611588382, -36.8070230999733], [175.066570799102, -36.8069128718842], [175.066564178181, -36.8068999063366], [175.066543843614, -36.806860094956], [175.06649152693, -36.8067713966185], [175.066471401454, -36.8067256014271], [175.066426500601, -36.8066261062938], [175.066337328641, -36.8064857205259], [175.066309720466, -36.8064480544539], [175.066225266451, -36.806355532438], [175.066009408865, -36.8061136485486], [175.065959352825, -36.80606397956], [175.065924118612, -36.8060300205005], [175.065861892705, -36.805979691399], [175.065779671864, -36.805925308646], [175.065704073082, -36.8058707999497], [175.065620640174, -36.8058128888021], [175.06554628123, -36.805762800093], [175.065441823796, -36.8057035136982], [175.065298633017, -36.8056414129826], [175.065200222723, -36.8055997680236], [175.065128326407, -36.8055585114219], [175.065126379778, -36.8055576871949], [175.065125848854, -36.8055577838446], [175.065071514644, -36.8055418363346], [175.064859284737, -36.8054979140537], [175.064689129767, -36.8054576436919], [175.064513123959, -36.8054059298637], [175.064458382155, -36.8053847714876], [175.064303896263, -36.8053140058626], [175.064223455375, -36.8052826816529], [175.064154295994, -36.8052591290482], [175.064078556811, -36.805237477035], [175.064008262503, -36.8052130625719], [175.063934898166, -36.8051967013601], [175.063864997134, -36.8051853038565], [175.063795149604, -36.8051779441353], [175.063675039986, -36.8051763726262], [175.063563471871, -36.8051807987353], [175.063487961774, -36.8051837894839], [175.063370716866, -36.8051975793765], [175.063331238912, -36.8052022213161], [175.063260776879, -36.8052151450263], [175.063228227265, -36.805223395388], [175.063215492682, -36.8052266249642], [175.063210596958, -36.8052277978085], [175.063176156875, -36.8052360629398], [175.063142984494, -36.8052511785204], [175.063082920675, -36.805278813047], [175.062939713914, -36.8053612377856], [175.062488732922, -36.8056208329049], [175.061738198388, -36.8061052757045], [175.061480107039, -36.8062590908197], [175.061431841713, -36.8063022558343], [175.061393231483, -36.8063367730156], [175.061328446102, -36.8064200757128], [175.061235926666, -36.8065197429841], [175.06121094428, -36.8065445033133], [175.061210217123, -36.8065452243482], [175.061205291898, -36.806550108301], [175.061204565861, -36.8065508293165], [175.061188677328, -36.8065665739251], [175.061159017764, -36.8065959813578], [175.061152646913, -36.8066022973127], [175.061142008048, -36.8066128431911], [175.061099882264, -36.8066414149274], [175.061099079966, -36.8066413819696]]]}, "properties": {"OBJECTID": 12028, "TRACKNAME": "Rangihoua Loop Track", "CONDITIONSOFUSE": "Onetangi Sports Park (Rangihoua)", "STATUS": "Open", "WEBLINK": "https://www.aucklandcouncil.govt.nz/en/parks-recreation/find-park-beach/park-detail/120.html", "VALIDATIONSTATE": 3, "created_user": "AC_owner", "last_edited_user": "AC_owner", "last_edited_date": 1789875254325, "created_date": 1789875254325, "PARK_SAPSITEID": null, "TRACK_ID": null, "KAURIDIEBACK_TRACK": null, "KAURIDIEBACK_MITIGATED": null, "SegmentID": null, "GlobalID": "b75ef6b0-a42d-445d-bcd7-8d65073a666b", "Shape__Length": 2064.259106328516}}]}