{"type": "FeatureCollection", "features": [{"type": "Feature", "id": 12035, "geometry": {"type": "LineString", "coordinates": [[175.073664404265, -36.806675972026], [175.073690054478, -36.8066529739528], [175.073787733422, -36.8066026491428], [175.073836760887, -36.8066249627882], [175.073837433994, -36.8066252340552], [175.073909008082, -36.8066629812412], [175.073909021769, -36.8066629900154], [175.07409500922, -36.806804112479], [175.074095016064, -36.8068041168661], [175.074396629067, -36.8069711230939], [175.074396634863, -36.8069711302032], [175.074413052566, -36.8070602765212], [175.074413053808, -36.8070602810061], [175.074441038901, -36.807122308017], [175.074441851912, -36.8071241081549], [175.074442310666, -36.8071251168205], [175.074442405909, -36.8071253233597], [175.074442442196, -36.80712538041], [175.074652932601, -36.8073716035616], [175.07465296392, -36.8073716426724], [175.074707221254, -36.8074433417596], [175.074705070034, -36.8074500174085], [175.074705351686, -36.8074504027576], [175.074727554439, -36.8074817772136], [175.074727781777, -36.8074821851419], [175.074735043384, -36.8074844090069], [175.07479060064, -36.807616260929], [175.074790600786, -36.8076162663343], [175.07476073996, -36.8078437106192], [175.074864498165, -36.8082580271943], [175.074864502816, -36.8082580334223], [175.07540136081, -36.8086177439288], [175.075401361979, -36.808617745711], [175.075478835466, -36.8088205690466], [175.075478837779, -36.8088205717101], [175.075994883895, -36.8090286703601], [175.07599488616, -36.8090286712218], [175.076182118047, -36.8090584845461], [175.076182122528, -36.8090584844678], [175.076566017326, -36.8090858951235], [175.076566019591, -36.8090858959852], [175.076824417347, -36.8092276742276], [175.076824427479, -36.8092276758532], [175.077024226313, -36.8091993712519], [175.07702423194, -36.8091993720549], [175.077284238167, -36.8093530075623], [175.077284246107, -36.8093530110288], [175.077617821836, -36.8094390783111], [175.078638013118, -36.8087990486663], [175.078779066181, -36.8085642099284], [175.07877973159, -36.8085634493093], [175.078974534917, -36.8084073627262], [175.079158003615, -36.8082965843042], [175.079158009143, -36.8082965815035], [175.07925930664, -36.8082761635764], [175.079259312217, -36.8082761625775], [175.079532318038, -36.8082247906068], [175.07953233136, -36.8082247858672], [175.079706123043, -36.8081231907302], [175.079706126331, -36.8081231879688], [175.080421540603, -36.8073049705486], [175.080898141963, -36.8070280512003], [175.080898147491, -36.8070280483996], [175.081032183131, -36.8069950848013], [175.081032189804, -36.8069950828819], [175.081334266215, -36.806951126692], [175.081334274008, -36.8069511247529], [175.081640984752, -36.8068812985656], [175.081640993666, -36.8068812966069], [175.08181821088, -36.8068148109029], [175.081818215313, -36.8068148090226], [175.082136743033, -36.8066384199719], [175.082136746345, -36.8066384181112], [175.082638135708, -36.8064632501573], [175.082638142381, -36.8064632482377], [175.083007877975, -36.8063759800807], [175.083017983829, -36.8063787610778], [175.083018365828, -36.806378670563], [175.083113878841, -36.806356119123], [175.083113881058, -36.8063561181829], [175.083154018641, -36.8063345262403], [175.083164167131, -36.8063320149288], [175.083164702684, -36.8063318829668], [175.083168779433, -36.8063256871742], [175.083209148641, -36.8063157035402], [175.083209159795, -36.8063157015421], [175.083364029295, -36.8062921502804], [175.083364033752, -36.806292149301], [175.083512901078, -36.8062400677452], [175.083590091426, -36.8062130565485], [175.083590099195, -36.8062130537084], [175.084350149223, -36.8059245980407], [175.084357162984, -36.8059236296421], [175.085031245855, -36.80597696196], [175.085031250312, -36.8059769609805], [175.085509622745, -36.8058820852018], [175.085509637187, -36.8058820804419], [175.086051208768, -36.8056357303694], [175.086051288819, -36.8056357064321], [175.086166684027, -36.8056184962936], [175.086166770192, -36.8056184911763], [175.086307590144, -36.8056190275137], [175.086307675532, -36.8056190350282], [175.086686946078, -36.8056795225406], [175.0866869764, -36.8056795247122], [175.086774114183, -36.8056773488978], [175.08678586622, -36.8056763179109], [175.086877258743, -36.8056631615748], [175.086877265416, -36.8056631596551], [175.086942421213, -36.8056299357856], [175.086999765685, -36.8055838260986], [175.086999899349, -36.8055836714319], [175.087022706243, -36.8055385105601]]}, "properties": {"OBJECTID": 12035, "TRACKNAME": "Rangihoua to Trigg Hill", "CONDITIONSOFUSE": "Trig Hill Walkways", "STATUS": "Open", "WEBLINK": null, "VALIDATIONSTATE": 3, "created_user": "AC_owner", "last_edited_user": "AC_owner", "last_edited_date": 1789875254325, "created_date": 1789875254325, "PARK_SAPSITEID": null, "TRACK_ID": null, "KAURIDIEBACK_TRACK": null, "KAURIDIEBACK_MITIGATED": null, "SegmentID": null, "GlobalID": "785a3eb9-e259-470e-b7f8-c9d49630012c", "Shape__Length": 1526.024743462979}}]}