{"type": "FeatureCollection", "features": [{"type": "Feature", "id": 12034, "geometry": {"type": "LineString", "coordinates": [[175.073095016008, -36.810047090737], [175.073095063514, -36.8100468988321], [175.071679470475, -36.8084371912214], [175.071572805229, -36.8083482833007], [175.071571759077, -36.8083478121231], [175.071484803925, -36.8083291192617], [175.071477753869, -36.8083283813678], [175.071337013401, -36.8083241677285], [175.071336394136, -36.8083241893345], [175.071239429795, -36.8083343294758], [175.07122261135, -36.8083360907381], [175.071218034223, -36.8083365688641], [175.071201239159, -36.8083383243081], [175.071074386637, -36.8083515907338], [175.070569429724, -36.8083731180707], [175.070567085323, -36.8083732192928], [175.070565367671, -36.8083734934644], [175.070095837431, -36.808448680997], [175.069889698164, -36.808497178039], [175.069882984506, -36.8085021890235], [175.06988281415, -36.8085023145673], [175.069728454827, -36.8085351120953], [175.069715721671, -36.8085382792547], [175.069715186933, -36.8085386094294], [175.069714991735, -36.808538728195], [175.069681481584, -36.8085460479815], [175.069679095418, -36.8085473874047], [175.069604042437, -36.8085674655671], [175.06958023626, -36.8085746371096], [175.069332950066, -36.8086334727734], [175.06919152822, -36.8086697109058], [175.069190504477, -36.8086699468413], [175.069059606678, -36.8086974888077], [175.068961418102, -36.8087901826921], [175.068961188156, -36.8087904264413], [175.068865386173, -36.8088866767196], [175.068855938146, -36.808896169655], [175.068852186164, -36.8088986964167], [175.068740041968, -36.8089475790227], [175.06873496336, -36.8089497917795], [175.068703259923, -36.808963612509], [175.068699436552, -36.8089652779595], [175.068699350817, -36.8089652992802], [175.068601104135, -36.8089736083174], [175.068571664746, -36.8089760962644], [175.068530434651, -36.8089687533443], [175.068518596166, -36.8089666429909], [175.068515832167, -36.8089661475999], [175.068463387884, -36.8089671466866], [175.06846099327, -36.8089675903357], [175.068446497006, -36.8089702643811], [175.068393789978, -36.8089799935415], [175.068347183673, -36.8089808819843], [175.068267564166, -36.8089734552307], [175.068244273011, -36.808971283634], [175.068229549037, -36.8089699111505], [175.068072676665, -36.8089729017537], [175.068017519022, -36.8089677892314], [175.067959510817, -36.8089781692312], [175.067935924728, -36.8089738675132], [175.067855413573, -36.8089591698441]]}, "properties": {"OBJECTID": 12034, "TRACKNAME": "Rangihoua Loop to Musson Drive", "CONDITIONSOFUSE": "Onetangi Sports Park (Rangihoua)", "STATUS": "Open", "WEBLINK": "https://www.aucklandcouncil.govt.nz/en/parks-recreation/find-park-beach/park-detail/120.html", "VALIDATIONSTATE": 3, "created_user": "AC_owner", "last_edited_user": "AC_owner", "last_edited_date": 1789875254325, "created_date": 1789875254325, "PARK_SAPSITEID": null, "TRACK_ID": null, "KAURIDIEBACK_TRACK": null, "KAURIDIEBACK_MITIGATED": null, "SegmentID": null, "GlobalID": "1ea409fb-290a-4568-9fc4-c8fb79c3df8f", "Shape__Length": 582.9954148125147}}]}