{"type": "FeatureCollection", "features": [{"type": "Feature", "id": 531, "geometry": {"type": "LineString", "coordinates": [[175.185179720988, -37.0731201470675], [175.185886740859, -37.0727022083525], [175.186434996587, -37.0726422702315], [175.187355747021, -37.0727708073977], [175.188351359597, -37.0733384886562], [175.188975887706, -37.0737667694091], [175.189950141942, -37.0736493005519], [175.190814420916, -37.0739258187326], [175.191263317271, -37.0746025122147], [175.191773394706, -37.0752778942873], [175.192517124936, -37.0756058256501], [175.194279307831, -37.0752765926515], [175.195674964231, -37.0749547515477], [175.196763680814, -37.0745901056668], [175.196830126945, -37.0737784568237], [175.197994737094, -37.0728952712666], [175.198401953838, -37.0722553522542], [175.197907177956, -37.0720694451234], [175.197407883372, -37.0717366565209], [175.197155841609, -37.0714968692738], [175.196665680395, -37.0714577443232], [175.196479422553, -37.0713635196036], [175.196350222621, -37.0710771221879], [175.196348043134, -37.0710722958165], [175.196334316441, -37.0706318390565], [175.195896027291, -37.0702978234946], [175.195396663111, -37.0699650255254], [175.195245992421, -37.0698311246791]]}, "properties": {"OBJECTID": 531, "TRACKNAME": "Rata Ridge Track", "CONDITIONSOFUSE": "Hunua Ranges Regional Park", "STATUS": "Open", "WEBLINK": "https://www.aucklandcouncil.govt.nz/en/parks-recreation/find-park-beach/park-detail/213.html", "VALIDATIONSTATE": 3, "created_user": "AC_owner", "last_edited_user": "AC_owner", "last_edited_date": 1789875254325, "created_date": 1789875254325, "PARK_SAPSITEID": null, "TRACK_ID": null, "KAURIDIEBACK_TRACK": null, "KAURIDIEBACK_MITIGATED": null, "SegmentID": null, "GlobalID": "faddbabf-d403-4883-9740-20211958202a", "Shape__Length": 1937.7727428843104}}, {"type": "Feature", "id": 1365, "geometry": {"type": "LineString", "coordinates": [[175.195245991323, -37.0698311256007], [175.195019463702, -37.0696297807122], [175.19512480961, -37.0690889999475], [175.194747709114, -37.0687537496134], [175.194260569987, -37.0688125063545], [175.193530697793, -37.0689250416278], [175.193046657384, -37.069081683962], [175.192376362576, -37.0691440821111], [175.191573223139, -37.0688663578016], [175.191148750516, -37.0689728722847], [175.190602124167, -37.0690817324465], [175.190231046532, -37.0689422520539], [175.189795882969, -37.0687060963218], [175.189127098039, -37.0688174762402], [175.188890463603, -37.0690670306253], [175.188655224611, -37.069365568823], [175.188304112693, -37.0698623215192], [175.187931528415, -37.0696739328137], [175.187505469211, -37.0697314445829], [175.187207733937, -37.0699822131495], [175.186911507606, -37.0702820533195], [175.186367856295, -37.0704887872424], [175.185454721606, -37.0706050040219], [175.185030227151, -37.0707114070746], [175.184413419727, -37.0705278775395], [175.184040849779, -37.0703393861302]]}, "properties": {"OBJECTID": 1365, "TRACKNAME": "Rata Ridge Track", "CONDITIONSOFUSE": "Hunua Ranges Regional Park", "STATUS": "Open", "WEBLINK": "https://www.aucklandcouncil.govt.nz/en/parks-recreation/find-park-beach/park-detail/213.html", "VALIDATIONSTATE": 3, "created_user": "AC_owner", "last_edited_user": "AC_owner", "last_edited_date": 1789875254325, "created_date": 1789875254325, "PARK_SAPSITEID": null, "TRACK_ID": null, "KAURIDIEBACK_TRACK": null, "KAURIDIEBACK_MITIGATED": null, "SegmentID": null, "GlobalID": "be4ddb69-3349-4054-944c-ec3030550df8", "Shape__Length": 1237.4846260039803}}]}