{"type": "FeatureCollection", "features": [{"type": "Feature", "id": 12806, "geometry": {"type": "LineString", "coordinates": [[174.249511745805, -36.494610191425], [174.249616597621, -36.4944731273827], [174.24963865031, -36.4944463160358], [174.24965075973, -36.4944418802257], [174.249656283366, -36.4944413527054], [174.249661414769, -36.4944344803361], [174.249698344308, -36.4944189192657], [174.249853550963, -36.4943885927087], [174.250030044905, -36.4943557459848], [174.250101504213, -36.4943343330993], [174.250160602959, -36.4942958282812], [174.250197584376, -36.4942523898761], [174.250222990203, -36.4941892957203], [174.250234080014, -36.4941233136846], [174.250220647662, -36.4940435736983], [174.250210844638, -36.4939736062247], [174.250203589766, -36.4938461541125], [174.250221260489, -36.4936497723338], [174.250227484433, -36.4935446017878], [174.250236513666, -36.4934844142681], [174.250269588774, -36.4933997589153], [174.250332650077, -36.4933147892767], [174.250414995446, -36.4932547311575], [174.250510891598, -36.4932128287037], [174.250719450901, -36.4931223861417], [174.250933800348, -36.4930510772167], [174.251069685059, -36.493004807519], [174.251170304168, -36.4929759477635], [174.251296568722, -36.4929530984805], [174.251399784182, -36.492947531077], [174.251516457652, -36.4929498949435], [174.251643067278, -36.4929485666516], [174.251786135009, -36.4929345082441], [174.251886941399, -36.4929173062604], [174.251988946154, -36.4929054733101], [174.252104334517, -36.4928970866991], [174.252259762804, -36.4928918683848], [174.252361881851, -36.4928872086078], [174.252486097792, -36.4928751411613], [174.252563667477, -36.4928635642576], [174.25265548819, -36.4928401782288], [174.252749225741, -36.4927979360705], [174.252810844211, -36.492764915897], [174.252894324889, -36.4927031349985], [174.252969873522, -36.4926350739712], [174.253051869353, -36.4925534918436], [174.253133633828, -36.492457560905], [174.253195450519, -36.492364531207], [174.25324282947, -36.4922716522462], [174.253297102414, -36.4921930520269], [174.253334227073, -36.49215319895], [174.253395279441, -36.4920817021536], [174.253573679956, -36.4919269965674], [174.253691969426, -36.4918167250957], [174.253769472203, -36.491755848371], [174.253868957246, -36.4916914313119], [174.253949814567, -36.4916427384553], [174.254083298667, -36.49156306458], [174.25419095351, -36.4914884875978], [174.254328633751, -36.4913674844366], [174.254462709948, -36.4912634528737], [174.254630821956, -36.4911432120153], [174.254818273737, -36.491001689651], [174.254981352187, -36.4909026449066], [174.255068717624, -36.4908322830392], [174.255128318954, -36.4907624196444], [174.255181290307, -36.490696047904], [174.255287242798, -36.4905960947266], [174.255417364065, -36.4904879678324], [174.255525220577, -36.4904194155739], [174.255607652621, -36.4903267112542], [174.255752852379, -36.4901505411235], [174.255798409118, -36.4900892412247], [174.255870647297, -36.4899784643554], [174.255907370267, -36.4899168517513], [174.25593452343, -36.4898362290046], [174.25594867152, -36.4897590605229], [174.255954106222, -36.4896947619153], [174.255962361135, -36.4896083497358], [174.25597915841, -36.4895114781692], [174.256006027486, -36.4894111309196], [174.256047256908, -36.489332782162], [174.256119508614, -36.4892330000605], [174.256167412619, -36.4891601736211], [174.256194446136, -36.4890717589782], [174.256209103961, -36.4890012910276], [174.256230408498, -36.4889211985484], [174.256274661963, -36.4888372639938], [174.256345429323, -36.4887723927682], [174.256613435386, -36.4886200969519], [174.256803690803, -36.4885045516901], [174.256921355807, -36.4884549633641], [174.256986323761, -36.4884222158682], [174.257063146982, -36.4883776830819], [174.257279518531, -36.4882759309192], [174.257398745883, -36.4882113596798], [174.257525331428, -36.4881209813906], [174.257658482655, -36.4879988051895], [174.257784069695, -36.4879047096314], [174.257926849158, -36.4878163786758], [174.258040836326, -36.4877596199873], [174.258187051004, -36.4876900370506]]}, "properties": {"OBJECTID": 12806, "TRACKNAME": "Red Track", "CONDITIONSOFUSE": "Te Rau Puriri Regional Park", "STATUS": "Open", "WEBLINK": null, "VALIDATIONSTATE": 3, "created_user": "AC_owner", "last_edited_user": "AC_owner", "last_edited_date": 1789875254325, "created_date": 1789875254325, "PARK_SAPSITEID": null, "TRACK_ID": null, "KAURIDIEBACK_TRACK": null, "KAURIDIEBACK_MITIGATED": null, "SegmentID": null, "GlobalID": "cdef3c86-d433-4504-9f2e-138e6e5c2945", "Shape__Length": 1184.6964015799979}}, {"type": "Feature", "id": 12807, "geometry": {"type": "LineString", "coordinates": [[174.271871776007, -36.4821750282738], [174.271950512767, -36.4821650048672], [174.272050691168, -36.482162215059], [174.272138219834, -36.4821681698493], [174.272190998004, -36.4821790871359], [174.2722652952, -36.4822018301029], [174.272333365002, -36.4822349710181], [174.272395074927, -36.4822704757274], [174.272448286065, -36.4823077928248], [174.272500450275, -36.4823436147311], [174.272544550295, -36.4823915777942], [174.272600151569, -36.4824636330707], [174.272651221747, -36.482530355862], [174.272680827604, -36.4825748847809], [174.272700365457, -36.4826150372484], [174.272704298444, -36.4826517683797], [174.272702678815, -36.4826885587416], [174.272693241493, -36.482722740749], [174.272671692205, -36.4827633314946], [174.272642311658, -36.4828004179764], [174.272604090866, -36.4828402886887], [174.27255689783, -36.4828748742978], [174.272501902845, -36.4829077492038], [174.272433640148, -36.482944353379], [174.272337748405, -36.482989324696], [174.272238671576, -36.4830432975822], [174.272150728133, -36.4830989464747], [174.272067373295, -36.483163514963], [174.271980721305, -36.4832259325151], [174.27189828341, -36.4832786640111], [174.271803859045, -36.483341331964], [174.271714687021, -36.4834067473858], [174.271639304368, -36.4834664096167], [174.271576066066, -36.4835259423683], [174.271512943293, -36.4835924817726], [174.271451600641, -36.4836618038977], [174.271392062155, -36.4837353120568], [174.271353298989, -36.4838057952786], [174.271330269336, -36.4838567538762], [174.271286324702, -36.4839535751319], [174.27125741811, -36.4840349014748], [174.271256770623, -36.4841264466941], [174.271260998465, -36.4841811218092], [174.271285939808, -36.4842662752862], [174.271304474937, -36.4843268539252], [174.271325357545, -36.4843813416511], [174.271340716761, -36.4844376830281], [174.271360812387, -36.4845119110949], [174.271373572717, -36.4846131248731], [174.271383180156, -36.4846817972466], [174.27139596572, -36.4847247118137], [174.271419989191, -36.4847946647734], [174.271439345148, -36.4848562731139], [174.271449663158, -36.4849221749448], [174.271454483168, -36.4849996154027], [174.271459761682, -36.485105178189], [174.271463143991, -36.4852251114518], [174.271458529528, -36.4853342241257], [174.271445211346, -36.4854626224421], [174.27143524996, -36.4855326869545], [174.271416330749, -36.485598362186], [174.271387401751, -36.4856632471358], [174.271350846388, -36.485737181927], [174.271316219022, -36.4857931590016], [174.271265167523, -36.4858636613439], [174.271219464745, -36.4859215493988], [174.271198936492, -36.4859567473041], [174.271178554758, -36.4860009131262], [174.27115520759, -36.4860675324415], [174.271133703575, -36.486178976817], [174.271118306169, -36.4862562738995], [174.271094258569, -36.48634801431], [174.271076478775, -36.4864154712401], [174.271058904072, -36.4864954823541], [174.271051426006, -36.4865816645345], [174.271051209172, -36.4866363770724], [174.271077444403, -36.4868525378946], [174.27108015279, -36.486974774326], [174.271086228566, -36.4870975833605], [174.271090100819, -36.4871485951238], [174.271100848566, -36.487197271882], [174.271115140833, -36.487245336647], [174.271136128881, -36.487311699023], [174.271170377194, -36.487403750407], [174.271174041021, -36.4874057261218], [174.271219460327, -36.4875300540592], [174.271275076763, -36.4876212539151], [174.271303527477, -36.4876629928143], [174.271324899318, -36.4876963983664], [174.271339239211, -36.4877242745025], [174.271348441934, -36.4877564079645], [174.271352415935, -36.4877871971856], [174.271351322589, -36.4878264482786], [174.271336369096, -36.4878672479318], [174.271306257112, -36.4879362380592], [174.271259160401, -36.4880278310577], [174.271220211908, -36.4880871047853], [174.271175965896, -36.4881408296974], [174.271129779201, -36.4881819621103], [174.271081742329, -36.4882161081084], [174.271028385043, -36.4882433028578], [174.270967972829, -36.4882635666325], [174.270893655688, -36.4882825767395], [174.270814063945, -36.4882974385987], [174.27069981461, -36.4883154721736], [174.270554329864, -36.4883338382952], [174.270455605443, -36.4883461010501], [174.270379232053, -36.4883455125628], [174.270311329969, -36.4883322215667], [174.27024497943, -36.488307703515], [174.27016447236, -36.488266517695], [174.270080152014, -36.4882043522819], [174.270022271861, -36.4881671307678], [174.269961264673, -36.4881509635469], [174.26989187876, -36.4881531029894], [174.269820963037, -36.4881678718366], [174.269725937617, -36.4881941086397], [174.269623856232, -36.4882134134454], [174.269559699009, -36.4882168988143], [174.269488348701, -36.4882050458041], [174.269411473525, -36.4881736313622], [174.269318340587, -36.4881031503955], [174.269228312251, -36.488010214426], [174.269100793759, -36.4878532123185], [174.269028209515, -36.4877656958751], [174.26893117296, -36.4876686298274], [174.268848384191, -36.4875938340682], [174.268755023932, -36.4875093410352], [174.268658306831, -36.4874318906358], [174.268535311673, -36.4873393046778], [174.26842825301, -36.4872661684336], [174.268317655836, -36.4871888653197], [174.268163153598, -36.4870797972585], [174.268106503806, -36.4870327511725], [174.268056954279, -36.4869911239641], [174.267997130676, -36.4869325639112], [174.267910159543, -36.4868437987997], [174.267866074353, -36.4867967317461], [174.267832012572, -36.4867513511542], [174.267778561672, -36.4866747860992], [174.267734242846, -36.4866133712033], [174.267695827697, -36.4865734185191], [174.267656433529, -36.4865415487604], [174.267613868392, -36.4865195791127], [174.26756918439, -36.4865039096994], [174.267521256321, -36.4864936555242], [174.267474542239, -36.4864896670717], [174.267414603472, -36.4864920977307], [174.267337099935, -36.4865072713225], [174.267217660591, -36.4865390353715], [174.267120387826, -36.4865678721293], [174.266990163771, -36.4866194815582], [174.266804910225, -36.4867021696194], [174.266640668664, -36.4867792526252], [174.266504015132, -36.4868452809644], [174.26639047817, -36.4868985055931], [174.266193109014, -36.4869875999551], [174.266064141277, -36.487048164533], [174.266013450448, -36.4870729182625], [174.265940783529, -36.4871122563378], [174.265874866507, -36.4871569035397], [174.265773952614, -36.4872351082086], [174.265681864881, -36.4873096304622], [174.265587408783, -36.4873752091852], [174.265525860779, -36.4874153260079], [174.265464254358, -36.4874518556245], [174.265423500076, -36.4874729159137], [174.265372766131, -36.4874949798866], [174.265347281899, -36.4874988379711], [174.26531516438, -36.4875045602987], [174.265279582674, -36.4875022468202], [174.265230603124, -36.4874955906745], [174.265168150599, -36.4874801088001], [174.265047440091, -36.487433853251], [174.264928906048, -36.4873848836562], [174.264867564262, -36.4873693898461], [174.26481862857, -36.4873654239108], [174.264772029598, -36.4873686087723], [174.264733321422, -36.4873788855553], [174.264685888826, -36.4873991194414], [174.264633064731, -36.4874292777957], [174.264579290333, -36.4874693108316], [174.264512276192, -36.487514865865], [174.264464960086, -36.48754227492], [174.264423080318, -36.4875624507512], [174.264376656106, -36.4875763960893], [174.264312493703, -36.4875923232868], [174.264260341582, -36.4875955667984], [174.264216986791, -36.4875933353739], [174.264170184735, -36.4875839648724], [174.264114336522, -36.487564825571], [174.264052703309, -36.4875313963579], [174.263995629093, -36.487505093499], [174.263946473681, -36.4874876762053], [174.263885219416, -36.4874775626541], [174.263829663828, -36.487476357289], [174.263752101402, -36.4874879422937], [174.263701205584, -36.4875001408385], [174.263658113061, -36.4875140506076], [174.26361842515, -36.4875324090447], [174.263574427034, -36.4875588847561], [174.263532692681, -36.4875880282238], [174.263506447275, -36.4876134189437], [174.263473757863, -36.4876523321333], [174.263442192453, -36.487692129458], [174.263410759228, -36.4877399988144], [174.263369447046, -36.4877951465629], [174.263332417036, -36.4878403843197], [174.263290915433, -36.4878838746153], [174.263233003419, -36.4879427858841], [174.263145572107, -36.4880307111259], [174.263049402469, -36.4881276974014], [174.263007784085, -36.4881640141476], [174.262956184763, -36.4882013334876], [174.262905595198, -36.4882323634757], [174.262861522547, -36.4882543558738], [174.262809719276, -36.4882791200282], [174.262751268011, -36.4883048523757], [174.26269385453, -36.4883260889674], [174.262638531226, -36.4883392308721], [174.262595307052, -36.4883450700175], [174.262546500701, -36.4883491734229], [174.262499843919, -36.4883487702189], [174.262416479955, -36.4883451685293], [174.262271963077, -36.4883377281728], [174.262099667582, -36.488329685465], [174.261960718345, -36.4883230827797], [174.261882907466, -36.4883194219773], [174.261810721241, -36.4883201854773], [174.261763025463, -36.4883242768164], [174.26171869173, -36.4883301273793], [174.261669987148, -36.4883405079917], [174.261612486062, -36.4883563632991], [174.261527468069, -36.4883877576796], [174.261362897646, -36.4884451049781], [174.261177444564, -36.4885161270406], [174.261047156112, -36.4885641429126], [174.26093998464, -36.4885993579343], [174.26080742996, -36.4886447075535], [174.260659474058, -36.4886991874561], [174.260562311171, -36.4887351933296], [174.260507117978, -36.4887564054153], [174.260450915844, -36.4887839058759], [174.260390314811, -36.4888141445312], [174.260316517068, -36.4888525933041], [174.260247250028, -36.4888963767667], [174.260180173958, -36.4889383422471], [174.260143918027, -36.4889629419277], [174.260092186028, -36.4889921889021], [174.260044810437, -36.4890160090511], [174.259996279487, -36.4890371496357], [174.259911245545, -36.4890676460923], [174.259801867241, -36.4891037803535], [174.259693569291, -36.4891381092099], [174.259553297766, -36.4891871258205], [174.259473816578, -36.4892175624417]]}, "properties": {"OBJECTID": 12807, "TRACKNAME": "Red Track", "CONDITIONSOFUSE": "Te Rau Puriri Regional Park", "STATUS": null, "WEBLINK": null, "VALIDATIONSTATE": 3, "created_user": "AC_owner", "last_edited_user": "AC_owner", "last_edited_date": 1789875254325, "created_date": 1789875254325, "PARK_SAPSITEID": null, "TRACK_ID": null, "KAURIDIEBACK_TRACK": null, "KAURIDIEBACK_MITIGATED": null, "SegmentID": null, "GlobalID": "7556fef9-84e6-4b21-8be7-b817ce4bee51", "Shape__Length": 2040.6199340725695}}]}