{"type": "FeatureCollection", "features": [{"type": "Feature", "id": 2984, "geometry": {"type": "LineString", "coordinates": [[174.265537676712, -36.4832344905761], [174.265497901047, -36.4832582746221], [174.265432950748, -36.4833098101727], [174.265338709802, -36.4833868286038], [174.265258767239, -36.4834519556625], [174.265214624555, -36.4834769181558], [174.265169367547, -36.4835063294179], [174.265128968898, -36.4835388424406], [174.265122755324, -36.4835438429003], [174.265085992882, -36.4835842077991], [174.265049554797, -36.4836340192151], [174.265024313521, -36.4836808921457], [174.26500678833, -36.4837253710235], [174.265001883296, -36.4837681475567], [174.264999728548, -36.4838091884719], [174.265003237087, -36.4838501738477], [174.265003846809, -36.483888909274], [174.265004254297, -36.4839139708496], [174.264990207267, -36.4839603581884], [174.264965352457, -36.4839977094315], [174.264931849408, -36.4840225590145], [174.264901738053, -36.4840347955105], [174.26482636791, -36.48405500742], [174.264754327389, -36.4840762296751], [174.264679164714, -36.4841026854841], [174.264613888062, -36.4841302362975], [174.264562199119, -36.484157574548], [174.264510243096, -36.4841966426531], [174.264477088676, -36.4842350580377], [174.264448219575, -36.4842865793438], [174.264435577749, -36.4843292665717], [174.264425068532, -36.4843732860858], [174.264413839985, -36.4843998339831], [174.264391474986, -36.4844260392566], [174.264363409708, -36.484448722547], [174.264352858392, -36.4844538861254], [174.264315454216, -36.4844721917399], [174.264247645761, -36.4844987406231], [174.264189776591, -36.4845210717075], [174.264082775526, -36.4845683374765], [174.264002761376, -36.4846081028857], [174.263906999103, -36.4846642225255], [174.263797068272, -36.484728659369], [174.263732100788, -36.4847935068918], [174.263692369379, -36.484836661269], [174.263647837322, -36.4849011669921], [174.263579228274, -36.4850098078912], [174.263490679451, -36.4851599898902], [174.263441278458, -36.4852339664165], [174.263394569918, -36.4852976278923], [174.263341931689, -36.4853676370933], [174.26328301681, -36.4854325284563], [174.263213937013, -36.485496424034], [174.26314841095, -36.485544813858], [174.263042020754, -36.4856011580143], [174.262881791546, -36.4856733958414], [174.262665810119, -36.4857680207301], [174.262406105814, -36.4858774644745], [174.262211330005, -36.4859681375429], [174.262070586909, -36.4860409668225], [174.26200009654, -36.4860804886254], [174.261910279155, -36.4861150810182], [174.261826242153, -36.4861535966456], [174.261781612072, -36.4861859757114], [174.261723183068, -36.4862389556392], [174.261657805639, -36.4863016996746], [174.261601590272, -36.4863621878022], [174.261559384642, -36.4864048204551], [174.261366023007, -36.4865420257047], [174.261213158574, -36.4866593166611], [174.2610555862, -36.4867591968779], [174.260954715105, -36.4868040864435], [174.26082032205, -36.486856153314], [174.260699634847, -36.4868849654687], [174.260626761631, -36.4869023619618], [174.260369271441, -36.4869399597831], [174.260201006568, -36.4869507013426], [174.260053107581, -36.4869601422163], [174.259878461444, -36.4869784634558], [174.259759339403, -36.486997177147], [174.25965820006, -36.4870209473307], [174.259570185439, -36.4870489049542], [174.25947209625, -36.4870922810083], [174.259355208627, -36.4871511125672], [174.259330805409, -36.4871634884396], [174.259203384611, -36.4872281102103], [174.259072153504, -36.4872907356677], [174.258921968679, -36.4873724807556], [174.258743839549, -36.4874626335998], [174.258597761768, -36.4875215073675], [174.258597765146, -36.4875215091348], [174.258282735488, -36.4876484308237], [174.25818705099, -36.4876900361493]]}, "properties": {"OBJECTID": 2984, "TRACKNAME": "Red track", "CONDITIONSOFUSE": "Te Rau Puriri Regional Park", "STATUS": null, "WEBLINK": "https://www.aucklandcouncil.govt.nz/en/parks-recreation/find-park-beach/park-detail/232.html", "VALIDATIONSTATE": 3, "created_user": "AC_owner", "last_edited_user": "AC_owner", "last_edited_date": 1789875254325, "created_date": 1789875254325, "PARK_SAPSITEID": null, "TRACK_ID": null, "KAURIDIEBACK_TRACK": null, "KAURIDIEBACK_MITIGATED": null, "SegmentID": null, "GlobalID": "3dc42a1f-c603-4112-a99c-32bbe6c42ac5", "Shape__Length": 865.216263234074}}, {"type": "Feature", "id": 12804, "geometry": {"type": "LineString", "coordinates": [[174.271871776007, -36.4821750282738], [174.271829530378, -36.4821884397454], [174.271781967508, -36.4822035386148], [174.27163414562, -36.4822487392783], [174.271302762367, -36.4823705183484], [174.271124120127, -36.4824435997856], [174.271006305799, -36.4824982382348], [174.270937088906, -36.4825253801261], [174.270877587664, -36.4825380682102], [174.270797344102, -36.4825429416189], [174.27067741498, -36.4825551247633], [174.270590963554, -36.4825715441903], [174.270476840496, -36.4825911275547], [174.270381103016, -36.4826047754767], [174.270310107814, -36.48261012341], [174.270242554958, -36.4826085466265], [174.270134434649, -36.4826039572153], [174.269944284058, -36.4825962753644], [174.269898286798, -36.4825944166602], [174.269724718464, -36.4825865056771], [174.269648458429, -36.4825741154043], [174.269590657895, -36.4825603801996], [174.26954976383, -36.4825372801341], [174.269508022871, -36.4825147488699], [174.26947707555, -36.482482374231], [174.269445906886, -36.4824453945963], [174.269423210212, -36.4824048812518], [174.269399653895, -36.4823551921118], [174.269370869236, -36.4822900607578], [174.269339635166, -36.4822490639989], [174.269307886791, -36.4822201269748], [174.26926913522, -36.4821975782437], [174.269232712039, -36.482187059904], [174.26920417155, -36.482180475489], [174.269166505456, -36.4821808761678], [174.269114774508, -36.48219061048], [174.269081615295, -36.482205887701], [174.269048512225, -36.4822246078783], [174.268978911515, -36.4822718434751], [174.268926299522, -36.4823181158853], [174.268873081448, -36.4823620004507], [174.268854111707, -36.4823776423353], [174.268802493223, -36.4824378884156], [174.268734439594, -36.4824933530386], [174.268653332726, -36.4825318909545], [174.268591875999, -36.4825555054133], [174.268575574626, -36.4825614570744], [174.268514148737, -36.4825838848492], [174.268295666633, -36.4826550896394], [174.267992151571, -36.4827426956037], [174.267828589021, -36.4827817450615], [174.267687608042, -36.4828107961014], [174.267586184265, -36.4828245013021], [174.267485762463, -36.4828348225231], [174.267361939695, -36.4828475485208], [174.267163822262, -36.482859985339], [174.266991393247, -36.4828784628375], [174.266813344087, -36.4829010175522], [174.266675159606, -36.48292716747], [174.26659524342, -36.4829521253389], [174.266544661673, -36.4829888251283], [174.266541366291, -36.482991084905], [174.266455382655, -36.4830500442176], [174.266385584547, -36.4830852261361], [174.266320778451, -36.4831215025842], [174.266269345396, -36.4831496014839], [174.266234876467, -36.483171779848], [174.266191850155, -36.4831923272375], [174.266127745514, -36.4832280228111], [174.26606492265, -36.4832550940377], [174.266013153208, -36.4832625314117], [174.265959869567, -36.4832642452574], [174.265905725537, -36.4832567832692], [174.265848533342, -36.4832367250943], [174.265772198515, -36.4832197411188], [174.265703055154, -36.4832078461485], [174.265655840477, -36.4832059653716], [174.265594033569, -36.4832188474675], [174.265537676712, -36.4832344905761]]}, "properties": {"OBJECTID": 12804, "TRACKNAME": "Red track", "CONDITIONSOFUSE": "Te Rau Puriri Regional Park", "STATUS": null, "WEBLINK": "https://www.aucklandcouncil.govt.nz/en/parks-recreation/find-park-beach/park-detail/232.html", "VALIDATIONSTATE": 3, "created_user": "AC_owner", "last_edited_user": "AC_owner", "last_edited_date": 1789875254325, "created_date": 1789875254325, "PARK_SAPSITEID": null, "TRACK_ID": null, "KAURIDIEBACK_TRACK": null, "KAURIDIEBACK_MITIGATED": null, "SegmentID": null, "GlobalID": "36172f82-d136-42a0-81af-9c32962adfdc", "Shape__Length": 634.6399400758063}}, {"type": "Feature", "id": 12805, "geometry": {"type": "LineString", "coordinates": [[174.273054428592, -36.4819613886772], [174.273030532708, -36.4819898700304], [174.272974727264, -36.4820101388263], [174.272948336335, -36.4820155523869], [174.272896444634, -36.4820161060178], [174.272872922305, -36.4820026710666], [174.272856673184, -36.4819806055044], [174.272834905475, -36.4819449129106], [174.272812302458, -36.4819229151264], [174.272774887267, -36.4819019308325], [174.272729154826, -36.4818904437446], [174.272682599906, -36.4818935058957], [174.272629900902, -36.4819094648878], [174.272578358945, -36.4819313980841], [174.272534217195, -36.48195239775], [174.272470885522, -36.4819659027303], [174.272398051487, -36.4819812208809], [174.272256885699, -36.4820280595853], [174.272118938098, -36.4820774302557], [174.271975793424, -36.4821328436443], [174.271871776007, -36.4821750282738]]}, "properties": {"OBJECTID": 12805, "TRACKNAME": "Red track", "CONDITIONSOFUSE": "Te Rau Puriri Regional Park", "STATUS": null, "WEBLINK": "https://www.aucklandcouncil.govt.nz/en/parks-recreation/find-park-beach/park-detail/232.html", "VALIDATIONSTATE": 3, "created_user": "AC_owner", "last_edited_user": "AC_owner", "last_edited_date": 1789875254325, "created_date": 1789875254325, "PARK_SAPSITEID": null, "TRACK_ID": null, "KAURIDIEBACK_TRACK": null, "KAURIDIEBACK_MITIGATED": null, "SegmentID": null, "GlobalID": "fafee12f-26fb-41c2-9ff5-e85bc832bc6c", "Shape__Length": 121.26282253080757}}, {"type": "Feature", "id": 12809, "geometry": {"type": "LineString", "coordinates": [[174.249511745805, -36.494610191425], [174.249836215176, -36.4945440501988], [174.250035555367, -36.4944602589883], [174.250232592665, -36.4943281807315], [174.250450099021, -36.4941514097412], [174.250676683149, -36.4940121780914], [174.251096338557, -36.4937580148684], [174.251580423421, -36.4935579178924], [174.251817202496, -36.4934415687807], [174.251989505053, -36.4933631215229], [174.252191879479, -36.4932996858375], [174.252577223258, -36.4931467406404], [174.25282783868, -36.4930477622615], [174.252981193692, -36.4929717021998], [174.253182719633, -36.4928557215589], [174.253303465553, -36.4927756234535], [174.253504531792, -36.4926311809163], [174.253595840002, -36.4925754787385], [174.253652250803, -36.4925420404932], [174.253724789788, -36.4924996741794], [174.253794758483, -36.4924660933842], [174.253953534133, -36.4923899751136], [174.254130971349, -36.4922939528168], [174.254260026052, -36.4922247154931], [174.254418553564, -36.4921332708549], [174.254520811914, -36.4920840217465], [174.254617787565, -36.4920435875579], [174.254720344737, -36.4920058872992], [174.254838629362, -36.4919705609278], [174.255096256345, -36.4918969954499], [174.255370528275, -36.491822357318], [174.255550687507, -36.4917666471531], [174.255642245384, -36.4917271174265], [174.255725998463, -36.4916858749833], [174.255877857136, -36.4915972769051], [174.255925149847, -36.4915680784768], [174.256019994705, -36.491525823012], [174.256109084532, -36.4914710707827], [174.25622882137, -36.4913881921634], [174.256363830775, -36.49128811146], [174.256528406196, -36.4911617085865], [174.256649899794, -36.4910501104827], [174.256736303684, -36.4909666855191], [174.25685453718, -36.4908596053944], [174.25696528568, -36.4907705429955], [174.257103088751, -36.4906372467208], [174.257253987127, -36.4904894611004], [174.257367675166, -36.4903761506326], [174.257495438734, -36.4902402688721], [174.257613423626, -36.4901179442925], [174.257755724968, -36.4899881867454], [174.257864294556, -36.4899018373376], [174.258040848385, -36.4897609558181], [174.25816137205, -36.4896583350039], [174.258228246763, -36.4896038154868], [174.258283267135, -36.4895718437845], [174.258348283111, -36.4895397666278], [174.2584520817, -36.4895018986507], [174.258567043376, -36.4894675006161], [174.258699833012, -36.4894365021737], [174.258820565284, -36.4894154963456], [174.259034381237, -36.4893809517041], [174.259141699856, -36.4893547063184], [174.259234479775, -36.4893223356515], [174.259358005286, -36.4892681144925], [174.259473816578, -36.4892175624417]]}, "properties": {"OBJECTID": 12809, "TRACKNAME": "Red track", "CONDITIONSOFUSE": "Te Rau Puriri Regional Park", "STATUS": "Open", "WEBLINK": null, "VALIDATIONSTATE": 3, "created_user": "AC_owner", "last_edited_user": "AC_owner", "last_edited_date": 1789875254325, "created_date": 1789875254325, "PARK_SAPSITEID": null, "TRACK_ID": null, "KAURIDIEBACK_TRACK": null, "KAURIDIEBACK_MITIGATED": null, "SegmentID": null, "GlobalID": "6fca705f-73d1-4110-80a5-1ab279d460b0", "Shape__Length": 1094.0895332972696}}]}