{"type": "FeatureCollection", "features": [{"type": "Feature", "id": 1719, "geometry": {"type": "LineString", "coordinates": [[174.358470066247, -36.3354931224807], [174.358715615867, -36.3353734590437], [174.358877985912, -36.3352538071188], [174.359115940339, -36.335036438032], [174.359371742098, -36.3348284065816], [174.359540864548, -36.3347215363867], [174.359802018079, -36.334567108405], [174.359917797464, -36.3344441495064], [174.360148569881, -36.3339835765426], [174.360282116837, -36.3336958395134], [174.360406655692, -36.3333986646506], [174.360495906409, -36.3332760063029], [174.360565189376, -36.3331917379716], [174.360983870215, -36.3330271661882], [174.361443645202, -36.3328525836372], [174.361769006448, -36.3325769711711], [174.362003457615, -36.3323286294365], [174.362160366184, -36.3321980437542], [174.362282904113, -36.3321250928941], [174.362412125672, -36.3320973833908], [174.362509633875, -36.3321105824569], [174.362688627363, -36.3322325680879], [174.362887462932, -36.3323090103697], [174.363020379823, -36.3323241904558], [174.363093229862, -36.3322756565369], [174.363257773617, -36.3320758127313], [174.363289818711, -36.3320116448843], [174.363985007639, -36.3318987657538], [174.364386180633, -36.3318297878934], [174.364514818596, -36.3317686906309], [174.364826287648, -36.3317114675294], [174.365011920727, -36.3317069619527], [174.365293356924, -36.3316602185944], [174.365320513958, -36.3318650300118], [174.365187521364, -36.3320144279348]]}, "properties": {"OBJECTID": 1719, "TRACKNAME": "Reservoir Walk", "CONDITIONSOFUSE": "Atiu Regional Park", "STATUS": "Open", "WEBLINK": "https://www.aucklandcouncil.govt.nz/en/parks-recreation/find-park-beach/park-detail/205.html", "VALIDATIONSTATE": 3, "created_user": "AC_owner", "last_edited_user": "AC_owner", "last_edited_date": 1789875254325, "created_date": 1789875254325, "PARK_SAPSITEID": null, "TRACK_ID": null, "KAURIDIEBACK_TRACK": null, "KAURIDIEBACK_MITIGATED": null, "SegmentID": null, "GlobalID": "8c56f3f5-d2ab-44e1-b430-db7f17eaf6cb", "Shape__Length": 869.6574602619241}}, {"type": "Feature", "id": 2198, "geometry": {"type": "LineString", "coordinates": [[174.363272827234, -36.3320577513732], [174.363315658188, -36.3320720287792], [174.363388941825, -36.3320884197394], [174.363447203418, -36.3321148350923], [174.363541731097, -36.3321285225617], [174.363679058119, -36.3321540265848], [174.363774186373, -36.3322021611036], [174.363838615775, -36.3322334188708], [174.363945479342, -36.3322568182679], [174.364005923917, -36.3322339702753], [174.364059889398, -36.3321890561694], [174.36425554754, -36.3320711463015], [174.36437616789, -36.3320107050368], [174.364597183042, -36.3319515782619], [174.364751596823, -36.3319104297535], [174.364885399504, -36.3319089015739], [174.365089456148, -36.3319237977669], [174.365202842077, -36.331971731592], [174.365270688118, -36.3320250986041], [174.365344154987, -36.3320513302911], [174.365411013489, -36.3320481053706], [174.365490004075, -36.3320422807769], [174.365526195136, -36.3320246401835], [174.365547009525, -36.3319973312702], [174.365630696283, -36.3319126917194], [174.365812478516, -36.3315062159359], [174.365952373795, -36.3312595981018], [174.366267609922, -36.3311451499352], [174.36676946509, -36.3309818976951], [174.367198615452, -36.3307844712198], [174.367433241681, -36.3307369476641], [174.367700121474, -36.330663948645]]}, "properties": {"OBJECTID": 2198, "TRACKNAME": "Reservoir Walk", "CONDITIONSOFUSE": "Atiu Regional Park", "STATUS": "Open", "WEBLINK": "https://www.aucklandcouncil.govt.nz/en/parks-recreation/find-park-beach/park-detail/205.html", "VALIDATIONSTATE": 3, "created_user": "AC_owner", "last_edited_user": "AC_owner", "last_edited_date": 1789875254325, "created_date": 1789875254325, "PARK_SAPSITEID": null, "TRACK_ID": null, "KAURIDIEBACK_TRACK": null, "KAURIDIEBACK_MITIGATED": null, "SegmentID": null, "GlobalID": "3c6079a3-34c5-41eb-acb2-36a589b953dc", "Shape__Length": 487.1041745779187}}]}