{"type": "FeatureCollection", "features": [{"type": "Feature", "id": 2082, "geometry": {"type": "LineString", "coordinates": [[174.511670594123, -36.9140241611623], [174.511668547579, -36.9140248343915], [174.511277396022, -36.9141530020243], [174.510965102322, -36.9141725779435], [174.510738048205, -36.9142084021697], [174.510682233626, -36.914228761914], [174.510528074261, -36.9144380642471], [174.510455672967, -36.9146885828011], [174.510335622753, -36.9148988572386], [174.510299570599, -36.9149286461922], [174.510166476197, -36.9149983467466], [174.509998631138, -36.9151490622345], [174.509961045051, -36.9151915888891], [174.509906357758, -36.9152873874488], [174.50982632943, -36.9153834991079], [174.509564870616, -36.9156143547855], [174.509445160842, -36.9157754634003], [174.509392919657, -36.9158017802441], [174.509010090263, -36.9158766900836], [174.508708976215, -36.9158960369732], [174.508237849198, -36.9160093194542], [174.508050168112, -36.9160161012907], [174.507397865474, -36.9162124162644], [174.50716619303, -36.9162934598904], [174.507102187835, -36.9162884852985], [174.506864644088, -36.9162428975299], [174.50661412594, -36.9161734524038], [174.506429731803, -36.9161019782724], [174.506377840693, -36.9160942266567], [174.505950208963, -36.9161070948669], [174.505759709498, -36.9161258519506], [174.505673607867, -36.9161269164624], [174.505187516505, -36.9161165466168], [174.504872352373, -36.9160682428931], [174.504715434821, -36.9160696180631], [174.504390820896, -36.9160893959534], [174.503941048203, -36.9160540617747], [174.503695782785, -36.9160798816876], [174.503459145181, -36.9161214830075], [174.503315116379, -36.9161589822717], [174.503267026788, -36.9161916165686], [174.503149261792, -36.9163044080322], [174.503132070357, -36.916334460902], [174.503117397689, -36.9164024745755], [174.503082540573, -36.916441854829], [174.503024732882, -36.9164575130539], [174.502771203588, -36.9164764590559], [174.502710029937, -36.9165013626897], [174.502664499941, -36.9165363169326], [174.502430471988, -36.9168466262335], [174.50228155821, -36.9171164416795], [174.502097983464, -36.9173504693061], [174.502053999345, -36.9173875850788], [174.501803149555, -36.9175284413018], [174.501722219219, -36.9175854936811], [174.501651116126, -36.9176948814029], [174.50157698577, -36.9179023582192], [174.501421500819, -36.9180789009379], [174.501361179661, -36.9181147357235], [174.501173979155, -36.918189851439], [174.501075720439, -36.9181973668631], [174.500863559831, -36.9181874920366], [174.500822743656, -36.9181652122084], [174.500722977158, -36.9180768948627], [174.500662531396, -36.918042234836], [174.500586457424, -36.9180246638808], [174.500455571382, -36.918019313857], [174.500356957138, -36.9180436256734], [174.500049139207, -36.9181803304787], [174.500008120704, -36.9182078805807], [174.4999284514, -36.9182892978456], [174.499896262413, -36.9183085609877], [174.499630388244, -36.9183372197642], [174.499598047443, -36.9183281006445], [174.499565169271, -36.9182944079776], [174.499531899045, -36.9182750880675], [174.499381317229, -36.9182236101148], [174.498871947925, -36.9181240926178], [174.49866260206, -36.9181065888046], [174.498625777104, -36.9180799943771], [174.498529142479, -36.9179628549357], [174.498497445165, -36.9179424332423], [174.498457529182, -36.9179311199067], [174.498126847561, -36.9178730700222], [174.498090408512, -36.9178782347964], [174.498018838083, -36.9179158142268], [174.497949783289, -36.9179276278048], [174.497499592091, -36.9178942756213], [174.497130702612, -36.9179690617126], [174.496807972786, -36.9180231553939], [174.496505987506, -36.9181478794936], [174.496248711554, -36.9183023526327], [174.49573094636, -36.9183894927692], [174.495668568055, -36.9183948753067], [174.495591150002, -36.9183906403045], [174.495487573392, -36.918408710012], [174.495265166283, -36.9184932554352], [174.495160287918, -36.918561376248], [174.495148297911, -36.9185691590806]]}, "properties": {"OBJECTID": 2082, "TRACKNAME": "RGBT Track", "CONDITIONSOFUSE": "Waitakere West Regional Park", "STATUS": "Temp Closed", "WEBLINK": "https://www.aucklandcouncil.govt.nz/en/parks-recreation/find-park-beach/park-detail/3451.html", "VALIDATIONSTATE": 3, "created_user": "AC_owner", "last_edited_user": "AC_owner", "last_edited_date": 1789875254325, "created_date": 1789875254325, "PARK_SAPSITEID": null, "TRACK_ID": null, "KAURIDIEBACK_TRACK": null, "KAURIDIEBACK_MITIGATED": null, "SegmentID": null, "GlobalID": "d63b2726-86bc-4349-b1f6-4e0b08d2dd50", "Shape__Length": 1761.5053587993043}}]}