{"type": "FeatureCollection", "features": [{"type": "Feature", "id": 2490, "geometry": {"type": "LineString", "coordinates": [[175.153540921949, -37.1034605244035], [175.153619031036, -37.1036245029731], [175.153695863566, -37.1038176872288], [175.153712209885, -37.1040201809702], [175.153750552971, -37.1042790358486], [175.153836269627, -37.1044314841661], [175.153976942602, -37.1045168087905], [175.154055127362, -37.1045523121522], [175.154334730224, -37.1046208895277], [175.154491461023, -37.1047042272904], [175.154601588309, -37.1047761550317], [175.154713610118, -37.104909765961], [175.154833316244, -37.1050210933066], [175.154906998942, -37.1051557796055], [175.154936281672, -37.1052942887308], [175.154927267262, -37.1055075202941], [175.154902405474, -37.105692899298], [175.154872527593, -37.105878369494], [175.154749266718, -37.1061338793995], [175.154588270542, -37.1062976121555], [175.154451445207, -37.1064287441482], [175.154417808654, -37.1064816173845], [175.154418947238, -37.1065217979266], [175.154460561352, -37.1065733032537], [175.15451175329, -37.1066085543186], [175.154627822359, -37.106630565383], [175.154772966216, -37.1066158660777], [175.155010580996, -37.1064989812558], [175.155213077257, -37.1063827354859], [175.155341461576, -37.1063080384045], [175.155518988401, -37.106196265786], [175.155616815862, -37.1061060431148], [175.155675080213, -37.1060366405771], [175.155968331303, -37.1059348229526], [175.156303993093, -37.1059126363718], [175.15652586782, -37.1059488006726], [175.15670418774, -37.1060420393889], [175.156918878501, -37.1061788376308], [175.156995610383, -37.1064065897543], [175.157062536402, -37.1066425594457], [175.157121025723, -37.1069349657862], [175.157182138559, -37.1071429005141], [175.157254425189, -37.1073908339301], [175.157324775152, -37.107570459758], [175.15732716951, -37.1076548390793], [175.157314855361, -37.1077515466761], [175.157211782707, -37.1078338261402], [175.157118287152, -37.1078998501796], [175.156879759562, -37.1079845937853], [175.156675778922, -37.1080486076568], [175.156601210735, -37.1080740856548], [175.156562671764, -37.1081310691667], [175.156555145907, -37.1082196495005], [175.156582737544, -37.1083075899227], [175.156669049175, -37.1083422009566], [175.156799602179, -37.1083438456674], [175.157009853644, -37.1083239382367], [175.1572293403, -37.1082757216704], [175.157427733642, -37.1081917079504], [175.157586333939, -37.108120477979], [175.157743793526, -37.1080090673603], [175.157806959346, -37.1079355549818], [175.157894296603, -37.1078294413273], [175.157920291984, -37.1076842424098], [175.157940927935, -37.107527081427], [175.157930209423, -37.1073262696442], [175.157877873151, -37.1070739538496], [175.157861339443, -37.1068451063527], [175.157792470982, -37.1065408297359], [175.157745723111, -37.1063085118029], [175.157675944752, -37.1061489763925], [175.15763866174, -37.1060732731817], [175.15764664234, -37.1060007646199], [175.157675944596, -37.1059720904948], [175.157715622027, -37.1059552880225], [175.157875493939, -37.1059586888116], [175.158246791292, -37.1060007488138], [175.158462876213, -37.1060088363786], [175.15860230878, -37.1060307659303], [175.158821049075, -37.1061252344641], [175.159025523811, -37.1062570219033], [175.159182647372, -37.1063527023151], [175.159419847949, -37.1065455834768], [175.159578487208, -37.106690624281], [175.159769072264, -37.1068720790637], [175.15991421603, -37.107079128044], [175.160033090509, -37.107434866296], [175.160053450139, -37.1075949989827], [175.16012420411, -37.1078899505432], [175.160165669717, -37.1082348694746], [175.160182219439, -37.1082715912037], [175.160295771682, -37.1084545662286], [175.160411619871, -37.1087115820769], [175.160444335096, -37.1087726763114], [175.160522900353, -37.1088205154737], [175.160772093126, -37.108902023866], [175.161005494203, -37.1089714995778], [175.161267821877, -37.1089786575894], [175.161327541088, -37.1089157337367], [175.161448529153, -37.1088392552149], [175.161476674628, -37.1087522579174], [175.161629247013, -37.1086998523778], [175.16195699533, -37.1088291968063], [175.162052870486, -37.1089384367899], [175.162117171876, -37.1090235944986], [175.162134096194, -37.1090726562298], [175.162181077691, -37.1090964212706], [175.162245006124, -37.1091692475929], [175.162247280841, -37.1092432888588], [175.162326221185, -37.1093034670827], [175.162404788131, -37.1093513049375], [175.162559251233, -37.1093605993326], [175.162700977874, -37.1094565828678], [175.1628246252, -37.1094664752958], [175.162933623528, -37.1095013652454], [175.163073822353, -37.1095479786915], [175.163168556581, -37.1096201971742], [175.163263664655, -37.1097047558787], [175.16342821329, -37.1098572629123]]}, "properties": {"OBJECTID": 2490, "TRACKNAME": "River Track", "CONDITIONSOFUSE": "Hunua Ranges Regional Park", "STATUS": "Open", "WEBLINK": "https://www.aucklandcouncil.govt.nz/en/parks-recreation/find-park-beach/park-detail/213.html", "VALIDATIONSTATE": 3, "created_user": "AC_owner", "last_edited_user": "AC_owner", "last_edited_date": 1789875254325, "created_date": 1789875254325, "PARK_SAPSITEID": null, "TRACK_ID": null, "KAURIDIEBACK_TRACK": null, "KAURIDIEBACK_MITIGATED": null, "SegmentID": null, "GlobalID": "562dd5d4-2359-4ca9-a886-d82a3eeb60d9", "Shape__Length": 2084.4246318912215}}]}