{"type": "FeatureCollection", "features": [{"type": "Feature", "id": 2, "geometry": {"type": "LineString", "coordinates": [[174.462744148312, -36.9314119703365], [174.462643647164, -36.9314767494548], [174.462476762835, -36.9315098398848], [174.46199458292, -36.9314077161596], [174.461869104995, -36.9313930947727], [174.461564625186, -36.9313748608004], [174.461317600525, -36.9314093631508], [174.461116871036, -36.931424547777], [174.460913422795, -36.9314494759824], [174.460713809168, -36.9315144893251], [174.460546031723, -36.9315131259083], [174.460366292955, -36.9315323443354], [174.460241888871, -36.9315834170852], [174.460164450709, -36.931629415295], [174.46002052219, -36.931782197045], [174.459957668276, -36.9319039202869], [174.459909030428, -36.9319361437417], [174.459778914978, -36.9319869292821], [174.459522836582, -36.9320300842124], [174.45929691049, -36.9320960801848], [174.459097668963, -36.9321007953357], [174.458918283874, -36.9321410164019], [174.45887651991, -36.9321668562073], [174.458783008673, -36.9322677597128], [174.458742959933, -36.9322967647493], [174.458492555081, -36.9323940941069], [174.458317771702, -36.9324322125445], [174.458216607884, -36.9324658987781], [174.458134969405, -36.9325128378096], [174.458011953788, -36.9326033018548], [174.457954417979, -36.9326028950538], [174.457713715337, -36.9325461809807], [174.457409668535, -36.9324672759841], [174.457307037697, -36.9324432844664]]}, "properties": {"OBJECTID": 2, "TRACKNAME": "Rose Track", "CONDITIONSOFUSE": null, "STATUS": "Open", "WEBLINK": null, "VALIDATIONSTATE": 3, "created_user": "AC_owner", "last_edited_user": "AC_owner", "last_edited_date": 1789875254325, "created_date": 1789875254325, "PARK_SAPSITEID": null, "TRACK_ID": null, "KAURIDIEBACK_TRACK": null, "KAURIDIEBACK_MITIGATED": null, "SegmentID": null, "GlobalID": "106162ea-be2f-4bf9-80f4-3232a6498f19", "Shape__Length": 536.4670991635602}}, {"type": "Feature", "id": 1367, "geometry": {"type": "LineString", "coordinates": [[174.457307037697, -36.9324432844664], [174.457225379693, -36.9324030731153], [174.457169031641, -36.9323411426682], [174.457165931702, -36.9323113092549], [174.457325736163, -36.9321847453731], [174.457584486311, -36.9318919708066], [174.457607569287, -36.9318440112409], [174.457610465665, -36.9317282026308], [174.457631645168, -36.9316900147564], [174.45770017867, -36.931631327112], [174.457743571854, -36.9316056606117], [174.457910266144, -36.9315899963511], [174.457933216043, -36.9315838106164], [174.457939975357, -36.9315750933951], [174.457926136688, -36.9315308725465], [174.457751638136, -36.9311838296731], [174.457765882944, -36.931032510119], [174.45765584392, -36.9307351688152], [174.457659432543, -36.930712306543], [174.457695368001, -36.9306590639975], [174.45769096189, -36.930622554841], [174.457465350517, -36.9302785355978], [174.457333255689, -36.930104540631], [174.457310228948, -36.9300199860915], [174.457281074354, -36.9299750084607], [174.457220930114, -36.9299161613033], [174.457090003501, -36.9298722367952], [174.45705726794, -36.9298517599661], [174.456934982935, -36.9296970948726], [174.456753221036, -36.929441067155], [174.456714869148, -36.9294104727166], [174.456605939543, -36.9293842421781], [174.456548240077, -36.9293181726316], [174.456510659444, -36.9292361165492], [174.456488030785, -36.9292177924649], [174.456471733612, -36.9292202511776], [174.456418764392, -36.9293255852399], [174.456457941313, -36.9294122908804], [174.456542551179, -36.9294875696385], [174.456609206529, -36.9295559134655], [174.456598097368, -36.9295965925332], [174.456450134045, -36.9296839672999], [174.456344813828, -36.9297117889991], [174.456287041573, -36.9297662309493], [174.456216937438, -36.9297587429963], [174.456141904966, -36.9297206561646], [174.456086280116, -36.9297205494996], [174.456004689148, -36.929744820588], [174.455861443719, -36.9297797724796], [174.455729536432, -36.9297842946091], [174.455621617455, -36.9297651671143]]}, "properties": {"OBJECTID": 1367, "TRACKNAME": "Rose Track", "CONDITIONSOFUSE": "Waitakere West Regional Park", "STATUS": "Open", "WEBLINK": "https://www.aucklandcouncil.govt.nz/en/parks-recreation/find-park-beach/park-detail/3451.html", "VALIDATIONSTATE": 3, "created_user": "AC_owner", "last_edited_user": "AC_owner", "last_edited_date": 1789875254325, "created_date": 1789875254325, "PARK_SAPSITEID": null, "TRACK_ID": null, "KAURIDIEBACK_TRACK": null, "KAURIDIEBACK_MITIGATED": null, "SegmentID": null, "GlobalID": "00d4e5ae-930a-48be-b04e-2a4a066a7ee0", "Shape__Length": 587.6288415329832}}]}