{"type": "FeatureCollection", "features": [{"type": "Feature", "id": 11989, "geometry": {"type": "MultiLineString", "coordinates": [[[175.027446601628, -36.78176898784], [175.027421857764, -36.7817203502484], [175.027421597956, -36.7817198030734], [175.027414811799, -36.7817023539499], [175.027414530673, -36.7816926209352], [175.02741807817, -36.781687687941], [175.027425643559, -36.78168215106], [175.027433275171, -36.7816775540224], [175.027447619819, -36.781674704642], [175.027449882225, -36.781671689925], [175.027454682663, -36.781663363747], [175.027468579215, -36.7816559261988], [175.027483123893, -36.7816582866099], [175.027497995009, -36.7816624044255], [175.027504578745, -36.7816622218652], [175.027512966815, -36.7816569918196], [175.027508884729, -36.7816435516113], [175.027508072067, -36.781627084922], [175.027512539755, -36.7816122974799], [175.027521632235, -36.7815965505959], [175.02754405103, -36.7815577236403], [175.027564860701, -36.7815457238201], [175.027579405956, -36.7815373495475], [175.027583619028, -36.7815318644105], [175.027592094144, -36.7815230501478], [175.027603585146, -36.7815193192508], [175.027607478068, -36.7815194160082], [175.027631276577, -36.7815248669477], [175.027649317449, -36.7815247711255], [175.027656919408, -36.781517009161], [175.027671122621, -36.7814930632819], [175.027671396867, -36.7814926701386], [175.027691733949, -36.7814726034738], [175.027692730465, -36.781472023159], [175.027722153254, -36.7814628679023], [175.027722502879, -36.7814626564404], [175.027727424006, -36.7814574656713], [175.027727601983, -36.7814570336104], [175.027728107487, -36.7814492592598], [175.027728050249, -36.7814490006571], [175.027713514296, -36.7814218855089], [175.027694411159, -36.7814151764997], [175.027690095869, -36.7814122757457], [175.027656525894, -36.7813799249498], [175.02765374738, -36.7813762805425], [175.027646653299, -36.7813620715022], [175.027636313401, -36.7813401340517], [175.027634912294, -36.7813369267286], [175.027639275905, -36.7813204024195], [175.02764528759, -36.7813051469999], [175.027650718376, -36.7812921268324], [175.027650945, -36.7812915848829], [175.027653471545, -36.7812855408445], [175.027654099672, -36.781284034852], [175.027654182066, -36.781283887434], [175.027654260179, -36.7812828973593], [175.027646953902, -36.7812542159156], [175.027645565645, -36.7812401439214], [175.02764855066, -36.7812000502958], [175.027673925137, -36.7811499984112], [175.027726926738, -36.7810963433414], [175.027726960746, -36.781096315722], [175.027787114759, -36.7810575554695], [175.027821041428, -36.7810407775752], [175.027892447213, -36.7810504351141], [175.027914958282, -36.7810535104566], [175.027915033464, -36.7810535145824], [175.028023793015, -36.7810522428833], [175.028023904013, -36.7810522454968], [175.02809479933, -36.7810558836246], [175.028095357828, -36.7810558173162], [175.02811897865, -36.7810486230365], [175.028119448182, -36.7810484122323], [175.028141241556, -36.7810347172869], [175.028141358897, -36.7810346630093], [175.028165864236, -36.7810269335752], [175.028188408165, -36.7810239442579], [175.028190081264, -36.7810236119776], [175.028193043769, -36.781022844001], [175.028298206625, -36.7809955223023], [175.028298858195, -36.7809952462016], [175.0283654117, -36.7809539213199], [175.028414358082, -36.7809159666298], [175.028470283343, -36.7809116921815], [175.028524823092, -36.780928390607], [175.028589026211, -36.7809336234653], [175.02863006788, -36.7808990437675], [175.028676774892, -36.7808530820376], [175.028705273437, -36.7808132642516], [175.028727493531, -36.7807621726712], [175.028785655838, -36.7807228663562], [175.028804399562, -36.7806977180369], [175.028819239212, -36.780657176069], [175.028847388041, -36.7805922454694], [175.028833892078, -36.7805409664853], [175.028826489633, -36.7804928012279], [175.028838998481, -36.7804410352908], [175.028870727523, -36.7803615432442], [175.028891503398, -36.7803386784209], [175.028891482272, -36.780337664802], [175.028834378638, -36.7802796831868], [175.028833324868, -36.7802781337791], [175.028829453297, -36.7802689433294], [175.028827423809, -36.7802584785371], [175.028827651899, -36.7802498337383], [175.028827744875, -36.780249322909], [175.028834319704, -36.780230407497], [175.028834439037, -36.7802301738231], [175.028839532114, -36.7802219913146], [175.028839862694, -36.7802217378127], [175.028846012816, -36.7802193083891], [175.028991340613, -36.780204283339], [175.028992045397, -36.7802044533788], [175.029041274867, -36.7802388728064], [175.029048391443, -36.7802464513066]], [[175.02904851482, -36.7802465834973], [175.029211487797, -36.7801738144813], [175.029223090148, -36.7801577893968], [175.029223118935, -36.7801577762872], [175.029268389733, -36.7801568874632], [175.029270485449, -36.7801564785546], [175.029341995776, -36.7801280240487], [175.02934249515, -36.7801275855991], [175.029381960203, -36.7800499109425], [175.029381977339, -36.7800498809066], [175.029418712619, -36.7799919096033], [175.029485115305, -36.7799384225352], [175.029650462362, -36.779452084591]]]}, "properties": {"OBJECTID": 11989, "TRACKNAME": "Sandy Bay  To Hekerua Track", "CONDITIONSOFUSE": "Te Aroha Reserve Accessway", "STATUS": "Open", "WEBLINK": null, "VALIDATIONSTATE": 3, "created_user": "AC_owner", "last_edited_user": "AC_owner", "last_edited_date": 1789875254325, "created_date": 1789875254325, "PARK_SAPSITEID": null, "TRACK_ID": null, "KAURIDIEBACK_TRACK": null, "KAURIDIEBACK_MITIGATED": null, "SegmentID": null, "GlobalID": "ce89cc5d-54dd-4ebf-a959-6f830f502015", "Shape__Length": 404.5735113829262}}]}