{"type": "FeatureCollection", "features": [{"type": "Feature", "id": 6246, "geometry": {"type": "LineString", "coordinates": [[175.071938131908, -36.7885132170169], [175.071934912113, -36.7885081293658], [175.071927212524, -36.7885072973373], [175.071924308263, -36.7885089730032], [175.071912048711, -36.7885180735233], [175.071924417853, -36.7885324690687], [175.071924430368, -36.7885324760611], [175.071935284435, -36.7885345564098], [175.071935286675, -36.7885345563708], [175.071946592576, -36.7885322773346], [175.071946597032, -36.7885322763557], [175.071958434089, -36.788528624385], [175.071967026328, -36.7885213687503], [175.071967029615, -36.7885213659891], [175.071971073724, -36.7885142067358], [175.07197107689, -36.7885141994701], [175.07197364876, -36.7885050099911], [175.07197364971, -36.7885050036654], [175.071973100222, -36.7884958784944], [175.071967473277, -36.7884882072846], [175.07196746982, -36.7884882037396], [175.071959866258, -36.7884810356541], [175.071959858296, -36.7884810312863], [175.07195215336, -36.7884795846611], [175.071952139895, -36.7884795839944], [175.071835761704, -36.7884852325074], [175.07182453242, -36.788490023042], [175.071824523581, -36.7884900277025], [175.071817300905, -36.7884954189934], [175.071817298738, -36.7884954217351], [175.071810989582, -36.7885033180634], [175.071810986343, -36.7885033226264], [175.071794772806, -36.7885317493585], [175.071794769567, -36.7885317539215], [175.071773531211, -36.7885536463045], [175.07176259703, -36.7885586597219], [175.07175112063, -36.7885650516716], [175.071743114559, -36.7885729775641], [175.071743056187, -36.7885730569949], [175.071738059472, -36.788582709631], [175.071738066112, -36.7885851196104], [175.071735596641, -36.7885936187018], [175.071735555313, -36.7885939565108], [175.07173496669, -36.7885958171505], [175.071734827499, -36.7885972229108], [175.071734862933, -36.7885974151731], [175.071734927934, -36.7885975402235], [175.071735065559, -36.7885980317418], [175.071735605189, -36.7885990534343], [175.071735658104, -36.7885992706286], [175.071735624884, -36.7885998678727]]}, "properties": {"OBJECTID": 6246, "TRACKNAME": "Seaview Res Path", "CONDITIONSOFUSE": "Sea View Road Reserve", "STATUS": "Open", "WEBLINK": "https://www.aucklandcouncil.govt.nz/en/parks-recreation/find-park-beach/park-detail/1011.html", "VALIDATIONSTATE": 3, "created_user": "AC_owner", "last_edited_user": "AC_owner", "last_edited_date": 1789875254325, "created_date": 1789875254325, "PARK_SAPSITEID": null, "TRACK_ID": null, "KAURIDIEBACK_TRACK": null, "KAURIDIEBACK_MITIGATED": null, "SegmentID": null, "GlobalID": "ed607379-6901-4ce3-b363-2721a4aed5ba", "Shape__Length": 41.67638783013059}}]}