{"type": "FeatureCollection", "features": [{"type": "Feature", "id": 3240, "geometry": {"type": "LineString", "coordinates": [[174.474403838385, -36.9546401817532], [174.474404809019, -36.9546165448866], [174.474401223265, -36.9545820220155], [174.474393852708, -36.9545405154875], [174.474383630495, -36.9545025597005], [174.474371656877, -36.9544652205635], [174.474354120828, -36.9544154936158], [174.474335231084, -36.9543619616814], [174.474290100641, -36.9542330408091], [174.474232335302, -36.954076740058], [174.474190890751, -36.9539717947883], [174.474160522378, -36.9539112394817], [174.474134917059, -36.9538705452277], [174.474097723043, -36.9538194578767], [174.474080294364, -36.9538015027176], [174.474031390398, -36.9537640271471], [174.473962152313, -36.9537320769933], [174.473905637822, -36.9537163737174], [174.473848506394, -36.9537065369555], [174.473779057858, -36.9537015401667], [174.47367612658, -36.9537016460445], [174.473455004903, -36.953705562235], [174.473330223277, -36.9537082825356], [174.473197368161, -36.9537087593297], [174.473083365003, -36.9537025573037], [174.472963238866, -36.9536904190157], [174.47281758365, -36.9536619129997], [174.47263822846, -36.9536231436108], [174.472573843889, -36.9536099079077], [174.472347963152, -36.953557383391], [174.472056648319, -36.9534779166654], [174.471826011277, -36.9534145616067], [174.471545449481, -36.9533446319787], [174.471290545141, -36.9532755555115], [174.471046334526, -36.9532123851549], [174.470832607199, -36.9531639075172], [174.470717620028, -36.953147367705], [174.470628158894, -36.9531348021122], [174.470592043606, -36.9531297420964], [174.470495364537, -36.9531226199258], [174.470397320534, -36.9531227795987], [174.470300919669, -36.9531289580017], [174.470216635724, -36.9531374019466], [174.470084313293, -36.9531561934422], [174.469944399067, -36.9531726721331], [174.469765369455, -36.9531945383219], [174.469610283071, -36.9532069860408], [174.469446054277, -36.9532153283111], [174.469299820719, -36.9532185712626], [174.469156225972, -36.9532048356783], [174.469119589197, -36.9531959535603]]}, "properties": {"OBJECTID": 3240, "TRACKNAME": "Seaview Road", "CONDITIONSOFUSE": null, "STATUS": "Open", "WEBLINK": null, "VALIDATIONSTATE": 3, "created_user": "AC_owner", "last_edited_user": "AC_owner", "last_edited_date": 1789875254325, "created_date": 1789875254325, "PARK_SAPSITEID": null, "TRACK_ID": null, "KAURIDIEBACK_TRACK": null, "KAURIDIEBACK_MITIGATED": null, "SegmentID": null, "GlobalID": "74d94d6b-f4ce-4195-a80f-9190ac00e153", "Shape__Length": 553.2444150321332}}]}