{"type": "FeatureCollection", "features": [{"type": "Feature", "id": 48, "geometry": {"type": "LineString", "coordinates": [[174.652793550707, -37.0948128909169], [174.653496500849, -37.0943051157006], [174.653705383846, -37.0941615450038], [174.653737771323, -37.0940711085164]]}, "properties": {"OBJECTID": 48, "TRACKNAME": "Settlers Valley Walk", "CONDITIONSOFUSE": "Awhitu Regional Park", "STATUS": "Open", "WEBLINK": "https://www.aucklandcouncil.govt.nz/en/parks-recreation/find-park-beach/park-detail/207.html", "VALIDATIONSTATE": 3, "created_user": "AC_owner", "last_edited_user": "AC_owner", "last_edited_date": 1789875254325, "created_date": 1789875254325, "PARK_SAPSITEID": null, "TRACK_ID": null, "KAURIDIEBACK_TRACK": null, "KAURIDIEBACK_MITIGATED": null, "SegmentID": null, "GlobalID": "40ca7eeb-89f3-482b-8fd1-0cb7eebdfa62", "Shape__Length": 119.04299118405567}}, {"type": "Feature", "id": 380, "geometry": {"type": "LineString", "coordinates": [[174.653737771323, -37.0940711085164], [174.653749228121, -37.0940438487493], [174.653762268913, -37.094017049608], [174.65378022165, -37.0940039137256], [174.65379973075, -37.0939922888815], [174.653820598865, -37.0939822926685], [174.6538426149, -37.0939740262049], [174.653870302094, -37.0939785521932], [174.653974303255, -37.0939631668342], [174.654105091715, -37.0939000520157], [174.654242710212, -37.0938312715631], [174.654297313795, -37.0937831450095], [174.654397354364, -37.0937455247713], [174.654400222906, -37.09374498], [174.654403376468, -37.0937554724868]]}, "properties": {"OBJECTID": 380, "TRACKNAME": "Settlers Valley Walk", "CONDITIONSOFUSE": "Awhitu Regional Park", "STATUS": "Open", "WEBLINK": "https://www.aucklandcouncil.govt.nz/en/parks-recreation/find-park-beach/park-detail/207.html", "VALIDATIONSTATE": 3, "created_user": "AC_owner", "last_edited_user": "AC_owner", "last_edited_date": 1789875254325, "created_date": 1789875254325, "PARK_SAPSITEID": null, "TRACK_ID": null, "KAURIDIEBACK_TRACK": null, "KAURIDIEBACK_MITIGATED": null, "SegmentID": null, "GlobalID": "4edca0d0-77fd-4687-8ba9-652f51e260bb", "Shape__Length": 73.43649858948444}}, {"type": "Feature", "id": 677, "geometry": {"type": "LineString", "coordinates": [[174.65371427312, -37.09413196119], [174.653737260491, -37.0939861152504], [174.653599901818, -37.093728384562], [174.65341850426, -37.0935740748653], [174.652894598888, -37.093509760868], [174.651859527227, -37.0933142773363], [174.65035889994, -37.0930285810621], [174.650182048919, -37.0929849489402], [174.649823697266, -37.0928145111407], [174.649533390787, -37.0925743182885], [174.649470090575, -37.0925033173253], [174.649433041325, -37.0924617597731], [174.649174819209, -37.0920478757156], [174.64911736815, -37.0919164502959], [174.649108102892, -37.0918367757452], [174.649151109764, -37.0917201948652], [174.649233709647, -37.0916399544971], [174.649572338856, -37.091281941603], [174.649810590362, -37.090871362186], [174.649932839696, -37.090430102152], [174.650094970301, -37.0900852444122]]}, "properties": {"OBJECTID": 677, "TRACKNAME": "Settlers Valley Walk", "CONDITIONSOFUSE": "Awhitu Regional Park", "STATUS": "Open", "WEBLINK": "https://www.aucklandcouncil.govt.nz/en/parks-recreation/find-park-beach/park-detail/207.html", "VALIDATIONSTATE": 3, "created_user": "AC_owner", "last_edited_user": "AC_owner", "last_edited_date": 1789875254325, "created_date": 1789875254325, "PARK_SAPSITEID": null, "TRACK_ID": null, "KAURIDIEBACK_TRACK": null, "KAURIDIEBACK_MITIGATED": null, "SegmentID": null, "GlobalID": "df4baf65-4a5c-4dfd-b3c9-e9e27c8baf15", "Shape__Length": 747.4584991677052}}, {"type": "Feature", "id": 1404, "geometry": {"type": "LineString", "coordinates": [[174.657814285172, -37.0982271862874], [174.657355078953, -37.0976908951611], [174.657103758089, -37.0973605424489], [174.656918902881, -37.0970745698298], [174.656788917239, -37.09684745002], [174.656595603835, -37.0965830582958], [174.65628284601, -37.0961653251878], [174.656276218571, -37.0961344167123], [174.65622121233, -37.0959324799315], [174.656161724961, -37.0956614488627], [174.656023958032, -37.0954869011353], [174.655890309673, -37.0953647600327], [174.655734740242, -37.0951928455058], [174.655604951172, -37.0951111908639], [174.655484297672, -37.0950389481327], [174.655400551976, -37.0950210400684], [174.655139451441, -37.0949245258112], [174.654968879297, -37.094883980521], [174.654540090507, -37.0943319315399], [174.654492339034, -37.0941895125543], [174.654469276944, -37.0940872897135], [174.654461665374, -37.0940110834254]]}, "properties": {"OBJECTID": 1404, "TRACKNAME": "Settlers Valley Walk", "CONDITIONSOFUSE": "Awhitu Regional Park", "STATUS": "Open", "WEBLINK": "https://www.aucklandcouncil.govt.nz/en/parks-recreation/find-park-beach/park-detail/207.html", "VALIDATIONSTATE": 3, "created_user": "AC_owner", "last_edited_user": "AC_owner", "last_edited_date": 1789875254325, "created_date": 1789875254325, "PARK_SAPSITEID": null, "TRACK_ID": null, "KAURIDIEBACK_TRACK": null, "KAURIDIEBACK_MITIGATED": null, "SegmentID": null, "GlobalID": "84c5bd61-e7a1-4669-b047-7385b6843163", "Shape__Length": 573.7116638337733}}, {"type": "Feature", "id": 1499, "geometry": {"type": "LineString", "coordinates": [[174.656715371872, -37.0988098472986], [174.656685568968, -37.0988459012459], [174.656658352784, -37.0988730103485], [174.656576558589, -37.0989476554334], [174.656521495648, -37.0989729264484], [174.656436048813, -37.099007530668], [174.656330707212, -37.0990223664334], [174.656108806281, -37.0990477400476], [174.655847987427, -37.0990736568382], [174.655702013022, -37.099076217506], [174.655665621304, -37.0990800651623], [174.655449910157, -37.0990855471988], [174.655261886123, -37.0990881726353], [174.655073539726, -37.0990759835978], [174.654885300806, -37.0990687320183], [174.65456403743, -37.0990411101211], [174.654332431961, -37.0990245834847], [174.654119319759, -37.0990077992632], [174.654008140407, -37.0989994719623], [174.653950142186, -37.0989939628486], [174.653900189156, -37.0989770073103], [174.65382578835, -37.0989758388099], [174.653767908775, -37.0989744397947], [174.653701769148, -37.0989731559736], [174.653633114455, -37.0989829403133], [174.653583784888, -37.0989946606032], [174.653523104747, -37.0989910940887], [174.653426623912, -37.098988026861], [174.653393913687, -37.0990039281668], [174.653334336323, -37.0990510970674], [174.653299734219, -37.0991067425077], [174.653216330858, -37.099198374285], [174.653153951538, -37.0992433748259], [174.653043988196, -37.0992537339569], [174.652988911206, -37.0992545019274], [174.652871358811, -37.0992958587199], [174.652795161445, -37.0993388452867], [174.6527404199, -37.0993550544681], [174.652647075752, -37.0993695944251], [174.652511993013, -37.0993648581369], [174.65236864906, -37.0993602368407], [174.652222214842, -37.099340212436], [174.651970751906, -37.0993039989989], [174.651829346331, -37.0992618386984], [174.651757513397, -37.0992303215656]]}, "properties": {"OBJECTID": 1499, "TRACKNAME": "Settlers Valley Walk", "CONDITIONSOFUSE": "Āwhitu Regional Park", "STATUS": "Open", "WEBLINK": "https://www.aucklandcouncil.govt.nz/en/parks-recreation/find-park-beach/park-detail/207.html", "VALIDATIONSTATE": 3, "created_user": "AC_owner", "last_edited_user": "AC_owner", "last_edited_date": 1789875254325, "created_date": 1789875254325, "PARK_SAPSITEID": null, "TRACK_ID": null, "KAURIDIEBACK_TRACK": null, "KAURIDIEBACK_MITIGATED": null, "SegmentID": null, "GlobalID": "fadeee0a-ddc8-4afa-aa39-f18494cde0fa", "Shape__Length": 470.3054930682949}}, {"type": "Feature", "id": 1702, "geometry": {"type": "LineString", "coordinates": [[174.656884217326, -37.0985833624945], [174.656855168579, -37.0985896135685], [174.656824881947, -37.0986034007835], [174.656786546427, -37.0986306644132], [174.656770110307, -37.0986420308758], [174.656756890252, -37.0986733987466], [174.656746740756, -37.098718087641], [174.656739128346, -37.0987516043152], [174.656729935646, -37.0987854612406], [174.656715371872, -37.0988098472986]]}, "properties": {"OBJECTID": 1702, "TRACKNAME": "Settlers Valley Walk", "CONDITIONSOFUSE": "Awhitu Regional Park", "STATUS": "Open", "WEBLINK": "https://www.aucklandcouncil.govt.nz/en/parks-recreation/find-park-beach/park-detail/207.html", "VALIDATIONSTATE": 3, "created_user": "AC_owner", "last_edited_user": "AC_owner", "last_edited_date": 1789875254325, "created_date": 1789875254325, "PARK_SAPSITEID": null, "TRACK_ID": null, "KAURIDIEBACK_TRACK": null, "KAURIDIEBACK_MITIGATED": null, "SegmentID": null, "GlobalID": "110b3b07-2e05-446a-a344-aa95ed5cd606", "Shape__Length": 31.595289600169995}}, {"type": "Feature", "id": 2402, "geometry": {"type": "LineString", "coordinates": [[174.651807409217, -37.0962099979678], [174.651821073444, -37.0960956817712], [174.65184141849, -37.0960686055038], [174.651879642541, -37.0960139537348], [174.651999826632, -37.0959035215637], [174.652069101021, -37.095856484992], [174.652169428307, -37.0957680621132], [174.652403885972, -37.0955610688282], [174.652709893249, -37.0951660607768], [174.652754821911, -37.0950402313379], [174.652765476467, -37.0949050191973], [174.652778743277, -37.094840692326], [174.652801691793, -37.0948178338564]]}, "properties": {"OBJECTID": 2402, "TRACKNAME": "Settlers Valley Walk", "CONDITIONSOFUSE": "Awhitu Regional Park", "STATUS": "Open", "WEBLINK": "https://www.aucklandcouncil.govt.nz/en/parks-recreation/find-park-beach/park-detail/207.html", "VALIDATIONSTATE": 3, "created_user": "AC_owner", "last_edited_user": "AC_owner", "last_edited_date": 1789875254325, "created_date": 1789875254325, "PARK_SAPSITEID": null, "TRACK_ID": null, "KAURIDIEBACK_TRACK": null, "KAURIDIEBACK_MITIGATED": null, "SegmentID": null, "GlobalID": "5760fe05-b9b8-46a4-8373-65f08fc22a31", "Shape__Length": 183.43527674557356}}]}