{"type": "FeatureCollection", "features": [{"type": "Feature", "id": 12773, "geometry": {"type": "LineString", "coordinates": [[175.147080988225, -37.058826665262], [175.145029390322, -37.0583911959804], [175.143484012398, -37.0580450000308], [175.143016587039, -37.0580239117353], [175.142308016763, -37.0581647107639], [175.141841422094, -37.0581731398281], [175.141429580133, -37.0579442786242], [175.139918410061, -37.0570657418171], [175.13905282417, -37.0568647505761], [175.138743648164, -37.0567915609044]]}, "properties": {"OBJECTID": 12773, "TRACKNAME": "Sharp Road", "CONDITIONSOFUSE": "Hunua Ranges Regional Park", "STATUS": "Permanent", "WEBLINK": "https://www.aucklandcouncil.govt.nz/en/parks-recreation/find-park-beach/park-detail/213.html", "VALIDATIONSTATE": 3, "created_user": "AC_owner", "last_edited_user": "AC_owner", "last_edited_date": 1789875254325, "created_date": 1789875254325, "PARK_SAPSITEID": null, "TRACK_ID": null, "KAURIDIEBACK_TRACK": null, "KAURIDIEBACK_MITIGATED": null, "SegmentID": null, "GlobalID": "2c8c90cc-40f1-40d8-ab01-36e1eac8905b", "Shape__Length": 799.061897615851}}]}