{"type": "FeatureCollection", "features": [{"type": "Feature", "id": 1063, "geometry": {"type": "LineString", "coordinates": [[174.570936324152, -36.9046567314999], [174.570937443341, -36.9046593126211], [174.570938504579, -36.9046618043725], [174.570939519086, -36.9046642066058], [174.570940475827, -36.9046665284804], [174.5709413748, -36.9046687699964], [174.570942215822, -36.9046709221426], [174.570943010298, -36.9046729937818], [174.570943746823, -36.9046749760513], [174.570944425396, -36.9046768689509], [174.570945046202, -36.904678681492], [174.570945620462, -36.904680413526], [174.570946125549, -36.9046820563387], [174.570946595312, -36.9046836184959], [174.570946995902, -36.9046850914318], [174.570947349945, -36.9046864838607], [174.570947634817, -36.9046877870682], [174.570947872958, -36.9046890007576], [174.570948064737, -36.9046901429511], [174.57094819838, -36.9046911867636], [174.570948263035, -36.904692150366], [174.570948259073, -36.9046930517805], [174.57094796374, -36.9046939750758], [174.570947354965, -36.904694938571], [174.570946421897, -36.9046959604368], [174.570945175388, -36.9046970225025], [174.5709436044, -36.9046981339277], [174.570941720155, -36.9046992945639], [174.570939522653, -36.9047005044111], [174.570937000488, -36.9047017546066], [174.570934153846, -36.9047030541615], [174.570930993945, -36.9047044029273], [174.570927509383, -36.9047057920413], [174.570923711747, -36.9047072393774], [174.570919600669, -36.9047087269132], [174.570915164929, -36.9047102547971], [174.570910404895, -36.9047118410514], [174.570905331419, -36.9047134675052], [174.570899944685, -36.9047151431699], [174.570894233473, -36.9047168681936], [174.570888208819, -36.9047186334168], [174.570881859871, -36.9047204570101], [174.570875431269, -36.9047222275749], [174.57086921235, -36.9047238241074], [174.570863214705, -36.9047252644818], [174.570857426928, -36.9047265398353], [174.57085186024, -36.9047276500195], [174.570846503421, -36.9047285951827], [174.570841356469, -36.9047293753252], [174.570836430792, -36.9047299993096], [174.570831726018, -36.9047304491137], [174.570827219893, -36.9047307340454], [174.570822934857, -36.904730853808], [174.570818871094, -36.9047308174126], [174.570815005795, -36.9047306071337], [174.570811372806, -36.9047302315374], [174.570807938649, -36.90472970008], [174.570804725397, -36.9047289944424], [174.570801733419, -36.9047281326469], [174.570798939904, -36.9047270969681], [174.570796378884, -36.9047259049831], [174.570794016511, -36.9047245481258], [174.570791852787, -36.9047230263964], [174.570789721247, -36.9047214321324], [174.570787577193, -36.9047197749385], [174.570785420809, -36.9047180638258], [174.570783251727, -36.9047162807721], [174.570781081536, -36.9047144436513], [174.57077888761, -36.9047125437489], [174.570776692392, -36.9047105807682], [174.570774484843, -36.9047085638689], [174.570772275817, -36.90470647488], [174.570770043241, -36.9047043321208], [174.570767798151, -36.9047021264317], [174.570765551768, -36.9046998576643], [174.57076329287, -36.904697525967], [174.570761021644, -36.9046951403509], [174.570758749124, -36.9046926916566], [174.570756452685, -36.9046901711696], [174.570754155322, -36.9046876056266], [174.57075184526, -36.9046849681425], [174.570749522685, -36.9046822677285], [174.57074718778, -36.9046795133957], [174.570744897573, -36.9046767494583], [174.570742720868, -36.9046740471152], [174.570740646813, -36.9046714245372], [174.570738697479, -36.9046688634053], [174.57073685061, -36.9046663730274], [174.570735117612, -36.9046639622662], [174.570733509335, -36.9046616129511], [174.570732003523, -36.9046593343899], [174.570730611397, -36.9046571264344], [174.570729343993, -36.9046549799249], [174.570728179238, -36.9046529131806], [174.570727128169, -36.904650917042], [174.5707261906, -36.9046489824977], [174.570725366903, -36.9046471275703], [174.570724656705, -36.9046453342374], [174.570724048973, -36.9046436116585], [174.570723566332, -36.904641968548], [174.570723197192, -36.9046403870319], [174.570722941737, -36.9046388761215], [174.570722788747, -36.9046374359652], [174.570722749258, -36.9046360574033], [174.570722687697, -36.9046346971605], [174.570722570217, -36.9046333466708], [174.570722396817, -36.9046320059341], [174.570722167315, -36.9046306659393], [174.570721893114, -36.9046293355493], [174.570721562809, -36.9046280059011], [174.570721187806, -36.9046266858576], [174.570720745664, -36.9046253757155], [174.570720258638, -36.904624066167], [174.570719715693, -36.9046227663715], [174.570719116645, -36.9046214673179], [174.570718472899, -36.904620177869], [174.570717773234, -36.9046188981732], [174.570717017465, -36.9046176192192], [174.570716205777, -36.9046163500183], [174.570715349391, -36.9046150904221], [174.570714436901, -36.9046138315678], [174.570713468492, -36.9046125824665], [174.57071244398, -36.9046113341071], [174.570711374769, -36.9046100953524], [174.570710260861, -36.9046088662024], [174.570709113659, -36.9046076555198], [174.570707944386, -36.9046064631563], [174.570706741635, -36.9046052802491], [174.570705505776, -36.9046041248206], [174.570704258882, -36.9046029785516], [174.570702967659, -36.9046018599097], [174.570701654179, -36.9046007505756], [174.570700318627, -36.9045996595607], [174.570698949782, -36.9045985870132], [174.570697558866, -36.9045975327848], [174.570696134657, -36.9045964970239], [174.57069467697, -36.9045954707193], [174.570693197397, -36.9045944717449], [174.570691695566, -36.9045934820784], [174.570690160443, -36.9045925108794], [174.570688592212, -36.9045915671591], [174.570687001725, -36.9045906327466], [174.570685389165, -36.9045897166532], [174.570683743128, -36.9045888100162], [174.570682052762, -36.9045879310061], [174.570680182126, -36.9045870183252], [174.570678063894, -36.9045860728639], [174.570675709104, -36.9045850854625], [174.570673117754, -36.9045840561209], [174.570670290029, -36.9045829938504], [174.570667214525, -36.9045818897882], [174.570663902646, -36.904580752797], [174.570660354208, -36.9045795738656], [174.57065655799, -36.9045783531424], [174.570652536618, -36.9045770993418], [174.570648256246, -36.9045758038977], [174.570643750536, -36.904574466365], [174.57063899723, -36.9045730960515], [174.570634018587, -36.9045716836493], [174.570628781127, -36.9045702386147], [174.570623318145, -36.9045687424801], [174.570617607752, -36.9045672225758], [174.570611660615, -36.9045656517199], [174.570605477105, -36.9045640479347], [174.57059905722, -36.9045624112202], [174.570592570011, -36.9045607753955], [174.570586421456, -36.9045592342424], [174.570580623146, -36.904557805635], [174.570575174712, -36.9045564715511], [174.570570076337, -36.9045552410017], [174.570565328022, -36.9045541139871], [174.570560918361, -36.9045530816443], [174.570556858945, -36.9045521618474], [174.570553149588, -36.9045513455854], [174.570549790107, -36.904550623847], [174.570546780685, -36.9045500056434], [174.570544121323, -36.9045494909747], [174.57054181202, -36.9045490798409], [174.570539841557, -36.9045487723905], [174.570538221153, -36.9045485684749], [174.570536950623, -36.9045484590831], [174.570536030338, -36.9045484622375], [174.570535459928, -36.9045485599157], [174.570535239578, -36.9045487611288], [174.570535369287, -36.904549065877], [174.570535815209, -36.904549465594], [174.57053603376, -36.9045497240993], [174.570535832157, -36.9045497447922], [174.570535199547, -36.9045495458432], [174.570534135561, -36.9045491092301], [174.570532629348, -36.9045484531236], [174.57053070298, -36.9045475592045], [174.570528345421, -36.9045464366323], [174.570525556671, -36.9045450854072], [174.57052233673, -36.9045435055289], [174.570518685599, -36.9045416969975], [174.570514603276, -36.9045396598129], [174.570510089578, -36.904537384964], [174.570505144875, -36.904534890473], [174.570499768796, -36.9045321583174], [174.570493961526, -36.9045291975085], [174.570487723251, -36.9045260170574], [174.570481053601, -36.9045225989415], [174.570473963981, -36.9045189520237], [174.570466431951, -36.9045150766005], [174.570458468546, -36.9045109635125], [174.570450244664, -36.9045067366906], [174.570442192234, -36.9045026608329], [174.570434323031, -36.9044987628247], [174.570426647906, -36.9044950244952], [174.570419167044, -36.9044914548556], [174.570411869408, -36.9044880630656], [174.570404765851, -36.9044848309544], [174.570397845336, -36.9044817676817], [174.570391130303, -36.9044788729508], [174.570384587092, -36.9044761472067], [174.570378238328, -36.9044735991639], [174.570372083642, -36.9044712108002], [174.570366123218, -36.9044689911267], [174.570360345835, -36.9044669402919], [174.570354762715, -36.9044650581473], [174.570349362636, -36.9044633448414], [174.570344157004, -36.9044618092371], [174.570339145449, -36.904460433312], [174.570334316936, -36.9044592262256], [174.570329682684, -36.9044581878296], [174.570325231474, -36.9044573182725], [174.570320882728, -36.9044565194696], [174.570316579973, -36.9044557741402], [174.570312334245, -36.9044550731249], [174.57030814536, -36.9044544074125], [174.570304013502, -36.9044537860141], [174.570299927266, -36.9044532000669], [174.570295898242, -36.9044526674451], [174.570291926061, -36.9044521701261], [174.570288010906, -36.9044517171211], [174.570284141558, -36.9044513085787], [174.570280329053, -36.9044509353391], [174.570276573574, -36.9044506064136], [174.570272863902, -36.9044503219506], [174.570269222478, -36.9044500816534], [174.570265626676, -36.9044498768074], [174.570262087901, -36.9044497162756], [174.570258594932, -36.9044496002062], [174.570255170211, -36.9044495283026], [174.570251791112, -36.9044494918503], [174.57024846904, -36.9044494997121], [174.570245103009, -36.9044495532231], [174.570241411761, -36.9044496200468], [174.57023737341, -36.9044497275134], [174.570232998622, -36.904449848441], [174.570228265325, -36.9044500011486], [174.570223195776, -36.9044501763282], [174.570217778938, -36.9044503831394], [174.570212014628, -36.9044506125709], [174.570205902844, -36.9044508646227], [174.570199443772, -36.9044511483059], [174.570192648448, -36.904451454461], [174.570185505836, -36.9044517922473], [174.570178004529, -36.904452152802], [174.570170166971, -36.9044525358284], [174.570161982124, -36.9044529504859], [174.570153449804, -36.9044533877631], [174.570144581231, -36.9044538475119], [174.57013535415, -36.9044543390398], [174.570125790816, -36.904454853039], [174.570115880193, -36.904455398669], [174.570105621913, -36.9044559579072], [174.570095406853, -36.9044564354506], [174.570085413068, -36.9044567568367], [174.570075663184, -36.9044569307801], [174.570066157016, -36.9044569482696], [174.570056883343, -36.9044568094537], [174.570047842351, -36.9044565233436], [174.570039045075, -36.9044560807798], [174.57003048048, -36.9044554909219], [174.570022148195, -36.9044547357476], [174.570014059997, -36.9044538421421], [174.57000620411, -36.9044527832203], [174.569998580903, -36.9044515770046], [174.569991201597, -36.9044502233466], [174.569984054788, -36.9044487133837], [174.569977140474, -36.9044470471157], [174.569970469878, -36.9044452243946], [174.569964031962, -36.9044432543797], [174.569957837947, -36.9044411369228], [174.569951876244, -36.9044388541499], [174.569946147406, -36.9044364330946], [174.569940584664, -36.9044339016802], [174.569934956444, -36.9044314612673], [174.569929207013, -36.9044291306195], [174.569923358811, -36.9044269094404], [174.569917411655, -36.9044247887187], [174.569911354692, -36.9044227866251], [174.569905187554, -36.9044208851371], [174.569898933051, -36.9044191019807], [174.569892557152, -36.9044174195781], [174.569886082482, -36.9044158466441], [174.569879509042, -36.9044143831786], [174.569872825611, -36.9044130293299], [174.569866043226, -36.9044117759384], [174.569859151033, -36.904410641175], [174.569852159886, -36.9044096068687], [174.569845058932, -36.9044086911904], [174.569837847803, -36.9044078761176], [174.569830549123, -36.9044071703649], [174.569823129232, -36.9044065743771], [174.569815610386, -36.9044060788466], [174.569807992954, -36.9044057017955], [174.569800473369, -36.9044051702192], [174.569793182772, -36.9044043111258], [174.569786132568, -36.9044031333782], [174.569779311536, -36.9044016371246], [174.569772730898, -36.904399822217], [174.569766379248, -36.9043976797924], [174.569760256771, -36.904395218862], [174.569754374503, -36.9043924302665], [174.569748721407, -36.9043893231652], [174.569743308705, -36.90438589741], [174.569738124991, -36.9043821441379], [174.569733170451, -36.9043780723603], [174.569728456304, -36.9043736819287], [174.56972397133, -36.9043689729917], [174.569719715344, -36.9043639365379], [174.569715699568, -36.9043585724191], [174.56971192437, -36.9043528986578], [174.569708366939, -36.9043468975281], [174.569705060939, -36.9043405685852], [174.569701973075, -36.9043339302964], [174.56969909379, -36.9043270639106], [174.569696298589, -36.9043204668222], [174.569693554734, -36.9043141845319], [174.569690862039, -36.9043082080288], [174.569688232096, -36.9043025551868], [174.569685664718, -36.9042972169947], [174.569683159907, -36.9042921934525], [174.569680706626, -36.9042874937198], [174.569678315727, -36.9042830996259], [174.569675987393, -36.904279020182], [174.569673710589, -36.9042752645474], [174.569671496167, -36.9042718145517], [174.569669344495, -36.9042686882172], [174.569667243984, -36.9042658676697], [174.569665206223, -36.9042633707834], [174.569663219807, -36.9042611886954], [174.569661307178, -36.9042593211091], [174.569659445893, -36.904257768321], [174.569657635954, -36.9042565303313], [174.569655888765, -36.9042556160028], [174.569654203957, -36.9042550073131], [174.569652330429, -36.904254500267], [174.569650040073, -36.9042539176066], [174.569647366367, -36.9042532498755], [174.569644275833, -36.90425250653], [174.569640790914, -36.9042516872733], [174.569636911609, -36.9042507921055], [174.569632626512, -36.9042498121636], [174.569627935994, -36.9042487654699], [174.569622850905, -36.9042476338537], [174.56961736021, -36.9042464264745], [174.569611474944, -36.9042451341727], [174.569605184072, -36.9042437661077], [174.569598498814, -36.9042423221312], [174.56959140795, -36.9042408023914], [174.569583911479, -36.9042392068882], [174.569576020439, -36.9042375264621], [174.569567735012, -36.9042357701242], [174.569559032759, -36.9042339381709], [174.569549947342, -36.9042320301573], [174.569540444912, -36.9042300375171], [174.569530649823, -36.904228003675], [174.569521036849, -36.9042260936164], [174.569511696126, -36.9042243241777], [174.569502627655, -36.9042226953589], [174.569493831803, -36.9042212251825], [174.569485296796, -36.9042198867632], [174.56947703441, -36.9042187069864], [174.569469044274, -36.9042176678297], [174.569461326573, -36.9042167783045], [174.569453869902, -36.9042160295478], [174.569446685666, -36.9042154304226], [174.569439773865, -36.904214980929], [174.569433123093, -36.904214672204], [174.569426755977, -36.9042145129625], [174.569420649891, -36.9042144944897], [174.569414805019, -36.9042146257969], [174.569409243802, -36.9042149065877], [174.569403943615, -36.9042153281473], [174.569398915863, -36.9042158993389], [174.569394160545, -36.9042166201623], [174.569389666257, -36.9042174817547], [174.56938537468, -36.9042183767231], [174.569381215904, -36.9042191798006], [174.569377190116, -36.9042198999982], [174.56937329713, -36.9042205283049], [174.569369536946, -36.9042210647206], [174.569365898712, -36.904221527416], [174.569362404317, -36.9042218890611], [174.569359031873, -36.9042221769858], [174.569355792047, -36.9042223640084], [174.569352685392, -36.9042224771624], [174.569349711355, -36.9042224894144], [174.569346870489, -36.9042224277979], [174.569344151021, -36.9042222654275], [174.569341575944, -36.9042220290405], [174.569339122265, -36.9042216918996], [174.569336801757, -36.9042212808902], [174.569334614052, -36.90422077799], [174.569332559149, -36.9042201831989], [174.569330637233, -36.9042195055282], [174.56932884812, -36.9042187359667], [174.569327147479, -36.9042179021409], [174.569325335925, -36.9042171328758], [174.569323368941, -36.9042164467868], [174.569321235494, -36.9042158530333], [174.569318957839, -36.9042153423075], [174.569316513719, -36.9042149239172], [174.56931390295, -36.9042145888512], [174.569311148159, -36.9042143458242], [174.569308226718, -36.9042141861214], [174.569305150034, -36.9042141186058], [174.569301917921, -36.9042141342662], [174.569298530564, -36.9042142421137], [174.569294976559, -36.9042144332854], [174.569291267309, -36.9042147166443], [174.569287402631, -36.9042150831791], [174.56928338271, -36.9042155419009], [174.569279196139, -36.904216083947], [174.569274854324, -36.9042167181801], [174.569270357081, -36.904217435589], [174.569265704594, -36.904218245185], [174.569260885458, -36.9042191381051], [174.569255955222, -36.9042200865744], [174.569250980657, -36.9042210626701], [174.569245950358, -36.9042220575291], [174.569240864509, -36.9042230801627], [174.569235734146, -36.9042241214113], [174.569230536828, -36.9042251815715], [174.569225295181, -36.904226269358], [174.569220009019, -36.9042273757596], [174.569214656088, -36.9042285100839], [174.569209258643, -36.9042296630233], [174.569203805463, -36.9042308347259], [174.569198296548, -36.9042320251919], [174.569192732084, -36.9042332434323], [174.569187123291, -36.904234489299], [174.569181458763, -36.9042357539289], [174.5691757385, -36.9042370373221], [174.569169973724, -36.9042383393303], [174.569164142177, -36.9042396692612], [174.569158266116, -36.904241017807], [174.569152345726, -36.9042423939791], [174.569146369786, -36.9042437979255], [174.56914040765, -36.9042453278801], [174.569134482314, -36.9042470105798], [174.569128582557, -36.9042488461729], [174.569122708194, -36.9042508256483], [174.56911687063, -36.9042529578689], [174.569111058645, -36.9042552429829], [174.569105272055, -36.9042576719791], [174.569099522263, -36.9042602537206], [174.569093809087, -36.9042629791961], [174.569088110268, -36.9042658577133], [174.569082448249, -36.9042688889757], [174.569076822844, -36.9042720639721], [174.569071211798, -36.9042753920102], [174.569065648586, -36.9042788636342], [174.569060099732, -36.9042824882999], [174.569054587678, -36.9042862657108], [174.569049101017, -36.904290187004], [174.569043651155, -36.9042942610425], [174.569038226872, -36.9042984879745], [174.569032827983, -36.9043028587888], [174.569027464047, -36.9043072922365], [174.569022143701, -36.9043116620128], [174.569016855909, -36.9043159772771], [174.569011611523, -36.9043202198588], [174.569006399507, -36.9043243989173], [174.569001220045, -36.9043285234639], [174.568996083989, -36.9043325753279], [174.568990980303, -36.9043365636688], [174.568985920207, -36.9043404883383], [174.56898089248, -36.9043443494846], [174.568975897124, -36.9043481471078], [174.568970956578, -36.9043518809115], [174.568966037367, -36.9043555603514], [174.568961161561, -36.9043591671087], [174.568956318125, -36.9043627103429], [174.568951518095, -36.9043661808947], [174.56894675062, -36.9043695969345], [174.568942026735, -36.9043729493029], [174.56893733522, -36.9043762381483], [174.568932687295, -36.9043794633223], [174.56892806052, -36.9043826251214], [174.568923421417, -36.9043857330015], [174.568918747543, -36.9043887872589], [174.568914039085, -36.9043917969048], [174.568909296041, -36.9043947619392], [174.568904529448, -36.9043976732027], [174.568899716864, -36.9044005309917], [174.568894880916, -36.904403344021], [174.568889998978, -36.9044061035758], [174.568885093675, -36.9044088183709], [174.568880153602, -36.9044114795433], [174.568875167723, -36.9044140962524], [174.568870158295, -36.9044166591906], [174.568865114097, -36.904419168506], [174.568860046535, -36.9044216330617], [174.568854933167, -36.9044240531541], [174.568849784845, -36.9044264106126], [174.568844613343, -36.9044287323224], [174.56883939585, -36.9044310005578], [174.568834154809, -36.9044332150222], [174.568828878997, -36.9044353758638], [174.568823624889, -36.9044375003641], [174.568818504137, -36.9044395600075], [174.568813516927, -36.9044415638052], [174.568808663442, -36.9044435207683], [174.568803943499, -36.9044454218858], [174.568799368317, -36.9044472670095], [174.568794926677, -36.9044490562875], [174.568790607542, -36.9044507988792], [174.568786433169, -36.9044524854772], [174.568782392153, -36.9044541072183], [174.568778485048, -36.9044556911363], [174.568774711299, -36.9044572101975], [174.568771071092, -36.9044586734132], [174.568767564611, -36.9044600897944], [174.568764202891, -36.904461450182], [174.568760963493, -36.9044627548722], [174.568757869041, -36.9044640125799], [174.568754896726, -36.9044652055791], [174.568752069357, -36.9044663515958], [174.56874937553, -36.9044674417671], [174.568746804208, -36.9044684852522], [174.568744199778, -36.9044695562154], [174.568741506873, -36.9044706914424], [174.568738725494, -36.9044718909331], [174.568735855457, -36.9044731456765], [174.56873289676, -36.9044744556724], [174.56872986081, -36.9044758297838], [174.56872672498, -36.9044772592961], [174.568723511897, -36.9044787529239], [174.568720199119, -36.9044803109636], [174.568716808902, -36.9044819241076], [174.568713330027, -36.9044835925042], [174.568709762677, -36.9044853251645], [174.568706106853, -36.9044871220885], [174.56870236237, -36.904488974265], [174.568698540449, -36.9044908815459], [174.568694618833, -36.9044928532386], [174.568690619779, -36.9044948800356], [174.568686521029, -36.9044969712444], [174.568682345025, -36.9044991265688], [174.568678080363, -36.9045013371455], [174.568673726672, -36.9045035849524], [174.568669293883, -36.9045058067628], [174.568664782179, -36.904508011588], [174.568660191561, -36.9045101994279], [174.568655521843, -36.9045123612714], [174.568650761991, -36.9045145062778], [174.568645934444, -36.9045166341507], [174.568641016578, -36.9045187361753], [174.568636019798, -36.9045208212145], [174.568630944103, -36.9045228892685], [174.568625789308, -36.904524931326], [174.5686205556, -36.9045269563981], [174.568615242792, -36.9045289554737], [174.56860985107, -36.9045309375639], [174.568604369213, -36.9045329028169], [174.568598819478, -36.9045348419252], [174.568593179607, -36.9045367641963], [174.568587460821, -36.904538669482], [174.568581662937, -36.904540548771], [174.568575786138, -36.9045424110746], [174.56856983024, -36.9045442473817], [174.568563874342, -36.9045460836884], [174.568557940885, -36.9045479196985], [174.56855204109, -36.9045497552638], [174.568546163736, -36.9045515905324], [174.568540308824, -36.9045534255044], [174.568534487389, -36.9045552510204], [174.568528688579, -36.904557085251], [174.568522923432, -36.9045589190369], [174.568517180725, -36.904560752526], [174.56851146046, -36.9045625857186], [174.568505773857, -36.9045644184664], [174.568500109695, -36.9045662509176], [174.568494467975, -36.9045680830722], [174.568488859731, -36.9045699057709], [174.568483274114, -36.9045717371842], [174.568477722158, -36.9045735681526], [174.568472181423, -36.9045753989727], [174.568466685571, -36.9045772291999], [174.568461200939, -36.9045790592786], [174.568455749969, -36.9045808889126], [174.568450366508, -36.9045827266686], [174.568445130392, -36.9045846345878], [174.568440063879, -36.9045866033625], [174.568435155747, -36.9045886331412], [174.568430405997, -36.9045907239236], [174.56842582585, -36.9045928755618], [174.568421392863, -36.9045950883521], [174.568417129663, -36.9045973710092], [174.568413024661, -36.9045997056592], [174.568409089445, -36.9046021101761], [174.568405301391, -36.9046045758451], [174.568401682939, -36.9046071023699], [174.568398222868, -36.9046096898988], [174.56839492118, -36.9046123384316], [174.568391789094, -36.9046150478203], [174.568388815389, -36.9046178182131], [174.568386000251, -36.904620658621], [174.568383343311, -36.9046235510219], [174.568380856157, -36.9046265132898], [174.568378516164, -36.9046295367099], [174.568376345774, -36.904632620986], [174.568374322545, -36.9046357664144], [174.568372424035, -36.9046389732912], [174.568370661651, -36.9046422504798], [174.568369046242, -36.9046455798093], [174.568367555738, -36.9046489795987], [174.56836620099, -36.9046524316773], [174.568364971146, -36.9046559542157], [174.568363888464, -36.9046595379064], [174.568362930501, -36.9046631830456], [174.568362119699, -36.9046668893372], [174.568361433616, -36.9046706570773], [174.568360883659, -36.9046744951291], [174.568360469458, -36.9046783854702], [174.568360191382, -36.9046823461229], [174.568360049246, -36.9046863680761], [174.56836003183, -36.9046904514778], [174.568360161576, -36.9046945960319], [174.568360416041, -36.9046988020346], [174.568360806447, -36.9047030693377], [174.568361332794, -36.9047073979413], [174.568361938424, -36.9047117615525], [174.568362407191, -36.9047160188073], [174.568362750316, -36.9047201695576], [174.568362956578, -36.9047242139514], [174.568363026161, -36.9047281610001], [174.568362958697, -36.9047319926812], [174.568362754554, -36.9047357270171], [174.568362424769, -36.9047393548484], [174.56836195812, -36.9047428763233], [174.568361343388, -36.90474629159], [174.568360603198, -36.9047496093634], [174.56835972596, -36.9047528117691], [174.568358712044, -36.9047559168296], [174.568357572485, -36.9047589153856], [174.568356284658, -36.9047617987221], [174.568354860152, -36.9047645847134], [174.568353310003, -36.9047672642002], [174.568351623176, -36.9047698463417], [174.568349799301, -36.9047723131156], [174.568347838747, -36.9047746825442], [174.56834574133, -36.9047769456164], [174.568343231143, -36.9047793313157], [174.568340164528, -36.9047819497024], [174.568336553076, -36.9047848186506], [174.568332385381, -36.9047879292972], [174.568327661627, -36.9047912906534], [174.568322381447, -36.9047948846968], [174.568316545023, -36.9047987204384], [174.568310163761, -36.9048028067412], [174.568303215034, -36.9048071348903], [174.568295721101, -36.904811695578], [174.568287671108, -36.9048165069748], [174.568279064872, -36.9048215600694], [174.568269902391, -36.9048268548617], [174.568260194886, -36.9048323912033], [174.568249920101, -36.9048381784018], [174.568239100107, -36.9048441981381], [174.568227723869, -36.9048504595716], [174.568215791569, -36.9048569717132], [174.568203303024, -36.9048637255517], [174.568190258233, -36.9048707210867], [174.568176868362, -36.9048778563806], [174.568163878564, -36.904884797105], [174.568151366461, -36.9048914971673], [174.568139321018, -36.904897965727], [174.568127742235, -36.9049042027841], [174.568116641149, -36.9049101991794], [174.568106006723, -36.9049159640725], [174.568095838774, -36.9049214884522], [174.568086148706, -36.9049267811818], [174.568076925299, -36.9049318424094], [174.56806817959, -36.9049366629759], [174.568059900542, -36.9049412520406], [174.568052099193, -36.9049456004444], [174.568044764504, -36.9049497173467], [174.568037896478, -36.9049536027475], [174.56803150615, -36.9049572474876], [174.5680255823, -36.9049606517153], [174.568020125297, -36.9049638334529], [174.568015145992, -36.9049667745299], [174.568010644386, -36.9049694749466], [174.568006598406, -36.9049719530215], [174.568002741704, -36.9049743564887], [174.567998863852, -36.9049768233304], [174.56799496448, -36.904979335524], [174.567991043772, -36.904981902081], [174.567987101545, -36.90498451399], [174.567983149204, -36.9049871801142], [174.567979175527, -36.9049899006016], [174.56797518033, -36.904992666441], [174.567971175204, -36.9049954955069], [174.567967148558, -36.9049983699247], [174.567963100392, -36.9050012896946], [174.56795903089, -36.9050042638278], [174.567954940054, -36.9050072923242], [174.567950839103, -36.9050103750356], [174.567946716816, -36.9050135121104], [174.567942584231, -36.9050166943891], [174.567938419089, -36.9050199311791], [174.567934243648, -36.9050232131731], [174.567930046873, -36.9050265495302], [174.567925828761, -36.9050299402506], [174.567921611203, -36.9050333580045], [174.567917425462, -36.9050366852019], [174.567913293796, -36.9050399125356], [174.567909216206, -36.9050430400054], [174.567905170248, -36.9050460679077], [174.567901189402, -36.905048986787], [174.56789724019, -36.9050518060986], [174.567893345237, -36.9050545345577], [174.567889504174, -36.9050571541418], [174.567885705782, -36.905059664999], [174.567881950428, -36.9050620851518], [174.567878249149, -36.9050644054408], [174.567874590541, -36.905066617003], [174.567870986007, -36.9050687287015], [174.567867424328, -36.9050707406843], [174.567863905503, -36.9050726529515], [174.567860440754, -36.9050744653549], [174.56785703008, -36.9050761778946], [174.567853662075, -36.9050777817075], [174.567850336926, -36.9050792858048], [174.567847066036, -36.9050806990495], [174.567843525846, -36.9050821158488], [174.567839494337, -36.9050836563102], [174.567834959919, -36.9050853025593], [174.567829911741, -36.9050870727666], [174.567824360654, -36.9050889487616], [174.567818318063, -36.9050909394073], [174.567811761527, -36.9050930449997], [174.567804702267, -36.9050952653908], [174.567797140097, -36.9050975915693], [174.567789075387, -36.9051000415573], [174.567780507768, -36.9051025973325], [174.567771437424, -36.905105267906], [174.567761853318, -36.9051080624368], [174.567751777524, -36.9051109626064], [174.567741187599, -36.9051139687108], [174.567730095133, -36.9051170986241], [174.567718511163, -36.9051203431868], [174.567706413061, -36.905123693684], [174.567693812235, -36.9051271589784], [174.567680708866, -36.9051307480812], [174.567667225648, -36.9051344233184], [174.567654068201, -36.9051381122818], [174.567641337145, -36.9051417956165], [174.567629032295, -36.9051454643112], [174.56761715402, -36.9051491363887], [174.567605702136, -36.9051528028377], [174.567594676642, -36.9051564636584], [174.567584077355, -36.9051601098397], [174.567573904643, -36.9051637594042], [174.567564158321, -36.9051674033407], [174.56755482717, -36.9051710417974], [174.567545933447, -36.9051746654671], [174.567537466299, -36.9051782925204], [174.567529425542, -36.905181913946], [174.567521799771, -36.9051855208811], [174.567514611797, -36.9051891310518], [174.567507850214, -36.9051927355953], [174.567501503802, -36.9051963346595], [174.567495594818, -36.9051999189373], [174.567490101189, -36.9052035067473], [174.567485045172, -36.9052070887821], [174.567480213019, -36.9052106408216], [174.567475402569, -36.90521415652], [174.567470613639, -36.9052176268662], [174.567465857449, -36.9052210517119], [174.567461122778, -36.9052244312054], [174.567456421032, -36.9052277742098], [174.567451740805, -36.9052310718618], [174.567447082098, -36.9052343241616], [174.567442456131, -36.905237530961], [174.567437851867, -36.9052407014194], [174.567433280344, -36.9052438263774], [174.56742871912, -36.9052469061312], [174.567424202041, -36.9052499492478], [174.567419695076, -36.905252938149], [174.567415221036, -36.9052558905611], [174.567410768516, -36.9052587976209], [174.56740634892, -36.9052616681916], [174.56740195066, -36.9052644843989], [174.567397585324, -36.9052672641171], [174.567393241507, -36.9052699984829], [174.567388919395, -36.9052726965078], [174.567384709491, -36.9052753930518], [174.56738060039, -36.9052780792519], [174.567376592276, -36.9052807641193], [174.567372696555, -36.9052834565172], [174.567368912858, -36.905286138423], [174.567365230148, -36.9052888189962], [174.56736164861, -36.9052915072479], [174.567358179097, -36.9052941850077], [174.567354821791, -36.9052968612868], [174.567351565473, -36.9052995362332], [174.567348410327, -36.9053022188581], [174.567345367205, -36.9053048909912], [174.567342436291, -36.9053075616436], [174.567339595329, -36.9053102401226], [174.567336877611, -36.9053129079617], [174.567334260881, -36.9053155744682], [174.567331745323, -36.9053182486533], [174.567329341789, -36.9053209123465], [174.567327039243, -36.9053235747072], [174.567324849089, -36.9053262445984], [174.567322705847, -36.9053290130204], [174.567320544956, -36.9053320160295], [174.567318355196, -36.9053352537738], [174.567316147788, -36.9053387261051], [174.567313922916, -36.9053424420347], [174.56731166899, -36.9053463836882], [174.567309397599, -36.90535056894], [174.56730709734, -36.9053549889269], [174.567304779247, -36.9053596344896], [174.567302443691, -36.9053645236507], [174.567300079265, -36.9053696475468], [174.567297697374, -36.9053750150412], [174.567295297651, -36.9053806081115], [174.567292869058, -36.9053864359169], [174.567290423001, -36.9053925073206], [174.567287959111, -36.9053988043001], [174.567285466535, -36.9054053450259], [174.56728294509, -36.9054121204868], [174.567280417217, -36.9054191303867], [174.567277860474, -36.9054263750218], [174.56727526235, -36.9054337914616], [174.567272500865, -36.9054409035937], [174.567269550997, -36.9054475855573], [174.567266390486, -36.9054538466599], [174.567263052813, -36.9054596774459], [174.567259504314, -36.9054650783596], [174.567255767616, -36.9054700581161], [174.567251842718, -36.9054746167153], [174.567247718215, -36.905478745294], [174.567243394292, -36.9054824528635], [174.567238870765, -36.9054857304125], [174.567234159038, -36.9054885868041], [174.567229258927, -36.9054910130271], [174.567224159396, -36.9054930182408], [174.567218860445, -36.9054946024451], [174.567213361706, -36.9054957476176], [174.567207674951, -36.9054964806437], [174.567201788593, -36.9054967836492], [174.567195713851, -36.905496656486], [174.56718943969, -36.9054961083133], [174.567182966109, -36.9054951391309], [174.567176485707, -36.9054938365341], [174.567170225668, -36.9054923327297], [174.567164197212, -36.9054906275699], [174.567158411929, -36.9054887389289], [174.567152858229, -36.9054866489325], [174.567147547333, -36.9054843574326], [174.56714246839, -36.9054818825997], [174.567137620845, -36.9054791974003], [174.567133016474, -36.9054763287198], [174.567128643686, -36.9054732586841], [174.567124513886, -36.9054699961562], [174.567120604449, -36.9054665324212], [174.567116938001, -36.9054628761941], [174.567113514541, -36.9054590274749], [174.567110322849, -36.9054549864117], [174.56710736274, -36.9054507439934], [174.567104645436, -36.9054463000718], [174.567102159899, -36.9054416638063], [174.567099906131, -36.9054368351969], [174.56709789535, -36.9054318140956], [174.567096105485, -36.9054266188207], [174.567094474741, -36.9054215205965], [174.567092982149, -36.9054165918083], [174.567091627526, -36.9054118234452], [174.567090411241, -36.9054072335295], [174.567089321889, -36.9054028131979], [174.56708838191, -36.9053985621546], [174.567087568863, -36.9053944806955], [174.567086905006, -36.9053905595133], [174.567086357044, -36.9053868170747], [174.567085958457, -36.9053832439242], [174.567085698022, -36.9053798402099], [174.56708557574, -36.9053766059318], [174.567085591427, -36.9053735320788], [174.56708573423, -36.9053706368212], [174.567086015186, -36.9053679109998], [174.56708643411, -36.9053653456035], [174.567087002593, -36.9053629585065], [174.567087686787, -36.9053607411418], [174.56708852017, -36.9053586840541], [174.56708949189, -36.9053568054138], [174.567090488633, -36.9053550526341], [174.567091329758, -36.9053533740164], [174.567092015081, -36.9053517605496], [174.567092544603, -36.9053502122338], [174.567092918322, -36.9053487290688], [174.56709312502, -36.9053473112027], [174.567093175915, -36.9053459584875], [174.567093071193, -36.9053446799344], [174.567092810484, -36.9053434575209], [174.567092382938, -36.9053423094176], [174.567091799589, -36.9053412264651], [174.567091060439, -36.9053402086636], [174.567090165487, -36.9053392560128], [174.567089103513, -36.905338368661], [174.567087896957, -36.9053375463121], [174.567086523379, -36.905336789262], [174.567084982963, -36.905336106522], [174.567083297781, -36.9053354797736], [174.567081445761, -36.9053349273353], [174.56707943794, -36.9053344400478], [174.567077274132, -36.9053340089], [174.567075008784, -36.9053335520509], [174.567072674635, -36.9053330240003], [174.56707024943, -36.9053324340557], [174.567067744388, -36.905331782069], [174.56706515951, -36.90533106804], [174.567062483574, -36.905330292117], [174.567059739023, -36.9053294540037], [174.567056903415, -36.9053285539963], [174.567053999007, -36.9053275827875], [174.567051003726, -36.9053265586957], [174.567047928424, -36.9053254635506], [174.567044773286, -36.9053243063632], [174.567041538312, -36.9053230871336], [174.567038223502, -36.9053218058618], [174.567034817634, -36.9053204626959], [174.567031342967, -36.9053190483284], [174.567027777427, -36.905317581078], [174.567024131866, -36.9053160427741], [174.567020417874, -36.9053144512911], [174.567016612641, -36.9053127889027], [174.567012727756, -36.9053110734833], [174.567008797619, -36.9053093406334], [174.56700481101, -36.9053075905012], [174.567000778964, -36.9053058139273], [174.566996679224, -36.9053040202192], [174.566992534233, -36.9053022090805], [174.566988332584, -36.9053003716483], [174.566984085683, -36.9052985167857], [174.566979770905, -36.9052966357775], [174.566975411059, -36.90529474635], [174.566970994371, -36.9052928216177], [174.566966532617, -36.9052908884662], [174.566962002984, -36.905288929169], [174.566957427915, -36.9052869434302], [174.566952796373, -36.905284940409], [174.566948119579, -36.9052829199573], [174.566943375092, -36.9052808823711], [174.566938585169, -36.9052788183433], [174.566933738588, -36.9052767280218], [174.56692884694, -36.9052746292809], [174.566923898636, -36.9052725042464], [174.566918928811, -36.9052704245637], [174.566913971498, -36.9052684078111], [174.566909004254, -36.9052664542847], [174.566904049521, -36.9052645636884], [174.566899085043, -36.9052627453295], [174.566894132891, -36.9052609808895], [174.566889170994, -36.9052592886868], [174.566884221423, -36.9052576504031], [174.566879273327, -36.9052560842087], [174.566874315301, -36.9052545812405], [174.566869358564, -36.9052531413504], [174.56686441434, -36.9052517643905], [174.566859471405, -36.9052504505087], [174.566854518724, -36.9052492088642], [174.56684957837, -36.9052480211388], [174.56684462827, -36.9052469056506], [174.566839690681, -36.9052458530926], [174.566834743162, -36.9052448637608], [174.566829808153, -36.9052439373591], [174.566824863215, -36.9052430741836], [174.566819986707, -36.9052422641869], [174.56681531328, -36.905241505593], [174.566810853787, -36.9052407802315], [174.566806608412, -36.9052400971136], [174.566802577154, -36.9052394562393], [174.56679875983, -36.9052388485975], [174.566795156624, -36.9052382831994], [174.566791767536, -36.9052377600449], [174.566788592566, -36.9052372791341], [174.566785631529, -36.9052368314559], [174.566782884609, -36.9052364260214], [174.566780351808, -36.9052360628307], [174.566778033124, -36.9052357418838], [174.566775917153, -36.9052354543174], [174.566774026705, -36.905235217858], [174.566772350006, -36.90523500562], [174.566770887609, -36.9052348446371], [174.566769639145, -36.9052347168868], [174.566768604984, -36.9052346403914], [174.56676777335, -36.9052345882656], [174.566767156019, -36.9052345873948], [174.566766359891, -36.9052346249368], [174.566765228244, -36.9052347209862], [174.566763749303, -36.9052348486574], [174.5667619124, -36.905235035132], [174.566759739609, -36.9052352620914], [174.566757219893, -36.905235538695], [174.566754364472, -36.9052358647947], [174.566751150906, -36.9052362406864], [174.566747590231, -36.9052366572111], [174.566743693851, -36.9052371232316], [174.566739450546, -36.9052376388962], [174.566734860316, -36.9052382042047], [174.566729922977, -36.9052388101459], [174.566724638713, -36.905239465731], [174.566719018744, -36.9052401708119], [174.56671304063, -36.9052409256845], [174.566706726626, -36.9052417210416], [174.566700065698, -36.9052425660425], [174.566693057844, -36.9052434606869], [174.566685702881, -36.9052443959636], [174.566678146495, -36.9052453609374], [174.566670824457, -36.9052462597245], [174.566663770429, -36.9052470918808], [174.56665697319, -36.9052478575544], [174.566650443778, -36.9052485475862], [174.566644193782, -36.9052491798506], [174.566638189169, -36.9052497367692], [174.566632463789, -36.9052502269093], [174.566626995382, -36.9052506595781], [174.566621794801, -36.9052510166052], [174.566616862231, -36.9052513070019], [174.566612186266, -36.9052515219051], [174.566607778496, -36.9052516791891], [174.566603638737, -36.9052517698427], [174.566599755583, -36.9052517850029], [174.566596151661, -36.9052517333848], [174.566592804713, -36.9052516242957], [174.566589725591, -36.9052514395651], [174.566586903258, -36.9052511883523], [174.566584359974, -36.9052508613502], [174.566582062442, -36.905250477025], [174.566579865714, -36.9052500823567], [174.566577680575, -36.9052497055628], [174.566575484768, -36.9052493559504], [174.56657328933, -36.9052490243604], [174.56657109426, -36.9052487107927], [174.566568899743, -36.9052484242586], [174.566566705595, -36.9052481557468], [174.566564511815, -36.9052479052573], [174.566562318588, -36.9052476818014], [174.566560125914, -36.9052474853791], [174.566557944645, -36.9052472978199], [174.566555752708, -36.9052471374422], [174.56655356114, -36.905246995087], [174.566551370125, -36.9052468797652], [174.566549179478, -36.9052467824658], [174.566546989384, -36.9052467121999], [174.566544799474, -36.9052466509452], [174.566542621522, -36.9052466255873], [174.566540432533, -36.9052466093885], [174.566538244098, -36.9052466202232], [174.566536011147, -36.9052466496722], [174.566533553779, -36.9052466820809], [174.566530849553, -36.9052467177452], [174.566527909688, -36.9052467565171], [174.566524734186, -36.9052467983966], [174.566521323045, -36.9052468433836], [174.566517665046, -36.9052468916262], [174.566513771408, -36.9052469429763], [174.566509630912, -36.9052469975819], [174.566505254777, -36.905247055295], [174.566500643005, -36.9052471161155], [174.566495784374, -36.9052471801915], [174.566490690105, -36.9052472473748], [174.566485360197, -36.9052473176655], [174.566479783431, -36.9052473912115], [174.566473971027, -36.9052474678649], [174.566467922985, -36.9052475476255], [174.566461628084, -36.9052476306412], [174.566455097545, -36.9052477167642], [174.566448320147, -36.9052478061423], [174.56644130711, -36.9052478986275], [174.566434237417, -36.9052479648186], [174.566427211686, -36.9052479853614], [174.566420241322, -36.9052479691191], [174.566413326141, -36.9052479070806], [174.566406454923, -36.9052477993938], [174.566399650108, -36.9052476457628], [174.566392889439, -36.9052474554947], [174.566386183954, -36.9052472194304], [174.566379522431, -36.9052469377179], [174.566372916275, -36.9052466192203], [174.566366365118, -36.9052462459154], [174.566359869328, -36.9052458358255], [174.566353428721, -36.9052453799394], [174.566347032261, -36.9052448874162], [174.5663406908, -36.9052443400858], [174.566334404706, -36.9052437559704], [174.566328162759, -36.905243135218], [174.56632197581, -36.9052424596582], [174.566315844229, -36.9052417473136], [174.566309767831, -36.9052409891728], [174.566303724359, -36.905240194543], [174.566297635819, -36.9052393914936], [174.566291491359, -36.9052385981948], [174.566285301832, -36.9052377964764], [174.566279045164, -36.9052370046566], [174.566272743428, -36.9052362044172], [174.566266396993, -36.9052354137804], [174.566259983049, -36.9052346150198], [174.566253524406, -36.905233825862], [174.566247009659, -36.9052330374435], [174.566240438624, -36.9052322407533], [174.566233822889, -36.9052314536657], [174.566227139645, -36.9052306584543], [174.566220411702, -36.9052298728456], [174.566213638691, -36.9052290788171], [174.56620679854, -36.9052282946871], [174.566199913506, -36.9052275111485], [174.566192972183, -36.9052267193381], [174.56618597494, -36.9052259372782], [174.566178932629, -36.9052251467985], [174.566171834399, -36.9052243660694], [174.56616485923, -36.90522356569], [174.566158141772, -36.9052227438849], [174.566151693062, -36.9052218914951], [174.566145513468, -36.905221026543], [174.566139602439, -36.9052201219951], [174.566133949304, -36.9052192050329], [174.566128576139, -36.9052182573381], [174.56612344928, -36.9052172793547], [174.566118602758, -36.9052162886613], [174.566114024984, -36.9052152673834], [174.566109704738, -36.9052142156689], [174.566105653423, -36.9052131423813], [174.56610185982, -36.9052120476684], [174.566098346185, -36.9052109222232], [174.566095090262, -36.9052097753529], [174.56609209205, -36.9052086070573], [174.566089373807, -36.9052074080295], [174.566086913276, -36.9052061875766], [174.566084721676, -36.9052049455506], [174.566082798824, -36.9052036729404], [174.566081077579, -36.9052023796448], [174.566079243573, -36.905201060795], [174.566077252107, -36.905199725994], [174.566075103181, -36.9051983752417], [174.56607279661, -36.9051969995269], [174.566070321357, -36.9051956080088], [174.566067688645, -36.9051942005394], [174.566064898288, -36.9051927681075], [174.56606193925, -36.9051913198723], [174.566058833788, -36.9051898465267], [174.566055559645, -36.9051883573776], [174.566052116822, -36.9051868524251], [174.566048527574, -36.9051853223621], [174.566044769646, -36.9051837764957], [174.566040854073, -36.9051822056668], [174.566036781224, -36.9051806278976], [174.566032550547, -36.9051790161546], [174.566028151373, -36.9051773976193], [174.566023594554, -36.9051757541213], [174.566018880276, -36.9051740946719], [174.566014008353, -36.9051724102598], [174.566008990559, -36.9051707277706], [174.566003827447, -36.9051690742379], [174.565998541274, -36.9051674403547], [174.56599312082, -36.9051658262689], [174.565987566269, -36.9051642409916], [174.565981888656, -36.9051626753636], [174.565976065726, -36.9051611386921], [174.565970119735, -36.90515962167], [174.565964028241, -36.905158124593], [174.565957813872, -36.9051566561766], [174.56595146522, -36.9051552075574], [174.565944982287, -36.9051537787353], [174.565938365257, -36.9051523787216], [174.565931625166, -36.9051509983572], [174.565924739757, -36.905149646949], [174.565917731287, -36.90514831519], [174.565910577315, -36.905147003376], [174.565903300466, -36.9051457202224], [174.565895889336, -36.9051444568657], [174.565888343924, -36.9051432133061], [174.565880720519, -36.905141997815], [174.565873356115, -36.9051408239773], [174.565866306632, -36.9051396820421], [174.565859583474, -36.9051385808727], [174.565853175421, -36.9051375206172], [174.565847082288, -36.9051364922644], [174.565841315481, -36.9051355046776], [174.565835875, -36.9051345578569], [174.565830749623, -36.9051336519502], [174.565825950388, -36.9051327777985], [174.565821466441, -36.9051319535721], [174.565817297231, -36.9051311522375], [174.565813454531, -36.9051304006803], [174.565809926935, -36.9051296900374], [174.56580672548, -36.9051290111496], [174.565803850351, -36.9051283730281], [174.565801290143, -36.9051277668098], [174.565799045223, -36.9051272105169], [174.565797126444, -36.9051266859793], [174.56579552277, -36.9051262023561], [174.565794245421, -36.9051257594993], [174.565793068139, -36.9051252702553], [174.565791731371, -36.9051246659364], [174.565790234932, -36.9051239375316], [174.565788567418, -36.9051230761774], [174.565786751455, -36.9051220905894], [174.565784764416, -36.905120972052], [174.56578260667, -36.9051197385877], [174.565780300291, -36.9051183718783], [174.56577782302, -36.9051168812307], [174.565775186079, -36.9051152664971], [174.565772389284, -36.9051135186662], [174.565769433003, -36.9051116557604], [174.565766305647, -36.9051096599052], [174.565763018436, -36.9051075309527], [174.565759571739, -36.9051052869253], [174.565755953968, -36.9051029099484], [174.565752187747, -36.9051004087375], [174.565748250635, -36.9050977835883], [174.565744153853, -36.9050950343529], [174.565739885996, -36.905092152168], [174.565735481648, -36.9050891816459], [174.565731103978, -36.9050864180854], [174.565726777085, -36.9050839422914], [174.565722511822, -36.9050817360938], [174.565718308373, -36.9050798085035], [174.565714166737, -36.9050781595209], [174.565710075511, -36.9050767802823], [174.565706046282, -36.9050756886625], [174.565702078683, -36.905074866639], [174.565698172897, -36.9050743232231], [174.565694317704, -36.9050740585625], [174.565690524325, -36.9050740725095], [174.565686792759, -36.905074365064], [174.565683123006, -36.9050749362261], [174.565679503662, -36.9050757771324], [174.565675946316, -36.9050769056575], [174.565672450599, -36.905078303779], [174.565669016695, -36.905079980508], [174.565665633383, -36.9050819359925], [174.565662311885, -36.9050841700846], [174.565659052016, -36.9050866737731], [174.565655648854, -36.905089305541], [174.565651827758, -36.9050918076131], [174.565647577692, -36.9050941891486], [174.565642898655, -36.9050964501473], [174.565637779427, -36.9050985907571], [174.565632242449, -36.9051006106822], [174.565626276317, -36.9051025010592], [174.565619881213, -36.9051042708993], [174.56561305714, -36.9051059202022], [174.565605803911, -36.9051074399569], [174.565598121712, -36.9051088391744], [174.565590010543, -36.9051101178546], [174.565581470403, -36.9051112759975], [174.565572501292, -36.9051123136029], [174.565563103027, -36.9051132216596], [174.565553275791, -36.9051140091786], [174.565543019585, -36.9051146761598], [174.565532334408, -36.9051152226032], [174.565521220077, -36.9051156394974], [174.565509676776, -36.9051159358535], [174.565497771829, -36.905116110784], [174.565486156046, -36.9051161557115], [174.565475019998, -36.9051160591109], [174.565464363867, -36.9051158299934], [174.565454187655, -36.9051154683592], [174.56544448014, -36.9051149743564], [174.565435252359, -36.9051143388258], [174.565426493276, -36.9051135709268], [174.565418225332, -36.9051126703636], [174.565410426086, -36.9051116374322], [174.565403106574, -36.9051104629735], [174.565396255945, -36.905109165158], [174.565389885049, -36.9051077258153], [174.565383993888, -36.9051061449456], [174.56537858283, -36.9051044405714], [174.565373640285, -36.9051025948182], [174.565369177658, -36.9051006165494], [174.565365194951, -36.905098505765], [174.565361692162, -36.9050962624652], [174.565358657886, -36.9050938777865], [174.565356103529, -36.9050913605923], [174.565353839993, -36.9050887944975], [174.565351533783, -36.9050863371284], [174.565349173495, -36.905083979622], [174.565346759313, -36.9050817309892], [174.565344302641, -36.9050796000934], [174.56534179189, -36.9050775690602], [174.565339227245, -36.9050756469007], [174.565336608705, -36.9050738336149], [174.565333936087, -36.9050721201916], [174.565331220979, -36.9050705245053], [174.565328451793, -36.9050690286816], [174.565325640117, -36.9050676505948], [174.565322763141, -36.9050663725184], [174.565319843492, -36.9050652031679], [174.565316869948, -36.9050641426909], [174.565313842326, -36.9050631820766], [174.565310772214, -36.9050623391991], [174.565307648023, -36.9050615961842], [174.565304470122, -36.9050609710542], [174.565301238142, -36.9050604457866], [174.565297951899, -36.9050600113702], [174.565294550317, -36.9050594252421], [174.565291009299, -36.905058606597], [174.565287340064, -36.9050575552871], [174.565283520171, -36.9050562716081], [174.565279571877, -36.905054746253], [174.56527547311, -36.9050529975401], [174.565271245943, -36.9050510071511], [174.565266879338, -36.905048784245], [174.565262373297, -36.905046328822], [174.565257727819, -36.9050436408819], [174.565252954124, -36.9050407202768], [174.565248029772, -36.9050375673026], [174.565242977205, -36.9050341816633], [174.565237773795, -36.9050305546436], [174.565232442355, -36.9050267039701], [174.565226971293, -36.9050226117683], [174.565221360795, -36.9050182870492], [174.565215622082, -36.9050137296651], [174.565209732895, -36.9050089489228], [174.565203715125, -36.905003917493], [174.565197571902, -36.9049987885661], [174.565191386373, -36.904993786387], [174.565185159276, -36.9049889470007], [174.565178867801, -36.9049842526804], [174.565172534573, -36.9049797121417], [174.565166148187, -36.904975316521], [174.565159708828, -36.9049710748297], [174.565153227532, -36.9049669779087], [174.565146682042, -36.9049630350648], [174.565140094798, -36.9049592460024], [174.565133465618, -36.9049556017103], [174.565126772243, -36.9049521114953], [174.565120037116, -36.9049487750618], [174.56511324883, -36.9049455835463], [174.565106407571, -36.9049425459601], [174.565099524375, -36.9049396531441], [174.565092576984, -36.9049369144052], [174.56508559906, -36.9049343293], [174.565078556758, -36.9049318892606], [174.565071461482, -36.9049296031504], [174.565064335489, -36.9049274616626], [174.565057300368, -36.9049253730587], [174.565050434112, -36.9049233092705], [174.565043725315, -36.9049212614344], [174.565037173979, -36.9049192295505], [174.565030791508, -36.9049172224823], [174.565024566496, -36.9049152313663], [174.565018498945, -36.9049132562026], [174.565012589037, -36.9049113060025], [174.565006836589, -36.9049093717547], [174.565001253007, -36.9049074623227], [174.564995826884, -36.904905568843], [174.56499055822, -36.9049036913158], [174.564985458422, -36.9049018386044], [174.564980504863, -36.9049000019933], [174.564975719984, -36.9048981811868], [174.564971092749, -36.904896385344], [174.564966634195, -36.904894605306], [174.564962322063, -36.9048928503795], [174.564958178613, -36.9048911112577], [174.564954192622, -36.9048893880885], [174.56495027506, -36.9048877180994], [174.564946191028, -36.9048861404396], [174.564941907414, -36.9048846825864], [174.564937457697, -36.9048833350849], [174.56493280803, -36.9048820893675], [174.56492798104, -36.9048809541496], [174.564922976725, -36.9048799294313], [174.564917772645, -36.9048790155081], [174.564912391241, -36.9048782120845], [174.564906832514, -36.9048775191603], [174.564901085241, -36.9048769368834], [174.56489514924, -36.9048764562425], [174.564889035914, -36.904876086101], [174.564882734228, -36.9048758356179], [174.564876243813, -36.9048756867708], [174.564869576074, -36.904875648423], [174.56486271979, -36.9048757207222], [174.564855685998, -36.9048758945096], [174.564848463844, -36.9048761879551], [174.564841052962, -36.9048765830365], [174.564833475976, -36.9048770884691], [174.564825887585, -36.9048775850379], [174.564818376268, -36.9048780084819], [174.564810942391, -36.9048783768234], [174.564803585588, -36.9048786720401], [174.564796317262, -36.9048789029953], [174.564789114973, -36.9048790699848], [174.564782001162, -36.9048791727129], [174.564774964608, -36.9048792113273], [174.564768005311, -36.9048791858283], [174.564761123088, -36.9048790872044], [174.564754318306, -36.9048789334783], [174.564747601817, -36.9048787064796], [174.564740951366, -36.9048784155152], [174.564734389392, -36.9048780602895], [174.564727893455, -36.9048776410982], [174.564721485996, -36.9048771576455], [174.564715155795, -36.9048766100794], [174.564708902667, -36.9048759893887], [174.56470272698, -36.9048753135957], [174.564696639587, -36.9048745645303], [174.564690596158, -36.9048737698173], [174.564684563949, -36.9048729749562], [174.564678531557, -36.9048721710836], [174.564672510569, -36.904871376074], [174.564666478361, -36.904870581212], [174.564660445969, -36.9048697773385], [174.564654413761, -36.9048689824758], [174.564648381369, -36.9048681786017], [174.564642349161, -36.9048673837384], [174.56463631677, -36.9048665798636], [174.564630284562, -36.9048657849997], [174.564624263392, -36.9048649809765], [174.564618231184, -36.904864186112], [174.564612198977, -36.9048633912472], [174.564606166586, -36.9048625873709], [174.564600134379, -36.9048617925054], [174.564594101988, -36.9048609886285], [174.564588069782, -36.9048601937624], [174.564582037391, -36.9048593898849], [174.564576005184, -36.9048585950182], [174.564569972978, -36.9048578001512], [174.564563963582, -36.9048570230107], [174.564557977731, -36.9048562996416], [174.564552026279, -36.9048556118735], [174.564546086968, -36.9048549690134], [174.564540193461, -36.9048543706179], [174.564534311911, -36.9048538081191], [174.564528464943, -36.9048532902326], [174.564522641337, -36.9048528171062], [174.564516852314, -36.9048523885923], [174.564511086469, -36.9048519958272], [174.564505343985, -36.9048516478224], [174.564499636085, -36.9048513444299], [174.564493951546, -36.9048510857976], [174.564488301405, -36.9048508627664], [174.564482674626, -36.9048506844954], [174.564477071209, -36.9048505509847], [174.564471502375, -36.9048504620862], [174.564465956719, -36.9048504089368], [174.564460434424, -36.9048504005476], [174.564454946711, -36.9048504367708], [174.564449493214, -36.904850499584], [174.564444117525, -36.9048505253176], [174.564438819463, -36.9048505049604], [174.564433599026, -36.9048504385125], [174.564428456214, -36.9048503259738], [174.564423391212, -36.9048501763557], [174.564418415056, -36.9048499804989], [174.564413505306, -36.9048497386993], [174.564408684401, -36.9048494506612], [174.564403941306, -36.9048491255435], [174.564399275837, -36.9048487543352], [174.564394687994, -36.9048483370362], [174.564390177776, -36.9048478736466], [174.564385745367, -36.9048473731775], [174.564381401805, -36.9048468264699], [174.564377124648, -36.9048462338195], [174.564372936338, -36.9048455949306], [174.564368825837, -36.9048449189623], [174.564364792962, -36.9048441969035], [174.564360837712, -36.904843428754], [174.564356960272, -36.9048426235251], [174.564353048434, -36.9048417826946], [174.564349035241, -36.9048409251715], [174.564344909287, -36.9048400420924], [174.564340681978, -36.9048391423208], [174.564336342094, -36.9048382260044], [174.56433190067, -36.9048372839842], [174.56432734667, -36.9048363254191], [174.564322691131, -36.9048353411502], [174.564317923015, -36.9048343403365], [174.564313053545, -36.9048333228301], [174.564308071499, -36.9048322887788], [174.564302987913, -36.9048312290237], [174.564297802788, -36.9048301435647], [174.564292493867, -36.9048290417085], [174.564287094811, -36.9048279230118], [174.564281571959, -36.9048267879179], [174.564275958788, -36.9048256269724], [174.564270233041, -36.9048244494818], [174.564264394535, -36.9048232464351], [174.564258454673, -36.9048220266955], [174.564252424493, -36.9048207811042], [174.564246414915, -36.9048194451049], [174.564240426122, -36.904818027709], [174.564234458116, -36.9048165289164], [174.564228521932, -36.9048149395681], [174.564222606534, -36.9048132688231], [174.564216722958, -36.9048115075225], [174.564210860169, -36.9048096648252], [174.564205017981, -36.90480773172], [174.564199207617, -36.9048057080591], [174.564193418222, -36.9048036120128], [174.564187649245, -36.9048014165474], [174.564181912275, -36.9047991395376], [174.564176196091, -36.9047967811311], [174.564170500509, -36.9047943323168], [174.564164836934, -36.904791801958], [174.564159205181, -36.9047891810436], [174.564153582994, -36.9047864788803], [174.56414799263, -36.9047836861614], [174.564142434273, -36.9047808118981], [174.564136885297, -36.9047778473747], [174.564131359499, -36.9047749186004], [174.564125836278, -36.9047721159826], [174.564120315632, -36.9047694395215], [174.564114797747, -36.9047668982282], [174.564109271217, -36.9047644832393], [174.564103758484, -36.9047621942593], [174.564098248327, -36.9047600314359], [174.56409274093, -36.9047580037804], [174.564087235925, -36.9047560932702], [174.56408173368, -36.904754317928], [174.564076222975, -36.9047526779013], [174.564070725882, -36.9047511548722], [174.564065231549, -36.9047497670111], [174.564059739791, -36.9047485053065], [174.56405425061, -36.9047473697586], [174.564048752784, -36.9047463605151], [174.564043268938, -36.9047454862917], [174.564037787668, -36.9047447382249], [174.564032308974, -36.9047441163148], [174.564026833039, -36.9047436295725], [174.564021314245, -36.9047432425443], [174.564015549146, -36.9047428857997], [174.564009492306, -36.9047425328963], [174.564003154946, -36.9047421836862], [174.563996526029, -36.9047418473282], [174.563989616592, -36.9047415146635], [174.563982426636, -36.9047411856919], [174.563974944939, -36.9047408605611], [174.563967182906, -36.9047405481346], [174.563959129132, -36.9047402395488], [174.563950795022, -36.9047399436672], [174.563942180393, -36.9047396514784], [174.563933274022, -36.9047393631302], [174.563924075912, -36.9047390786224], [174.563914608686, -36.9047388066708], [174.563904838498, -36.9047385387073], [174.563894799012, -36.9047382742886], [174.563884467968, -36.9047380227213], [174.563873845184, -36.9047377749941], [174.563862941881, -36.9047375309593], [174.563851758241, -36.9047372996278]]}, "properties": {"OBJECTID": 1063, "TRACKNAME": "Sharp Bush Track", "CONDITIONSOFUSE": "Waitakere North Regional Park", "STATUS": "Temp Closed", "WEBLINK": "https://www.aucklandcouncil.govt.nz/en/parks-recreation/find-park-beach/park-detail/3407.html", "VALIDATIONSTATE": 3, "created_user": "AC_owner", "last_edited_user": "AC_owner", "last_edited_date": 1789875254325, "created_date": 1789875254325, "PARK_SAPSITEID": null, "TRACK_ID": null, "KAURIDIEBACK_TRACK": null, "KAURIDIEBACK_MITIGATED": null, "SegmentID": null, "GlobalID": "6e6810d7-730f-4679-82ab-38a428561db7", "Shape__Length": 752.2291170005855}}]}