{"type": "FeatureCollection", "features": [{"type": "Feature", "id": 12171, "geometry": {"type": "LineString", "coordinates": [[174.511418301023, -37.0416424047946], [174.511411631038, -37.0417148771821], [174.511397130181, -37.0417462666716], [174.511336195469, -37.0417931741212], [174.511220611245, -37.0418489890699], [174.511083764298, -37.0419513140113], [174.511066548714, -37.0419801962363], [174.511048583276, -37.0420869646329], [174.511004456763, -37.0421650067502], [174.510971904708, -37.0421984558621], [174.510842141982, -37.0422798600979], [174.510804165767, -37.0423119541169], [174.51076137255, -37.0423642456271], [174.510714718771, -37.0424611670485], [174.510687427987, -37.0424872030772], [174.510455154699, -37.0426266523245], [174.510367499212, -37.0426694198168], [174.50999967779, -37.0427709345989], [174.509951133095, -37.0427906251037], [174.50983823548, -37.0428692357129], [174.509743883556, -37.0430048278645], [174.509674859611, -37.0430527387753], [174.509602526927, -37.043070415414], [174.509446626967, -37.0430863882825], [174.509381247291, -37.0431247163698], [174.509357174605, -37.0431509004314], [174.509347678465, -37.0431829650997], [174.509352198601, -37.0432176005397], [174.509380980284, -37.0432827173777], [174.509372972832, -37.0433189814218], [174.509329161881, -37.0433738992863], [174.509092830317, -37.0435925991399], [174.509078526217, -37.0436277444747], [174.509097076365, -37.0436639410388]]}, "properties": {"OBJECTID": 12171, "TRACKNAME": "Signal Track", "CONDITIONSOFUSE": "Waitakere South Regional Park", "STATUS": "Open", "WEBLINK": "https://www.aucklandcouncil.govt.nz/en/parks-recreation/find-park-beach/park-detail/212.html", "VALIDATIONSTATE": 3, "created_user": "AC_owner", "last_edited_user": "AC_owner", "last_edited_date": 1789875254325, "created_date": 1789875254325, "PARK_SAPSITEID": null, "TRACK_ID": null, "KAURIDIEBACK_TRACK": null, "KAURIDIEBACK_MITIGATED": null, "SegmentID": null, "GlobalID": "56daa714-b863-4ba0-8308-49269eb7a204", "Shape__Length": 331.06664030689063}}]}