{"type": "FeatureCollection", "features": [{"type": "Feature", "id": 2875, "geometry": {"type": "LineString", "coordinates": [[174.495903243372, -36.9111136849133], [174.495879024073, -36.9107891631829], [174.495845569725, -36.9106090400575], [174.495830126099, -36.9105648691079], [174.495798222366, -36.9105394286005], [174.495641490687, -36.9104871037156], [174.495483669051, -36.9104157373776], [174.495287896279, -36.9102782193047], [174.495213962213, -36.91020938397], [174.495184902949, -36.9101542614162], [174.495119739937, -36.9099786925115], [174.495128446666, -36.9098732758172], [174.495112962665, -36.9097373006992], [174.495044758706, -36.9096388101429], [174.495021878359, -36.9096247753549], [174.494963575428, -36.9096074096576], [174.494947991503, -36.9095916695683], [174.494912030185, -36.9093594424047], [174.494921092932, -36.9093102126676], [174.495026378825, -36.90916870639], [174.495060880272, -36.9090794240425], [174.495048333533, -36.9090496384382], [174.494966949446, -36.9089659339434], [174.494942164923, -36.908927937633], [174.494906718952, -36.9087934125215], [174.494901404196, -36.908712608445], [174.495115602198, -36.9083009155819], [174.495117620471, -36.9082801045718], [174.495084656673, -36.9082727496754], [174.495063220886, -36.9082481686972], [174.495056338072, -36.9082123988068], [174.495061486503, -36.908180010855], [174.495190261269, -36.9078756646097], [174.49521504437, -36.9078330963872], [174.49526752151, -36.907771160618], [174.49533220861, -36.9076061976833], [174.495341425143, -36.9075257695304], [174.495322461577, -36.9073886303561], [174.495309621312, -36.907347247824], [174.495264942933, -36.9072699047891], [174.495259759127, -36.9072395217417], [174.495291995718, -36.9071803195217], [174.495416380046, -36.9070352734465], [174.495476345087, -36.9069412446533], [174.495507995696, -36.9068756139652], [174.495551985981, -36.9067383401898], [174.495600264064, -36.9065297951038], [174.495610076975, -36.9064454384485], [174.495608049168, -36.9063869920574], [174.495566126838, -36.9062334846403], [174.495591853191, -36.9060432238609], [174.495612931836, -36.9060069937622], [174.495733055176, -36.9059048251329], [174.495756979409, -36.9058614293334], [174.495739955986, -36.9055828046151], [174.495625133475, -36.9051763169727], [174.495626748396, -36.905044020448], [174.495554813167, -36.9049439365631], [174.495540593536, -36.9048433783692], [174.495542789737, -36.9047925945156], [174.495579254021, -36.9046654206708], [174.495581954931, -36.9044409903385], [174.495570668158, -36.9044210949667], [174.495435765988, -36.9042927435598], [174.495402201015, -36.9042424279375], [174.495409401296, -36.9042013249057], [174.495502656821, -36.9039797926577], [174.495491206906, -36.903861839161], [174.495497269226, -36.9038343160852], [174.495537195028, -36.9038149116647], [174.495687405136, -36.9037805349786], [174.495908026931, -36.9037452714082], [174.496090931511, -36.9036781322684], [174.496187124724, -36.9036289947886], [174.49640366193, -36.9034719884861], [174.496445431063, -36.9034504423197], [174.496479099322, -36.903456039328], [174.496572967362, -36.9035102550013], [174.496616784807, -36.9035085311601], [174.496885374651, -36.9033583315059], [174.496923016687, -36.9033490237175], [174.496999581963, -36.9033506006983], [174.497053030867, -36.9033317284171], [174.497279308372, -36.9031569579478], [174.497470483222, -36.9030347468496], [174.497761318101, -36.9029484334086], [174.497803958138, -36.9029272633775], [174.497821561798, -36.9028902023743], [174.497853777252, -36.9027359591586], [174.497877551634, -36.9027119893675], [174.497949729596, -36.9026786388541], [174.497973482852, -36.902652442924], [174.498124371559, -36.9022718199692], [174.498160664466, -36.9022285651458], [174.498366192165, -36.9020329802712], [174.498585913647, -36.9017368302823], [174.498899556871, -36.9011810897242], [174.498958253984, -36.9011460338592], [174.499134959163, -36.9010774179587], [174.499528059081, -36.9010109647912], [174.499675533187, -36.9009925719213], [174.499709777716, -36.9009817828358], [174.499737074803, -36.9009491961637], [174.499764301872, -36.9008837914476], [174.499761760167, -36.9007459137581], [174.499790456443, -36.9006902072663], [174.500075273514, -36.9003148764698], [174.500113684278, -36.9002835915615], [174.500250556217, -36.9002058594098], [174.500287242576, -36.9001759302536], [174.500300405641, -36.9001357160871], [174.500314192759, -36.8999846524264], [174.500310499402, -36.8999519342313], [174.500288176142, -36.8999266983521], [174.499814440602, -36.8996810807977]]}, "properties": {"OBJECTID": 2875, "TRACKNAME": "Sisam Track", "CONDITIONSOFUSE": "Waitakere West Regional Park", "STATUS": "Temp Closed", "WEBLINK": "https://www.aucklandcouncil.govt.nz/en/parks-recreation/find-park-beach/park-detail/3451.html", "VALIDATIONSTATE": 3, "created_user": "AC_owner", "last_edited_user": "AC_owner", "last_edited_date": 1789875254325, "created_date": 1789875254325, "PARK_SAPSITEID": null, "TRACK_ID": null, "KAURIDIEBACK_TRACK": null, "KAURIDIEBACK_MITIGATED": null, "SegmentID": null, "GlobalID": "1b431f23-a82e-48fd-b18e-9686bc81f3d1", "Shape__Length": 1611.0097235847227}}]}