{"type": "FeatureCollection", "features": [{"type": "Feature", "id": 752, "geometry": {"type": "LineString", "coordinates": [[174.774343211019, -36.4438566694244], [174.774128148902, -36.4438921458583], [174.774020521863, -36.443933353283], [174.773982719482, -36.443965040529], [174.773944992653, -36.4439995570334], [174.773816031372, -36.444026938447], [174.773704269308, -36.4440399211461], [174.773617074352, -36.4440553600098], [174.773547507105, -36.4440761976277], [174.773509446801, -36.4440965669859], [174.773475017523, -36.4441225521734], [174.773405321354, -36.4441377308385], [174.773324926085, -36.4441445862799], [174.773251352773, -36.444142849121], [174.773212841733, -36.444143421343], [174.773138999664, -36.4441303665341], [174.773103733252, -36.4441195779525], [174.773036830856, -36.4441035895794], [174.772973366312, -36.4440847287144], [174.772913789963, -36.4440827834002], [174.77285459996, -36.4440978146786], [174.772788663247, -36.4441242587105], [174.772726292893, -36.444153480124], [174.772677726266, -36.4441740052844], [174.772591045977, -36.4442120789066], [174.772545852539, -36.4442268931237], [174.772458721692, -36.4442451696007], [174.772370852704, -36.4442545421381], [174.772189669809, -36.4442717994412], [174.77212652693, -36.4442670763039], [174.772077445367, -36.4442649747315], [174.77201443122, -36.4442659104111], [174.771965425171, -36.4442666380653], [174.771902475374, -36.4442704031242], [174.771828955138, -36.4442714946947], [174.771790572711, -36.4442777253368], [174.771731446466, -36.4442955764952], [174.77168988353, -36.4443159972795], [174.771637504106, -36.4443224356677], [174.7715641125, -36.4443291859543], [174.771469719855, -36.4443362479349], [174.771355857158, -36.444346185852]]}, "properties": {"OBJECTID": 752, "TRACKNAME": "Sled Track", "CONDITIONSOFUSE": "Scandrett Regional Park", "STATUS": "Open", "WEBLINK": "https://www.aucklandcouncil.govt.nz/en/parks-recreation/find-park-beach/park-detail/225.html", "VALIDATIONSTATE": 3, "created_user": "AC_owner", "last_edited_user": "AC_owner", "last_edited_date": 1789875254325, "created_date": 1789875254325, "PARK_SAPSITEID": null, "TRACK_ID": null, "KAURIDIEBACK_TRACK": null, "KAURIDIEBACK_MITIGATED": null, "SegmentID": null, "GlobalID": "bb27f62c-13ca-4c18-b024-92c9515642ee", "Shape__Length": 282.15919912669005}}]}