{"type": "FeatureCollection", "features": [{"type": "Feature", "id": 366, "geometry": {"type": "LineString", "coordinates": [[174.606535651194, -36.9467778940328], [174.606531475468, -36.9467763758725], [174.606527391681, -36.9467749042397], [174.606523397551, -36.9467734773625], [174.606519495361, -36.9467720970128], [174.606515683968, -36.9467707623047], [174.606511962252, -36.9467694732534], [174.606508332474, -36.9467682307297], [174.606504793476, -36.9467670329465], [174.606501346418, -36.9467658816908], [174.606497989016, -36.9467647751908], [174.606494722431, -36.9467637152336], [174.606491547766, -36.9467627009029], [174.606488463919, -36.9467617331149], [174.606485469728, -36.9467608100827], [174.606482567477, -36.9467599335781], [174.606479756004, -36.9467591018141], [174.606477035349, -36.9467583165928], [174.606474406614, -36.9467575769981], [174.606471867574, -36.9467568839614], [174.606469420435, -36.9467562356501], [174.606467062971, -36.9467556329957], [174.606464792938, -36.9467550760286], [174.606462550378, -36.9467545439275], [174.606460316132, -36.9467540333464], [174.606458092405, -36.9467535424527], [174.606455878096, -36.9467530721626], [174.606453673222, -36.9467526233772], [174.606451477746, -36.9467521942944], [174.606449290564, -36.9467517858304], [174.606447113921, -36.9467513979549], [174.606444946695, -36.946751030683], [174.606442788886, -36.9467506840147], [174.606440640493, -36.9467503579501], [174.606438501517, -36.9467500524891], [174.606436371939, -36.9467497667307], [174.606434251796, -36.946749502477], [174.60643214107, -36.946749258827], [174.606430039741, -36.9467490348796], [174.606427947849, -36.9467488324368], [174.606425865354, -36.9467486496967], [174.606423792294, -36.9467484884613], [174.606421728633, -36.9467483469284], [174.606419674388, -36.9467482259992], [174.6064176182, -36.9467481195178], [174.60641552369, -36.9467480063441], [174.606413387433, -36.9467478838203], [174.606411208345, -36.9467477537639], [174.606408988632, -36.9467476143421], [174.60640672719, -36.9467474664714], [174.60640442404, -36.9467473110527], [174.606402079142, -36.9467471462841], [174.606399692517, -36.9467469730663], [174.606397264163, -36.9467467913996], [174.606394794081, -36.946746601284], [174.606392282272, -36.9467464027193], [174.606389728715, -36.9467461948045], [174.606387133448, -36.9467459793418], [174.606384496435, -36.9467457545289], [174.606381817713, -36.9467455221682], [174.606379097244, -36.9467452804574], [174.606376336188, -36.9467450311835], [174.606373532262, -36.9467447725746], [174.606370686609, -36.9467445055167], [174.606367800349, -36.9467442299946], [174.60636487124, -36.9467439460386], [174.606361929534, -36.9467436505354], [174.606359001017, -36.9467433413334], [174.606356087934, -36.9467430184023], [174.606353190284, -36.946742681742], [174.606350305803, -36.9467423304819], [174.606347436775, -36.9467419663936], [174.606344582039, -36.9467415876903], [174.606341741595, -36.946741194372], [174.606338916603, -36.9467407882256], [174.606336105904, -36.9467403674642], [174.606333309515, -36.9467399329888], [174.606330527437, -36.9467394847994], [174.606327760793, -36.9467390228809], [174.606325007318, -36.9467385463625], [174.606322269296, -36.946738057016], [174.606319546688, -36.9467375530394], [174.60631683725, -36.9467370344628], [174.606314143264, -36.9467365030583], [174.60631146357, -36.9467359570386], [174.606308798187, -36.946735397305], [174.606306148238, -36.9467348238423], [174.606303509269, -36.9467342385134], [174.606300844763, -36.9467336670502], [174.606298144785, -36.9467331176993], [174.60629540595, -36.9467325896051], [174.606292631643, -36.9467320836232], [174.606289820741, -36.9467315997687], [174.606286972105, -36.9467311371558], [174.606284086893, -36.9467306975714], [174.606281163946, -36.9467302792286], [174.606278205508, -36.9467298820969], [174.606275209373, -36.9467295080089], [174.606272176625, -36.9467291551473], [174.606269107283, -36.9467288244132], [174.606266001327, -36.9467285149053], [174.606262857675, -36.9467282284412], [174.606259678531, -36.9467279631882], [174.606256461653, -36.9467277191768], [174.606253207076, -36.946727498209], [174.606249917009, -36.9467272984524], [174.606246589226, -36.9467271208384], [174.606243224848, -36.9467269653518], [174.606239823858, -36.9467268310915], [174.606236416301, -36.9467267050321], [174.606233102217, -36.9467265380486], [174.606229887142, -36.9467263264607], [174.60622677336, -36.9467260720402], [174.606223759711, -36.9467257730001], [174.606220846212, -36.9467254302415], [174.606218032845, -36.9467250428633], [174.606215320753, -36.9467246117515], [174.606212707689, -36.9467241369364], [174.60621019588, -36.9467236174865], [174.606207784241, -36.9467230552193], [174.606205472734, -36.9467224483326], [174.606203261359, -36.9467217968263], [174.606201151278, -36.9467211024875], [174.606199140205, -36.9467203635443], [174.606197230388, -36.9467195799665], [174.606195420741, -36.9467187535713], [174.606193712349, -36.9467178825414], [174.606192102985, -36.9467169678083], [174.606190593754, -36.9467160084557], [174.606189185796, -36.9467150053694], [174.60618787799, -36.9467139585649], [174.606186638458, -36.9467129009217], [174.606185435326, -36.94671186532], [174.606184269752, -36.9467108535467], [174.606183140558, -36.9467098629136], [174.606182047781, -36.9467088952231], [174.606180992544, -36.9467079504598], [174.606179973707, -36.9467070277379], [174.606178991286, -36.9467061279586], [174.606178045264, -36.9467052502206], [174.606177136783, -36.9467043954099], [174.606176264718, -36.9467035635417], [174.606175429053, -36.9467027537149], [174.606174629786, -36.9467019659295], [174.606173868059, -36.9467012010714], [174.606173142749, -36.9467004591558], [174.606172453839, -36.9466997392816], [174.606171802468, -36.9466990423347], [174.606171187496, -36.9466983674292], [174.606170608941, -36.9466977154662], [174.606170067908, -36.9466970855294], [174.606169562169, -36.9466964785503], [174.606169091687, -36.9466958927267], [174.606168618941, -36.9466953060323], [174.606168134798, -36.94669471138], [174.606167638155, -36.946694109686], [174.60616712901, -36.9466935009502], [174.606166607346, -36.9466928842717], [174.606166073181, -36.9466922605514], [174.606165527619, -36.9466916288732], [174.606164969575, -36.9466909910543], [174.606164398993, -36.9466903443915], [174.606163815929, -36.9466896915881], [174.606163221468, -36.9466890308268], [174.606162614506, -36.9466883630237], [174.606161995024, -36.9466876872778], [174.606161363042, -36.9466870044902], [174.60616071854, -36.9466863137598], [174.606160062679, -36.9466856168735], [174.606159394279, -36.9466849111434], [174.606158713397, -36.9466841992727], [174.606158019996, -36.9466834794591], [174.606157314094, -36.9466827526039], [174.606156596795, -36.9466820177906], [174.606155872609, -36.9466812758597], [174.606155163969, -36.9466805256063], [174.606154470858, -36.9466797661293], [174.606153794436, -36.9466789992157], [174.606153134665, -36.9466782230634], [174.60615249044, -36.9466774385886], [174.606151862886, -36.9466766457761], [174.606151252001, -36.9466758446259], [174.606150656644, -36.9466750342522], [174.606150077976, -36.9466742164419], [174.606149514837, -36.946673389408], [174.606148968386, -36.9466725549375], [174.606148438586, -36.9466717112282], [174.606147925436, -36.9466708582802], [174.606147427853, -36.9466699979108], [174.606146945817, -36.9466691292189], [174.606146481555, -36.946668251273], [174.606146031735, -36.946667365921], [174.60614559969, -36.9466664713149], [174.606145183191, -36.9466655683865], [174.606144783363, -36.9466646571203], [174.606144400185, -36.9466637366153], [174.606144012062, -36.9466627945448], [174.606143599569, -36.9466618149473], [174.606143162742, -36.9466607996247], [174.606142701545, -36.9466597467751], [174.606142215996, -36.9466586572995], [174.606141706076, -36.9466575302968], [174.606141171823, -36.9466563675691], [174.6061406132, -36.9466551673144], [174.606140030224, -36.9466539304336], [174.606139422897, -36.9466526569269], [174.606138791218, -36.9466513467941], [174.606138135187, -36.9466500000353], [174.606137454785, -36.9466486157494], [174.606136748928, -36.9466471957538], [174.606136019823, -36.9466457382159], [174.606135266365, -36.946644244052], [174.606134487415, -36.9466427123761], [174.606133685254, -36.9466411449601], [174.6061328576, -36.9466395400323], [174.606132006735, -36.9466378993643], [174.606131130377, -36.9466362211843], [174.606130230695, -36.9466345018577], [174.60612930979, -36.9466326809655], [174.606128369566, -36.9466307422574], [174.606127408844, -36.9466286830455], [174.606126428785, -36.9466265051167], [174.606125429387, -36.946624208471], [174.60612440953, -36.9466217931236], [174.606123370297, -36.9466192572572], [174.606122311745, -36.946616603575], [174.606121233837, -36.9466138302748], [174.60612013545, -36.9466109373718], [174.606119016602, -36.9466079257671], [174.60611787954, -36.9466047954304], [174.606116721998, -36.9466015454908], [174.606115543978, -36.9465981759485], [174.606114347742, -36.9465946876741], [174.606113131046, -36.946591080698], [174.606111893872, -36.9465873541191], [174.606110638482, -36.9465835088082], [174.606109362613, -36.9465795438944], [174.606108066284, -36.946575460279], [174.606106751722, -36.9465712570303], [174.606105438976, -36.9465669798462], [174.606104204104, -36.9465627746182], [174.606103051843, -36.9465586529998], [174.606101983278, -36.9465546131735], [174.606100997324, -36.9465506569568], [174.606100093981, -36.9465467843497], [174.60609927323, -36.9465429944511], [174.606098536193, -36.9465392872457], [174.606097881767, -36.9465356636499], [174.606097311056, -36.9465321227475], [174.606096822955, -36.9465286654546], [174.606096417447, -36.9465252908702], [174.60609609453, -36.9465219989943], [174.606095855347, -36.9465187907129], [174.606095698755, -36.9465156651399], [174.606095625897, -36.9465126231613], [174.606095634509, -36.9465096639063], [174.606095726834, -36.9465067873448], [174.606095902893, -36.9465039943776], [174.606096161544, -36.9465012841188], [174.606096502805, -36.9464986574697], [174.606096926659, -36.9464961135291], [174.606097385901, -36.9464935970517], [174.606097831104, -36.9464910537236], [174.606098263371, -36.9464884826286], [174.606098681579, -36.9464858837819], [174.606099086871, -36.9464832580693], [174.606099479207, -36.9464806036887], [174.606099857504, -36.9464779224575], [174.606100221761, -36.9464752143756], [174.606100573063, -36.9464724776258], [174.606100911449, -36.94646971401], [174.606101235775, -36.9464669226426], [174.606101546043, -36.9464641035234], [174.606101844517, -36.9464612575232], [174.606102127791, -36.9464583828853], [174.606102398147, -36.9464554813816], [174.606102655587, -36.9464525530121], [174.606102898949, -36.9464495959897], [174.606103129394, -36.9464466121015], [174.606103345781, -36.9464436004616], [174.60610354925, -36.9464405619559], [174.606103738642, -36.9464374947973], [174.60610391525, -36.9464344070805], [174.606104067115, -36.9464313710755], [174.606104192502, -36.9464284111423], [174.606104292516, -36.9464255263645], [174.606104366052, -36.9464227176584], [174.606104411969, -36.9464199841382], [174.606104432513, -36.9464173257733], [174.606104427721, -36.9464147443662], [174.606104395291, -36.9464122372437], [174.606104336384, -36.946409806193], [174.606104252123, -36.9464074511988], [174.606104141365, -36.9464051713752], [174.60610400411, -36.9464029667223], [174.606103840379, -36.9464008381412], [174.606103650151, -36.9463987847306], [174.606103433446, -36.9463968073917], [174.606103191367, -36.9463949052084], [174.606102922811, -36.9463930790967], [174.606102627759, -36.9463913281557], [174.606102306229, -36.9463896532864], [174.606101958203, -36.9463880535877], [174.6061015837, -36.9463865299608], [174.60610119254, -36.9463850687524], [174.606100817513, -36.9463836271556], [174.606100458563, -36.946382202467], [174.606100116794, -36.9463807937703], [174.606099792243, -36.9463794028677], [174.606099484873, -36.9463780279571], [174.606099194702, -36.9463766699395], [174.606098922835, -36.9463753278986], [174.606098667063, -36.9463740036671], [174.606098428472, -36.9463726954274], [174.606098208203, -36.9463714040656], [174.606098004011, -36.946370129612], [174.606097816999, -36.9463688711503], [174.606097648329, -36.9463676304676], [174.606097495716, -36.946366405792], [174.606097360303, -36.9463651980095], [174.606097243194, -36.9463640062036], [174.60609714218, -36.9463628322071], [174.606097059469, -36.9463616741873], [174.606096992835, -36.9463605330757], [174.606096944523, -36.946359408842], [174.60609691227, -36.9463583006154], [174.606096880262, -36.946357204103], [174.606096830386, -36.9463561123391], [174.606096761519, -36.9463550253389], [174.606096675926, -36.946353943973], [174.606096572465, -36.9463528673556], [174.606096450032, -36.9463517964029], [174.606096309731, -36.9463507301987], [174.606096151581, -36.9463496696441], [174.606095975562, -36.9463486138379], [174.606095781676, -36.9463475627802], [174.606095569941, -36.946346517372], [174.606095340356, -36.9463454776135], [174.606095091762, -36.9463444417174], [174.60609482646, -36.9463434123568], [174.606094542149, -36.9463423868588], [174.606094241111, -36.9463413669951], [174.606093921101, -36.9463403527962], [174.606093583223, -36.9463393433458], [174.606093227478, -36.9463383386438], [174.60609285276, -36.9463373396066], [174.606092461297, -36.9463363453026], [174.606092047457, -36.9463353549068], [174.606091561368, -36.9463343465598], [174.606090986078, -36.946333315083], [174.606090321567, -36.9463322595753], [174.606089568959, -36.9463311800213], [174.606088727149, -36.9463300773375], [174.606087797223, -36.9463289497065], [174.606086778095, -36.9463277989456], [174.60608567087, -36.9463266241385], [174.606084475565, -36.9463254261864], [174.606083189899, -36.9463242033173], [174.606081817277, -36.9463229572881], [174.606080354311, -36.946321687243], [174.606078803267, -36.9463203940528], [174.606077164106, -36.9463190759153], [174.606075435744, -36.946317734648], [174.606073619284, -36.9463163693345], [174.606071713623, -36.946314980891], [174.606069719845, -36.9463135675003], [174.606067636865, -36.9463121309796], [174.606065464666, -36.946310670428], [174.606063204368, -36.9463091858301], [174.606060882173, -36.9463076948586], [174.6060585845, -36.946306248623], [174.606056318217, -36.9463048533398], [174.606054084429, -36.9463035080927], [174.60605188089, -36.9463022129122], [174.606049708722, -36.9463009677829], [174.606047569048, -36.9462997726897], [174.606045459642, -36.9462986285642], [174.606043382712, -36.9462975335737], [174.606041336049, -36.9462964895508], [174.606039321862, -36.9462954946629], [174.606037339065, -36.9462945507275], [174.60603538764, -36.9462936568433], [174.606033467586, -36.9462928130105], [174.606031577781, -36.9462920192442], [174.60602972047, -36.9462912755141], [174.60602789455, -36.9462905827364], [174.606026101105, -36.9462899390938], [174.606024337928, -36.9462893464187], [174.606022606103, -36.9462888028939], [174.606020905669, -36.9462883103216], [174.606019237729, -36.9462878677854], [174.606017565481, -36.9462874875007], [174.606015858878, -36.9462871824929], [174.606014114552, -36.9462869528075], [174.60601233473, -36.9462867975132], [174.606010517166, -36.9462867166402], [174.606008665246, -36.946286711044], [174.606006775604, -36.9462867807704], [174.606004849362, -36.9462869258039], [174.606002887623, -36.9462871452285], [174.606000889264, -36.9462874390592], [174.605998854306, -36.9462878081971], [174.605996782747, -36.9462882526423], [174.60599467571, -36.9462887723796], [174.605992530931, -36.9462893665382], [174.605990350656, -36.9462900350877], [174.605988134903, -36.9462907789293], [174.605985881427, -36.9462915980934], [174.605983592454, -36.9462924916484], [174.605981265759, -36.9462934605258], [174.605978903585, -36.9462945046952], [174.605976505915, -36.9462956232557], [174.605974076003, -36.9462968107549], [174.605971694157, -36.946297987689], [174.605969383462, -36.9462991303107], [174.605967143898, -36.9463002377188], [174.605964974343, -36.9463013099286], [174.605962877062, -36.9463023478108], [174.605960849808, -36.9463033513956], [174.605958893667, -36.9463043188659], [174.605957007573, -36.94630525294], [174.605955193734, -36.9463061517854], [174.605953449903, -36.9463070154324], [174.605951778346, -36.9463078447518], [174.605950176797, -36.9463086388729], [174.605948645277, -36.9463093986968], [174.605947186011, -36.9463101232919], [174.605945797876, -36.9463108126736], [174.60594447977, -36.946311467758], [174.605943232814, -36.94631208853], [174.60594205699, -36.9463126740885], [174.605940952297, -36.9463132244335], [174.605939917633, -36.9463137404812], [174.605938955223, -36.9463142213003], [174.60593805186, -36.9463146796883], [174.605937172451, -36.9463151557793], [174.605936315912, -36.9463156513907], [174.605935479998, -36.9463161665529], [174.605934664726, -36.9463167021669], [174.605933872324, -36.9463172573014], [174.605933100565, -36.9463178328878], [174.605932350572, -36.9463184289108], [174.605931622325, -36.9463190444694], [174.605930915826, -36.9463196795637], [174.605927813592, -36.946323023176], [174.605926371282, -36.9463249832952], [174.605924856527, -36.946327450954]]}, "properties": {"OBJECTID": 366, "TRACKNAME": "Slip Track", "CONDITIONSOFUSE": "Waitakere Central Regional Park", "STATUS": "Open", "WEBLINK": "https://www.aucklandcouncil.govt.nz/en/parks-recreation/find-park-beach/park-detail/204.html", "VALIDATIONSTATE": 3, "created_user": "AC_owner", "last_edited_user": "AC_owner", "last_edited_date": 1789875254325, "created_date": 1789875254325, "PARK_SAPSITEID": null, "TRACK_ID": null, "KAURIDIEBACK_TRACK": null, "KAURIDIEBACK_MITIGATED": null, "SegmentID": null, "GlobalID": "586018ae-cb41-41f5-9303-9e68bd37db1d", "Shape__Length": 94.53959608350007}}, {"type": "Feature", "id": 2607, "geometry": {"type": "LineString", "coordinates": [[174.605924856527, -36.946327450954], [174.605922070072, -36.9463451398187], [174.60592342584, -36.9463590086111], [174.605924211943, -36.9463772485534], [174.605932162003, -36.9463950274516], [174.605936521335, -36.9464103734947], [174.605935330635, -36.946418594607], [174.605928344361, -36.9464254861971], [174.605912483881, -36.9464342860986], [174.60590595943, -36.9464414048911], [174.605906687144, -36.9464500173814], [174.605906908384, -36.9464522109838]]}, "properties": {"OBJECTID": 2607, "TRACKNAME": "Slip Track", "CONDITIONSOFUSE": "Waitakere Central Regional Park", "STATUS": "Open", "WEBLINK": "https://www.aucklandcouncil.govt.nz/en/parks-recreation/find-park-beach/park-detail/204.html", "VALIDATIONSTATE": 3, "created_user": "AC_owner", "last_edited_user": "AC_owner", "last_edited_date": 1789875254325, "created_date": 1789875254325, "PARK_SAPSITEID": null, "TRACK_ID": null, "KAURIDIEBACK_TRACK": null, "KAURIDIEBACK_MITIGATED": null, "SegmentID": null, "GlobalID": "88e0cbff-b928-4268-9b8d-46dee5094b46", "Shape__Length": 15.193618580734743}}, {"type": "Feature", "id": 12215, "geometry": {"type": "LineString", "coordinates": [[174.601966897245, -36.9533567291414], [174.601935550594, -36.9533366193201], [174.601914398805, -36.9533230239071], [174.601894097973, -36.9533098406437], [174.601874659703, -36.9532970874008], [174.601856094656, -36.9532847369945], [174.60183839217, -36.9532728166096], [174.601821551866, -36.9532613082245], [174.601805573932, -36.9532502208507], [174.60179045818, -36.9532395454775], [174.601776216024, -36.9532292909648], [174.601762836237, -36.9532194574644], [174.601750318629, -36.9532100359655], [174.601738663389, -36.9532010354795], [174.601727870327, -36.9531924469957], [174.60171795086, -36.9531842793738], [174.601708893759, -36.9531765327655], [174.601700698834, -36.95316919816], [174.601693366275, -36.9531622845685], [174.601686896082, -36.9531557919913], [174.601681219188, -36.9531496402384], [174.60167587837, -36.9531434478973], [174.601670804754, -36.9531371437889], [174.60166598711, -36.9531307280649], [174.601661447894, -36.9531242004223], [174.60165716484, -36.953117570175], [174.601653148798, -36.9531108191497], [174.601649399956, -36.9531039563574], [174.601645918503, -36.9530969908091], [174.601642693022, -36.9530899136452], [174.601639734553, -36.9530827157034], [174.601637054701, -36.9530754148541], [174.601634619593, -36.953068002541], [174.601632462913, -36.9530604783094], [174.601630573433, -36.9530528423109], [174.601628939925, -36.953045094697], [174.601627573805, -36.9530372443273], [174.601626474697, -36.9530292731797], [174.601625642977, -36.9530211992763], [174.601625078268, -36.953013004595], [174.601624769719, -36.9530047073094], [174.601624785829, -36.9529963605764], [174.601625173018, -36.952988035878], [174.601625942137, -36.9529797150407], [174.601627082523, -36.9529714252488], [174.601628604838, -36.9529631393181], [174.601630487005, -36.9529548755734], [174.601632762705, -36.9529466335603], [174.601635398067, -36.9529384047221], [174.601638415547, -36.9529301887559], [174.601641803916, -36.9529219858133], [174.601645563363, -36.952913804905], [174.601649704927, -36.9529056368686], [174.601654217569, -36.9528974908666], [174.601659101099, -36.952889357888], [174.601664366936, -36.9528812467921], [174.60167000366, -36.9528731487194], [174.601676022502, -36.9528650635185], [174.601682401004, -36.9528569914921], [174.601689161811, -36.9528489413484], [174.601696304922, -36.9528409130871], [174.601703707023, -36.9528329173854], [174.601710775502, -36.952825079414], [174.601717432142, -36.9528174182552], [174.601723654489, -36.9528099342119], [174.601729453771, -36.9528026271328], [174.601734830176, -36.9527955060288], [174.601739783328, -36.9527885528782], [174.601744302186, -36.9527817768433], [174.601748409396, -36.9527751866323], [174.601752082126, -36.9527687645262], [174.601755343207, -36.9527625282441], [174.601758169807, -36.952756460067], [174.601760584759, -36.9527505777138], [174.601762565231, -36.9527448634657], [174.601764122827, -36.952739335193], [174.601765257359, -36.952733983885], [174.601765968827, -36.9527288095415], [174.601766257232, -36.9527238121626], [174.601766111156, -36.9527189828888], [174.601765553434, -36.952714339439], [174.60176456142, -36.9527098731053], [174.601763378347, -36.9527054003357], [174.601762180462, -36.9527007565092], [174.601760990218, -36.9526959413228], [174.60175978516, -36.9526909550793], [174.601758576517, -36.9526857976274], [174.601757375515, -36.9526804688156], [174.6017561597, -36.9526749689469], [174.601754951338, -36.9526692887072], [174.601753728351, -36.9526634464216], [174.601752513006, -36.952657432776], [174.601751282658, -36.9526512390625], [174.601750048914, -36.9526448831515], [174.601748822623, -36.9526383468695], [174.601747581707, -36.9526316485416], [174.601746348244, -36.9526247698428], [174.601745100157, -36.952617729098], [174.601743848295, -36.9526105081338], [174.601742604075, -36.9526031158096], [174.601741345041, -36.9525955524284], [174.60174009365, -36.9525878176873], [174.601738828389, -36.9525799569441], [174.601737587659, -36.9525721950186], [174.601736360611, -36.9525645500842], [174.601735147622, -36.9525570401628], [174.601733948691, -36.9525496652545], [174.601732774859, -36.9525424161968], [174.601731614896, -36.9525352931411], [174.601730468804, -36.9525282960876], [174.601729336582, -36.9525214250361], [174.601728229646, -36.9525146888462], [174.601727125542, -36.9525080878208], [174.601726046346, -36.9525016036351], [174.601724981209, -36.9524952544625], [174.60172394117, -36.9524890311404], [174.601722903962, -36.9524829429829], [174.601721891852, -36.952476980676], [174.601720893612, -36.9524711443712], [174.601719920469, -36.952465433917], [174.601718950158, -36.9524598586274], [174.601718004944, -36.9524544091884], [174.6017170736, -36.9524490857514], [174.601716129519, -36.9524436903782], [174.60171515751, -36.9524380339898], [174.601714146344, -36.9524321167376], [174.60171310744, -36.9524259474812], [174.601712029379, -36.952419517361], [174.601710923579, -36.9524128352366], [174.601709789851, -36.952405892097], [174.601708616967, -36.9523986880936], [174.601707404927, -36.9523912232265], [174.601706176376, -36.9523835062036], [174.60170489763, -36.9523755374794], [174.601703590956, -36.95236730774], [174.601702256354, -36.9523588169854], [174.601700893824, -36.9523500652154], [174.601699492328, -36.9523410615928], [174.601698051675, -36.9523317971063], [174.601696583284, -36.9523222806156], [174.601695086964, -36.9523125031096], [174.60169355149, -36.9523024647398], [174.601691977048, -36.9522921745172], [174.601690420344, -36.9522816587174], [174.601689120931, -36.9522710943789], [174.601688090602, -36.9522605083831], [174.601687351624, -36.9522498914162], [174.60168688173, -36.9522392527921], [174.601686703186, -36.9522285831969], [174.601686793726, -36.9522178919444], [174.601687175805, -36.9522071787319], [174.601687838195, -36.9521964437106], [174.60168876948, -36.9521856780212], [174.601689992115, -36.9521748813606], [174.60169149525, -36.9521640719023], [174.601693278506, -36.9521532316244], [174.601695330657, -36.9521423606783], [174.601697674535, -36.9521314767829], [174.601700298534, -36.9521205620679], [174.601703202655, -36.9521096165331], [174.601706387275, -36.9520986582006], [174.601709851827, -36.9520876600373], [174.601713596878, -36.9520766490761], [174.60171762205, -36.9520656072952], [174.601722031977, -36.9520547045397], [174.601726908081, -36.9520440749138], [174.601732250175, -36.9520337094064], [174.601738058446, -36.9520236170285], [174.601744332896, -36.9520137977801], [174.601751073333, -36.95200424265], [174.601758279949, -36.9519949606493], [174.601765952742, -36.9519859517777], [174.601774102939, -36.9519772158838], [174.601782707897, -36.9519687442594], [174.601791778844, -36.9519605367529], [174.601801316156, -36.9519526113862], [174.601811330684, -36.9519449499858], [174.601821800162, -36.9519375618654], [174.601832735628, -36.9519304378626], [174.601844148687, -36.9519235958475], [174.601856016317, -36.9519170090902], [174.601868361541, -36.9519107043205], [174.601881161526, -36.9519046638192], [174.601894438914, -36.9518988962942], [174.601908145966, -36.9518932671867], [174.601922168421, -36.9518871470921], [174.601936493163, -36.951880446052], [174.601951108965, -36.9518731642179], [174.601966027053, -36.9518653014381], [174.601981236389, -36.951856866875], [174.601996748011, -36.9518478513661], [174.60201255069, -36.9518382550627], [174.602028644427, -36.9518280779647], [174.602045040637, -36.9518173289315], [174.60206173913, -36.9518059989519], [174.602078717452, -36.951794088329], [174.602096009284, -36.951781596608], [174.60211359236, -36.9517685331028], [174.602131466491, -36.9517548888024], [174.602149631674, -36.9517406637065], [174.602168110555, -36.951725866523], [174.602186869261, -36.9517104886954], [174.602205930057, -36.9516945209096], [174.60222529351, -36.9516779901982], [174.602244947825, -36.9516608696799], [174.60226435154, -36.9516435812835], [174.602283084241, -36.951626428129], [174.602301146118, -36.9516094192277], [174.6023185484, -36.9515925544284], [174.602335268442, -36.9515758250235], [174.602351317662, -36.9515592398725], [174.602366696059, -36.951542798976], [174.602381403447, -36.951526493323], [174.602395440014, -36.9515103319248], [174.602408805572, -36.9514943057707], [174.60242150031, -36.9514784238718], [174.60243352404, -36.9514626772174], [174.60244487714, -36.9514470838296], [174.602455559044, -36.9514316166758], [174.60246557032, -36.9514163027888], [174.602474899361, -36.9514011242986], [174.602483568813, -36.9513860899132], [174.602491567259, -36.9513711907733], [174.60249889489, -36.9513564358899], [174.602505540289, -36.9513418164038], [174.602511616485, -36.9513273668435], [174.60251749644, -36.9513131993507], [174.602523258744, -36.9512993128647], [174.602528881321, -36.9512857257104], [174.602534386436, -36.9512724285739], [174.602539751636, -36.9512594217583], [174.602544988148, -36.9512467051119], [174.602550095972, -36.9512342786349], [174.60255506388, -36.9512221424788], [174.602559914516, -36.9512103053515], [174.602564625048, -36.9511987495341], [174.602569207081, -36.9511874928971], [174.602573660427, -36.9511765264296], [174.602577985085, -36.9511658501314], [174.602582181056, -36.9511554640027], [174.602586237112, -36.951145368195], [174.602590175708, -36.9511355624051], [174.602593974579, -36.9511260559473], [174.602597644573, -36.951116830648], [174.60260118607, -36.9511079045292], [174.602604598879, -36.9510992685799], [174.602607934985, -36.951090723801], [174.602611269956, -36.9510821249562], [174.602614570112, -36.9510734725002], [174.602617869135, -36.9510647659783], [174.602621144568, -36.9510560056936], [174.602624396414, -36.9510471916461], [174.602627635709, -36.9510383146733], [174.602630851605, -36.9510293929487], [174.60263405514, -36.9510204173098], [174.602637246314, -36.9510113877565], [174.602640413899, -36.9510023044404], [174.602643557707, -36.9509931583506], [174.602646689342, -36.9509839673574], [174.602649808617, -36.9509747224499], [174.602652904114, -36.9509654147686], [174.60265598744, -36.950956062184], [174.602659046987, -36.9509466468256], [174.602662094363, -36.9509371865639], [174.602665117961, -36.9509276635284], [174.60266811816, -36.9509180957412], [174.602671117225, -36.950908473888], [174.602674150349, -36.950898869602], [174.602677217154, -36.9508892648613], [174.602680329435, -36.9508796865472], [174.602683464169, -36.9508701079299], [174.60268664419, -36.9508605467282], [174.602689846854, -36.9508509942343], [174.602693094804, -36.950841459156], [174.602696387851, -36.9508319324824], [174.602699703541, -36.9508224145165], [174.602703064518, -36.9508129139662], [174.602706459364, -36.9508034219722], [174.60270988808, -36.9507939385343], [174.602713350856, -36.9507844726635], [174.602716847501, -36.950775015349], [174.602720389244, -36.9507655664391], [174.602723965045, -36.9507561350964], [174.602727574906, -36.9507467213208], [174.602731218447, -36.9507373070904], [174.602734907275, -36.9507279102756], [174.602738618934, -36.9507185311795], [174.602742432394, -36.9507091867631], [174.602746370863, -36.9506999127671], [174.602750445571, -36.95069070904], [174.6027546451, -36.9506815667223], [174.602758980867, -36.9506724946735], [174.602763441644, -36.950663493045], [174.60276803847, -36.9506545526745], [174.602772760306, -36.9506456827242], [174.602777606963, -36.9506368741833], [174.602782601274, -36.9506281447706], [174.602787709178, -36.9506194769188], [174.602792953132, -36.9506108703248], [174.602798333322, -36.9506023339995], [174.602803838523, -36.9505938680944], [174.602809479961, -36.9505854724581], [174.60281524622, -36.9505771382309], [174.602821137489, -36.950568874424], [174.602827176033, -36.9505606717232], [174.60283332836, -36.9505525395941], [174.602839616924, -36.9505444777337], [174.602846029554, -36.9505364412385], [174.602852529357, -36.9505282773769], [174.602859093123, -36.950519950408], [174.602865743684, -36.9505114780508], [174.602872458586, -36.9505028606082], [174.602879260094, -36.9504940887662], [174.602886136981, -36.9504851626764], [174.602893100474, -36.9504760821871], [174.602900128308, -36.9504668566125], [174.60290723152, -36.95045747679], [174.602914421527, -36.950447951579], [174.602921686913, -36.9504382721201], [174.602929027677, -36.9504284384133], [174.60293644382, -36.9504184504585], [174.602943935529, -36.9504083172667], [174.602951502618, -36.9503980298269], [174.6029591565, -36.9503875969986], [174.602966874345, -36.9503770010628], [174.602974679172, -36.9503662687494], [174.602982559189, -36.950355373177], [174.602990514773, -36.9503443323676], [174.602998500636, -36.9503331289054], [174.60300648272, -36.9503217452234], [174.603014461402, -36.9503101993435], [174.603022436303, -36.9502984732438], [174.603030407803, -36.9502865849461], [174.603038375523, -36.9502745164285], [174.603046339841, -36.9502622857131], [174.603054300378, -36.9502498747777], [174.603062257514, -36.9502373016445], [174.603070210869, -36.9502245482914], [174.603078149406, -36.950211623881], [174.603086095578, -36.9501985281102], [174.60309403816, -36.9501852611305], [174.603101977338, -36.9501718319528], [174.603109912737, -36.9501582225554], [174.603117844544, -36.950144441949], [174.603125772759, -36.9501304901338], [174.603133697194, -36.9501163580987], [174.603141618226, -36.9501020638657], [174.603149535666, -36.9500875984238], [174.603157361964, -36.9500730711175], [174.603164747102, -36.9500589283354], [174.603171669761, -36.9500452244465], [174.603178118714, -36.9500319596026], [174.603184093772, -36.9500191247928], [174.603189595124, -36.950006729028], [174.603194622771, -36.9499947723084], [174.603199187751, -36.9499832454714], [174.603203267611, -36.9499721488203], [174.603206885182, -36.9499615000739], [174.603210028859, -36.9499512813618], [174.603212698644, -36.9499414926842], [174.603214894725, -36.9499321430519], [174.603216617103, -36.9499232324651], [174.603217877004, -36.9499147607721], [174.603218651786, -36.9499067192652], [174.603218963904, -36.9498991076412], [174.603218802507, -36.9498919440736], [174.603218167218, -36.9498852105405], [174.603217058038, -36.9498789070419], [174.603215486383, -36.9498730424371], [174.603213716227, -36.9498673517695], [174.60321195711, -36.9498616519394], [174.603210198182, -36.9498559611202], [174.603208428027, -36.9498502704525], [174.603206668911, -36.9498445706223], [174.603204898757, -36.9498388799545], [174.60320313983, -36.9498331891352], [174.603201380714, -36.9498274893048], [174.603199610561, -36.9498217986369], [174.603197851635, -36.9498161078174], [174.603196081293, -36.9498104081386], [174.603194322368, -36.949804717319], [174.603192563442, -36.9497990264994], [174.603190793101, -36.9497933268204], [174.603189034177, -36.9497876360007], [174.603187275252, -36.949781945181], [174.603185504912, -36.9497762455019], [174.603183745988, -36.9497705546821], [174.603181975838, -36.9497648640139], [174.603180216725, -36.9497591641831], [174.603178457236, -36.9497534463303], [174.603176717745, -36.9497476110316], [174.603175009103, -36.9497416401136], [174.603173320272, -36.9497355427389], [174.60317165125, -36.9497293189073], [174.603170013266, -36.9497229684673], [174.603168394903, -36.9497164825596], [174.603166807578, -36.9497098700435], [174.603165240063, -36.9497031310706], [174.603163692169, -36.94969625663], [174.603162175313, -36.949689255581], [174.603160678267, -36.9496821280752], [174.603159201031, -36.9496748741126], [174.603157754644, -36.9496674845306], [174.603156339295, -36.9496599683403], [174.603154932528, -36.9496523258448], [174.60315355661, -36.9496445477299], [174.603152211729, -36.9496366430067], [174.603150875432, -36.9496286119782], [174.603149570172, -36.9496204543414], [174.603148295761, -36.9496121610853], [174.603147122205, -36.9496038574537], [174.603146118568, -36.949595623636], [174.603145273434, -36.9495874507725], [174.603144586613, -36.9495793298526], [174.603144058484, -36.949571278898], [174.603143700085, -36.9495632887462], [174.603143500188, -36.9495553595488], [174.603143458982, -36.9495475003168], [174.603143587317, -36.9495396928766], [174.603143874343, -36.9495319554019], [174.603144319871, -36.9495242788815], [174.603144935129, -36.949516663164], [174.603145697661, -36.9495091085524], [174.603146629923, -36.9495016147437], [174.603147731914, -36.9494941817378], [174.603148981369, -36.9494868188488], [174.603150400364, -36.9494795077517], [174.603151978049, -36.9494722666199], [174.603153725464, -36.9494650862909], [174.603155631381, -36.9494579669164], [174.603157683627, -36.9494508635929], [174.603159878049, -36.9494435780793], [174.603162191813, -36.9494360926567], [174.603164647752, -36.949428425044], [174.603167222845, -36.9494205485113], [174.603169928885, -36.9494124899401], [174.603172776721, -36.9494042311566], [174.6031757439, -36.9493957724642], [174.603178830611, -36.9493871228738], [174.603182059307, -36.9493782820822], [174.603185418572, -36.94936924123], [174.603188908595, -36.9493600093282], [174.60319251796, -36.9493505775173], [174.603196269311, -36.9493409545052], [174.603200140192, -36.949331140595], [174.603204152869, -36.9493211264726], [174.603208284888, -36.9493109124411], [174.603212547854, -36.9493005163709], [174.603216941199, -36.949289911229], [174.603221465491, -36.9492791240484], [174.603226109125, -36.9492681369586], [174.603230789838, -36.9492573116113], [174.603235410743, -36.9492468476122], [174.603239994483, -36.949236753669], [174.603244518415, -36.9492270210741], [174.603249016409, -36.9492176583835], [174.603253454595, -36.9492086570412], [174.603257844389, -36.9492000259064], [174.603262196829, -36.9491917558166], [174.603266500878, -36.9491838559345], [174.603270756346, -36.9491763172489], [174.603274974649, -36.9491691486194], [174.603279144372, -36.9491623411865], [174.603283265515, -36.9491558949502], [174.603287338266, -36.9491498189216], [174.603291362625, -36.9491441131006], [174.603295349632, -36.9491387683246], [174.603299288247, -36.9491337937562], [174.603303178094, -36.9491291713736], [174.603307030965, -36.9491249280579], [174.603310824029, -36.9491210460905], [174.603314589835, -36.9491174709508], [174.603318358473, -36.9491140309755], [174.603322117962, -36.9491106902723], [174.603325890944, -36.949107457549], [174.603329654966, -36.9491043331089], [174.603333432481, -36.9491013166486], [174.603337212074, -36.9490983993088], [174.603340982895, -36.9490955992632], [174.60334476721, -36.9490929071974], [174.603348542375, -36.9490903144038], [174.603352331035, -36.9490878295901], [174.603356110922, -36.9490854620704], [174.603359904114, -36.9490831935197], [174.603363699573, -36.9490810331005], [174.603367486072, -36.9490789809644], [174.603371286064, -36.9490770368082], [174.603375077096, -36.9490752009351], [174.603378881432, -36.9490734640309], [174.603382676998, -36.9490718444208], [174.603386485868, -36.9490703237796], [174.603390297005, -36.9490689112699], [174.603394282863, -36.949067262049], [174.603398562785, -36.9490651762078], [174.603403125732, -36.9490626629088], [174.603407971515, -36.9490597131411], [174.603413100134, -36.9490563269046], [174.603418522816, -36.9490525040476], [174.603424228522, -36.9490482537328], [174.603430217254, -36.94904357596], [174.60343648882, -36.9490384617183], [174.603443043222, -36.9490329110075], [174.60344988046, -36.9490269238278], [174.603457011948, -36.9490205090383], [174.603464426459, -36.9490136667907], [174.603472123617, -36.9490063790629], [174.603480103797, -36.9489986638769], [174.603488367001, -36.9489905212325], [174.603496924266, -36.9489819419673], [174.603505764364, -36.9489729262326], [174.603514887485, -36.9489634830394], [174.603524293438, -36.9489536033767], [174.603533849767, -36.9489433971957], [174.603543103719, -36.9489332311518], [174.603551999725, -36.9489231330363], [174.603560560239, -36.9489131025461], [174.603568774035, -36.9489031398326], [174.603576630074, -36.9488932540587], [174.603584150622, -36.9488834359103], [174.603591324263, -36.9488736765279], [174.603598151376, -36.9488639939335], [174.60360463177, -36.9488543791165], [174.603610765637, -36.9488448410875], [174.603616552596, -36.948835361825], [174.603621993028, -36.9488259593507], [174.603627086553, -36.9488166156429], [174.603631833551, -36.9488073487235], [174.603636245058, -36.9487981494298], [174.603640298622, -36.9487890180653], [174.60364400547, -36.9487799544784], [174.603647377017, -36.9487709675283], [174.603650390432, -36.9487620394966], [174.603653068546, -36.9487531881017], [174.603655536369, -36.9487444837635], [174.603657873624, -36.9487359794862], [174.603660091349, -36.9487276661073], [174.603662167279, -36.9487195529409], [174.603664112452, -36.9487116308246], [174.603665938094, -36.9487038996066], [174.603667633169, -36.9486963684496], [174.60366918626, -36.9486890284942], [174.603670620009, -36.9486818884482], [174.603671923002, -36.9486749394523], [174.603673095239, -36.9486681815063], [174.603674148134, -36.9486616234697], [174.603675059235, -36.9486552656458], [174.603675839579, -36.9486490988718], [174.603676500393, -36.9486431229963], [174.603677019413, -36.9486373473334], [174.603677418903, -36.948631762569], [174.603677687637, -36.9486263688545], [174.603677814576, -36.9486211753528], [174.603677822174, -36.9486161817603], [174.603677708165, -36.9486112799457], [174.603677511033, -36.9486061629293], [174.60367721936, -36.9486008218519], [174.603676855225, -36.9485952383883], [174.603676396361, -36.9485894218526], [174.603675853996, -36.9485833720932], [174.603675228129, -36.9485770891102], [174.603674518762, -36.9485705729036], [174.603673725703, -36.9485638144623], [174.603672837917, -36.948556822949], [174.60367186663, -36.948549598212], [174.603670823068, -36.9485421400997], [174.603669684779, -36.9485344489153], [174.603668462799, -36.9485265154963], [174.603667157318, -36.9485183488537], [174.603665757109, -36.9485099491389], [174.603664284627, -36.9485013160489], [174.603662717416, -36.9484924498868], [174.603661066516, -36.94848334149], [174.603659343341, -36.9484739997178], [174.603657525628, -36.9484644338845], [174.603655749423, -36.9484547052472], [174.603654072183, -36.9484448761245], [174.603652504945, -36.9484349373536], [174.603651047523, -36.9484248799237], [174.603649689065, -36.9484147220083], [174.60364844061, -36.9484044544449], [174.603647290931, -36.9483940773851], [174.603646251255, -36.9483835906772], [174.603645310544, -36.9483730034839], [174.60364446842, -36.9483622977832], [174.603643747525, -36.9483514822828], [174.603643125596, -36.9483405662969], [174.603642602442, -36.9483295408147], [174.603642189102, -36.9483183966735], [174.603641874727, -36.9483071520468], [174.603641670354, -36.9482957977721], [174.603641564757, -36.948284334001], [174.603641569163, -36.9482727605818], [174.603641683571, -36.9482610775146], [174.603641896944, -36.948249293962], [174.603642166451, -36.9482375096512], [174.603642387947, -36.9482261135701], [174.60364252813, -36.9482151241958], [174.603642598415, -36.9482045503874], [174.603642598424, -36.9481943741231], [174.603642528536, -36.9481846134248], [174.603642388561, -36.9481752592816], [174.603642167272, -36.948166311845], [174.603641876085, -36.9481577799744], [174.603641526039, -36.9481496545072], [174.603641094679, -36.9481419357466], [174.603640593233, -36.9481346235412], [174.603640010473, -36.9481277180424], [174.603639369042, -36.9481212279579], [174.603638657524, -36.9481151444285], [174.603637864693, -36.9481094676058], [174.603637001965, -36.948104206349], [174.60363606896, -36.9480993426364], [174.603635066059, -36.9480948944897], [174.603633993259, -36.9480908619091], [174.603632849995, -36.9480872178615], [174.603631788531, -36.948083725939], [174.603630896039, -36.9480802587747], [174.603630161101, -36.9480768075094], [174.603629583907, -36.9480733811541], [174.60362916408, -36.9480699616869], [174.603628913412, -36.9480665759889], [174.603628808883, -36.9480631973306], [174.603628884552, -36.9480598432791], [174.603629106548, -36.9480565052782], [174.603629497516, -36.9480531920356], [174.603630046038, -36.948049894692], [174.603630752304, -36.9480466222583], [174.603631627163, -36.9480433565611], [174.603632659955, -36.9480401247849], [174.603633850112, -36.9480368998966], [174.60363520924, -36.9480336997667], [174.603636714885, -36.9480305246983], [174.603638389123, -36.9480273563664], [174.603640232331, -36.9480242127927], [174.603642222055, -36.9480210942806], [174.603644324238, -36.948017983263], [174.603646359248, -36.9480148821663], [174.603648304253, -36.9480117732716], [174.603650182086, -36.9480086742977], [174.603651969914, -36.948005567526], [174.603653679154, -36.9480024618157], [174.603655309994, -36.9479993661778], [174.603656862056, -36.9479962625904], [174.603658335719, -36.9479931690755], [174.603659719377, -36.9479900677626], [174.603661024636, -36.9479869765222], [174.603662262344, -36.9479838771807], [174.603663410426, -36.9479807880633], [174.60366447973, -36.9479776909964], [174.603665470446, -36.9479745949909], [174.603666371535, -36.9479715092095], [174.603667205074, -36.947968415327], [174.603667948986, -36.9479653316686], [174.603668614121, -36.9479622400607], [174.603669200856, -36.9479591585253], [174.603669720041, -36.9479560688887], [174.603670450648, -36.9479528862613], [174.603671515417, -36.947949572931], [174.603672925575, -36.9479461287463], [174.603674681123, -36.9479425537072], [174.603676793098, -36.9479388386509], [174.603679239234, -36.9479349928918], [174.60368203076, -36.9479310162782], [174.603685167486, -36.9479268997991], [174.603688649789, -36.9479226614764], [174.603692477293, -36.9479182832881], [174.603696649996, -36.9479137652342], [174.603701168087, -36.9479091163257], [174.603706031756, -36.9479043455735], [174.603711229209, -36.9478994260962], [174.603716783466, -36.9478943846234], [174.603722682922, -36.9478892032849], [174.603728916539, -36.9478838912431], [174.603735506583, -36.9478784391838], [174.603742430976, -36.9478728654321], [174.603749711795, -36.9478671516628], [174.603757160072, -36.9478613905634], [174.603764331832, -36.9478558314962], [174.603771182545, -36.9478504930896], [174.603777723439, -36.9478453751922], [174.603783943287, -36.9478404779555], [174.603789853315, -36.947835801228], [174.603795430882, -36.947831336302], [174.603800709856, -36.9478270917337], [174.603805667785, -36.9478230678264], [174.603810304668, -36.94781926458], [174.603814620505, -36.9478156819947], [174.603818626335, -36.9478123109079], [174.603822322346, -36.9478091603305], [174.603825697311, -36.9478062304142], [174.603828751231, -36.9478035211591], [174.603831495333, -36.9478010324135], [174.603833918201, -36.9477987553181], [174.603836020212, -36.9477967078949], [174.603837812217, -36.9477948719704], [174.603839294403, -36.9477932565554], [174.603840455166, -36.9477918437797], [174.603841525924, -36.9477904232063], [174.603842593849, -36.9477888674684], [174.603843647901, -36.9477871857287], [174.603844710535, -36.9477853776836], [174.603845759108, -36.9477834346257], [174.603846816262, -36.9477813652626], [174.603847870771, -36.9477791697459], [174.603848911218, -36.9477768392164], [174.603849960247, -36.9477743823816], [174.603850995404, -36.947771799545], [174.603852039142, -36.9477690904031], [174.603853080046, -36.9477662460967], [174.603854107078, -36.9477632757884], [174.603855142691, -36.9477601791749], [174.603856164432, -36.9477569565594], [174.603857194565, -36.9477535986278], [174.603858210826, -36.9477501146943], [174.603859235479, -36.9477464954446], [174.603860257676, -36.9477427590523], [174.603861265812, -36.9477388876471], [174.603862159411, -36.9477349096269], [174.603862581104, -36.9477309199544], [174.603862530889, -36.9477269186297], [174.603861997351, -36.9477228967933], [174.60386098068, -36.9477188634563], [174.603859480687, -36.9477148096077], [174.603857497559, -36.9477107442585], [174.603855031299, -36.9477066674086], [174.603852092943, -36.9477025698953], [174.603848660226, -36.9476984610329], [174.603844755604, -36.947694340518], [174.603840367659, -36.9476901994914], [174.603835496581, -36.9476860469638], [174.603830142181, -36.9476818739242], [174.603824304649, -36.9476776893837], [174.60381799521, -36.9476734931904], [174.60381120245, -36.9476692764849], [174.60380391533, -36.9476650484298], [174.603796156115, -36.9476607997107], [174.603787913768, -36.9476565394902], [174.603779210742, -36.9476522674648], [174.603770631969, -36.9476480298145], [174.603762413968, -36.9476438593984], [174.603754578815, -36.9476397378916], [174.603747126887, -36.947635683316], [174.603740035543, -36.947631686964], [174.603733327236, -36.9476277485324], [174.603727001965, -36.9476238680212], [174.603721037278, -36.9476200457337], [174.603715455627, -36.9476162813669], [174.603710257201, -36.9476125839316], [174.603705419169, -36.9476089357093], [174.60370097559, -36.9476053542671], [174.603696892593, -36.9476018310489], [174.603693192632, -36.9475983657515], [174.60368986448, -36.9475949585265], [174.603686908327, -36.9475916183851], [174.603684335021, -36.9475883271536], [174.603682133713, -36.9475851030056], [174.603680304214, -36.9475819369302], [174.603678857562, -36.9475788197648], [174.603677636959, -36.9475757716543], [174.60367628239, -36.9475727614074], [174.603674771589, -36.9475697983382], [174.60367309333, -36.9475668825985], [174.60367125884, -36.9475640140365], [174.603669256703, -36.947561183793], [174.603667109561, -36.9475584005757], [174.603664794961, -36.9475556646877], [174.603662324131, -36.9475529759774], [174.60365969688, -36.9475503254339], [174.603656902171, -36.9475477222198], [174.603653951231, -36.9475451661834], [174.603650832833, -36.9475426574763], [174.603647569241, -36.9475401867843], [174.603644138192, -36.9475377634216], [174.603640550912, -36.9475353872366], [174.6036368074, -36.9475330582292], [174.603632896242, -36.9475307675401], [174.603628829041, -36.9475285330396], [174.603624605421, -36.9475263367057], [174.60362022538, -36.9475241785384], [174.603616013743, -36.9475220180965], [174.603612093626, -36.9475198356899], [174.603608465029, -36.9475176313188], [174.603605138991, -36.9475153958206], [174.603602093247, -36.9475131385095], [174.603599350061, -36.9475108500713], [174.603596898395, -36.9475085396687], [174.60359473825, -36.9475062073016], [174.603592880664, -36.9475038438075], [174.60359130337, -36.9475014585006], [174.603590028635, -36.9474990420668], [174.603589045421, -36.9474966036685], [174.603588353726, -36.9474941433059], [174.60358796459, -36.9474916518163], [174.603587855747, -36.9474891385139], [174.603588049652, -36.9474866030956], [174.603588534887, -36.9474840367019], [174.603589311643, -36.9474814483438], [174.60359037973, -36.9474788290104], [174.603591750564, -36.947476187561], [174.603593289044, -36.9474735077932], [174.603594713367, -36.947470739432], [174.603595990041, -36.9474678919433], [174.603597141519, -36.9474649650238], [174.603598156197, -36.9474619408033], [174.603599034641, -36.9474588463145], [174.603599776473, -36.9474556635357], [174.603600381695, -36.9474523924667], [174.60360086172, -36.947449041967], [174.603601193908, -36.9474456033288], [174.6036014009, -36.9474420852599], [174.603601460054, -36.9474384790524], [174.603601393823, -36.9474347844032], [174.60360119117, -36.947431010475], [174.603600840868, -36.9474271574192], [174.603600365181, -36.9474232159216], [174.603599753073, -36.9474191951449], [174.603599004353, -36.9474150860782], [174.603598130248, -36.9474108885696], [174.603597108495, -36.9474066119335], [174.603595961546, -36.9474022558667], [174.603594812331, -36.9473977916682], [174.603593716982, -36.9473932185799], [174.603592664275, -36.9473885367534], [174.603591665623, -36.9473837550481], [174.60359072065, -36.947378855442], [174.603589829732, -36.947373855957], [174.603588992683, -36.9473687475822], [174.603588198273, -36.9473635304693], [174.603587457542, -36.9473581954556], [174.603586770867, -36.947352760563], [174.603586138248, -36.9473472257917], [174.603585548081, -36.9473415732711], [174.603585011781, -36.9473358118608], [174.603584529348, -36.9473299415607], [174.603584089744, -36.9473239715334], [174.603583715234, -36.9473178924646], [174.603583383176, -36.9473116956467], [174.603583105174, -36.94730539895], [174.603582881039, -36.9472989933634], [174.603582699544, -36.9472924790387], [174.60358261758, -36.9472858912616], [174.603582749303, -36.9472793186254], [174.603583094713, -36.9472727611301], [174.603583653999, -36.9472662277868], [174.603584426973, -36.9472597095844], [174.603585413823, -36.947253215534], [174.603586614359, -36.9472467366245], [174.603588028583, -36.9472402728559], [174.60358966791, -36.9472338330876], [174.603591509697, -36.9472274086119], [174.603593565359, -36.947221008288], [174.60359583452, -36.9472146140941], [174.603598328972, -36.9472082529114], [174.603601025695, -36.9472018980102], [174.60360394752, -36.9471955671092], [174.603607071995, -36.9471892605117], [174.603610421382, -36.9471829689034], [174.603613984457, -36.9471766924359], [174.60361774999, -36.9471704312608], [174.603621740626, -36.9471641940859], [174.603625933911, -36.9471579812143], [174.603630185596, -36.9471518757161], [174.603634451908, -36.9471459322635], [174.603638709826, -36.947140124127], [174.603642982371, -36.9471344780362], [174.603647246711, -36.9471289762724], [174.603651514262, -36.9471236276949], [174.603655796251, -36.9471184321521], [174.603660070036, -36.9471133809364], [174.603664347032, -36.9471084829069], [174.603668638277, -36.9471037289012], [174.603672921506, -36.9470991282335], [174.603677207947, -36.9470946807522], [174.603681508826, -36.9470903863055], [174.6036858015, -36.9470862361858], [174.603690097386, -36.9470822392525], [174.60369440752, -36.9470783863429], [174.60369870964, -36.9470746867713], [174.603703026197, -36.9470711402344], [174.60370733474, -36.9470677470354], [174.603711646304, -36.9470644980118], [174.603715947964, -36.9470613122166], [174.603722891206, -36.947019684125], [174.603584809772, -36.9469855040718], [174.603456664397, -36.9469458446517], [174.603396871196, -36.9469182865896], [174.603358750012, -36.9468981423978], [174.603324163871, -36.9468612754403], [174.603296975554, -36.9467905258927], [174.603287415311, -36.9467662463714], [174.603306300399, -36.9467403568961], [174.603322273429, -36.94671537204], [174.603343456561, -36.9466844670485], [174.603340618861, -36.9466599885873], [174.603312668717, -36.9466332533461], [174.603257240711, -36.9465996332564], [174.603241153152, -36.946579506969], [174.603265243493, -36.9465335371918], [174.603388202911, -36.9465347701071], [174.603410710246, -36.9465365032138], [174.603538852082, -36.9465497801609], [174.603589859587, -36.9465466305693], [174.603640981401, -36.9465387563262], [174.603667923928, -36.9465324254721], [174.603687142991, -36.9465278303797], [174.603712456795, -36.946518267633], [174.603719798428, -36.9464983206924], [174.603700001181, -36.9464758740188], [174.603682219197, -36.9464574201529], [174.60366969199, -36.9464394631614], [174.603662142614, -36.9464237914641], [174.603657664278, -36.9464051579056], [174.603661771038, -36.9463857143499], [174.603675526765, -36.9463754965047], [174.60369314698, -36.9463674888548], [174.603748178474, -36.9463527385223], [174.603788032382, -36.9463435922799], [174.603807682917, -36.9463392256918], [174.603822337816, -36.9463333311881], [174.603830319282, -36.9463251562716], [174.603833579996, -36.9463044622456], [174.603832870235, -36.9462968554066], [174.603829993464, -36.9462833739824], [174.60382071572, -36.946264003057], [174.603792964411, -36.9462397890281], [174.603775888668, -36.9462234167727], [174.603762315942, -36.9461936211302], [174.603759455339, -36.9461739471954], [174.603759255723, -36.9461537145331], [174.603758011244, -36.9461323873207], [174.603764981983, -36.9461161769849], [174.603769792847, -36.9461062151541], [174.603785475475, -36.9460973863917], [174.603806231637, -36.946093266262], [174.603841142166, -36.9460899103641], [174.603926587157, -36.9461004917383], [174.604020423262, -36.9461133302465], [174.604095025474, -36.9461252297383], [174.604306997757, -36.9461669015594], [174.604331063346, -36.9461717231024], [174.604453141786, -36.9461968346301], [174.604484377185, -36.9462045787836], [174.604517864347, -36.9462125989585], [174.60481389696, -36.9462812470332], [174.604856847906, -36.9462917981843], [174.604951355998, -36.9463221942214], [174.604989907048, -36.9463387356962], [174.605021189352, -36.9463551320531], [174.605055563073, -36.9463781025349], [174.605076358226, -36.9463999225691], [174.605092235708, -36.9464276768821], [174.605099394859, -36.9464509611723], [174.605101051167, -36.9464790519521], [174.605099333462, -36.9465036910984], [174.60509465437, -36.946555780395], [174.605090072251, -36.9465868037826], [174.605081396275, -36.9466143221728], [174.605072365259, -36.946628667595], [174.605055699702, -36.9466559424635], [174.605045341068, -36.9466803378792], [174.605047092277, -36.9466915450522], [174.605050586651, -36.9466985914545], [174.605057290712, -36.9467071447923], [174.605069166963, -36.9467149341681], [174.605076323281, -36.946716676183], [174.605087095174, -36.9467183963601], [174.605122834215, -36.9467165161134], [174.605138548697, -36.9467140232475], [174.605236853447, -36.9466957397794], [174.605288645174, -36.9466876845132], [174.605330560213, -36.946679897968], [174.605358232251, -36.9466730160564], [174.605413284137, -36.9466554975269], [174.605461678207, -36.9466348421582], [174.605488292906, -36.9466182489256], [174.605524602223, -36.9465873643533], [174.605551973508, -36.9465447568705], [174.605560679789, -36.9465229706363], [174.605563930118, -36.9465130388517], [174.605564362913, -36.9465047676012], [174.60556339751, -36.9464844551682], [174.605556819709, -36.9464642636973], [174.605542443094, -36.9464432853472], [174.60552123025, -36.9464235081001], [174.605498397695, -36.9464100261611], [174.605471276867, -36.9463971520281], [174.605444341325, -36.9463802643667], [174.605428146544, -36.9463657552538], [174.605377882032, -36.9463149406536], [174.605356543641, -36.9462939933157], [174.605327801047, -36.946271262258], [174.605242275666, -36.946213524243], [174.605186724166, -36.9461601310627], [174.605169671086, -36.9461357546976], [174.605155102843, -36.9461002851464], [174.605125894987, -36.9459981151511], [174.605124531688, -36.9459904089937], [174.605130175128, -36.9459869526298], [174.605147706715, -36.945989717122], [174.605156792202, -36.9459945607441], [174.60516890195, -36.9459984981816], [174.605187331272, -36.946002836911], [174.605205583985, -36.9460132080708], [174.605373285104, -36.9461103598343], [174.605444610571, -36.9461496498022], [174.605475048232, -36.9461600454424], [174.605503422199, -36.9461652140977], [174.605548261075, -36.9461672667601], [174.605594475703, -36.9461631716075], [174.605621855715, -36.9461632520229], [174.605715356697, -36.9461911372841], [174.605741682684, -36.9462009214606], [174.60575643004, -36.946209068534], [174.605779987345, -36.9462319327101], [174.605841836851, -36.9462793275574], [174.605889448618, -36.9463107537024], [174.605924856527, -36.946327450954]]}, "properties": {"OBJECTID": 12215, "TRACKNAME": "Slip Track", "CONDITIONSOFUSE": "Waitakere Central Regional Park", "STATUS": "Open", "WEBLINK": "https://www.aucklandcouncil.govt.nz/en/parks-recreation/find-park-beach/park-detail/204.html", "VALIDATIONSTATE": 3, "created_user": "AC_owner", "last_edited_user": "AC_owner", "last_edited_date": 1789875254325, "created_date": 1789875254325, "PARK_SAPSITEID": null, "TRACK_ID": null, "KAURIDIEBACK_TRACK": null, "KAURIDIEBACK_MITIGATED": null, "SegmentID": null, "GlobalID": "79fd64be-bec7-4b97-95b2-85c9e47754cf", "Shape__Length": 1349.748283610541}}]}