{"type": "FeatureCollection", "features": [{"type": "Feature", "id": 2074, "geometry": {"type": "LineString", "coordinates": [[174.567394608231, -36.9700945304479], [174.567486540416, -36.9701713845395], [174.567549681099, -36.9702879249809], [174.56759950728, -36.9703791239044], [174.567637844448, -36.9705241230777], [174.567647840483, -36.97068230475], [174.567642103124, -36.9708483827415], [174.567590876904, -36.9709742752283], [174.567562574444, -36.9711279150809], [174.567549762319, -36.9712634494921], [174.567571659451, -36.9713857173124], [174.567581655527, -36.9715438989686], [174.567582464983, -36.9717175339542], [174.567565408717, -36.9718071734233], [174.567424987143, -36.9719292682243], [174.567305379939, -36.9719872181579], [174.567243731326, -36.9720749496069], [174.56723457192, -36.9722308694178], [174.567148825515, -36.9723777052262], [174.567017293596, -36.9724715779979], [174.566759385046, -36.9726056245571], [174.566559150785, -36.9727567021313], [174.566321543129, -36.9729440652683], [174.566089838784, -36.9731109253895], [174.565957904604, -36.9731869374911], [174.56582961163, -36.9732833170624], [174.565793999337, -36.9733962126017], [174.565750380618, -36.9735756164198], [174.565706791498, -36.9737575706576], [174.565600646065, -36.9739864181342], [174.565512579488, -36.9741715908758], [174.565339599426, -36.9744014277318], [174.565129990663, -36.9745602880529], [174.564891327246, -36.9747475541234], [174.564771770277, -36.9748828730192], [174.564545411303, -36.9750736717441], [174.564427397726, -36.9751856609662], [174.564280379863, -36.975321927179], [174.564117816233, -36.9754726033862], [174.56404472708, -36.9755286121038], [174.564013689303, -36.9755759274821], [174.563964810142, -36.975609452879], [174.563906731193, -36.9756243693531], [174.563849044035, -36.9756556852614], [174.563702951648, -36.9757637081996], [174.563532686916, -36.9759122884709], [174.563533190188, -36.9759153617648]]}, "properties": {"OBJECTID": 2074, "TRACKNAME": "Smiths Road", "CONDITIONSOFUSE": "Waitakere South Regional Park", "STATUS": "Open", "WEBLINK": "https://www.aucklandcouncil.govt.nz/en/parks-recreation/find-park-beach/park-detail/212.html", "VALIDATIONSTATE": 3, "created_user": "AC_owner", "last_edited_user": "AC_owner", "last_edited_date": 1789875254325, "created_date": 1789875254325, "PARK_SAPSITEID": null, "TRACK_ID": null, "KAURIDIEBACK_TRACK": null, "KAURIDIEBACK_MITIGATED": null, "SegmentID": null, "GlobalID": "b71f65f8-7615-4edb-9d41-7fafe82f2fb9", "Shape__Length": 796.1490581486304}}, {"type": "Feature", "id": 3314, "geometry": {"type": "LineString", "coordinates": [[174.567089361569, -36.9697198515392], [174.567079836545, -36.9698313800601], [174.567394608231, -36.9700945304479]]}, "properties": {"OBJECTID": 3314, "TRACKNAME": "Smiths Road", "CONDITIONSOFUSE": "Waitakere Central Regional Park", "STATUS": "Open", "WEBLINK": "https://www.aucklandcouncil.govt.nz/en/parks-recreation/find-park-beach/park-detail/204.html", "VALIDATIONSTATE": 3, "created_user": "AC_owner", "last_edited_user": "AC_owner", "last_edited_date": 1789875254325, "created_date": 1789875254325, "PARK_SAPSITEID": null, "TRACK_ID": null, "KAURIDIEBACK_TRACK": null, "KAURIDIEBACK_MITIGATED": null, "SegmentID": null, "GlobalID": "349aba8b-58d3-475f-83c8-06c8d35738b4", "Shape__Length": 52.876044912451746}}]}