{"type": "FeatureCollection", "features": [{"type": "Feature", "id": 3107, "geometry": {"type": "LineString", "coordinates": [[174.822696958387, -36.3741170864474], [174.822777392559, -36.3739999494236], [174.822781493592, -36.3739225871477], [174.822786344858, -36.3738553532855], [174.822738241349, -36.3737630051408], [174.822693644953, -36.3736472183889], [174.822600638846, -36.3734530706215], [174.822566874433, -36.3733963468979], [174.822494701655, -36.3733359970384], [174.822304129486, -36.373207255341], [174.822213265907, -36.3731560909376], [174.822061521039, -36.373098782015], [174.82201090277, -36.3730780900846]]}, "properties": {"OBJECTID": 3107, "TRACKNAME": "South Coast Track", "CONDITIONSOFUSE": "Tawharanui Regional Park", "STATUS": "Open", "WEBLINK": "https://www.aucklandcouncil.govt.nz/en/parks-recreation/find-park-beach/park-detail/228.html", "VALIDATIONSTATE": 3, "created_user": "AC_owner", "last_edited_user": "AC_owner", "last_edited_date": 1789875254325, "created_date": 1789875254325, "PARK_SAPSITEID": null, "TRACK_ID": null, "KAURIDIEBACK_TRACK": null, "KAURIDIEBACK_MITIGATED": null, "SegmentID": null, "GlobalID": "c6a0230c-4032-4786-8e18-2bb0197f733d", "Shape__Length": 147.24341495712966}}, {"type": "Feature", "id": 12208, "geometry": {"type": "LineString", "coordinates": [[174.858425564802, -36.3692136059276], [174.858479442433, -36.369348941551], [174.858516546719, -36.3694459043002], [174.858546554235, -36.3695270678217], [174.858571982418, -36.3695984593452], [174.85859351605, -36.3696612220055], [174.858611806926, -36.3697165174774], [174.858627517984, -36.3697655072615], [174.858641312385, -36.3698093618683], [174.858653852432, -36.369849215765], [174.858665790363, -36.3698862486453], [174.858677684352, -36.3699214343448], [174.858689520477, -36.3699551246251], [174.858701180037, -36.3699874835847], [174.858712532973, -36.3700186664855], [174.858723494654, -36.3700488639379], [174.858733901811, -36.3700782407344], [174.858743657596, -36.3701069426059], [174.858752621669, -36.37013516103], [174.858760686898, -36.3701630779537], [174.858767722796, -36.3701908306174], [174.858773588808, -36.3702186014882], [174.858778198369, -36.370246500081], [174.85878138714, -36.3702746461355], [174.858783012846, -36.3703031500336], [174.85878295593, -36.3703321398317], [174.858781073688, -36.3703617078903], [174.858777246774, -36.3703919912765], [174.858771321344, -36.370423082524], [174.858763166482, -36.3704551008517], [174.858752640126, -36.3704881656516], [174.858739655283, -36.3705223684168], [174.858724200164, -36.3705576822879], [174.858706285263, -36.370594080059], [174.858685943145, -36.3706315251661], [174.858663195016, -36.3706699722083], [174.858638051371, -36.3707093939791], [174.858610544774, -36.3707497539143], [174.858580707359, -36.3707909974285], [174.858548527765, -36.3708331156827], [174.858514071124, -36.37087603555], [174.858477336358, -36.3709197119752], [174.858438351101, -36.3709639011493], [174.858397176196, -36.3710083497324], [174.858353850419, -36.3710528137418], [174.85830838919, -36.3710970044884], [174.858260842427, -36.3711406778161], [174.858211270763, -36.371183571374], [174.85815969005, -36.3712254144942], [174.858106139066, -36.3712659631935], [174.85805066709, -36.3713049462839], [174.857993303261, -36.3713421830299], [174.857934050582, -36.3713777995778], [174.857872936481, -36.3714120118331], [174.857809942961, -36.3714450003523], [174.857745086307, -36.3714769812142], [174.857678360308, -36.3715081618337], [174.857609791961, -36.3715387400949], [174.857539363909, -36.3715689235859], [174.85746710358, -36.371598928212], [174.857393004114, -36.3716289343558], [174.857317202855, -36.3716590931155], [174.857240310902, -36.3716893228729], [174.85716310391, -36.3717194312849], [174.857086325398, -36.3717492805937], [174.857010718245, -36.3717787060116], [174.856937069683, -36.3718075330493], [174.856866089383, -36.3718356064529], [174.856798564795, -36.3718627607469], [174.856735239232, -36.3718888491715], [174.856676866508, -36.3719136977628], [174.856623968381, -36.3719372172911], [174.856576169668, -36.3719595668335], [174.856532840632, -36.3719809815345], [174.856493385174, -36.3720017050283], [174.856457173122, -36.3720219544357], [174.856423597447, -36.3720419825725], [174.856392050261, -36.3720620062111], [174.856361902034, -36.3720822695015], [174.85633254509, -36.3721029982254], [174.856303383107, -36.3721244270013], [174.856273896261, -36.3721467261603], [174.856244116691, -36.3721698411189], [174.856214163535, -36.3721936258017], [174.856184189567, -36.3722179426246], [174.856154303427, -36.3722426727177], [174.856124669032, -36.3722676783237], [174.856095394594, -36.3722928225518], [174.856066633103, -36.3723179768289], [174.856038515056, -36.3723430039179], [174.856011171374, -36.3723677846029], [174.855984687984, -36.3723921823397], [174.85595899568, -36.3724160990507], [174.855933969758, -36.3724394465346], [174.855909518939, -36.3724621360707], [174.855885496023, -36.3724840707931], [174.855861798803, -36.3725051711647], [174.855838302362, -36.372525339973], [174.855814904065, -36.3725444796596], [174.855791468281, -36.3725625112063], [174.855767881447, -36.372579346238], [174.855744085713, -36.3725948955139], [174.855720183072, -36.3726092295608], [174.855696353513, -36.3726224176937], [174.855672732243, -36.3726345209094], [174.855649510391, -36.3726456083502], [174.855626823806, -36.372655768045], [174.855604863192, -36.3726650511151], [174.855583764396, -36.3726735455896], [174.855563718335, -36.3726813116006], [174.855544860643, -36.3726884281669], [174.855527294385, -36.3726950108693], [174.855510803351, -36.3727013425006], [174.855495095052, -36.3727077791502], [174.855479876783, -36.3727146678968], [174.855464866123, -36.3727223196031], [174.855449770368, -36.3727310813476], [174.855434307952, -36.3727413000354], [174.855418163672, -36.3727533140801], [174.855401078031, -36.3727674610297], [174.855382746967, -36.3727840791245], [174.855362997552, -36.3728033963995], [174.855342112631, -36.372825120013], [174.855320506403, -36.3728488559293], [174.855298570995, -36.3728742194696], [174.855276709252, -36.3729008077612], [174.85525533516, -36.3729282177583], [174.855234851993, -36.37295606461], [174.855215640311, -36.3729839457905], [174.85519813639, -36.3730114579086], [174.855182721007, -36.3730382074495], [174.855169698871, -36.3730638832057], [174.855158970133, -36.3730885047571], [174.855150325018, -36.3731121564884], [174.855143565322, -36.3731349406327], [174.855138481698, -36.3731569595957], [174.855134886654, -36.3731782974158], [174.855132548346, -36.3731990478342], [174.855131279923, -36.373219321921], [174.855130882965, -36.3732392128981], [174.855131136767, -36.3732588143335], [174.855131875907, -36.3732782009086], [174.855132987894, -36.3732973293008], [174.855134416159, -36.3733161643331], [174.855136091923, -36.3733346259482], [174.855137936761, -36.3733526973361], [174.855139892822, -36.3733702892561], [174.855141870112, -36.3733873670502], [174.855143811206, -36.3734038594985], [174.855145648395, -36.3734197315972], [174.855147302398, -36.3734349304938], [174.855148726933, -36.3734493847956], [174.855149923284, -36.3734631485666], [174.855150914379, -36.3734762484924], [174.855151734285, -36.3734887110857], [174.855152395429, -36.3735005902374], [174.855152920738, -36.3735119126332], [174.855153355852, -36.3735227226339], [174.855153712554, -36.3735330470985], [174.8551539917, -36.3735429220695], [174.855154250074, -36.3735523917346], [174.855154478029, -36.3735615193415], [174.855154602279, -36.373570504336], [174.855154550178, -36.3735795731954], [174.85515423751, -36.3735889345495], [174.855153569558, -36.3735988242324], [174.855152462322, -36.3736094598844], [174.855150821083, -36.3736210773399], [174.855148572982, -36.3736338940657], [174.855145633803, -36.3736481186914], [174.855141898115, -36.3736640052456], [174.855137323915, -36.3736816625482], [174.855131971637, -36.3737008192416], [174.855125899358, -36.3737211048508], [174.855119209512, -36.3737421391979], [174.855111993818, -36.3737635602994], [174.855104298786, -36.3737849798324], [174.855096238632, -36.3738060444778], [174.855087881937, -36.3738263565557], [174.855079309706, -36.3738455722772], [174.855070601662, -36.3738632937893], [174.855061829596, -36.3738792585719], [174.855053028004, -36.3738935111588], [174.855044166884, -36.3739061962397], [174.855035283731, -36.3739174844974], [174.855026359257, -36.3739275024272], [174.855017408456, -36.3739364120473], [174.855008423396, -36.3739443486906], [174.854999430216, -36.3739514742024], [174.854990398913, -36.3739579332723], [174.854981366337, -36.3739638695511], [174.854972302273, -36.3739694187179], [174.854963128937, -36.3739745909946], [174.854953690337, -36.3739793888043], [174.854943908903, -36.3739838313795], [174.854933661642, -36.3739879026026], [174.854922826629, -36.3739916314091], [174.854911291584, -36.3739949834869], [174.854898956653, -36.3739979784147], [174.854885677201, -36.3740006274526], [174.854871352516, -36.3740029141366], [174.854855905031, -36.3740048576988], [174.854839291032, -36.3740064948739], [174.854821522089, -36.3740078435093], [174.854802588344, -36.3740089578416], [174.854782512938, -36.3740098735667], [174.854761285371, -36.3740106178889], [174.854738895569, -36.3740112360339], [174.854715366675, -36.3740117636975], [174.854690677259, -36.3740122372677], [174.85466483932, -36.3740126926134], [174.854637886712, -36.3740131472359], [174.8546099975, -36.3740135893553], [174.854581371177, -36.3740139708032], [174.854552207451, -36.3740142524219], [174.854522716957, -36.3740143858702], [174.854493110546, -36.374014331818], [174.854463599282, -36.3740140599458], [174.854434371515, -36.3740135222592], [174.854405649238, -36.3740126792553], [174.85437760966, -36.3740114831133], [174.854350431061, -36.3740099310653], [174.854324036299, -36.3740080603656], [174.854298260378, -36.3740059637162], [174.8542730043, -36.3740036967385], [174.854248114425, -36.3740013609718], [174.854223436043, -36.3739990129023], [174.854198859869, -36.3739967443665], [174.85417424255, -36.3739946206879], [174.854149452301, -36.3739927250382], [174.854124345983, -36.3739911317513], [174.854098835953, -36.3739899052855], [174.854073001491, -36.3739890984935], [174.854047010376, -36.3739887358123], [174.854020986241, -36.3739888603923], [174.853995052296, -36.3739894973626], [174.853969376958, -36.3739906981927], [174.853944083221, -36.3739924790012], [174.85391931722, -36.3739948916037], [174.853895201948, -36.3739979521193], [174.853871894253, -36.3740016941693], [174.853849462487, -36.3740061797911], [174.853827817297, -36.374011401358], [174.853806792401, -36.3740173975078], [174.853786220876, -36.3740241798455], [174.853765947371, -36.3740317778249], [174.853745804962, -36.3740402030511], [174.853725649652, -36.374049493815], [174.853705303163, -36.374059652884], [174.853684621071, -36.3740707005275], [174.85366342595, -36.3740826755551], [174.853641573163, -36.3740955892256], [174.853618849933, -36.3741093997713], [174.853595110766, -36.3741240824079], [174.853570154242, -36.3741396042052], [174.853543790082, -36.3741559320597], [174.85351583915, -36.374173032695], [174.853486122097, -36.3741908638236], [174.853454426358, -36.3742093926872], [174.853420606652, -36.374228603511], [174.853384460916, -36.3742484363314], [174.853345843653, -36.3742688663623], [174.853304808221, -36.3742897936197], [174.853261463904, -36.3743111262654], [174.853215897059, -36.3743327457754], [174.853168206041, -36.3743545694952], [174.853118477635, -36.3743764969221], [174.853066820914, -36.3743984272073], [174.85301334452, -36.3744202414812], [174.85295811381, -36.3744418756295], [174.852901236788, -36.3744631837505], [174.852842857663, -36.3744841365626], [174.852783144214, -36.3745047585027], [174.852722366211, -36.3745251445373], [174.852660726142, -36.3745453726492], [174.852598482208, -36.3745655199574], [174.852535826183, -36.3745856826399], [174.852473038123, -36.3746059194496], [174.852410309803, -36.3746263265655], [174.852347899423, -36.3746469811085], [174.852286009899, -36.3746679790855], [174.852224920007, -36.3746893251877], [174.852164938318, -36.3747108704071], [174.852106404909, -36.374732384122], [174.852049638212, -36.3747536630891], [174.851995011735, -36.3747744761693], [174.851942832769, -36.374794620293], [174.851893452537, -36.3748138646678], [174.851847222478, -36.3748319875124], [174.851804461028, -36.3748487855853], [174.851765508268, -36.3748640282678], [174.851730584065, -36.3748775859589], [174.851699489778, -36.3748895428677], [174.851671873765, -36.3749001117707], [174.851647405811, -36.3749094690556], [174.851625734056, -36.3749178184871], [174.851606550143, -36.374925318085], [174.851589491282, -36.3749321807966], [174.851574238187, -36.3749385738245], [174.851560450138, -36.3749447007592], [174.851547807847, -36.374950728803], [174.851535992452, -36.3749568431791], [174.8515249371, -36.3749630449243], [174.85151459786, -36.3749693617617], [174.851504919019, -36.3749757945553], [174.85149587808, -36.3749823346401], [174.851487419757, -36.3749890009013], [174.851479499693, -36.3749958030405], [174.851472084033, -36.375002723555], [174.851465139992, -36.3750097899949], [174.851458611428, -36.3750169852027], [174.851452456121, -36.3750244089868], [174.851446627758, -36.3750324586798], [174.851441093518, -36.375041630559], [174.851435809221, -36.3750524120638], [174.851430730478, -36.3750652816227], [174.851425813323, -36.3750807356857], [174.851421024506, -36.3750992525086], [174.851416286637, -36.3751213290596], [174.851411610822, -36.375147433893], [174.851406908526, -36.3751780641495], [174.851402175441, -36.375213508343], [174.851397464538, -36.3752531797441], [174.851392846158, -36.375296284033], [174.851388413573, -36.3753420535762], [174.851384237337, -36.3753897030646], [174.851380387582, -36.3754384291677], [174.851376957363, -36.3754874552414], [174.851374006523, -36.3755360141706], [174.851371615908, -36.375583284431], [174.85136986786, -36.3756285075726], [174.85135881517, -36.3760721121102], [174.8510602254, -36.3757146945358], [174.851039412216, -36.3756901475941], [174.851018260067, -36.375665407595], [174.850997157414, -36.3756408741461], [174.850976502152, -36.3756168745971], [174.850956715741, -36.3755937900169], [174.850938152358, -36.3755719844893], [174.850921153327, -36.3755517501858], [174.850905606579, -36.3755330618022], [174.850891287337, -36.3755158416971], [174.850877992896, -36.3755000028728], [174.850865497627, -36.375485431645], [174.850853633107, -36.3754720765402], [174.850842151209, -36.3754598152087], [174.850830849655, -36.3754485786737], [174.850819536672, -36.3754382707536], [174.850807998414, -36.3754288046229], [174.85079604332, -36.3754200931106], [174.85078365918, -36.3754120913359], [174.850770822855, -36.3754047636014], [174.850757555988, -36.3753980825297], [174.850743835226, -36.3753920034126], [174.850729682002, -36.3753864898619], [174.85071507296, -36.3753814971697], [174.850700018604, -36.3753769981311], [174.850684518078, -36.3753729567032], [174.850668559173, -36.3753693280053], [174.850652174675, -36.3753660844872], [174.850635386015, -36.3753631897607], [174.850618226835, -36.3753606523184], [174.850600762709, -36.37535841706], [174.850583016349, -36.3753565016615], [174.850565064472, -36.3753548508502], [174.850546929576, -36.3753534732912], [174.850528655591, -36.375352341262], [174.850510308947, -36.375351435705], [174.850491922216, -36.3753507200598], [174.850473540609, -36.3753502206677], [174.850455231409, -36.3753499545141], [174.850437062966, -36.3753499836377], [174.850419125489, -36.3753503517107], [174.850401465468, -36.3753511391387], [174.850384161542, -36.3753523717453], [174.850367293418, -36.3753541204073], [174.850350918089, -36.3753564383258], [174.850335092335, -36.3753593696911], [174.850319918148, -36.375362985035], [174.850305463023, -36.3753673103538], [174.850291748605, -36.3753723182706], [174.850278828899, -36.3753779358371], [174.850266758338, -36.3753841081265], [174.85025556928, -36.3753907895678], [174.85024531616, -36.375397925234], [174.85023603091, -36.3754054515329], [174.850227767963, -36.3754133135376], [174.850220570181, -36.3754214384724], [174.850214481496, -36.375429798615], [174.850209511342, -36.3754383217076], [174.850205614082, -36.3754469633875], [174.850202676795, -36.3754556623065], [174.850200631132, -36.3754643564258], [174.850199353456, -36.375473002591], [174.850198753133, -36.3754815391085], [174.850198751096, -36.3754899221333], [174.850199245782, -36.3754980991553], [174.850200157484, -36.3755059992974], [174.850201373709, -36.3755135792326], [174.850202837889, -36.3755208037814], [174.850204539309, -36.3755276911377], [174.850206512037, -36.3755342678157], [174.85020877964, -36.375540587534], [174.850211342544, -36.375546668314], [174.8502142691, -36.3755525721945], [174.850217548592, -36.3755583173694], [174.850221204159, -36.3755639395361], [174.850225292369, -36.375569473874], [174.85022980336, -36.3755749746198], [174.8502347712, -36.3755804682874], [174.850240118745, -36.3755859921279], [174.850245791135, -36.3755915830471], [174.850251722369, -36.3755972781234], [174.850257835302, -36.3756031146077], [174.850264075289, -36.3756091384167], [174.850270365397, -36.375615395812], [174.850276638985, -36.3756218968402], [174.850282819549, -36.3756287057842], [174.850288863159, -36.3756358503668], [174.850294681099, -36.3756433499903], [174.850300261374, -36.3756511687847], [174.850305580418, -36.3756592530314], [174.850310592379, -36.375667549357], [174.850315295975, -36.3756760036976], [174.850319656285, -36.3756845534965], [174.850323638385, -36.375693136197], [174.850327241636, -36.3757017247671], [174.85033044183, -36.3757102384563], [174.850333181973, -36.3757186240637], [174.850335473207, -36.3757268814168], [174.850337350882, -36.3757350910937], [174.850338863838, -36.375743432617], [174.850340070777, -36.3757520312728], [174.850340997615, -36.3757610398972], [174.850341726191, -36.3757706194736], [174.850342281782, -36.3757808958059], [174.850342724156, -36.3757920392335], [174.850343089943, -36.3758041843985], [174.850343449417, -36.3758174744356], [174.850343827637, -36.375832026138], [174.850344167609, -36.3758477863051], [174.8503443892, -36.3758646660387], [174.85034444549, -36.3758825669121], [174.850344245203, -36.3759014001998], [174.850343719347, -36.3759210768311], [174.850342809861, -36.3759414985518], [174.850341414324, -36.3759625768092], [174.850339497387, -36.3759842310251], [174.850336967345, -36.3760063544529], [174.850333799565, -36.3760288483204], [174.850330013128, -36.3760515771224], [174.85032574926, -36.3760743854333], [174.850321060472, -36.3760971372298], [174.850316042992, -36.3761196597555], [174.850310782972, -36.3761418254799], [174.850305376854, -36.3761634706575], [174.850299899222, -36.376184449909], [174.850294457872, -36.3762046083267], [174.85028912739, -36.3762238005317], [174.850283938854, -36.3762419268887], [174.85027872854, -36.3762591341578], [174.850273255365, -36.3762755973399], [174.85026732324, -36.3762915087662], [174.850260691723, -36.3763070704694], [174.850253130658, -36.3763224482665], [174.850244433456, -36.3763378616935], [174.850234347675, -36.3763534769126], [174.850222677227, -36.376369486255], [174.850209170526, -36.3763860919253], [174.850193741415, -36.3764034214533], [174.850176688186, -36.3764213620492], [174.850158453559, -36.376439780658], [174.850139468261, -36.3764585083548], [174.850120174157, -36.3764773760422], [174.8501009694, -36.3764962513564], [174.850082340643, -36.3765149735207], [174.850064673828, -36.3765333652911], [174.850048434392, -36.37655131129], [174.850034029923, -36.3765686068965], [174.850021782497, -36.376585202052], [174.850011538678, -36.3766012073017], [174.850003047519, -36.3766168518828], [174.849996013075, -36.3766323477016], [174.849990172617, -36.3766478971355], [174.849985263412, -36.3766637025622], [174.84998100066, -36.3766799757148], [174.84997714434, -36.376696936647], [174.849973376222, -36.3767147976096], [174.849969477504, -36.3767337332576], [174.849965195957, -36.3767539187637], [174.849960606165, -36.376775208749], [174.84995582579, -36.3767973940693], [174.849950939063, -36.3768202660986], [174.849946063434, -36.3768436066822], [174.849941306061, -36.3768672338807], [174.849936784606, -36.3768909385502], [174.849932605375, -36.3769145027086], [174.849928863744, -36.3769377175572], [174.849925689159, -36.3769604008116], [174.849923154711, -36.3769823440181], [174.84992110312, -36.3770034955295], [174.849919411388, -36.377023839223], [174.849917899736, -36.3770433147859], [174.849916422665, -36.37706189743], [174.849914790107, -36.3770795630577], [174.849912855923, -36.377096259849], [174.849910463687, -36.3771119721991], [174.849907455904, -36.3771266394498], [174.849903642931, -36.3771402555247], [174.849898946128, -36.3771527946001], [174.849893355418, -36.3771643019018], [174.849886950723, -36.3771748573175], [174.849879834249, -36.3771845403894], [174.849872029777, -36.3771934138469], [174.849863639513, -36.3772015572325], [174.849854732022, -36.3772090415955], [174.849845364514, -36.3772159291477], [174.849835617121, -36.3772223087872], [174.849825569554, -36.3772282513912], [174.849815256733, -36.3772338195162], [174.849804657229, -36.3772390495502], [174.849793715111, -36.3772439333453], [174.849782409163, -36.3772485163001], [174.849770694813, -36.3772527991047], [174.849758495127, -36.3772568280205], [174.849745798536, -36.3772605851987], [174.849732528533, -36.377264134922], [174.849718662407, -36.3772674595138], [174.849704145083, -36.377270586869], [174.849688954915, -36.3772735443646], [174.84967316905, -36.3772762947494], [174.849656876632, -36.3772788366427], [174.849640144303, -36.3772811599979], [174.849623104499, -36.3772832086799], [174.849605824291, -36.3772849906638], [174.849588392182, -36.3772864775369], [174.849570896887, -36.377287649897], [174.849553460553, -36.3772884878245], [174.849536138468, -36.3772889724353], [174.849519019347, -36.3772890843274], [174.849502093756, -36.3772888957589], [174.849485350979, -36.3772884249236], [174.849468770863, -36.3772877622735], [174.849452320835, -36.3772869443689], [174.849435979889, -36.3772860256192], [174.849419727446, -36.3772850784546], [174.849403542074, -36.3772841392632], [174.849387402981, -36.3772832714646], [174.849371300518, -36.3772825383061], [174.849355191393, -36.377281994542], [174.849339042179, -36.3772816406899], [174.849322809155, -36.3772815134827], [174.849306448392, -36.3772816406425], [174.849289915103, -36.377282013849], [174.849273154642, -36.377282679018], [174.849256111719, -36.3772836550336], [174.84923877498, -36.3772849330575], [174.849221067702, -36.3772865683614], [174.849202967388, -36.3772885522796], [174.849184419175, -36.3772909217173], [174.849165479418, -36.3772937028436], [174.849146182612, -36.377296940194], [174.849126574182, -36.3773006691209], [174.849106699339, -36.3773049159661], [174.849086626007, -36.3773097247474], [174.849066366181, -36.377315131335], [174.849045998716, -36.3773211705638], [174.849025546749, -36.3773278781313], [174.849005078204, -36.3773352980557], [174.848984571222, -36.3773434487033], [174.848963823523, -36.3773522610943], [174.848942599612, -36.3773616757767], [174.848920618995, -36.3773716159672], [174.84889764639, -36.3773820312243], [174.848873423376, -36.3773928354085], [174.848847691958, -36.3774039604015], [174.848820194354, -36.3774153470954], [174.848790683287, -36.3774269091774], [174.84875888983, -36.3774385877114], [174.848724700635, -36.3774503033246], [174.84868847014, -36.3774619603884], [174.848650664428, -36.3774734705604], [174.8486117708, -36.3774847001], [174.848572278053, -36.3774955783422], [174.848532651844, -36.3775059989249], [174.84849339126, -36.3775158549688], [174.848454951029, -36.3775250492964], [174.848417830238, -36.3775334750295], [174.848382494761, -36.3775410348193], [174.848349321539, -36.3775476417073], [174.848318267069, -36.3775533414384], [174.848289164208, -36.3775581366013], [174.848261858236, -36.3775620836757], [174.848236182863, -36.3775652212923], [174.848211972013, -36.3775675970922], [174.84818908168, -36.377569249361], [174.848167345362, -36.377570207718], [174.84814660791, -36.3775705106207], [174.84812669253, -36.3775702239036], [174.848107476225, -36.3775693314425], [174.848088825706, -36.3775678533284], [174.848070672622, -36.3775657275215], [174.848052904906, -36.3775629287143], [174.848035465776, -36.3775594127159], [174.848018209948, -36.3775551637466], [174.848001080215, -36.377550119594], [174.847983976078, -36.3775442727994], [174.847966806689, -36.3775375526567], [174.847949471761, -36.3775299607178], [174.84793191494, -36.3775214708126], [174.847914139639, -36.377512227112], [174.847896216554, -36.3775023907732], [174.847878194308, -36.3774921323093], [174.847860109956, -36.3774816043844], [174.847842045976, -36.3774709950158], [174.847824005992, -36.3774604573848], [174.847806072056, -36.3774501614874], [174.847788281222, -36.3774402599878], [174.84777069368, -36.3774309412483], [174.847753322919, -36.3774223042138], [174.847736012936, -36.3774143512982], [174.847718572171, -36.3774069953258], [174.847700831559, -36.3774001577864], [174.847682589036, -36.3773937787085], [174.847663686681, -36.3773877794094], [174.847643900144, -36.3773821002621], [174.847623071078, -36.3773766445621], [174.847600998058, -36.3773713793694], [174.847577511595, -36.3773662081517], [174.847552420768, -36.3773610707642], [174.847525558646, -36.3773559788023], [174.84749677008, -36.3773509707208], [174.847465887928, -36.3773460491041], [174.847432767972, -36.3773412432236], [174.847397232137, -36.3773365648459], [174.847359125064, -36.3773320434142], [174.847318302532, -36.3773277081989], [174.847274575113, -36.3773235621272], [174.847227798802, -36.3773196434795], [174.847177940382, -36.3773159617798], [174.847125447276, -36.3773125822158], [174.84707088841, -36.3773095230263], [174.847014855852, -36.3773068381494], [174.846957908237, -36.3773045820409], [174.846900637419, -36.3773027996304], [174.846843601607, -36.3773015273545], [174.846787381937, -36.3773008283385], [174.846732558479, -36.3773007206554], [174.846679712581, -36.3773012764431], [174.846629267886, -36.3773024981675], [174.846581144687, -36.3773043149523], [174.84653509507, -36.3773066134521], [174.846490904976, -36.3773092978251], [174.846448326276, -36.3773122457145], [174.8464071222, -36.3773153436009], [174.846367067758, -36.3773185048245], [174.846327937323, -36.3773216156932], [174.846289494337, -36.3773245716974], [174.846251501817, -36.3773272503058], [174.846213790701, -36.3773295730068], [174.846176405137, -36.3773315210901], [174.846139467483, -36.3773330836506], [174.846103100526, -36.3773342678044], [174.846067415695, -36.3773350718297], [174.846032524207, -36.3773354849938], [174.845998537918, -36.3773355235963], [174.845965567833, -36.3773351678943], [174.845933747666, -36.3773344158216], [174.845903177704, -36.3773332658291], [174.845873924593, -36.3773317078736], [174.845845862565, -36.3773296086903], [174.845818776499, -36.3773268273816], [174.845792495417, -36.377323204339], [174.845766848981, -36.3773186069863], [174.845741621856, -36.3773128854143], [174.845716643705, -36.3773059070463], [174.845691710335, -36.3772975218007], [174.845666639415, -36.3772875612299], [174.845641261035, -36.377275910778], [174.845615371215, -36.3772624293736], [174.845588814384, -36.3772471374485], [174.84556143433, -36.3772300284024], [174.84553306455, -36.3772111318496], [174.845503538755, -36.3771904864152], [174.845472700734, -36.3771680854981], [174.845440395556, -36.3771439765615], [174.845406467222, -36.3771181620145], [174.845370738089, -36.3770906716427], [174.845333063729, -36.3770615257041], [174.845293160891, -36.3770305302661], [174.845250213312, -36.3769966342895], [174.84520327705, -36.3769585723709], [174.845151464098, -36.376915087255], [174.845093796889, -36.3768649050399], [174.84502938743, -36.3768067684647], [174.844957291389, -36.3767393940942], [174.84487657644, -36.3766615343595], [174.844785613532, -36.3765712313315], [174.84473344117, -36.3765225613284]]}, "properties": {"OBJECTID": 12208, "TRACKNAME": "South Coast Track", "CONDITIONSOFUSE": "Tawharanui Regional Park", "STATUS": "Open", "WEBLINK": "https://www.aucklandcouncil.govt.nz/en/parks-recreation/find-park-beach/park-detail/228.html", "VALIDATIONSTATE": 3, "created_user": "AC_owner", "last_edited_user": "AC_owner", "last_edited_date": 1789875254325, "created_date": 1789875254325, "PARK_SAPSITEID": null, "TRACK_ID": null, "KAURIDIEBACK_TRACK": null, "KAURIDIEBACK_MITIGATED": null, "SegmentID": null, "GlobalID": "0138e5c9-2642-498d-88eb-ead7ee676194", "Shape__Length": 2022.6239029092603}}]}