{"type": "FeatureCollection", "features": [{"type": "Feature", "id": 12176, "geometry": {"type": "LineString", "coordinates": [[174.545108685061, -36.9069843980997], [174.54515931096, -36.9070031143792], [174.5451759061, -36.9070315024127], [174.545175612608, -36.9071137720007], [174.545184791306, -36.9071459115448], [174.545299508384, -36.9073079970486], [174.545330575787, -36.9073433770483], [174.545413345097, -36.9074119567584], [174.545695908265, -36.9077129305333], [174.545865593751, -36.9079294059603], [174.545971873789, -36.9079733622617], [174.546272179858, -36.9080428991335], [174.54634563119, -36.9080493169803], [174.546482744688, -36.9080309963303], [174.546522289348, -36.9080320651562], [174.546551736859, -36.9080480451136], [174.546593772704, -36.9080858841948]]}, "properties": {"OBJECTID": 12176, "TRACKNAME": "Spragg Bush Walk", "CONDITIONSOFUSE": "Waitakere North Regional Park", "STATUS": "Open", "WEBLINK": "https://www.aucklandcouncil.govt.nz/en/parks-recreation/find-park-beach/park-detail/3407.html", "VALIDATIONSTATE": 3, "created_user": "AC_owner", "last_edited_user": "AC_owner", "last_edited_date": 1789875254325, "created_date": 1789875254325, "PARK_SAPSITEID": null, "TRACK_ID": null, "KAURIDIEBACK_TRACK": null, "KAURIDIEBACK_MITIGATED": null, "SegmentID": null, "GlobalID": "6c2991cc-fd66-4579-8799-a2ad6c83ffed", "Shape__Length": 197.31340188146453}}, {"type": "Feature", "id": 12202, "geometry": {"type": "LineString", "coordinates": [[174.543097799701, -36.9057424829997], [174.543102481896, -36.9057291991439], [174.543218385268, -36.9054993144474], [174.543266588942, -36.90546906931], [174.54333752225, -36.9054483537112], [174.543880426532, -36.9053298266663], [174.543934144936, -36.9053226205884], [174.54396554277, -36.905325628649], [174.544134989109, -36.9053857013417], [174.544160761661, -36.9054114337857], [174.544195582649, -36.9054756811061], [174.544241890876, -36.9055925179524], [174.544273779547, -36.9058169669471], [174.544387198783, -36.9061243180575], [174.544420057159, -36.9061674628194], [174.544533955211, -36.9062351976619], [174.544562204865, -36.9062663059912], [174.544540338565, -36.9064632771955], [174.544542071717, -36.9065442242802], [174.544554966638, -36.9065853391213], [174.544757119171, -36.9067615320768], [174.544792634811, -36.90678113457], [174.544939147677, -36.9068358798025], [174.544967157695, -36.9068600957037], [174.545050034167, -36.9069679206169], [174.54510868736, -36.9069844007739]]}, "properties": {"OBJECTID": 12202, "TRACKNAME": "Spragg Bush Walk", "CONDITIONSOFUSE": "Waitakere North Regional Park", "STATUS": "Open", "WEBLINK": "https://www.aucklandcouncil.govt.nz/en/parks-recreation/find-park-beach/park-detail/3407.html", "VALIDATIONSTATE": 3, "created_user": "AC_owner", "last_edited_user": "AC_owner", "last_edited_date": 1789875254325, "created_date": 1789875254325, "PARK_SAPSITEID": null, "TRACK_ID": null, "KAURIDIEBACK_TRACK": null, "KAURIDIEBACK_MITIGATED": null, "SegmentID": null, "GlobalID": "2e5d3e5d-6697-46dd-8001-25586676e90d", "Shape__Length": 327.4412586097159}}, {"type": "Feature", "id": 12210, "geometry": {"type": "LineString", "coordinates": [[174.546427174993, -36.9037254472053], [174.54618817084, -36.9036922398046], [174.546123949062, -36.9036894666822], [174.54601430138, -36.9037253890815], [174.545956838958, -36.903760571817], [174.54592868916, -36.9038163766492], [174.545866997132, -36.9039859232181], [174.545870086118, -36.9040288186491], [174.545909441439, -36.9041671122026], [174.545907495179, -36.9042038744737], [174.545869181831, -36.9042245699864], [174.545635131277, -36.9042870851037], [174.54559528182, -36.9043055822573], [174.545631769028, -36.9043285492898], [174.545933862564, -36.9044500168319], [174.545956207303, -36.9044624397742], [174.545961099922, -36.9044755738856], [174.545811846329, -36.9045667109144], [174.545746540168, -36.9047415233471], [174.545660116525, -36.9048217364467], [174.545594038497, -36.9048661934974], [174.545532290868, -36.9048764513569], [174.545204195948, -36.9048932488608], [174.545084637374, -36.9048775132087], [174.545023187709, -36.9048603095412], [174.545020497026, -36.9048478831651], [174.545031718802, -36.9048332549669], [174.545135429629, -36.904768433599], [174.545153627663, -36.9047341396932], [174.54514108711, -36.9045625702125], [174.545087358587, -36.9043006202808], [174.545070793484, -36.9042731322897], [174.545036619672, -36.9042597922197], [174.544788187045, -36.9042300658423], [174.544740695165, -36.9042450016563], [174.544578636655, -36.904333031715], [174.544298052188, -36.9044425506828], [174.54427502468, -36.904466900291], [174.544248498802, -36.9045558439512], [174.544228119354, -36.9045754810379], [174.544020696076, -36.9045643802419], [174.543832958345, -36.9046190572588], [174.54364133031, -36.9047841423083], [174.543615757623, -36.9048303063608], [174.543585656309, -36.9049239969611], [174.543546976083, -36.9049615159775], [174.543241153705, -36.9051504570472], [174.543202713996, -36.9051538516414], [174.543119293654, -36.9051215443142], [174.543082935932, -36.9051418755191], [174.543037667265, -36.9051826437535], [174.542958731887, -36.9052747647268], [174.542944342347, -36.9053120220979], [174.542970951601, -36.90538550188], [174.543095425428, -36.9056352576797], [174.543103210176, -36.9056809936789], [174.543097830825, -36.9057420778824]]}, "properties": {"OBJECTID": 12210, "TRACKNAME": "Spragg Bush Walk", "CONDITIONSOFUSE": "Waitakere North Regional Park", "STATUS": "Open", "WEBLINK": "https://www.aucklandcouncil.govt.nz/en/parks-recreation/find-park-beach/park-detail/3407.html", "VALIDATIONSTATE": 3, "created_user": "AC_owner", "last_edited_user": "AC_owner", "last_edited_date": 1789875254325, "created_date": 1789875254325, "PARK_SAPSITEID": null, "TRACK_ID": null, "KAURIDIEBACK_TRACK": null, "KAURIDIEBACK_MITIGATED": null, "SegmentID": null, "GlobalID": "faa37dac-1d69-445e-a639-7b6ea9c62944", "Shape__Length": 640.677442668144}}, {"type": "Feature", "id": 12231, "geometry": {"type": "LineString", "coordinates": [[174.54510868736, -36.9069844007739], [174.545094585468, -36.9070153477964], [174.545013833214, -36.9071130154993], [174.544865725926, -36.9074233619146], [174.544764375065, -36.9075421098704], [174.544691966709, -36.9076038576149], [174.544528989487, -36.907646673597], [174.54438668775, -36.9077151257602], [174.544344978578, -36.9077557787989], [174.544247213064, -36.9078854042459], [174.544240126423, -36.907909698026], [174.544244061374, -36.9079439798559], [174.544333935592, -36.9082936586185], [174.544341196257, -36.9083954635077], [174.544317412253, -36.9084455911736], [174.544258071478, -36.9084802359759], [174.544199691572, -36.9084985174996], [174.54398531019, -36.9084681161545], [174.543923976911, -36.9084751959141], [174.543527686007, -36.9086265748008], [174.543418480241, -36.9086754237016], [174.543260420704, -36.9088376770186], [174.543176483066, -36.9088732718211], [174.543037561031, -36.9089101938044], [174.543009074025, -36.9089241564561], [174.542997553517, -36.9090582309076], [174.542973937216, -36.9091618701629], [174.542953299554, -36.9092088830343], [174.542907820756, -36.9092625191283], [174.542717989678, -36.9093989457057], [174.54268665653, -36.9094298818935], [174.542692993522, -36.9094630779783], [174.542751037743, -36.9095317291717], [174.543041368406, -36.9097750399394], [174.543061046786, -36.9098247108879], [174.543132638038, -36.9101139030681]]}, "properties": {"OBJECTID": 12231, "TRACKNAME": "Spragg Bush Walk", "CONDITIONSOFUSE": "Waitakere North Regional Park", "STATUS": "Open", "WEBLINK": "https://www.aucklandcouncil.govt.nz/en/parks-recreation/find-park-beach/park-detail/3407.html", "VALIDATIONSTATE": 3, "created_user": "AC_owner", "last_edited_user": "AC_owner", "last_edited_date": 1789875254325, "created_date": 1789875254325, "PARK_SAPSITEID": null, "TRACK_ID": null, "KAURIDIEBACK_TRACK": null, "KAURIDIEBACK_MITIGATED": null, "SegmentID": null, "GlobalID": "f6f61c26-a66d-48b3-bdc0-1fb1eff5f88b", "Shape__Length": 485.0071421740057}}, {"type": "Feature", "id": 12255, "geometry": {"type": "LineString", "coordinates": [[174.541336656544, -36.9062072704745], [174.541378653059, -36.9061769534085], [174.541456764893, -36.906164861975], [174.541513022651, -36.9061761561051], [174.541676364004, -36.9062301371757], [174.541740271968, -36.9062333908748], [174.542189290842, -36.9061787619939], [174.542454195791, -36.9061283341478], [174.5424670161, -36.9061318001693], [174.542473520462, -36.9061476878987], [174.542470378197, -36.9062536211024], [174.542497018822, -36.9062817853342], [174.542530123988, -36.9062971022766], [174.542574537357, -36.9062881698457], [174.542747887807, -36.9061937178149], [174.542757937792, -36.9061972828815], [174.542766268634, -36.906214688206], [174.542784901405, -36.9063139298827], [174.542803983515, -36.9063334940425], [174.542861901939, -36.9063319305186], [174.543098590427, -36.9062932429675], [174.543119579648, -36.9062793236227], [174.543130705381, -36.906257726592], [174.543158515212, -36.9061115784856], [174.543149820795, -36.9060778001057], [174.543075177467, -36.9059227254537], [174.543078825528, -36.9057962525647], [174.543097799701, -36.9057424829997]]}, "properties": {"OBJECTID": 12255, "TRACKNAME": "Spragg Bush Walk", "CONDITIONSOFUSE": "Waitakere North Regional Park", "STATUS": "Open", "WEBLINK": "https://www.aucklandcouncil.govt.nz/en/parks-recreation/find-park-beach/park-detail/3407.html", "VALIDATIONSTATE": 3, "created_user": "AC_owner", "last_edited_user": "AC_owner", "last_edited_date": 1789875254325, "created_date": 1789875254325, "PARK_SAPSITEID": null, "TRACK_ID": null, "KAURIDIEBACK_TRACK": null, "KAURIDIEBACK_MITIGATED": null, "SegmentID": null, "GlobalID": "2d9b7516-9851-4eef-9a63-80fa21a74586", "Shape__Length": 255.9149642557498}}]}