{"type": "FeatureCollection", "features": [{"type": "Feature", "id": 4937, "geometry": {"type": "MultiLineString", "coordinates": [[[175.057506279749, -36.8110729909612], [175.057565536197, -36.8111267476082], [175.057565543113, -36.811126754699], [175.057592588988, -36.8111734456105], [175.057589014214, -36.8111819815692], [175.057651273758, -36.8111485695255], [175.057651278264, -36.8111485703488], [175.057670967272, -36.8111785873355], [175.057670969658, -36.8111785927021], [175.05768854036, -36.8112303471053], [175.057697494887, -36.8112627310619], [175.057697499562, -36.8112627381914], [175.057714139111, -36.8112797966986], [175.057752116582, -36.8112878098588], [175.057752119967, -36.8112878107015], [175.057792398269, -36.8112806105285], [175.057807985151, -36.8112586462618], [175.057807987344, -36.8112586444212], [175.057842807198, -36.8112493692785], [175.057842816113, -36.8112493673216], [175.057875105506, -36.8112466452092], [175.057875108867, -36.811246645151], [175.057918071557, -36.8112393957608], [175.057918080592, -36.8112393983083], [175.057943103162, -36.8112671570741], [175.057943109933, -36.8112671587595], [175.057988871892, -36.8112641907573], [175.05798888412, -36.8112641869404], [175.058020832077, -36.8112484630476], [175.058020837727, -36.8112484647524], [175.05803811243, -36.8112893652868], [175.058038117008, -36.8112893688128], [175.058086944424, -36.8112993661677], [175.058086946689, -36.8112993670298], [175.058119468151, -36.8113053104975], [175.058119477138, -36.8113053112432], [175.05816537242, -36.8113066932723], [175.058165376878, -36.8113066922938], [175.058216021145, -36.8112841182798], [175.058252122828, -36.8113225404807], [175.05825212402, -36.811322543164], [175.05825270439, -36.8113442140358], [175.058252705728, -36.8113442221244], [175.058256670889, -36.8113918695199], [175.058256672154, -36.8113918749058], [175.058265574348, -36.8114220857709], [175.058300566148, -36.8114193140461], [175.058300571775, -36.81141931485], [175.058328369315, -36.8114239880959], [175.058328374966, -36.8114239898007], [175.058358007795, -36.8114486808166], [175.058358010084, -36.8114486825795], [175.058385842646, -36.8114807368867], [175.058385843838, -36.81148073957], [175.058390303259, -36.8115146533101], [175.05841215224, -36.8115562046346], [175.058412157866, -36.8115562054384], [175.058446447265, -36.8115274161113], [175.058446449434, -36.8115274133698], [175.058474946338, -36.8114835346276], [175.058510222812, -36.8114915997227], [175.058510225101, -36.8114916014857], [175.05853255357, -36.8115194139864], [175.05853255598, -36.8115194202538], [175.05853612143, -36.8115518866485], [175.058536122671, -36.8115518911335], [175.058580362822, -36.81159233002], [175.058580367401, -36.8115923335459], [175.058668402736, -36.8116558832514], [175.058668406218, -36.8116558876976], [175.058675304081, -36.811712157552], [175.058675303202, -36.8117121665803], [175.058665971975, -36.8117665453485], [175.058665972096, -36.8117665498529], [175.058668410245, -36.8118576116463], [175.058668410318, -36.811857614349], [175.058682488401, -36.8119346620396], [175.058682488618, -36.8119346701476], [175.058685175039, -36.8120807361487], [175.05868517287, -36.8120807388901], [175.058643588568, -36.8121079917115], [175.058672106619, -36.8122167577477], [175.058672106788, -36.8122167640539], [175.058671950458, -36.8125049773819], [175.058671949483, -36.8125049828066], [175.05864265921, -36.8125878387905], [175.058642658258, -36.8125878451161], [175.058652957393, -36.8126908230228], [175.058652959827, -36.8126908301911], [175.058684241207, -36.8127510112275], [175.058684242424, -36.8127510148116], [175.05869535394, -36.812790415843], [175.058695357398, -36.8127904193883], [175.058723076079, -36.8127962719064], [175.058723085187, -36.8127962771564], [175.058847569549, -36.8129588158695], [175.058847570766, -36.8129588194536], [175.058839028847, -36.813007262074], [175.058839031329, -36.8130072710441], [175.058875727987, -36.8130541342706], [175.058875730252, -36.8130541351326], [175.058934105971, -36.8130642127957], [175.058970122747, -36.8131221801388], [175.058970126205, -36.8131221836841], [175.059024024965, -36.8131489571253], [175.05907060484, -36.8131600339943], [175.05910849997, -36.8132148024682], [175.059108502235, -36.8132148033303], [175.059143915734, -36.813213391323], [175.05914391912, -36.8132133921656], [175.059216106022, -36.8132612358023], [175.059259038372, -36.813319875499], [175.059275124067, -36.8134587575447], [175.059275126525, -36.8134587656139], [175.059309225491, -36.8135232473581], [175.05930922666, -36.8135232491404], [175.059329266701, -36.8135662754993], [175.059329270183, -36.8135662799455], [175.059401889192, -36.8136377184674], [175.059401892722, -36.8136377247154], [175.059405366407, -36.8136685883332], [175.059405368696, -36.8136685900961], [175.059547263861, -36.813666138898], [175.059638526918, -36.8136303350512], [175.059638532424, -36.8136303313506], [175.059707181319, -36.8135749193098], [175.059800345002, -36.8135049346398], [175.059800348315, -36.8135049327798], [175.059954130364, -36.8134510656373], [175.060074539641, -36.8133892340954], [175.060074541858, -36.8133892331556], [175.060258035131, -36.8132559062518], [175.060258043973, -36.813255901592], [175.060443998768, -36.8131847227323], [175.060444006563, -36.8131847207946], [175.060480158224, -36.8131727962853], [175.060480169283, -36.8131727906857], [175.060563475796, -36.8131132367546], [175.060563481278, -36.8131132321531], [175.060673751454, -36.813024680812], [175.060673755839, -36.8130246771308], [175.060942567228, -36.8128637214503], [175.061004465513, -36.812858308472], [175.061004471067, -36.8128583065731], [175.061054943507, -36.812829236818], [175.061054950133, -36.8128292330979], [175.061119754945, -36.8127854497578], [175.061119757162, -36.8127854488181], [175.061403736993, -36.8127581117285], [175.061403744812, -36.8127581106917], [175.06150844301, -36.8127389493873], [175.061630796279, -36.8126739153919], [175.061630799616, -36.8126739144327], [175.061710753751, -36.8126378265597], [175.06177689011, -36.8125889607448], [175.061776894495, -36.8125889570635], [175.061845953543, -36.8125487155829], [175.06196861032, -36.8124784294821], [175.06196861585, -36.8124784266823], [175.062197094067, -36.8123901839423], [175.06219709626, -36.8123901821016], [175.06228310835, -36.8123321573345], [175.062283110567, -36.8123321563947], [175.062399737885, -36.812277857265], [175.06258318598, -36.8123408175142], [175.062768744673, -36.8123834650852], [175.062768751468, -36.8123834676712], [175.062944301713, -36.8124624129578], [175.062944308508, -36.8124624155437], [175.063126528875, -36.812517816269], [175.063126537887, -36.8125178179152], [175.063251561482, -36.8125525212312], [175.063251564843, -36.8125525211728], [175.063444582316, -36.8126077448116], [175.063444584581, -36.8126077456736], [175.063580858245, -36.8126596052779], [175.06372516554, -36.8127091549073], [175.063725176841, -36.8127091583163], [175.063822943507, -36.8127334897267], [175.063822948061, -36.8127334923515], [175.063883049817, -36.8127851211227], [175.063883053251, -36.812785123767], [175.064083970905, -36.8128731032128], [175.064083979965, -36.8128731066607], [175.064375776405, -36.812971708499], [175.06437604843, -36.8129718200432], [175.064622057511, -36.8130941834826], [175.064632738396, -36.8130977050357], [175.064697937982, -36.8131095729988], [175.064700330273, -36.8131103723636], [175.064889744905, -36.8132046763868], [175.064927821987, -36.8132236354487], [175.064927825372, -36.8132236362912], [175.06514388742, -36.8131956178759], [175.065145170754, -36.8131949862982], [175.065201367653, -36.8131328393077], [175.065204627127, -36.8131301184216], [175.065312259867, -36.8130625883403], [175.065312881811, -36.813062372938], [175.065370368718, -36.8130557833203], [175.065374096644, -36.8130557699217], [175.065420154272, -36.8130593554071]], [[175.057506278628, -36.8110729909806], [175.057456839548, -36.8111410895485]]]}, "properties": {"OBJECTID": 4937, "TRACKNAME": "Stanimoroff Walkway", "CONDITIONSOFUSE": "Whakanewha Regional Park", "STATUS": "Open", "WEBLINK": "https://www.aucklandcouncil.govt.nz/en/parks-recreation/find-park-beach/park-detail/3422.html", "VALIDATIONSTATE": 3, "created_user": "AC_owner", "last_edited_user": "AC_owner", "last_edited_date": 1789875254325, "created_date": 1789875254325, "PARK_SAPSITEID": null, "TRACK_ID": null, "KAURIDIEBACK_TRACK": null, "KAURIDIEBACK_MITIGATED": null, "SegmentID": null, "GlobalID": "9545035f-7a9d-4076-b5d0-07c396b20ca5", "Shape__Length": 1046.8935645192896}}]}