{"type": "FeatureCollection", "features": [{"type": "Feature", "id": 10735, "geometry": {"type": "MultiLineString", "coordinates": [[[175.068205536185, -36.8052541341875], [175.068227821396, -36.8052392471775], [175.068234281051, -36.8052188860668]], [[175.068234281051, -36.8052188860668], [175.068222978268, -36.8052079615021], [175.068198539165, -36.805183201506]], [[175.068234281051, -36.8052188860668], [175.06827070094, -36.8052099496107]]]}, "properties": {"OBJECTID": 10735, "TRACKNAME": "Steps by BBQ", "CONDITIONSOFUSE": "Onetangi Sports Park (Rangihoua)", "STATUS": "Open", "WEBLINK": "https://www.aucklandcouncil.govt.nz/en/parks-recreation/find-park-beach/park-detail/120.html", "VALIDATIONSTATE": 3, "created_user": "AC_owner", "last_edited_user": "AC_owner", "last_edited_date": 1789875254325, "created_date": 1789875254325, "PARK_SAPSITEID": null, "TRACK_ID": null, "KAURIDIEBACK_TRACK": null, "KAURIDIEBACK_MITIGATED": null, "SegmentID": null, "GlobalID": "c7a5cccc-c1df-4e83-be69-88725e741aa7", "Shape__Length": 13.400651132883066}}]}