{"type": "FeatureCollection", "features": [{"type": "Feature", "id": 12087, "geometry": {"type": "LineString", "coordinates": [[175.153564275106, -36.771447450833], [175.154020182439, -36.7713600452918], [175.156086429267, -36.7711602908155], [175.158381191922, -36.7705318530462], [175.158996800141, -36.7700712084291], [175.160157617553, -36.7694071347982], [175.160214584225, -36.7692250631801], [175.159980043223, -36.7688859788057], [175.160526103979, -36.7678834783282], [175.161338493371, -36.7678000473461], [175.162308660115, -36.7675327053121], [175.163279130963, -36.7675525104885], [175.164353336702, -36.7668462747421], [175.165237437944, -36.766830180838], [175.166297977332, -36.7650878981586], [175.166542101541, -36.7649398702362], [175.168460568703, -36.7652857052877], [175.168898565431, -36.7651341373043], [175.16926096354, -36.7647779397867], [175.170025370391, -36.7646453835969], [175.170607349029, -36.7646472473531], [175.171874760586, -36.7647427177732], [175.17258734997, -36.7644238126276], [175.172839918437, -36.7643005880189], [175.173848594905, -36.7640262068285]]}, "properties": {"OBJECTID": 12087, "TRACKNAME": "Stoney Batter Access", "CONDITIONSOFUSE": null, "STATUS": null, "WEBLINK": null, "VALIDATIONSTATE": 3, "created_user": "AC_owner", "last_edited_user": "AC_owner", "last_edited_date": 1789875254325, "created_date": 1789875254325, "PARK_SAPSITEID": null, "TRACK_ID": null, "KAURIDIEBACK_TRACK": null, "KAURIDIEBACK_MITIGATED": null, "SegmentID": null, "GlobalID": "7a855631-39e1-4e9a-9842-5b97d15f6f2e", "Shape__Length": 2227.3937161197664}}]}