{"type": "FeatureCollection", "features": [{"type": "Feature", "id": 14, "geometry": {"type": "LineString", "coordinates": [[174.567646793992, -36.9621617937926], [174.567399842952, -36.9621256834208], [174.567241440323, -36.9621210235844], [174.567094475971, -36.962081483356], [174.566852946822, -36.9619646290359], [174.56671668992, -36.9618720555238], [174.566554282968, -36.9618309157083], [174.566200161166, -36.9617024040035], [174.566020563946, -36.9616187660267], [174.565890033636, -36.9615358957002], [174.56579103837, -36.9613924528822], [174.56573384428, -36.9612399859313], [174.565704567437, -36.9609967358553], [174.565698212497, -36.9607994139451], [174.565689178926, -36.960747164368], [174.565617686096, -36.9605836730625], [174.565534935696, -36.9604496332117], [174.56548762422, -36.9603513334049], [174.565376784701, -36.9600451174509], [174.565357825629, -36.9599644978693], [174.565366613004, -36.9594693307696], [174.565380972306, -36.9593318830787], [174.565444335324, -36.958954686742], [174.565513289683, -36.9587809245952], [174.565521095047, -36.9587106782082], [174.565514641771, -36.9584673703653], [174.565483623078, -36.9582437205166], [174.565451402645, -36.9581078334319], [174.565379890273, -36.9579827308649], [174.565333336694, -36.9577759788897], [174.565319330853, -36.9575685994506], [174.565346101189, -36.9573697229609], [174.565384717685, -36.9573089491669], [174.565618841288, -36.9570540051716], [174.56595964442, -36.9567707752134], [174.5661420911, -36.9566393214948], [174.566149787088, -36.9566114762515], [174.566117715043, -36.9565300112002], [174.566123598743, -36.9565003240595], [174.566318836098, -36.956312898429], [174.566430208164, -36.9561792091891], [174.566661212784, -36.9558732335163], [174.566774003905, -36.9555293111127], [174.566774748681, -36.9554626099925], [174.566757886806, -36.9553977456383], [174.566719350681, -36.9553362679704], [174.566561061539, -36.9551539033359], [174.566452556357, -36.9549894044837], [174.566408754624, -36.9549554064056], [174.565901239551, -36.9548539206973], [174.565847465175, -36.954856685037], [174.565697954093, -36.9548928002154], [174.565649057833, -36.9548952026861], [174.565515887777, -36.9547881290959], [174.565061739772, -36.9545502819961], [174.564988032504, -36.9545328479301], [174.564430483619, -36.954446545259], [174.56437385816, -36.9544285161625], [174.564349382629, -36.9543937849337], [174.564276034835, -36.9541990039037], [174.564247152212, -36.9541541634229], [174.564199069528, -36.9541232945372], [174.564153790927, -36.9541048724688], [174.56403374435, -36.9541088245575], [174.563999777615, -36.9540987441833], [174.563886886895, -36.9539869037968], [174.563776482968, -36.9538555071704], [174.563732510716, -36.9537861681537], [174.563691142585, -36.9536777570883], [174.563685701644, -36.9535517290302], [174.563693185278, -36.9534382218376], [174.5636621654, -36.9534113102849], [174.563551857037, -36.9533581318547], [174.563535402374, -36.9533091795756], [174.563515202663, -36.9532835946976], [174.563348768906, -36.9531917298702], [174.563247575139, -36.9531124630569], [174.563201792957, -36.9530528823049], [174.563161423796, -36.9529811971589], [174.56310273016, -36.9524415797733], [174.563086694295, -36.9524004546931], [174.562992209585, -36.9522707765839], [174.562988393296, -36.9522131850834], [174.563004370388, -36.9520750491933], [174.562933154949, -36.9519359609879], [174.562912931892, -36.9518767827487], [174.562920863172, -36.9517329210003], [174.562938370665, -36.9517015396502], [174.56299850666, -36.9516342819677]]}, "properties": {"OBJECTID": 14, "TRACKNAME": "Summit Track", "CONDITIONSOFUSE": "Waitakere Central Regional Park", "STATUS": "Temp Closed", "WEBLINK": "https://www.aucklandcouncil.govt.nz/en/parks-recreation/find-park-beach/park-detail/204.html", "VALIDATIONSTATE": 3, "created_user": "AC_owner", "last_edited_user": "AC_owner", "last_edited_date": 1789875254325, "created_date": 1789875254325, "PARK_SAPSITEID": null, "TRACK_ID": null, "KAURIDIEBACK_TRACK": null, "KAURIDIEBACK_MITIGATED": null, "SegmentID": null, "GlobalID": "6c8f2e8b-db4a-4454-aae8-19b0e9d377c7", "Shape__Length": 1533.0970774446728}}, {"type": "Feature", "id": 12207, "geometry": {"type": "LineString", "coordinates": [[174.581643089648, -36.9707699789115], [174.581587679716, -36.970733302097], [174.581572095218, -36.9707103269801], [174.581641796502, -36.9705294614687], [174.581596415209, -36.9701159311297], [174.58167757178, -36.9698155469589], [174.581676147102, -36.9697651623571], [174.5815433714, -36.9695302274817], [174.581428572973, -36.9694333383283], [174.581333836158, -36.9692299755299], [174.581099937248, -36.9690725063503], [174.581062269731, -36.9690322038605], [174.580990974242, -36.9688177934378], [174.580896431421, -36.9686774772335], [174.580884159047, -36.9686467873975], [174.580914181424, -36.9684478377631], [174.580914416698, -36.9683956733926], [174.580885993073, -36.9681435021232], [174.58081062977, -36.967716597897], [174.580785750727, -36.9676792256499], [174.580746749649, -36.9676509828647], [174.580464651859, -36.9675492628241], [174.580412448633, -36.9675219348076], [174.580380963569, -36.9674557080037], [174.58032282977, -36.9672121704343], [174.580308041746, -36.9669967638553], [174.580371192632, -36.9667066251243], [174.580391143912, -36.9666659609016], [174.580508479125, -36.9665245539293], [174.580619605927, -36.96617148383], [174.580706980035, -36.9660082482455], [174.580703415499, -36.9659423437613], [174.580688754769, -36.9659053131285], [174.580579299002, -36.9658426663743], [174.580553461542, -36.9658192056744], [174.580536434133, -36.9657633232001], [174.580527078558, -36.965678098707], [174.58055823084, -36.9654794675296], [174.580614975104, -36.965324490598], [174.580701833178, -36.9651249373736], [174.580748281856, -36.9649077509178], [174.580732253267, -36.964861598783], [174.580569829197, -36.9646942621539], [174.580541376001, -36.9646491226881], [174.580540714472, -36.9644248209035], [174.58048232607, -36.9639917592557], [174.580452384185, -36.9638990481612], [174.580407296771, -36.9638202572779], [174.580369307598, -36.9638229262682], [174.580209387626, -36.9639020937375], [174.580162357366, -36.9639151404041], [174.580115216483, -36.9639016436884], [174.579899013941, -36.9637902387566], [174.579841879423, -36.9637676540943], [174.579803130172, -36.9637688728271], [174.579674550283, -36.963805195832], [174.579615470608, -36.9637977346026], [174.579315707764, -36.9636676918056], [174.579282308396, -36.9636348131253], [174.579196473134, -36.9635126228951], [174.579139587881, -36.963473810222], [174.578983849254, -36.9634068652077], [174.578747431393, -36.9633449499015], [174.578450873244, -36.9632502764157], [174.578406155988, -36.9632257412666], [174.578270390297, -36.9631223764693], [174.578243893894, -36.9631104432918], [174.578214805253, -36.9631073327626], [174.578035031036, -36.9631274522367], [174.577495729773, -36.9632248002768], [174.57711507994, -36.9633170187362], [174.577073014731, -36.963320290646], [174.576937954436, -36.9633038594625], [174.576683323979, -36.9633287479098], [174.576602399182, -36.9633436764876], [174.576500938758, -36.9633906053582], [174.576230751903, -36.9634302472674], [174.576185633645, -36.9634227341489], [174.576125961373, -36.96335762849], [174.576103217286, -36.9633457171214], [174.57589453205, -36.9633545086221], [174.575722670509, -36.9633008249182], [174.575645686732, -36.9632949784216], [174.575563041054, -36.9633168875807], [174.575446135082, -36.9633610731242], [174.575426717619, -36.9633863073148], [174.575416246014, -36.9634602851462], [174.575389538928, -36.9634789911234], [174.575053669254, -36.9635434239151], [174.574966151279, -36.9635529406035], [174.574504962501, -36.9635662060825], [174.574032996767, -36.9635350497498], [174.573741981367, -36.9634856740993], [174.573704395341, -36.9634588252975], [174.57362354927, -36.9633701221913], [174.573579928536, -36.963351312295], [174.573308848953, -36.9633236372983], [174.573118909703, -36.9633263977981], [174.57285102062, -36.9633669750386], [174.572717944677, -36.9634191147769], [174.572301147357, -36.9635432720079], [174.572160222075, -36.9636086568243], [174.571352555414, -36.96381914446], [174.571238785146, -36.9638204069818], [174.571025764143, -36.9637904891098], [174.570961904713, -36.9637903517284], [174.570793180961, -36.9638181918583], [174.570431299708, -36.9639131060823], [174.570092843107, -36.9639279125368], [174.570032964786, -36.9639389528713], [174.569884570011, -36.9639935364272], [174.569716253524, -36.9639920215637], [174.569662789261, -36.9639708075779], [174.569547867879, -36.9638645972423], [174.569508269287, -36.9638408743663], [174.56946945951, -36.9638402517638], [174.569310730748, -36.9638647488291], [174.569240646205, -36.9638475400477], [174.569178271531, -36.9638190525232], [174.569153912426, -36.9637754785677], [174.569111097019, -36.9635758808093], [174.569050262458, -36.9634686395787], [174.569021200604, -36.9634515013693], [174.568895039766, -36.9634176554178], [174.568765496813, -36.9633563807512], [174.568702827745, -36.9631810572549], [174.568661221028, -36.9631092553511], [174.568482019252, -36.9629537599973], [174.568240281036, -36.962786435491], [174.568219355525, -36.9627585265738], [174.568186097928, -36.9626813863435], [174.568084492205, -36.9625840031594], [174.567814520217, -36.9624102094107], [174.567801462381, -36.9623770587895], [174.567646793992, -36.9621617937926]]}, "properties": {"OBJECTID": 12207, "TRACKNAME": "Summit Track", "CONDITIONSOFUSE": "Waitakere Central Regional Park", "STATUS": "Temp Closed", "WEBLINK": "https://www.aucklandcouncil.govt.nz/en/parks-recreation/find-park-beach/park-detail/204.html", "VALIDATIONSTATE": 3, "created_user": "AC_owner", "last_edited_user": "AC_owner", "last_edited_date": 1789875254325, "created_date": 1789875254325, "PARK_SAPSITEID": null, "TRACK_ID": null, "KAURIDIEBACK_TRACK": null, "KAURIDIEBACK_MITIGATED": null, "SegmentID": null, "GlobalID": "e81ce3a6-109d-4da9-bd57-93ef6f561c26", "Shape__Length": 2168.1443656965844}}]}