{"type": "FeatureCollection", "features": [{"type": "Feature", "id": 921, "geometry": {"type": "LineString", "coordinates": [[175.122013888007, -37.1114484813308], [175.1219910621, -37.1115124286037], [175.121945669262, -37.1115318883432], [175.121454828496, -37.1117426111068], [175.121375945753, -37.1117854718969], [175.121334702578, -37.1120298557988], [175.121344234211, -37.112344791465], [175.121623276061, -37.1126710261322], [175.121672786491, -37.1129353344458], [175.120989347192, -37.1129320660953], [175.120420112088, -37.1125948898669], [175.119664797044, -37.1125394642856], [175.118857759046, -37.1124128760972], [175.11815486474, -37.112573490226], [175.117247647003, -37.1120451796707], [175.116525741448, -37.1115763612762], [175.116459958624, -37.1110466234053], [175.116569093834, -37.1105471082509], [175.115949758898, -37.1106087999298], [175.115421234952, -37.1103161964068], [175.114298776162, -37.1098771343512], [175.114043948433, -37.1092522776321], [175.113884536588, -37.1087252894502], [175.113722867135, -37.1081667972115], [175.113419523796, -37.1076688720934], [175.113449068519, -37.1069125229978]]}, "properties": {"OBJECTID": 921, "TRACKNAME": "Suspension Bridge Track", "CONDITIONSOFUSE": "Hunua Ranges Regional Park", "STATUS": "Open", "WEBLINK": "https://www.aucklandcouncil.govt.nz/en/parks-recreation/find-park-beach/park-detail/213.html", "VALIDATIONSTATE": 3, "created_user": "AC_owner", "last_edited_user": "AC_owner", "last_edited_date": 1789875254325, "created_date": 1789875254325, "PARK_SAPSITEID": null, "TRACK_ID": null, "KAURIDIEBACK_TRACK": null, "KAURIDIEBACK_MITIGATED": null, "SegmentID": null, "GlobalID": "f9056f8b-4c02-4ca4-8920-dac308ec2db8", "Shape__Length": 1398.4983538384074}}, {"type": "Feature", "id": 1777, "geometry": {"type": "LineString", "coordinates": [[175.118564014173, -37.1046602666029], [175.118647351201, -37.1047783125728], [175.118788656518, -37.1049179780302], [175.118813853757, -37.1050000647702], [175.118695621461, -37.1050988652727], [175.118443237589, -37.1051051701031], [175.118131193544, -37.1051817572102], [175.118056649916, -37.1053135644672], [175.117768994901, -37.1055095550432], [175.117456564815, -37.105905300735], [175.11648901886, -37.1060863952313], [175.115966172873, -37.1062263861626], [175.115485834567, -37.1064305877903], [175.114757356246, -37.1064771961182], [175.114576774639, -37.1064662683277], [175.114351197585, -37.10645263707], [175.113909512689, -37.1065554902775], [175.113449068519, -37.1069125229978]]}, "properties": {"OBJECTID": 1777, "TRACKNAME": "Suspension Bridge Track", "CONDITIONSOFUSE": "Hunua Ranges Regional Park", "STATUS": "Open", "WEBLINK": "https://www.aucklandcouncil.govt.nz/en/parks-recreation/find-park-beach/park-detail/213.html", "VALIDATIONSTATE": 3, "created_user": "AC_owner", "last_edited_user": "AC_owner", "last_edited_date": 1789875254325, "created_date": 1789875254325, "PARK_SAPSITEID": null, "TRACK_ID": null, "KAURIDIEBACK_TRACK": null, "KAURIDIEBACK_MITIGATED": null, "SegmentID": null, "GlobalID": "0dc2b556-8014-4a10-942c-5f498546cfcf", "Shape__Length": 597.3137848306983}}, {"type": "Feature", "id": 2230, "geometry": {"type": "LineString", "coordinates": [[175.118564014173, -37.1046602666029], [175.118579751239, -37.1045735060107], [175.118745094461, -37.1044257813629], [175.118932425115, -37.1043031329513], [175.119152878071, -37.104222341282], [175.119426344873, -37.1041405201161], [175.119636947128, -37.1040854183126], [175.119869785682, -37.104063895845], [175.120102387231, -37.1040338783007], [175.120313755751, -37.1040042671875], [175.12052410902, -37.1039406784257], [175.120712721313, -37.1038604986087], [175.120805605992, -37.1037736857928], [175.120887377356, -37.1036700740517], [175.120916112635, -37.1035675104555], [175.120912513602, -37.1034485637897], [175.120920027645, -37.1033464159793], [175.120919609629, -37.1032087924043], [175.12092674612, -37.1031798424812], [175.12095151673, -37.1031247469582], [175.120977678018, -37.1030723122919], [175.121020583939, -37.1030259859145], [175.121095389313, -37.1029764299491], [175.121161393903, -37.1029453720331], [175.121546440569, -37.1028474264123], [175.121611716342, -37.1028434911225], [175.121661848344, -37.1028424315146], [175.12172286274, -37.1028450614993], [175.121790017841, -37.1028548456598], [175.121849825204, -37.1028751077593], [175.121900840781, -37.1028948242435], [175.12196045498, -37.1029210650817], [175.122000655794, -37.1029455625403], [175.122047705469, -37.102979202291], [175.122090820654, -37.1030157964904], [175.122113796681, -37.1030431889134], [175.122151645692, -37.1030850145448], [175.122179711585, -37.1031270603933], [175.122201110791, -37.1031672969121], [175.122227241581, -37.1032258794203], [175.122240980905, -37.1032762930916], [175.122305369492, -37.1037509409768], [175.122364869759, -37.1041616870494], [175.122371087689, -37.1042006271849], [175.122377089048, -37.1042297925564], [175.122385739868, -37.1042514841235], [175.122398901958, -37.1042767720362], [175.122417801547, -37.1043076621631], [175.122437456165, -37.1043281112195], [175.122454094685, -37.1043485421829], [175.122508242358, -37.10438811107], [175.122820697437, -37.1045147476662], [175.122855849734, -37.1045284570617], [175.122893165516, -37.1045499325827], [175.122931346761, -37.1045782241191], [175.122963947383, -37.1046105631086], [175.122979223077, -37.1046555235868], [175.122996078722, -37.104691380103], [175.123003418346, -37.1047467029849], [175.122994789777, -37.1047774011454], [175.122985502751, -37.104805875982], [175.122970055435, -37.1048353714306], [175.122950259476, -37.1048654855237], [175.122923798127, -37.104891023452], [175.122893187652, -37.1049190871104], [175.122835121171, -37.1049519775717], [175.122765106555, -37.1049659933741], [175.122708504274, -37.1049683049331], [175.122450339506, -37.1049569400275], [175.122057884851, -37.1049583164206], [175.122015566345, -37.104963210867], [175.121977488128, -37.1049636042087], [175.121938656337, -37.1049668319649], [175.121888641438, -37.1049757666006], [175.121807954437, -37.1049976696425], [175.121633657332, -37.1050719350664], [175.121622543816, -37.1050801371708], [175.121585679596, -37.1050941987544], [175.1215472437, -37.1051059722284], [175.121512544592, -37.1051121360702], [175.121477192031, -37.1051158511659], [175.121353130086, -37.1051052017834], [175.121303900788, -37.1050979355311], [175.121262194756, -37.1050933285078], [175.12110253278, -37.1051138235737], [175.120891782634, -37.1051685250812], [175.120835619071, -37.1051849596129], [175.120776625185, -37.1052023910831], [175.120724760966, -37.1052281397346], [175.120677449075, -37.1052617830387], [175.120638247878, -37.1052973631097], [175.120614952713, -37.1053299457907], [175.120591592969, -37.1053723172782], [175.120579974056, -37.1054071875236], [175.120570830408, -37.1054573799197], [175.120572911178, -37.1055287583281], [175.120581958427, -37.1056030042665], [175.120576859005, -37.1056695001495], [175.12056178881, -37.1057323260583], [175.120529702964, -37.1058083984583], [175.120490162817, -37.1058564489359], [175.120464298712, -37.1058860943873], [175.120440248849, -37.105910588233], [175.120312852572, -37.105998306587], [175.120224648007, -37.1060500935607], [175.120177248302, -37.1060882805789], [175.120148899443, -37.1061216385295], [175.120124481864, -37.1061648309688], [175.120106824514, -37.1062176180307], [175.120098158518, -37.1062510564834], [175.120089409014, -37.106320240297], [175.120087738716, -37.106390279848], [175.120084310662, -37.106465884561], [175.120086918353, -37.1065081519477], [175.120097366196, -37.106566456659], [175.120103375375, -37.1066382965399], [175.120150292685, -37.1069233721381], [175.120190075734, -37.1071269214187], [175.120222310566, -37.107313598985], [175.120246471243, -37.1074887587096], [175.120255039714, -37.1076023260565], [175.12025925943, -37.1076991627518], [175.120255899766, -37.1077816518351], [175.120247289802, -37.107884486091], [175.120241412823, -37.1079973565206], [175.120242118908, -37.1080799711426], [175.120257870304, -37.1081274920343], [175.120277278207, -37.1081741814405], [175.120293803752, -37.1082115313094], [175.120326298402, -37.1082452968843], [175.120350799678, -37.1082748884338], [175.120443859668, -37.1083587708311], [175.120559855381, -37.1084754090403], [175.120636180384, -37.1085729202944], [175.120689169299, -37.1086797895284], [175.120725471291, -37.1087612805166], [175.120759462215, -37.108816397005], [175.120808637482, -37.1088756939775], [175.120847062659, -37.1089171130978], [175.12089046204, -37.1089541081451], [175.120943003029, -37.1090138405192], [175.120997390063, -37.1090663297764], [175.12103742253, -37.1091254207515], [175.121065424967, -37.1091917478006], [175.121089346227, -37.1092634472722], [175.121102217581, -37.1093351642468], [175.12110805576, -37.1094129283496], [175.121108958353, -37.1094989191326], [175.121106098162, -37.1095694305777], [175.121092650551, -37.1098561807775], [175.121107650959, -37.1101223688674], [175.121115265972, -37.1101976677666], [175.121129965233, -37.1102505968596], [175.121150829219, -37.1102925644862], [175.121171468331, -37.1103252622021], [175.121192784138, -37.1103600297055], [175.121216758082, -37.1103896395036], [175.121254112749, -37.1104309694786], [175.121386713781, -37.1105545466622], [175.121486673387, -37.1106419637599], [175.121556042745, -37.1107094698469], [175.121601908247, -37.110763409145], [175.121643757736, -37.1108177988459], [175.121690434387, -37.1108790237639], [175.121805210051, -37.1110900260025], [175.12185605575, -37.1111820712807], [175.121879312252, -37.1112456260841], [175.121889364057, -37.1112945015053], [175.121906974631, -37.1113436561701], [175.121930580892, -37.1113786168451], [175.121950994556, -37.1114104712668], [175.121980520543, -37.111435772623]]}, "properties": {"OBJECTID": 2230, "TRACKNAME": "Suspension Bridge Track", "CONDITIONSOFUSE": "Hunua Ranges Regional Park", "STATUS": "Open", "WEBLINK": "https://www.aucklandcouncil.govt.nz/en/parks-recreation/find-park-beach/park-detail/213.html", "VALIDATIONSTATE": 3, "created_user": "AC_owner", "last_edited_user": "AC_owner", "last_edited_date": 1789875254325, "created_date": 1789875254325, "PARK_SAPSITEID": null, "TRACK_ID": null, "KAURIDIEBACK_TRACK": null, "KAURIDIEBACK_MITIGATED": null, "SegmentID": null, "GlobalID": "852db353-1f7d-46f7-85e0-2e35007aef51", "Shape__Length": 1626.8643365105013}}]}