{"type": "FeatureCollection", "features": [{"type": "Feature", "id": 2338, "geometry": {"type": "LineString", "coordinates": [[175.082548754946, -36.9077356434507], [175.082606453, -36.9077743965143], [175.082673222805, -36.9077872676502], [175.082757970032, -36.9077983994206], [175.082880041818, -36.9078204310235]]}, "properties": {"OBJECTID": 2338, "TRACKNAME": "Sustainable Track", "CONDITIONSOFUSE": "Duder Regional Park", "STATUS": "Open", "WEBLINK": "https://www.aucklandcouncil.govt.nz/en/parks-recreation/find-park-beach/park-detail/211.html", "VALIDATIONSTATE": 3, "created_user": "AC_owner", "last_edited_user": "AC_owner", "last_edited_date": 1789875254325, "created_date": 1789875254325, "PARK_SAPSITEID": null, "TRACK_ID": null, "KAURIDIEBACK_TRACK": null, "KAURIDIEBACK_MITIGATED": null, "SegmentID": null, "GlobalID": "d54c5fc3-a0c1-4706-89c9-a1581d62ac30", "Shape__Length": 31.62691766540027}}]}