{"type": "FeatureCollection", "features": [{"type": "Feature", "id": 1005, "geometry": {"type": "LineString", "coordinates": [[174.425302873995, -36.8325519316852], [174.425293145837, -36.832552992982], [174.42529288832, -36.8325530140975], [174.425287221938, -36.8325528206342], [174.425281686751, -36.8325518413891], [174.425267250605, -36.8325479762521], [174.425259317293, -36.8325458719806], [174.425252588402, -36.8325440146709], [174.425256409535, -36.8325408500499], [174.425256992847, -36.8325402571532], [174.425258275767, -36.8325386913818], [174.425262912319, -36.8325329390107], [174.42526338118, -36.8325322212917], [174.425264089492, -36.8325311131043], [174.425264764003, -36.8325299963083], [174.425265415925, -36.8325288707692], [174.425266045091, -36.8325277274752], [174.425266651835, -36.83252658445], [174.425267224779, -36.8325254328162], [174.425267775134, -36.8325242724393], [174.425267883397, -36.8325240638217], [174.425268574311, -36.8325226223289], [174.425269242468, -36.8325211630811], [174.425269865948, -36.8325197133829], [174.425270466672, -36.8325182459297], [174.425271033596, -36.8325167698679], [174.42527156672, -36.8325152851975], [174.425271832446, -36.8325144978028], [174.425272651566, -36.8325102965216], [174.425272561595, -36.8325060520569], [174.42527247225, -36.8325054672251], [174.425271934663, -36.8325024810582], [174.425271341523, -36.8324995225992], [174.42527068095, -36.8324965559347], [174.425270280054, -36.8324948931712], [174.425269288351, -36.8324910020459], [174.425268207296, -36.8324871300198], [174.425265570327, -36.8324779674658], [174.425262866261, -36.8324688147301], [174.425258789155, -36.8324557664272], [174.425254701006, -36.8324427272704], [174.42525079893, -36.8324294425073], [174.425247030718, -36.8324161200835], [174.425245887089, -36.8324118972655], [174.425244556233, -36.8324066491084], [174.425243934312, -36.8324039523972], [174.425242417074, -36.8323971200295], [174.425241898392, -36.8323945482749], [174.425241424219, -36.8323919579589], [174.425241005767, -36.832389348947], [174.425240643536, -36.8323867482749], [174.425240337193, -36.8323841379189], [174.42524028332, -36.8323836518146], [174.425240153326, -36.8323820849558], [174.425240045588, -36.8323805088162], [174.425239971649, -36.8323789412853], [174.425239942387, -36.8323773642049], [174.425239946925, -36.8323757957332], [174.425239962506, -36.8323742181151], [174.425240034309, -36.8323726488368], [174.425240139746, -36.8323710791553], [174.425241229716, -36.8323579058034], [174.425242353485, -36.8323447410601], [174.425243460518, -36.8323318829898], [174.425244556339, -36.8323190250539], [174.425245649819, -36.8323060409515], [174.425246743299, -36.8322930568491], [174.425246810238, -36.8322924340879], [174.425247000847, -36.8322906200101], [174.42524724751, -36.8322888052602], [174.425247527806, -36.832286990107], [174.425247841901, -36.8322851835625], [174.425248212219, -36.8322833853579], [174.425248593747, -36.8322815870188], [174.425249042709, -36.8322797968851], [174.425249283671, -36.8322788835929], [174.425250101772, -36.8322758361022], [174.425250998683, -36.8322728056945], [174.425251974238, -36.8322697833577], [174.42525299497, -36.832266778507], [174.425257097807, -36.8322552275879], [174.425261335842, -36.8322437111033], [174.425265518316, -36.8322328262572], [174.425269712166, -36.8322219502884], [174.425269765044, -36.8322217783905], [174.425270209482, -36.8322203488667], [174.425270642709, -36.8322189194773], [174.425271042136, -36.8322174814792], [174.425271396552, -36.832216035007], [174.42527172838, -36.8322145797916], [174.425272026574, -36.8322131249795], [174.425272291136, -36.8322116705707], [174.425272533109, -36.8322102074188], [174.425272741449, -36.8322087446702], [174.425272789812, -36.8322083294513], [174.425272998653, -36.8322068937383], [174.425273241128, -36.8322054576221], [174.425273517402, -36.8322040301145], [174.425273804887, -36.8322026024725], [174.425274148594, -36.8322011831703], [174.425274514723, -36.8321997635992], [174.425274903441, -36.8321983527713], [174.425275325959, -36.832196950552], [174.42527579332, -36.8321955477949], [174.425275932707, -36.8321952035958], [174.425276800993, -36.8321930478786], [174.425277736711, -36.8321909003669], [174.425278717608, -36.8321887703412], [174.425279743682, -36.8321866578017], [174.425280803389, -36.8321845448588], [174.425281712497, -36.8321827762496], [174.425282825082, -36.8321804914088], [174.425283892655, -36.8321781980938], [174.425284903839, -36.8321758874271], [174.425285869846, -36.8321735592742], [174.425290295615, -36.8321618873014], [174.425294467327, -36.8321505437761]]}, "properties": {"OBJECTID": 1005, "TRACKNAME": "Takapu Refuge Walk", "CONDITIONSOFUSE": "Muriwai Regional Park", "STATUS": "Temp Closed", "WEBLINK": "https://www.aucklandcouncil.govt.nz/en/parks-recreation/find-park-beach/park-detail/220.html", "VALIDATIONSTATE": 3, "created_user": "AC_owner", "last_edited_user": "AC_owner", "last_edited_date": 1789875254325, "created_date": 1789875254325, "PARK_SAPSITEID": null, "TRACK_ID": null, "KAURIDIEBACK_TRACK": null, "KAURIDIEBACK_MITIGATED": null, "SegmentID": null, "GlobalID": "776a3f7b-65ac-41f9-9d3a-877548aa0cd7", "Shape__Length": 49.71268116958642}}, {"type": "Feature", "id": 1470, "geometry": {"type": "LineString", "coordinates": [[174.425214580419, -36.8333021691296], [174.425417057253, -36.8332994078644], [174.425476064194, -36.8332873878569], [174.425508586115, -36.8332712145384], [174.425545000797, -36.8332315674247], [174.425595734585, -36.8331538271364], [174.425636994462, -36.8330514032312], [174.425657001342, -36.8329723638482], [174.425677750695, -36.8328819760808], [174.425775973247, -36.8327365757639], [174.425856776927, -36.8327178158532]]}, "properties": {"OBJECTID": 1470, "TRACKNAME": "Takapu Refuge Walk", "CONDITIONSOFUSE": "Muriwai Regional Park", "STATUS": "Open", "WEBLINK": "https://www.aucklandcouncil.govt.nz/en/parks-recreation/find-park-beach/park-detail/220.html", "VALIDATIONSTATE": 3, "created_user": "AC_owner", "last_edited_user": "AC_owner", "last_edited_date": 1789875254325, "created_date": 1789875254325, "PARK_SAPSITEID": null, "TRACK_ID": null, "KAURIDIEBACK_TRACK": null, "KAURIDIEBACK_MITIGATED": null, "SegmentID": null, "GlobalID": "e0bf5979-20dd-4fd3-b714-78fbaaa8f0bc", "Shape__Length": 99.06037009996388}}, {"type": "Feature", "id": 1664, "geometry": {"type": "LineString", "coordinates": [[174.425819591177, -36.8326015473048], [174.425818803223, -36.8325997539775], [174.425814969456, -36.8325907590276], [174.425811146901, -36.832581763943], [174.425810062797, -36.8325795415009], [174.425805839981, -36.8325731472179], [174.425805553016, -36.8325727901042], [174.425804646943, -36.8325717012771], [174.425803707236, -36.8325706128534], [174.425802745275, -36.8325695337105], [174.425801761227, -36.8325684728602], [174.425800766302, -36.8325674301683], [174.425799726868, -36.8325664060379], [174.42579867639, -36.8325653910539], [174.425797843103, -36.8325645988122], [174.425796861898, -36.832563691164], [174.425795858439, -36.8325627927966], [174.425794844271, -36.8325619215993], [174.425793796637, -36.8325610598173], [174.425792738127, -36.8325602161935], [174.425791657362, -36.8325593818506], [174.425790565554, -36.832558556654], [174.425789451993, -36.8325577677738], [174.425788599796, -36.8325571650506], [174.425787430181, -36.8325563768427], [174.425786249688, -36.8325556067931], [174.425785069531, -36.8325548547672], [174.425783856242, -36.8325541301804], [174.425782642953, -36.8325534055936], [174.425781407745, -36.8325527083113], [174.425780150281, -36.8325520203098], [174.425778871065, -36.8325513686248], [174.425778542602, -36.8325511922866], [174.425776176596, -36.8325499857614], [174.425773788838, -36.8325488155527], [174.425771367948, -36.8325476727829], [174.425768914095, -36.832546566464], [174.425768179361, -36.8325462507763], [174.425766981298, -36.83254574234], [174.425765783737, -36.8325452609395], [174.425764575133, -36.8325447886853], [174.425763355651, -36.8325443345893], [174.425762125461, -36.8325439076634], [174.425760884228, -36.8325434898838], [174.425759632117, -36.8325430902625], [174.425758380174, -36.832542699653], [174.4257526544, -36.832541118785], [174.42574668232, -36.8325395588986], [174.425746355697, -36.832539481691], [174.425740653851, -36.8325379816605], [174.42573499551, -36.8325364089967], [174.425731859964, -36.8325354280336], [174.425727787219, -36.8325340977552], [174.425723736059, -36.8325327221483], [174.425722821783, -36.8325323995998], [174.425721354993, -36.8325319124139], [174.425719877493, -36.8325314523982], [174.425718377739, -36.8325310016631], [174.425716889697, -36.8325305778293], [174.425715379568, -36.8325301722882], [174.42571385873, -36.8325297939172], [174.425712338059, -36.832529424558], [174.425700642212, -36.8325269958724], [174.425688947201, -36.8325246122451], [174.425676878551, -36.8325220347921], [174.425674660794, -36.832521565626], [174.425664777773, -36.8325195388483], [174.425664361462, -36.8325194627161], [174.425662415111, -36.8325191164893], [174.425660446839, -36.832518797567], [174.425658479236, -36.8325185146923], [174.425656500924, -36.8325182589876], [174.425654523114, -36.8325180303186], [174.425652534595, -36.8325178288196], [174.425648984576, -36.8325174747837], [174.425644590725, -36.8325169686176], [174.425640207081, -36.8325164082456], [174.42562900786, -36.8325147578056], [174.425617819349, -36.8325130801944], [174.425605728944, -36.8325111429814], [174.425603153274, -36.8325107231757], [174.42559361662, -36.8325092330717], [174.425592582369, -36.8325090922388], [174.425591031245, -36.8325088945072], [174.425589480622, -36.8325087238113], [174.4255879305, -36.832508580151], [174.425586369503, -36.8325084546489], [174.42558480884, -36.8325083471706], [174.425583248511, -36.832508257716], [174.42558167764, -36.8325082044434], [174.42558098206, -36.8325081857434], [174.425577201629, -36.8325081048853], [174.425573421868, -36.8325080600746], [174.425569643444, -36.8325080873589], [174.425567132025, -36.8325081084627], [174.425557312239, -36.8325082803073], [174.425551529397, -36.8325084578229], [174.42554497484, -36.8325087437455], [174.425543697963, -36.8325088221552], [174.425531959929, -36.832509557835], [174.425518956395, -36.8325103808006], [174.425517903068, -36.8325104204737], [174.425514395379, -36.8325105346485], [174.425510886687, -36.8325105947519], [174.425507377326, -36.8325106188077], [174.4255060541, -36.8325106166477], [174.425504002664, -36.8325106502619], [174.425501951562, -36.8325107018999], [174.425499901129, -36.8325107895854], [174.425497851366, -36.8325109133184], [174.425495801769, -36.8325110460632], [174.425493854075, -36.8325112316694], [174.425491347505, -36.8325115141163], [174.425488841437, -36.8325118235989], [174.425486336206, -36.8325121781408], [174.425483831476, -36.8325125597183], [174.425483205335, -36.8325126573656], [174.425471971112, -36.8325145588041], [174.425460446574, -36.83251652682], [174.425458937946, -36.8325168063135], [174.425455618997, -36.8325174230013], [174.425452323641, -36.8325181025034], [174.425449040165, -36.8325188179185], [174.425444228315, -36.8325199572858], [174.425437084748, -36.8325217375577], [174.425425200107, -36.8325248456388], [174.425423415051, -36.8325253357659], [174.425413118685, -36.832528226495], [174.425409236673, -36.8325293186557], [174.425405119231, -36.8325304136392], [174.425400989575, -36.8325314546857], [174.425389667994, -36.8325340872892], [174.42537833403, -36.8325366569429], [174.425366230189, -36.8325394341325], [174.425354091209, -36.8325421306171], [174.425351957609, -36.832542570839], [174.425347119989, -36.8325435302336], [174.425342258609, -36.8325444178016], [174.425330389701, -36.8325465611981], [174.425317563338, -36.8325490766292], [174.425304748688, -36.8325516189602], [174.425303542085, -36.8325518587748], [174.425302873995, -36.8325519316852]]}, "properties": {"OBJECTID": 1664, "TRACKNAME": "Takapu Refuge Walk", "CONDITIONSOFUSE": "Muriwai Regional Park", "STATUS": "Open", "WEBLINK": "https://www.aucklandcouncil.govt.nz/en/parks-recreation/find-park-beach/park-detail/220.html", "VALIDATIONSTATE": 3, "created_user": "AC_owner", "last_edited_user": "AC_owner", "last_edited_date": 1789875254325, "created_date": 1789875254325, "PARK_SAPSITEID": null, "TRACK_ID": null, "KAURIDIEBACK_TRACK": null, "KAURIDIEBACK_MITIGATED": null, "SegmentID": null, "GlobalID": "07b79560-0ac0-41fc-a2f7-d894f06dbfe9", "Shape__Length": 50.64762934381462}}, {"type": "Feature", "id": 1688, "geometry": {"type": "LineString", "coordinates": [[174.42640588737, -36.8328473505174], [174.426392727878, -36.8328490164464], [174.426379180819, -36.8328507654454], [174.426365645808, -36.8328525593676], [174.426355718694, -36.8328540188487], [174.426342923138, -36.8328559598361], [174.426331574771, -36.8328577545589], [174.426318899155, -36.8328599347754], [174.426308552079, -36.8328619067736], [174.426296866712, -36.8328642734118], [174.426284557209, -36.8328668458431], [174.426272248207, -36.8328694453087], [174.426261195505, -36.8328716430039], [174.426247915998, -36.832874334335], [174.426238983344, -36.8328757845789], [174.426236220419, -36.8328761512424], [174.426222982072, -36.832877617089], [174.426212667302, -36.8328785511924]]}, "properties": {"OBJECTID": 1688, "TRACKNAME": "Takapu Refuge Walk", "CONDITIONSOFUSE": "Muriwai Regional Park", "STATUS": "Open", "WEBLINK": "https://www.aucklandcouncil.govt.nz/en/parks-recreation/find-park-beach/park-detail/220.html", "VALIDATIONSTATE": 3, "created_user": "AC_owner", "last_edited_user": "AC_owner", "last_edited_date": 1789875254325, "created_date": 1789875254325, "PARK_SAPSITEID": null, "TRACK_ID": null, "KAURIDIEBACK_TRACK": null, "KAURIDIEBACK_MITIGATED": null, "SegmentID": null, "GlobalID": "b731cc6b-05ef-4b0e-b422-df2f7d21b541", "Shape__Length": 17.594089507304123}}, {"type": "Feature", "id": 1742, "geometry": {"type": "LineString", "coordinates": [[174.426212667302, -36.8328785511924], [174.426212425496, -36.8328785730228], [174.42620041333, -36.832879645572], [174.426181582367, -36.8328818725819], [174.426173131114, -36.832882677059], [174.426164404272, -36.8328831333001], [174.426152262426, -36.8328832609418], [174.426127415172, -36.8328827568017], [174.42611382192, -36.8328826224214], [174.42609726294, -36.8328828030494], [174.426094450987, -36.8328829449505], [174.426088818045, -36.8328833460415], [174.426083565641, -36.8328838894934], [174.426076169979, -36.8328842324083], [174.426067085304, -36.8328846821184], [174.426044735892, -36.8328850556944], [174.426036415825, -36.8328850743795], [174.426021533976, -36.8328849915026], [174.426014174541, -36.8328848093705], [174.426008876927, -36.832884548421], [174.426003667661, -36.8328842143003], [174.425998457058, -36.8328838080842], [174.425995199176, -36.8328834866099], [174.425985822435, -36.832881552939], [174.425983284067, -36.8328807270692], [174.425979538929, -36.8328789241474], [174.425976232862, -36.8328766111806], [174.425974812867, -36.8328755041823], [174.425967943105, -36.8328692020509], [174.425959686479, -36.8328617654814], [174.42595132243, -36.8328545825888], [174.42594720784, -36.8328509993473], [174.425943144955, -36.8328471811243], [174.425940844701, -36.8328446848273], [174.425940111472, -36.8328438463169], [174.425938022053, -36.8328412303102], [174.425936744173, -36.8328394428607], [174.425934844337, -36.8328367704964], [174.425930774264, -36.8328313569004], [174.425923696311, -36.8328227794532], [174.425918107909, -36.8328159148051], [174.425911947751, -36.8328078491537], [174.425908505662, -36.8328030409686], [174.425906084604, -36.8327994734669], [174.425903541867, -36.8327956937955], [174.425894566256, -36.8327817217602]]}, "properties": {"OBJECTID": 1742, "TRACKNAME": "Takapu Refuge Walk", "CONDITIONSOFUSE": "Muriwai Regional Park", "STATUS": "Open", "WEBLINK": "https://www.aucklandcouncil.govt.nz/en/parks-recreation/find-park-beach/park-detail/220.html", "VALIDATIONSTATE": 3, "created_user": "AC_owner", "last_edited_user": "AC_owner", "last_edited_date": 1789875254325, "created_date": 1789875254325, "PARK_SAPSITEID": null, "TRACK_ID": null, "KAURIDIEBACK_TRACK": null, "KAURIDIEBACK_MITIGATED": null, "SegmentID": null, "GlobalID": "c280a57d-181c-496f-ba97-8f7069c8365c", "Shape__Length": 34.20041419444609}}, {"type": "Feature", "id": 1788, "geometry": {"type": "LineString", "coordinates": [[174.425856776927, -36.8327178158532], [174.425856245117, -36.8327157463329], [174.425855553397, -36.8327129152539], [174.425853482254, -36.8327034304409], [174.425851388691, -36.8326939458968], [174.425849144199, -36.8326841837323], [174.425849083126, -36.8326839140481], [174.425848295695, -36.832680759617], [174.425847452545, -36.8326776238821], [174.425846553339, -36.8326744888195], [174.425845958163, -36.8326726300828], [174.425843640203, -36.8326655549391], [174.425840581659, -36.8326566408306], [174.425837465221, -36.8326476282636], [174.425834315151, -36.8326386160998], [174.425830963287, -36.8326290024256], [174.425830537444, -36.8326278086858], [174.425828990687, -36.8326236177508], [174.425827343365, -36.8326194460499], [174.425826569316, -36.8326176165003], [174.425823123408, -36.8326095813849], [174.425819591177, -36.8326015473048]]}, "properties": {"OBJECTID": 1788, "TRACKNAME": "Takapu Refuge Walk", "CONDITIONSOFUSE": "Muriwai Regional Park", "STATUS": "Open", "WEBLINK": "https://www.aucklandcouncil.govt.nz/en/parks-recreation/find-park-beach/park-detail/220.html", "VALIDATIONSTATE": 3, "created_user": "AC_owner", "last_edited_user": "AC_owner", "last_edited_date": 1789875254325, "created_date": 1789875254325, "PARK_SAPSITEID": null, "TRACK_ID": null, "KAURIDIEBACK_TRACK": null, "KAURIDIEBACK_MITIGATED": null, "SegmentID": null, "GlobalID": "aa238669-8cef-46a0-9b0e-aceab46a8ec4", "Shape__Length": 13.339815359789982}}, {"type": "Feature", "id": 1792, "geometry": {"type": "LineString", "coordinates": [[174.425894566256, -36.8327817217602], [174.42589200048, -36.8327777278343], [174.425884172098, -36.8327661766892], [174.42588225873, -36.8327633791934], [174.425879751835, -36.8327600200402], [174.425877111746, -36.8327567345958], [174.425874506964, -36.8327535388667], [174.425872749527, -36.8327512884462], [174.425869595914, -36.8327469184804], [174.425866500534, -36.8327420610658], [174.425864088184, -36.8327377543196], [174.425862279887, -36.8327339721474], [174.425860622689, -36.8327298726767], [174.42585970089, -36.8327273328021], [174.425858941231, -36.8327250704133], [174.425858846358, -36.8327247921206], [174.425858036334, -36.8327222328775], [174.4258577738, -36.8327213797068], [174.425856970304, -36.8327185679965], [174.425856776927, -36.8327178158532]]}, "properties": {"OBJECTID": 1792, "TRACKNAME": "Takapu Refuge Walk", "CONDITIONSOFUSE": "Muriwai Regional Park", "STATUS": "Open", "WEBLINK": "https://www.aucklandcouncil.govt.nz/en/parks-recreation/find-park-beach/park-detail/220.html", "VALIDATIONSTATE": 3, "created_user": "AC_owner", "last_edited_user": "AC_owner", "last_edited_date": 1789875254325, "created_date": 1789875254325, "PARK_SAPSITEID": null, "TRACK_ID": null, "KAURIDIEBACK_TRACK": null, "KAURIDIEBACK_MITIGATED": null, "SegmentID": null, "GlobalID": "a41f4b4c-76cb-48cf-b1ad-1df671f525b9", "Shape__Length": 7.899035467582098}}, {"type": "Feature", "id": 1954, "geometry": {"type": "LineString", "coordinates": [[174.425129251131, -36.8316234892553], [174.42509241508, -36.831711717173], [174.425071025796, -36.8317682383165], [174.425056154945, -36.8317850562359], [174.424966851472, -36.8318001433686]]}, "properties": {"OBJECTID": 1954, "TRACKNAME": "Takapu Refuge Walk", "CONDITIONSOFUSE": "Muriwai Regional Park", "STATUS": "Temp Closed", "WEBLINK": "https://www.aucklandcouncil.govt.nz/en/parks-recreation/find-park-beach/park-detail/220.html", "VALIDATIONSTATE": 3, "created_user": "AC_owner", "last_edited_user": "AC_owner", "last_edited_date": 1789875254325, "created_date": 1789875254325, "PARK_SAPSITEID": null, "TRACK_ID": null, "KAURIDIEBACK_TRACK": null, "KAURIDIEBACK_MITIGATED": null, "SegmentID": null, "GlobalID": "81cdd636-9869-4186-b975-04f29c118cb9", "Shape__Length": 27.30883687100844}}, {"type": "Feature", "id": 2128, "geometry": {"type": "MultiLineString", "coordinates": [[[174.425294467327, -36.8321505437761], [174.425294597561, -36.8321501897714], [174.425298497078, -36.8321391640944], [174.425298805472, -36.8321382590075], [174.425302137906, -36.8321280964495], [174.425302413002, -36.8321272097896], [174.425303046192, -36.8321250749188], [174.42530362316, -36.8321229317082], [174.425304155285, -36.8321207890354], [174.425304631021, -36.8321186290108], [174.425305073124, -36.8321164693895], [174.425305459841, -36.8321143464878], [174.425305983278, -36.8321111312658], [174.425306461703, -36.8321079075696], [174.425306850274, -36.8321046759368], [174.425307116187, -36.8321020857611], [174.425307592795, -36.8320969511413], [174.425307946083, -36.8320918180001], [174.425308021731, -36.8320904559952], [174.425308273627, -36.8320846930972], [174.425308379781, -36.8320789319466], [174.425308362775, -36.8320737852174], [174.42530819203, -36.8320657919413], [174.425308060916, -36.8320599344827], [174.425308038079, -36.8320526605446], [174.4253081305, -36.832047972212], [174.425308440151, -36.8320398830369], [174.425308638813, -36.8320360858059], [174.425309257192, -36.8320271095676], [174.425309283634, -36.8320267216531], [174.425309697651, -36.8320224441036], [174.425310201522, -36.8320181744906], [174.425310806458, -36.8320139126797], [174.425312872261, -36.8320007546679], [174.425312902047, -36.8320005469912], [174.425313447905, -36.8319973315003], [174.425314049984, -36.8319941243492], [174.425314730706, -36.831990925269], [174.425315490071, -36.8319877342597], [174.425315928822, -36.8319859983316], [174.425316695712, -36.8319832128573], [174.425317507612, -36.8319804358572], [174.425318386946, -36.8319776670625], [174.425319333878, -36.8319749154851], [174.425320543685, -36.8319718272417], [174.425325665988, -36.8319626437643], [174.425328391275, -36.8319590415857], [174.425335425423, -36.8319519714772], [174.42533755668, -36.8319501972275], [174.425341599991, -36.8319469217731], [174.425345722782, -36.831943699449], [174.425346717713, -36.8319429303524], [174.42534913995, -36.8319411255718], [174.425351585444, -36.8319393655819], [174.425354087662, -36.8319376409673], [174.425356601592, -36.8319359432539], [174.425366452999, -36.8319296235721], [174.425366807566, -36.8319293939733], [174.425376281649, -36.8319232861345], [174.425377754801, -36.8319223039839], [174.425381607852, -36.8319196527682], [174.425385404013, -36.831916957165], [174.425394355203, -36.8319104679972], [174.425395351136, -36.8319097529715], [174.425396523768, -36.8319088916048], [174.425397673477, -36.8319080034712], [174.425398789385, -36.831907106729], [174.425399904959, -36.8319061919631], [174.425400997944, -36.8319052684541], [174.425402068173, -36.8319043271902], [174.425403104435, -36.8319033683057], [174.425404140195, -36.8319023823856], [174.425405153533, -36.8319013967343], [174.425409389283, -36.8318964063304], [174.425412679313, -36.8318906070021], [174.425412825897, -36.831890046383], [174.425413112716, -36.8318879787622], [174.425412928512, -36.8318859077755], [174.425412319131, -36.8318838869565], [174.425411274869, -36.8318819975466], [174.425409829858, -36.8318802661783], [174.425407633393, -36.8318779218618], [174.425399831044, -36.8318713902068], [174.42539893368, -36.8318707699944], [174.425397616666, -36.8318698934109], [174.425396277564, -36.8318690351201], [174.425394916542, -36.8318682041338], [174.425393533265, -36.8318673824283], [174.425392127902, -36.8318665790153], [174.425390723207, -36.8318658116499], [174.425389296091, -36.8318650445533], [174.425387847054, -36.8318643047612], [174.425383178516, -36.8318616836138], [174.425376548441, -36.8318566882905], [174.425372642757, -36.8318528771756], [174.425367740993, -36.8318479602811], [174.425366163127, -36.8318463206442], [174.425363875137, -36.8318438782715], [174.425361631322, -36.8318413993135], [174.425359465649, -36.8318389013907], [174.425351440129, -36.8318294068374], [174.425350373774, -36.8318281396505], [174.425343559014, -36.8318198384408], [174.425340308085, -36.8318156589182], [174.425335997164, -36.8318099507293], [174.425335939437, -36.8318098612825], [174.425333456357, -36.8318065739424], [174.425330906849, -36.8318033324682], [174.425328301788, -36.8318001187017], [174.425326353136, -36.8317978345096], [174.425319501899, -36.8317899844305], [174.425310602118, -36.8317799054396], [174.425307185371, -36.8317758540988], [174.425299992636, -36.8317671247515], [174.425299109001, -36.8317660356512], [174.425296666413, -36.8317631173944], [174.425294157061, -36.8317602269797], [174.425291603703, -36.8317573821621], [174.42528897237, -36.8317545653209], [174.425288492652, -36.8317540933363], [174.425280636111, -36.8317476614757], [174.425271525463, -36.831741325776], [174.425259650452, -36.8317328598847], [174.425257593534, -36.8317313882399], [174.425247819284, -36.8317243393831], [174.42524671528, -36.8317234602441], [174.425245542673, -36.8317225098164], [174.425244380774, -36.8317215322186], [174.425243240964, -36.8317205363282], [174.425242134451, -36.8317195220108], [174.425241038815, -36.8317184895352], [174.425239976811, -36.8317174566563], [174.425238936728, -36.831716396473], [174.425238639895, -36.8317161115873], [174.425237748729, -36.8317152208825], [174.425236835309, -36.8317143394583], [174.425235910845, -36.8317134671805], [174.425234953251, -36.8317126223415], [174.425233984445, -36.831711777637], [174.425232993552, -36.8317109512251], [174.425231991616, -36.8317101339594], [174.425230967593, -36.8317093349864], [174.425229921482, -36.8317085543059], [174.425227376981, -36.8317067910479], [174.425223720944, -36.8317043470465], [174.425220021068, -36.8317019576541], [174.425209889074, -36.8316955710974], [174.425207405812, -36.8316940865355], [174.425203857863, -36.831692028835], [174.425200254864, -36.8316900258779], [174.425196619236, -36.8316880773951], [174.425195792318, -36.8316876276005], [174.425184000139, -36.8316799990005], [174.425182929601, -36.8316791104457], [174.42518175549, -36.8316780789104], [174.425180592423, -36.8316770382287], [174.425179451444, -36.8316759792544], [174.425178332718, -36.8316749109995], [174.425177247291, -36.8316738243175], [174.425176172741, -36.8316727194773], [174.425175131488, -36.8316715962101], [174.425166949216, -36.8316627164677], [174.425158128941, -36.831653294526], [174.425149319878, -36.8316438724492], [174.4251489772, -36.8316435340295], [174.425148097749, -36.8316426702252], [174.425147173621, -36.8316418159704], [174.425147048128, -36.8316417002943], [174.425146249661, -36.8316409707275], [174.425145303613, -36.8316401437772], [174.425144346522, -36.8316393259731], [174.425143367343, -36.8316385264617], [174.425142365911, -36.8316377362309], [174.425141353601, -36.8316369641583], [174.42514051213, -36.8316363342599], [174.425139567587, -36.8316355884165], [174.425138645466, -36.8316348423043], [174.425137722843, -36.8316340691564], [174.425136833686, -36.8316332865935], [174.425135955572, -36.8316324948842], [174.425135077124, -36.8316316851512], [174.425134231974, -36.8316308569911], [174.425133409413, -36.8316300375742], [174.425131514151, -36.8316276085164], [174.425129251131, -36.8316234892553], [174.425127903219, -36.8316191336761], [174.425127440601, -36.8316165612484], [174.425127085171, -36.8316070738789], [174.425127164501, -36.8316059101356], [174.425127275122, -36.8316046198225], [174.425127397121, -36.831603338387], [174.425127563963, -36.8316020564138], [174.425127764437, -36.8316007740375], [174.425127976123, -36.8315994915267], [174.425128221608, -36.8315982176246], [174.425128500726, -36.8315969433194], [174.425128802432, -36.8315956777572], [174.425128927432, -36.8315951624667], [174.425132859901, -36.8315847042744], [174.42513505862, -36.8315805225098], [174.425137456457, -36.8315761941357], [174.425139955693, -36.8315718915876], [174.425141726543, -36.8315688236614], [174.425143527849, -36.831565584106], [174.425145250344, -36.8315623274677], [174.425146905073, -36.8315590446001], [174.425147540595, -36.8315576398274], [174.425148712247, -36.8315549125987], [174.425149827511, -36.8315521680183], [174.425150897764, -36.8315494149636], [174.425151186244, -36.8315486453241], [174.425151882176, -36.8315468702575], [174.425152634329, -36.8315451035308], [174.425153409071, -36.8315433455472], [174.425154228823, -36.8315415960379], [174.425155082542, -36.8315398641491], [174.425156101079, -36.8315379500064], [174.425157251805, -36.8315359080845], [174.425158425455, -36.8315338929294], [174.425159655325, -36.8315318861142], [174.425160919329, -36.8315299059315], [174.42516185771, -36.8315285065418], [174.425163004415, -36.8315268522654], [174.425164173875, -36.8315252157441], [174.425165377469, -36.8315236058552], [174.425166615031, -36.8315220135868], [174.425167897769, -36.8315204388046], [174.425169708093, -36.8315182898219], [174.425172716318, -36.8315148284771], [174.425175803854, -36.8315114112507], [174.425184004259, -36.8315025334038], [174.425188578333, -36.8314976471181], [174.42519436553, -36.8314916646208], [174.425195818436, -36.8314901959649], [174.425200465458, -36.8314856152765], [174.425205203336, -36.831481096596], [174.425210132458, -36.8314772156089], [174.425217222421, -36.8314731554787], [174.425217844875, -36.8314728595713], [174.425219468108, -36.8314721099846], [174.425221125307, -36.8314713780184], [174.425222794219, -36.8314706729534], [174.425224474844, -36.8314699947897], [174.425226167013, -36.8314693345153], [174.425227859684, -36.8314687012765], [174.42522958649, -36.8314680946702], [174.425231325007, -36.8314675149651], [174.425233308323, -36.8314668331722], [174.425236830535, -36.831465691248], [174.425240375671, -36.8314645760906], [174.425243944398, -36.8314635237474], [174.425247547761, -36.8314625250723], [174.425248284163, -36.8314623269514], [174.425250248233, -36.831461816653], [174.425252224017, -36.8314613332557], [174.425254211679, -36.8314608857716], [174.425256222098, -36.8314604560423], [174.425258233186, -36.8314600623606], [174.425260244608, -36.8314596867027], [174.42526227912, -36.8314593468234], [174.425264314301, -36.8314590429917], [174.425264481962, -36.8314590139398], [174.42527252413, -36.8314579259887], [174.425280602105, -36.8314569547884], [174.425280904127, -36.8314569151117], [174.425286253691, -36.8314563552074], [174.425291615635, -36.8314558582518], [174.425296979084, -36.8314554424029], [174.425298872204, -36.8314553385795], [174.425305952075, -36.8314549652478], [174.42531303412, -36.8314547090701], [174.425316642491, -36.8314545846806], [174.425320787642, -36.8314543817437], [174.425324931622, -36.8314541157235], [174.425329052178, -36.8314537959007], [174.42532928727, -36.8314537750541], [174.425337054853, -36.8314529968634], [174.425344809051, -36.831452101652], [174.425360504183, -36.8314501016691], [174.425367327048, -36.8314491725539], [174.425377089321, -36.8314477214428], [174.425381449658, -36.8314470291734], [174.425393589462, -36.8314449906916], [174.425395388714, -36.8314446626448], [174.42539785777, -36.8314441733305], [174.425400315114, -36.8314436571148], [174.425402749368, -36.8314431051204], [174.425405182953, -36.8314425170784], [174.425407593447, -36.8314418932576], [174.425409992228, -36.8314412425356], [174.425412178674, -36.8314406304151], [174.425415646835, -36.8314395973005], [174.42541906915, -36.8314385106522], [174.425422490795, -36.8314373879562], [174.425425889016, -36.8314362114577], [174.4254263759, -36.831436042468]], [[174.42543940761, -36.8314310069835], [174.42544033995, -36.8314306118119], [174.425443508603, -36.831429149621], [174.425453424522, -36.8314232888671], [174.425464089575, -36.83141549917], [174.425474697735, -36.8314076650846], [174.425486990533, -36.8313987651853], [174.425487598931, -36.8313983162089], [174.425490508736, -36.8313961991065], [174.425493361317, -36.8313940195929], [174.425496168552, -36.8313918135814], [174.425498930108, -36.8313895630481], [174.425499691443, -36.8313888959042], [174.425500750119, -36.8313879367501], [174.425501786205, -36.831386968853], [174.425502788492, -36.8313859923473], [174.425503779067, -36.8313849889404], [174.425504747052, -36.8313839767905], [174.425505692449, -36.8313829558975], [174.425506603879, -36.831381917384], [174.425507503931, -36.8313808699931], [174.425508612305, -36.831379567715], [174.425512015567, -36.8313756419159], [174.425515509687, -36.8313717781244], [174.425523507569, -36.8313634705583], [174.425531528373, -36.8313551897585], [174.425533220214, -36.8313533035941], [174.42553947089, -36.8313445031873], [174.425539579485, -36.8313443125932], [174.42554083846, -36.83134206205], [174.425542041213, -36.831339803167], [174.425543198621, -36.8313375177862], [174.425544299808, -36.8313352240656], [174.425545367028, -36.8313329127246], [174.425546193308, -36.8313297028834], [174.425546420573, -36.8313256348918], [174.425545773899, -36.8313216044222], [174.425544266671, -36.8313177284945], [174.425543677701, -36.8313162031954], [174.425542544259, -36.8313143418976], [174.425541010742, -36.8313126746893], [174.42553915646, -36.8313112456887], [174.425537015715, -36.8313100905401], [174.425534656776, -36.8313092625083], [174.425532158285, -36.831308769664], [174.425530118761, -36.8313088391911], [174.425515483669, -36.8313105560676], [174.425515226657, -36.8313106042191], [174.42551290184, -36.8313110106811], [174.425510588067, -36.8313114079968], [174.425508250869, -36.83131175151], [174.425505913336, -36.8313120769993], [174.425503552713, -36.83131236671], [174.425501202465, -36.8313126112267], [174.425498840671, -36.831312837854], [174.425496544971, -36.8313130005914], [174.425491090509, -36.8313133454294], [174.425485623498, -36.8313136183065], [174.425482799052, -36.8313136882313], [174.425472515101, -36.8313130093135], [174.425471506304, -36.8313124264933], [174.425470413681, -36.8313115562337], [174.425469531554, -36.8313105482415], [174.425468883014, -36.8313094382955], [174.425468479606, -36.831308244285], [174.425468333544, -36.8313070201468], [174.425468467584, -36.831305783636], [174.425468860475, -36.8313045981046], [174.425469501173, -36.8313034726989], [174.425470368262, -36.8313024617591], [174.425470997415, -36.831301318464], [174.425472761903, -36.8312967002194], [174.425473514077, -36.8312919138359], [174.425473211603, -36.8312870950296], [174.425471527664, -36.831285177235], [174.425467937908, -36.8312820744318], [174.425463719339, -36.8312795290164], [174.42545903008, -36.8312776021897], [174.425457270664, -36.8312770554119], [174.42545511051, -36.8312760627446], [174.425453180599, -36.8312747878858], [174.42545157095, -36.8312732477837], [174.425450316533, -36.8312715141301], [174.425449440775, -36.8312696407275], [174.425449000564, -36.8312676719633], [174.425449687134, -36.8312641843674], [174.42545261942, -36.8312560276871], [174.42545420067, -36.8312530161132], [174.425459610026, -36.831245406619], [174.425466815958, -36.8312367209556], [174.425469101138, -36.8312341786768], [174.42547522645, -36.8312288951953], [174.425485058855, -36.8312221610925], [174.425494902804, -36.8312154448784], [174.425498126169, -36.831213305988], [174.425507366735, -36.8312073091059], [174.425508219762, -36.8312067490292], [174.425509659935, -36.831205803328], [174.425511088396, -36.8312048307256], [174.42551248289, -36.8312038405027], [174.425513854293, -36.8312028145012], [174.425515203274, -36.8312017887685], [174.425516540544, -36.8312007361345], [174.425517844013, -36.8311996748919], [174.42551912456, -36.8311985868825], [174.425538330749, -36.8311815546667], [174.425744686923, -36.8310342572564]]]}, "properties": {"OBJECTID": 2128, "TRACKNAME": "Takapu Refuge Walk", "CONDITIONSOFUSE": "Muriwai Regional Park", "STATUS": "Temp Closed", "WEBLINK": "https://www.aucklandcouncil.govt.nz/en/parks-recreation/find-park-beach/park-detail/220.html", "VALIDATIONSTATE": 3, "created_user": "AC_owner", "last_edited_user": "AC_owner", "last_edited_date": 1789875254325, "created_date": 1789875254325, "PARK_SAPSITEID": null, "TRACK_ID": null, "KAURIDIEBACK_TRACK": null, "KAURIDIEBACK_MITIGATED": null, "SegmentID": null, "GlobalID": "34c6657e-7048-4c3f-be5e-b5b29ebe082d", "Shape__Length": 177.00678182174008}}, {"type": "Feature", "id": 2921, "geometry": {"type": "LineString", "coordinates": [[174.425252588402, -36.8325440146709], [174.425192338088, -36.8325387923731], [174.425087937028, -36.8325075173731], [174.425027470287, -36.8324909896571], [174.424984333758, -36.8324904701612], [174.424840690739, -36.8325104811669], [174.424769272462, -36.8325292297554], [174.424724418375, -36.8325503731089], [174.424666417536, -36.8325942447951], [174.42459648008, -36.8326245223307]]}, "properties": {"OBJECTID": 2921, "TRACKNAME": "Takapu Refuge Walk", "CONDITIONSOFUSE": "Muriwai Regional Park", "STATUS": "Open", "WEBLINK": "https://www.aucklandcouncil.govt.nz/en/parks-recreation/find-park-beach/park-detail/220.html", "VALIDATIONSTATE": 3, "created_user": "AC_owner", "last_edited_user": "AC_owner", "last_edited_date": 1789875254325, "created_date": 1789875254325, "PARK_SAPSITEID": null, "TRACK_ID": null, "KAURIDIEBACK_TRACK": null, "KAURIDIEBACK_MITIGATED": null, "SegmentID": null, "GlobalID": "3aae8e9d-508b-4427-b5f1-4d2702c7263f", "Shape__Length": 63.41408303269362}}, {"type": "Feature", "id": 3004, "geometry": {"type": "LineString", "coordinates": [[174.427441170383, -36.832971702715], [174.427428530633, -36.8329764155221], [174.427421121694, -36.8329783974052], [174.427391729711, -36.8329849609089], [174.42736746347, -36.8329897772608], [174.427343361531, -36.8329937803849], [174.427324178023, -36.8329963453227], [174.427301882198, -36.8329985780575], [174.42729043677, -36.8329993734955], [174.427280329119, -36.8329991433144], [174.427274986614, -36.8329986999785], [174.42726439371, -36.8329960716179], [174.427251560273, -36.8329930167588], [174.427234413673, -36.8329872824751], [174.427223000316, -36.8329837688823], [174.427202353212, -36.8329757600522], [174.427191435303, -36.8329711498272], [174.427179321158, -36.8329661303102], [174.427164665451, -36.832960113722], [174.427147297681, -36.8329535798447], [174.427135023574, -36.8329483999936], [174.427120885079, -36.8329418543848], [174.42710517487, -36.8329352104627], [174.427090531564, -36.8329298607442], [174.427072776626, -36.8329248187958], [174.427048277342, -36.832918902337], [174.427036355837, -36.8329164043819], [174.427018151145, -36.8329131075052], [174.426999431592, -36.8329104658063], [174.426987161054, -36.8329090987725], [174.426973573647, -36.8329080720453], [174.42694859687, -36.832907236118], [174.426930189236, -36.8329062942892], [174.426912428984, -36.8329039835892], [174.426900915607, -36.8329023280271], [174.426876980094, -36.8328989917521], [174.426864400168, -36.8328972678635], [174.426838971587, -36.8328938413358], [174.426821197785, -36.8328914045903], [174.426797409188, -36.8328875257023], [174.426786056616, -36.8328854715877], [174.426774315342, -36.832883620443], [174.426748355002, -36.8328805428061], [174.426734881214, -36.8328789918822], [174.426721407259, -36.8328774319449], [174.426713075138, -36.8328761978913], [174.42669999624, -36.832873569571], [174.426682347262, -36.8328694006395], [174.426658536413, -36.8328637192125], [174.426646973011, -36.8328611808647], [174.42663792757, -36.8328595767832], [174.426622018321, -36.8328573069223], [174.426609078818, -36.8328555422525], [174.42659613898, -36.8328537595575], [174.426583926518, -36.8328518960209], [174.42657172259, -36.8328498881583], [174.426559636627, -36.8328475904343], [174.426547561039, -36.832845247515], [174.426534065171, -36.8328431109303], [174.426520453849, -36.8328413993824], [174.426509267284, -36.8328404339299], [174.426498044075, -36.8328399105967], [174.426492281859, -36.8328396300051], [174.426478035802, -36.8328397270446], [174.426471079467, -36.8328401169927], [174.426457522873, -36.8328413523232], [174.426444294911, -36.8328427730003], [174.42641947713, -36.8328456668044], [174.426406096564, -36.8328473236697], [174.42640588737, -36.8328473505174]]}, "properties": {"OBJECTID": 3004, "TRACKNAME": "Takapu Refuge Walk", "CONDITIONSOFUSE": "Muriwai Regional Park", "STATUS": "Open", "WEBLINK": "https://www.aucklandcouncil.govt.nz/en/parks-recreation/find-park-beach/park-detail/220.html", "VALIDATIONSTATE": 3, "created_user": "AC_owner", "last_edited_user": "AC_owner", "last_edited_date": 1789875254325, "created_date": 1789875254325, "PARK_SAPSITEID": null, "TRACK_ID": null, "KAURIDIEBACK_TRACK": null, "KAURIDIEBACK_MITIGATED": null, "SegmentID": null, "GlobalID": "be6667ba-abd2-4e06-b247-f16c3b9d3260", "Shape__Length": 95.58461418635984}}]}