{"type": "FeatureCollection", "features": [{"type": "Feature", "id": 3238, "geometry": {"type": "MultiLineString", "coordinates": [[[174.465954609838, -36.9589253507757], [174.466025440804, -36.9590032754256], [174.466056730339, -36.9590362360066], [174.46605971259, -36.9590755501453], [174.466015055708, -36.9591488400821], [174.465973323667, -36.9591809546095], [174.465930014537, -36.9592083194646], [174.465917020957, -36.9592281549363], [174.465918278627, -36.9592549694877], [174.465915010794, -36.9592782614923], [174.465896943758, -36.9593047188516], [174.465896258107, -36.9593464623971], [174.465923192245, -36.9593950199553], [174.465931283295, -36.95942950008], [174.46592211812, -36.9594940050791], [174.465900280938, -36.9595562815287], [174.465866228266, -36.9596014178853], [174.465826632411, -36.959628736855], [174.465777596977, -36.959628745573], [174.465713661656, -36.9596265541095], [174.465678716438, -36.9596251972228], [174.465613044083, -36.9596099095607], [174.465561735065, -36.9596075621421], [174.465518596527, -36.9596051138431], [174.465468568613, -36.9595920179968], [174.465451141522, -36.959574346392], [174.465439205529, -36.9595674450379], [174.465403476113, -36.959555351656], [174.465329597448, -36.9596068572502], [174.465205234158, -36.9596969298038], [174.46504771801, -36.9599075716418], [174.464994081435, -36.9599872851829], [174.464929050922, -36.9600892741553], [174.464902746829, -36.96015600241], [174.464852988658, -36.9602325060368], [174.464814503168, -36.9602804126084], [174.464812380939, -36.9603753013236], [174.464810075867, -36.9604607054096], [174.46472886242, -36.9605407599823], [174.464528861627, -36.9605906581793], [174.464206313576, -36.9606199335586], [174.46399794818, -36.9606446380734], [174.463816915719, -36.9606563563314], [174.463722188358, -36.960648038302], [174.463562416845, -36.9606942381213], [174.46348823873, -36.9606848643582], [174.463404675727, -36.9606622651029], [174.463389679413, -36.9606607265417]], [[174.467312161673, -36.9588383429944], [174.467345731885, -36.9588618287225], [174.46733587697, -36.9588879873993], [174.467276261658, -36.9589207182047], [174.467191923142, -36.9589403656199], [174.467056219572, -36.9589394484701], [174.466639883551, -36.9589060446093], [174.46645054583, -36.9589535779873], [174.46614788462, -36.9590075591595], [174.466088228292, -36.9589947780727], [174.465954609838, -36.9589253507757]], [[174.465829957, -36.9587945872926], [174.465859713008, -36.9588741125396], [174.465912620927, -36.9589211568953], [174.465954609838, -36.9589253507757]]]}, "properties": {"OBJECTID": 3238, "TRACKNAME": "Tasman Lookout Track", "CONDITIONSOFUSE": "Waitakere West Regional Park", "STATUS": "Temp Closed", "WEBLINK": "https://www.aucklandcouncil.govt.nz/en/parks-recreation/find-park-beach/park-detail/3451.html", "VALIDATIONSTATE": 3, "created_user": "AC_owner", "last_edited_user": "AC_owner", "last_edited_date": 1789875254325, "created_date": 1789875254325, "PARK_SAPSITEID": null, "TRACK_ID": null, "KAURIDIEBACK_TRACK": null, "KAURIDIEBACK_MITIGATED": null, "SegmentID": null, "GlobalID": "73f903d0-210a-4b91-82f7-bd39e38ebc38", "Shape__Length": 535.4351900208541}}]}