{"type": "FeatureCollection", "features": [{"type": "Feature", "id": 719, "geometry": {"type": "LineString", "coordinates": [[174.573687963601, -36.9196173464585], [174.573674372666, -36.9196366443837], [174.573670802521, -36.9196410001889], [174.573667266231, -36.9196453645589], [174.573663763423, -36.9196497194716], [174.573660272208, -36.9196540922578], [174.573656825885, -36.9196584644491], [174.573653390784, -36.9196628364915], [174.573650000575, -36.9196672079391], [174.573646632996, -36.9196715881002], [174.573643287862, -36.9196759679639], [174.573639976583, -36.9196803563925], [174.573636687749, -36.9196847445237], [174.573633432583, -36.9196891322086], [174.573630200048, -36.9196935286071], [174.573627001181, -36.9196979245595], [174.573623835983, -36.9197023200657], [174.573620758901, -36.9197066332819], [174.57361776938, -36.9197108371746], [174.573614901274, -36.919714940309], [174.573612120728, -36.91971893412], [174.573609450189, -36.9197228183102], [174.573606889842, -36.9197266018908], [174.573604416871, -36.9197302671368], [174.573602054277, -36.9197338407843], [174.573599801504, -36.9197372957999], [174.573597636478, -36.9197406505033], [174.573595581459, -36.9197438955858], [174.573593636446, -36.9197470310477], [174.573591790402, -36.9197500660486], [174.573590043143, -36.9197529915775], [174.573588394667, -36.9197558076343], [174.573586856384, -36.9197585230816], [174.573585416884, -36.9197611290568], [174.573584087392, -36.9197636254112], [174.573582856683, -36.9197660122937], [174.573581724944, -36.9197682987152], [174.573580680951, -36.9197704848246], [174.57357966933, -36.9197726074098], [174.573578678859, -36.9197746666197], [174.573577720761, -36.9197766623054], [174.573576783626, -36.9197785856046], [174.573575867827, -36.9197804545395], [174.573574984399, -36.9197822599503], [174.573574121936, -36.9197839929746], [174.573573280808, -36.9197856716346], [174.573572472052, -36.9197872867705], [174.57357168426, -36.9197888295199], [174.573570917803, -36.919790317905], [174.573570183534, -36.9197917337548], [174.573569470599, -36.9197930952404], [174.573568778813, -36.9197943933506], [174.573568119215, -36.9197956189255], [174.573567480951, -36.9197967901362], [174.573566863652, -36.9197978889603], [174.57356627891, -36.9197989332715], [174.573565715133, -36.9197999051961], [174.573565183913, -36.9198008226078], [174.573564641285, -36.9198017311571], [174.573564077508, -36.9198027030817], [174.573563492581, -36.9198037383817], [174.573562875467, -36.919804846217], [174.57356222598, -36.9198060175763], [174.573561555344, -36.9198072523111], [174.573560863558, -36.9198085504212], [174.5735601394, -36.9198099120554], [174.573559383054, -36.9198113462249], [174.573558605559, -36.9198128437698], [174.573557806729, -36.9198143956789], [174.573556975712, -36.9198160201232], [174.57355612373, -36.9198177169541], [174.573555239191, -36.9198194682979], [174.573554322464, -36.919821292177], [174.573553395811, -36.9198231792827], [174.573552425562, -36.9198251300613], [174.573551445386, -36.9198271440665], [174.573550421615, -36.9198292217445], [174.57354937688, -36.919831371809], [174.57354831081, -36.9198335762378], [174.573547301595, -36.9198358159676], [174.573546382535, -36.9198380725302], [174.573545530997, -36.9198403372117], [174.573544769798, -36.9198426277371], [174.573544087531, -36.9198449352438], [174.573543495417, -36.9198472595833], [174.573542982235, -36.9198496009042], [174.573542547984, -36.9198519592065], [174.573542192663, -36.9198543344902], [174.573541927312, -36.9198567175954], [174.573541741077, -36.9198591266932], [174.573541644996, -36.9198615526237], [174.573541616623, -36.9198639956843], [174.573541678404, -36.9198664555777], [174.573541830339, -36.9198689323037], [174.573542061206, -36.9198714260112], [174.573542371003, -36.9198739367], [174.573542759732, -36.9198764643703], [174.573543227392, -36.919879009022], [174.573543785206, -36.9198815705064], [174.573544388282, -36.9198841494182], [174.573544868276, -36.9198867479881], [174.573545225373, -36.919889375227], [174.57354544835, -36.9198920312837], [174.573545525799, -36.9198947072957], [174.573545480166, -36.9198974029657], [174.573545300413, -36.9199001274535], [174.573544997762, -36.9199028806104], [174.573544549584, -36.9199056537226], [174.573543978508, -36.919908455504], [174.573543261905, -36.9199112772406], [174.573542422219, -36.9199141186353], [174.573541448412, -36.9199169888477], [174.573540340486, -36.9199198878779], [174.573539109477, -36.919922806566], [174.573537733126, -36.9199257542206], [174.573536233691, -36.9199287215332], [174.573534599952, -36.9199317086523], [174.573532832092, -36.9199347245893], [174.573530930112, -36.919937769344], [174.573528893827, -36.9199408339052], [174.57352683454, -36.9199438717304], [174.573524874778, -36.9199468361282], [174.573523013985, -36.9199497000652], [174.573521263941, -36.9199524904259], [174.573519613051, -36.9199551893371], [174.573518061501, -36.9199578058096], [174.573516620329, -36.9199603306837], [174.573515278497, -36.9199627731193], [174.573514036005, -36.9199651331163], [174.573512903891, -36.919967401515], [174.573511871116, -36.9199695874751], [174.57351094872, -36.9199716818368], [174.573510125848, -36.9199737027711], [174.573509401946, -36.9199756232446], [174.57350877757, -36.9199774702907], [174.573508263571, -36.9199792257385], [174.573507860136, -36.919980898599], [174.573507544632, -36.9199824801585], [174.573507339691, -36.9199839791308], [174.573507245313, -36.9199853955159], [174.573507239053, -36.9199867296111], [174.573507221569, -36.9199880638551], [174.573507137674, -36.9199894440469], [174.573506998404, -36.9199908610267], [174.573506792723, -36.9199923239544], [174.573506531667, -36.9199938236702], [174.573506215237, -36.919995360174], [174.573505821172, -36.9199969427744], [174.573505382957, -36.9199985620141], [174.573504878329, -36.9200002272017], [174.573504307104, -36.920001929326], [174.573503680505, -36.9200036682384], [174.573502987493, -36.9200054530986], [174.573502239108, -36.9200072747469], [174.573501424311, -36.920009142343], [174.573500553954, -36.9200110377161], [174.573499628594, -36.9200129878994], [174.573498636451, -36.9200149660084], [174.573497578081, -36.9200169990763], [174.573496464152, -36.9200190599212], [174.573495283811, -36.9200211667138], [174.573494070542, -36.9200233099972], [174.573492913388, -36.920025452537], [174.573491834979, -36.9200276030472], [174.573490812871, -36.920029761825], [174.573489869323, -36.9200319195619], [174.573489004522, -36.9200340852692], [174.573488196021, -36.9200362592441], [174.573487477303, -36.9200384320295], [174.5734868147, -36.9200406040714], [174.573486230844, -36.9200427840836], [174.573485703287, -36.9200449723635], [174.573485265515, -36.9200471594538], [174.573484884042, -36.9200493548119], [174.57348458113, -36.920051549129], [174.573484356965, -36.9200537514165], [174.5734841891, -36.9200559619717], [174.573484099795, -36.920058171486], [174.573484077829, -36.9200603801082], [174.573484134608, -36.9200625967007], [174.573484258911, -36.9200648214121], [174.573484450552, -36.9200670452314], [174.573484609264, -36.9200693055414], [174.573484578297, -36.9200716224459], [174.573484357835, -36.9200740049563], [174.573483936471, -36.9200764442099], [174.573483325612, -36.9200789490693], [174.573482536481, -36.9200815193858], [174.573481546633, -36.9200841554567], [174.573480356067, -36.9200868572821], [174.573478987044, -36.9200896155534], [174.573477417304, -36.9200924395791], [174.573475669106, -36.9200953200507], [174.573473720376, -36.9200982752879], [174.573471570744, -36.9201012872683], [174.573469242839, -36.9201043647057], [174.573466714031, -36.9201074988864], [174.573464007137, -36.9201107075353], [174.57346109934, -36.9201139729273], [174.573458002048, -36.920117303925], [174.573454703852, -36.9201206916659], [174.573451227385, -36.9201241448637], [174.573447561423, -36.9201276636672], [174.573443939796, -36.9201311548424], [174.573440485219, -36.9201345807091], [174.573437186281, -36.9201379324049], [174.573434032131, -36.9201412281009], [174.57343104503, -36.9201444584885], [174.573428213754, -36.9201476237164], [174.573425538303, -36.9201507237847], [174.57342300727, -36.9201537498307], [174.573420643471, -36.9201567195796], [174.573418435497, -36.9201596241689], [174.573416383164, -36.9201624545874], [174.573414486841, -36.9201652288573], [174.573412746345, -36.9201679379676], [174.573411161489, -36.9201705729072], [174.573409732643, -36.9201731516983], [174.573408459438, -36.9201756563187], [174.573407342245, -36.9201781047906], [174.573406380691, -36.9201804790917], [174.573405575149, -36.9201827972444], [174.573404936656, -36.9201850500888], [174.573404409096, -36.9201872383684], [174.573403892759, -36.9201894264992], [174.573403342754, -36.9201916150761], [174.573402759079, -36.9201938040991], [174.573402152773, -36.9201959844083], [174.573401524206, -36.920198174026], [174.573400873193, -36.9202003639411], [174.573400188511, -36.9202025543022], [174.573399481383, -36.9202047449607], [174.5733987404, -36.9202069270541], [174.573397977157, -36.920209118456], [174.573397191468, -36.9202113101552], [174.573396383333, -36.9202135021518], [174.573395541528, -36.9202156945945], [174.57339466587, -36.9202178784721], [174.573393779173, -36.9202200715095], [174.573392858807, -36.9202222649929], [174.573391915996, -36.9202244587738], [174.573390939515, -36.9202266530006], [174.573389940403, -36.9202288385137], [174.573388919029, -36.9202310333352], [174.573387886804, -36.9202332463278], [174.57338684391, -36.9202354865024], [174.573385813166, -36.920237771584], [174.573384783347, -36.9202401017214], [174.573383765493, -36.9202424677546], [174.573382748378, -36.9202448698324], [174.573381732005, -36.9202473079548], [174.573380716557, -36.9202497911329], [174.573379702035, -36.9202523193667], [174.573378699292, -36.9202548744852], [174.573377697474, -36.9202574746594], [174.573376707805, -36.9202601197407], [174.573375707469, -36.9202627920041], [174.573374719281, -36.9202655091744], [174.57337373202, -36.9202682714005], [174.573372756722, -36.9202710695225], [174.573371770941, -36.9202739038377], [174.573370797125, -36.9202767740488], [174.573369835457, -36.920279689167], [174.573368863306, -36.9202826404783], [174.573367903305, -36.9202856366967], [174.573366899337, -36.9202886785656], [174.573365839995, -36.9202917572224], [174.573364725834, -36.9202948997006], [174.573363556298, -36.9202980789668], [174.573362320535, -36.9203013131919], [174.573361040806, -36.9203045930674], [174.57335969485, -36.9203079279019], [174.573358282296, -36.920311299673], [174.573356826146, -36.9203147351169], [174.573355303398, -36.9203182074973], [174.573353725647, -36.920321734688], [174.573352092705, -36.9203253076778], [174.573350404575, -36.9203289264668], [174.573348650217, -36.9203326002146], [174.57334684067, -36.9203363197615], [174.573344987156, -36.9203400849588], [174.573343056192, -36.9203439052637], [174.573341081261, -36.920347771219], [174.573339039918, -36.9203516831221], [174.573336943386, -36.9203556408243], [174.573334813739, -36.9203596260059], [174.573332749024, -36.9203634931505], [174.573330770944, -36.9203672059162], [174.573328879501, -36.920370764303], [174.573327086102, -36.9203741771734], [174.573325368301, -36.9203774448248], [174.573323748545, -36.9203805669597], [174.573322204017, -36.9203835258533], [174.573320757719, -36.9203863482416], [174.573319386833, -36.9203890163998], [174.573318113993, -36.9203915390415], [174.573316927973, -36.9203939163155], [174.57331582859, -36.9203961392107], [174.573314815844, -36.9203982077269], [174.573313890104, -36.9204001398866], [174.573313051, -36.9204019176675], [174.573312298533, -36.9204035410695], [174.573311644111, -36.9204050189551], [174.573311065287, -36.9204063516217], [174.573310573099, -36.9204075299095], [174.573310178956, -36.9204085626808], [174.573309827854, -36.9204095047461], [174.573309465713, -36.9204104559711], [174.573309081682, -36.9204114345269], [174.573308686428, -36.9204124132314], [174.573308269283, -36.9204134192667], [174.573307841101, -36.9204144344618], [174.573307390843, -36.9204154679765], [174.573306918508, -36.9204165198109], [174.573306435136, -36.9204175808051], [174.573305929689, -36.9204186601189], [174.573305413388, -36.9204197576037], [174.573304875012, -36.9204208734081], [174.573304314375, -36.920421998521], [174.573303742885, -36.9204231418049], [174.573303160543, -36.9204243032597], [174.573302544901, -36.9204254831829], [174.573301929445, -36.9204266721171], [174.57330128069, -36.9204278795198], [174.573300621082, -36.9204291050933], [174.573299950437, -36.9204303398267], [174.573299257715, -36.9204315928797], [174.573298611738, -36.9204329354494], [174.573298058322, -36.9204344119969], [174.573297597283, -36.920436013511], [174.573297228621, -36.9204377399916], [174.573296952336, -36.9204395914389], [174.573296757389, -36.9204415770126], [174.573296666042, -36.9204436874042], [174.573296656034, -36.9204459319222], [174.573296738403, -36.9204483014068], [174.573296901926, -36.9204507960067], [174.573297169048, -36.9204534154245], [174.57329751751, -36.9204561689687], [174.573297958533, -36.9204590564907], [174.573298491748, -36.9204620599682], [174.573299117525, -36.9204651974233], [174.573299824455, -36.9204684599937], [174.573300623948, -36.9204718565419], [174.573301526856, -36.9204753688968], [174.573302500064, -36.9204790245379], [174.573303576688, -36.9204827959858], [174.573304711834, -36.9204866838352], [174.573305723156, -36.9204905552977], [174.57330657643, -36.9204943837859], [174.573307271655, -36.9204981692999], [174.573307809017, -36.9205019208508], [174.57330818833, -36.9205056294275], [174.573308409595, -36.9205092950299], [174.573308472996, -36.9205129266692], [174.573308378348, -36.9205165153343], [174.573308125652, -36.9205200610251], [174.573307703684, -36.9205235638904], [174.573307135076, -36.9205270326438], [174.573306408604, -36.9205304674342], [174.573305512675, -36.9205338503879], [174.573304470105, -36.9205371992298], [174.573303269487, -36.9205405050974], [174.573301899782, -36.9205437771506], [174.573300383251, -36.9205470060809], [174.573298697449, -36.9205501921856], [174.57329686482, -36.9205533351673], [174.573294863105, -36.9205564443345], [174.573292771605, -36.9205595546912], [174.573290692809, -36.9205627369882], [174.573288649534, -36.9205660089507], [174.573286630557, -36.9205693707272], [174.57328464673, -36.9205728041467], [174.573282687201, -36.9205763273804], [174.573280751969, -36.920579940428], [174.573278852073, -36.9205836341299], [174.573276976289, -36.9205874086348], [174.573275124618, -36.9205912639425], [174.573273308468, -36.9205952089156], [174.57327151643, -36.9205992346916], [174.573269748689, -36.9206033502817], [174.573268016284, -36.920607546526], [174.573266307992, -36.9206118235733], [174.573264623997, -36.9206161904346], [174.573262975338, -36.9206206379501], [174.573261350792, -36.9206251662686], [174.573259750543, -36.9206297844012], [174.573258185629, -36.9206344831879], [174.573256644828, -36.9206392627776], [174.573255159587, -36.9206440145906], [174.573253750685, -36.920648657229], [174.573252429345, -36.9206531905443], [174.573251173307, -36.9206576238451], [174.573249993609, -36.9206619479714], [174.573248901472, -36.9206661627746], [174.573247874638, -36.9206702775632], [174.573246923958, -36.9206742741662], [174.57324606121, -36.9206781794684], [174.573245263394, -36.9206819667337], [174.573244553326, -36.920685653687], [174.573243908374, -36.9206892316146], [174.573243350985, -36.9206927002191], [174.573242858898, -36.920696068809], [174.57324244315, -36.9206993282245], [174.573242114964, -36.9207024783169], [174.573241852081, -36.9207055283947], [174.57324167676, -36.9207084691494], [174.573241577779, -36.9207113007297], [174.573241544099, -36.9207140322954], [174.573241586944, -36.9207166636978], [174.573241618196, -36.9207192772266], [174.573241615778, -36.9207218912015], [174.573241590915, -36.9207245054736], [174.573241543605, -36.9207271200431], [174.573241462811, -36.9207297440698], [174.573241370609, -36.920732359234], [174.573241233514, -36.9207349749928], [174.573241085196, -36.9207375909004], [174.573240903209, -36.9207402072539], [174.573240687553, -36.9207428240535], [174.573240460859, -36.9207454500129], [174.57324020031, -36.9207480674071], [174.573239917316, -36.9207506850987], [174.573239600652, -36.9207533032363], [174.573239261541, -36.9207559216713], [174.573238899985, -36.9207585404035], [174.573238504944, -36.920761168593], [174.573238087272, -36.9207637880686], [174.573237647154, -36.9207664078416], [174.573237173366, -36.9207690280606], [174.573236643833, -36.9207716670452], [174.573235947436, -36.9207743803491], [174.573235095025, -36.9207771498011], [174.573234086788, -36.9207799844126], [174.573232900462, -36.9207828934919], [174.573231569532, -36.9207858675819], [174.573230071366, -36.9207888979689], [174.573228406335, -36.920792002675], [174.573226585662, -36.9207951815516], [174.573224597753, -36.9207984167251], [174.573222454017, -36.9208017170579], [174.573220154639, -36.9208050915613], [174.57321768821, -36.9208085313726], [174.573215054545, -36.9208120274808], [174.573212265238, -36.9208155977594], [174.573209320103, -36.9208192331973], [174.573206208103, -36.9208229429544], [174.573202928867, -36.9208267090082], [174.573199493988, -36.9208305492324], [174.573195903097, -36.9208344456048], [174.57319214534, -36.9208384162962], [174.573188499258, -36.9208423584673], [174.57318514331, -36.9208462156728], [174.573182088534, -36.9208499787528], [174.573179323707, -36.9208536478559], [174.573176860237, -36.9208572318447], [174.573174697939, -36.9208607217081], [174.57317282559, -36.9208641175947], [174.573171265822, -36.9208674282184], [174.573169984965, -36.9208706540251], [174.573169016318, -36.9208737765467], [174.573168337991, -36.9208768231138], [174.573167949428, -36.920879766693], [174.573167873446, -36.9208826250093], [174.573168087598, -36.9208853983601], [174.573168591515, -36.920888068723], [174.573169396789, -36.9208906539716], [174.57317050342, -36.920893154106], [174.573171911225, -36.9208955601149], [174.573173608978, -36.9208978721472], [174.57317560809, -36.9209000990651], [174.57317787489, -36.9209022413147], [174.573180241957, -36.9209043461818], [174.573182653547, -36.9209064324317], [174.573185109659, -36.9209085000648], [174.573187610294, -36.9209105490808], [174.573190166488, -36.9209125703199], [174.573192767205, -36.9209145729421], [174.573195412444, -36.9209165569473], [174.573198102206, -36.9209185223354], [174.573200847712, -36.9209204689578], [174.573203626333, -36.9209223881008], [174.5732064607, -36.920924288478], [174.573209339588, -36.9209261702382], [174.573212274222, -36.9209280332327], [174.57321524197, -36.9209298687477], [174.573218265463, -36.920931685497], [174.573221333479, -36.9209334836292], [174.573224446017, -36.9209352631444], [174.5732276143, -36.9209370238938], [174.573230826921, -36.9209387570151], [174.573234084063, -36.9209404715193], [174.573237295943, -36.9209421685958], [174.573240271768, -36.920943850772], [174.573242977682, -36.9209455094829], [174.573245413871, -36.9209471537395], [174.573247602781, -36.9209487832446], [174.573249521781, -36.9209503892844], [174.573251171055, -36.92095198087], [174.573252561642, -36.9209535488417], [174.573253693728, -36.9209551022105], [174.573254556088, -36.9209566411252], [174.573255159946, -36.9209581654371], [174.573255505116, -36.920959666135], [174.573255580561, -36.9209611523789], [174.573255397319, -36.9209626150088], [174.573254944352, -36.9209640631845], [174.573254232883, -36.9209654967575], [174.573253262911, -36.9209669157276], [174.573252023029, -36.9209683112325], [174.573250524644, -36.9209696921346], [174.573248756349, -36.9209710495713], [174.573246729552, -36.9209723924053], [174.573244568632, -36.9209737640567], [174.573242386563, -36.9209751990834], [174.573240183343, -36.9209766974854], [174.57323794775, -36.9209782594113], [174.573235691007, -36.9209798847126], [174.573233413113, -36.9209815733892], [174.573231102847, -36.9209833255897], [174.57322877143, -36.9209851411656], [174.57322640764, -36.9209870202654], [174.573224034108, -36.920988971603], [174.573221616794, -36.9209909776021], [174.573219189553, -36.9209930468277], [174.573216729939, -36.9209951795774], [174.573214249174, -36.9209973757023], [174.573211747259, -36.9209996352026], [174.573209212971, -36.9210019582267], [174.573206657718, -36.9210043536374], [174.573204069906, -36.9210068035608], [174.573201460944, -36.9210093168595], [174.573198830832, -36.9210118935335], [174.573196179754, -36.9210145425939], [174.573193473672, -36.9210172464644], [174.573190712769, -36.9210200141562], [174.573187908456, -36.9210228545318], [174.573185049137, -36.9210257497175], [174.573182134999, -36.9210287087245], [174.573179177449, -36.9210317404152], [174.573176164895, -36.9210348269161], [174.57317309752, -36.9210379772382], [174.573169986734, -36.921041200244], [174.573166820943, -36.9210444780599], [174.573163600518, -36.9210478287082], [174.57316033631, -36.921051234018], [174.573157017468, -36.9210547121601], [174.573153654844, -36.9210582449636], [174.573150226362, -36.9210618507482], [174.573146754098, -36.9210655111942], [174.573143227199, -36.9210692444726], [174.573139656518, -36.9210730324124], [174.573136031203, -36.9210768931845], [174.573132350882, -36.9210808087667], [174.573128648855, -36.9210847606907], [174.573124990054, -36.9210886309197], [174.573121385702, -36.9210924193049], [174.573117824391, -36.921096116984], [174.573114317529, -36.9210997328194], [174.573110865116, -36.9211032668111], [174.573107455743, -36.9211067100966], [174.573104112043, -36.9211100713898], [174.573100800345, -36.9211133511366], [174.573097554135, -36.92111653988], [174.573094351151, -36.9211196469284], [174.57309120243, -36.9211226631219], [174.573088097121, -36.9211256066316], [174.573085057113, -36.9211284501267], [174.573082049294, -36.9211312210866], [174.573079106962, -36.9211339010431], [174.573076207856, -36.9211364993046], [174.573073363014, -36.9211390067113], [174.573070572621, -36.9211414322743], [174.573067825455, -36.9211437761424], [174.573065132552, -36.9211460291557], [174.573062540843, -36.9211482898422], [174.573060119147, -36.9211506293991], [174.573057845019, -36.9211530481237], [174.573055741089, -36.9211555547299], [174.573053784726, -36.9211581405039], [174.573051998376, -36.9211608051482], [174.573050371003, -36.9211635578228], [174.573048891196, -36.9211663896651], [174.573047581588, -36.9211693093891], [174.573046430585, -36.921172299121], [174.573045438743, -36.9211753858943], [174.573044605506, -36.9211785426756], [174.573043920022, -36.9211817876358], [174.573043404551, -36.9211851114665], [174.573043048056, -36.9211885233275], [174.573042850352, -36.9211920142076], [174.573042811438, -36.9211955841068], [174.573042931499, -36.9211992420363], [174.573043210351, -36.9212029789849], [174.573043647994, -36.9212067949526], [174.573044233204, -36.9212106900882], [174.573044818229, -36.9212145762125], [174.573045334804, -36.9212184091619], [174.573045805747, -36.9212222066614], [174.57304623087, -36.9212259596997], [174.573046587915, -36.9212296775855], [174.573046910364, -36.9212333508614], [174.573047164548, -36.9212369799736], [174.573047373099, -36.9212405736358], [174.573047524609, -36.9212441229855], [174.573047619077, -36.9212476280229], [174.573047667727, -36.9212510885991], [174.57304765952, -36.921254513874], [174.573047594457, -36.9212579038476], [174.57304748339, -36.921261240349], [174.573047304244, -36.9212645416978], [174.573047090503, -36.9212677984368], [174.573046808682, -36.9212710200231], [174.573046480857, -36.9212741881372], [174.573046107399, -36.9212773208014], [174.573045665861, -36.9212804183129], [174.573045189543, -36.9212834622035], [174.573044711374, -36.9212864159826], [174.5730442205, -36.9212892978213], [174.573043738998, -36.9212920893999], [174.573043255644, -36.9212947908671], [174.573042759401, -36.9212974113826], [174.573042272715, -36.9212999506492], [174.573041773139, -36.9213024089641], [174.573041282935, -36.921304777019], [174.573040791064, -36.9213070639736], [174.573040286119, -36.9213092609654], [174.57303979073, -36.9213113767082], [174.573039293676, -36.9213134113508], [174.573038783732, -36.9213153650417], [174.573038283159, -36.9213172284726], [174.573037780735, -36.921319001792], [174.573037265607, -36.9213207031709], [174.57303675985, -36.9213223142897], [174.573036252242, -36.9213238352972], [174.57303573193, -36.9213252843641], [174.573035220804, -36.9213266341598], [174.573034675823, -36.9213279753903], [174.57303408669, -36.9213293532599], [174.573033442367, -36.9213307769286], [174.573032742669, -36.9213322373851], [174.573031999004, -36.9213337434919], [174.573031200148, -36.9213352953977], [174.573030345917, -36.9213368840914], [174.57302944772, -36.9213385184354], [174.573028494331, -36.9213401985783], [174.573027485568, -36.9213419155091], [174.573026433023, -36.9213436871013], [174.573025324917, -36.9213454864702], [174.573024161806, -36.9213473406493], [174.57302294332, -36.9213492316161], [174.573021680866, -36.9213511682333], [174.57302037426, -36.9213531414896], [174.573019001241, -36.9213551606936], [174.573017584255, -36.9213572255478], [174.573016112079, -36.9213593362011], [174.57301459575, -36.9213614834934], [174.573013024231, -36.9213636765848], [174.573011464491, -36.9213658965609], [174.573009927567, -36.921368134262], [174.57300841346, -36.921370389688], [174.573006933577, -36.9213726717015], [174.573005476511, -36.9213749714399], [174.573004053485, -36.9213772887547], [174.573002653461, -36.9213796328056], [174.573001276253, -36.9213819945814], [174.572999921862, -36.9213843740823], [174.572998601696, -36.9213867801705], [174.572997304346, -36.9213892039838], [174.572996041036, -36.9213916453734], [174.572994800728, -36.9213941134991], [174.572993583236, -36.9213965993497], [174.572992388746, -36.9213991119365], [174.572991228111, -36.9214016330885], [174.572990090662, -36.9214041899877], [174.572988987068, -36.9214067554521], [174.572987906476, -36.9214093476526], [174.572986848701, -36.9214119575781], [174.572985779702, -36.9214145676523], [174.572984540319, -36.9214170808336], [174.572983107919, -36.9214194884082], [174.57298150495, -36.9214217900788], [174.572979697927, -36.9214239953025], [174.572977709297, -36.921426103782], [174.572975549911, -36.9214280973464], [174.572973186472, -36.9214299944637], [174.572970641239, -36.9214317858257], [174.572967914214, -36.9214334714323], [174.572965005581, -36.9214350602947], [174.572961903931, -36.9214365435502], [174.572958620675, -36.9214379300614], [174.572955144216, -36.9214392019547], [174.57295148615, -36.9214403771037], [174.572947646477, -36.9214414555083], [174.572943613602, -36.9214424192949], [174.57293939912, -36.9214432863371], [174.572934991621, -36.9214440477724], [174.572930402515, -36.9214447124633], [174.572925631431, -36.9214452623874], [174.572920792637, -36.921445795181], [174.572916033702, -36.9214463900118], [174.572911354439, -36.9214470378688], [174.57290675522, -36.9214477567743], [174.572902235674, -36.921448528706], [174.572897796172, -36.9214493716861], [174.572893436342, -36.9214502676925], [174.572889156556, -36.9214512347474], [174.572884956627, -36.9214522638396], [174.572880836372, -36.9214533459581], [174.57287679616, -36.9214544991251], [174.572872835807, -36.9214557143295], [174.572868955126, -36.9214569825602], [174.572865154489, -36.9214583218394], [174.572861433709, -36.9214597231561], [174.572857804011, -36.9214611863615], [174.572854242763, -36.9214627027419], [174.572850761558, -36.9214642901708], [174.572847360211, -36.9214659396372], [174.572844038723, -36.9214676511411], [174.57284080813, -36.9214694155226], [174.572837679102, -36.9214712055998], [174.57283466212, -36.9214729851794], [174.572831768593, -36.9214747631239], [174.572828998522, -36.9214765394334], [174.572826340682, -36.9214783142565], [174.572823806297, -36.9214800874445], [174.572821384144, -36.9214818591461], [174.572819085262, -36.9214836202016], [174.572816910019, -36.9214853886332], [174.572814846823, -36.9214871465673], [174.57281289586, -36.921488903015], [174.572811079759, -36.9214906666902], [174.572809364483, -36.9214924200166], [174.572807783884, -36.9214941715593], [174.572806315518, -36.9214959216157], [174.572804959198, -36.9214976611746], [174.572803726519, -36.9214994081097], [174.572802606072, -36.9215011535584], [174.572801620118, -36.9215028882124], [174.572800735173, -36.9215046215288], [174.572799951051, -36.9215063444962], [174.572799165819, -36.9215080133968], [174.572798345436, -36.9215096106541], [174.572797512535, -36.9215111449821], [174.572796667114, -36.9215126163807], [174.572795786542, -36.921514016136], [174.572794893637, -36.9215153619731], [174.572793976804, -36.9215166360182], [174.572793036229, -36.9215178472827], [174.572792083135, -36.9215189956177], [174.572791106298, -36.921520081172], [174.572790105719, -36.9215211039456], [174.572789092437, -36.9215220547786], [174.572788055597, -36.9215229518421], [174.572786994829, -36.9215237771136], [174.57278591032, -36.9215245396044], [174.572784813106, -36.9215252301546], [174.572783692335, -36.9215258669352], [174.572782547636, -36.921526431924], [174.572781390604, -36.9215269429945], [174.572780198421, -36.9215273824217], [174.572779016721, -36.9215277856557], [174.572777857653, -36.9215281976036], [174.57277672103, -36.9215286092542], [174.57277560704, -36.9215290296187], [174.572774515681, -36.921529458697], [174.572773457991, -36.9215298873294], [174.57277241171, -36.9215303248244], [174.572771399283, -36.9215307708846], [174.572770409303, -36.9215312166476], [174.572769441955, -36.9215316711244], [174.572768497053, -36.9215321253039], [174.572767574967, -36.9215325972085], [174.572766686366, -36.921533059656], [174.572765809358, -36.9215335399772], [174.572764966021, -36.9215340198525], [174.572764145314, -36.9215345084417], [174.572763347054, -36.9215349967336], [174.572762571426, -36.9215354937394], [174.572761818243, -36.9215359904479], [174.572761099101, -36.9215365047328], [174.572760391182, -36.9215370188691], [174.572759551361, -36.9215376699561], [174.572758524078, -36.9215384857703], [174.572757309887, -36.9215394933453], [174.572755897011, -36.9215406657961], [174.572754297042, -36.9215420209965], [174.572752509981, -36.9215435589464], [174.572750524419, -36.9215452707833], [174.57274835158, -36.9215471563586], [174.572745991648, -36.9215492246833], [174.572743444624, -36.9215514757576], [174.572740698913, -36.9215538917077], [174.572737754887, -36.9215564905559], [174.572734634992, -36.9215592720049], [174.572731316595, -36.9215622273409], [174.572727811106, -36.9215653654263], [174.572724106931, -36.9215686683874], [174.572720215848, -36.921572163109], [174.572716137487, -36.9215758315689], [174.572711871848, -36.921579673767], [174.572707407708, -36.9215836898519], [174.572702812591, -36.921587887943], [174.572698354743, -36.9215922104066], [174.572694067835, -36.9215966567966], [174.572689940643, -36.9216012272617], [174.572685995613, -36.9216059215048], [174.572682221708, -36.9216107486857], [174.572678618742, -36.921615699793], [174.572675186716, -36.9216207748271], [174.572671914405, -36.9216259739363], [174.572668824257, -36.9216312968236], [174.572665905234, -36.9216367526486], [174.57266315715, -36.9216423324003], [174.572660580006, -36.9216480360786], [174.572658162578, -36.9216538638323], [174.572655927312, -36.921659815364], [174.572653862987, -36.9216658908224], [174.572651969785, -36.9216720992186], [174.572650247524, -36.9216784315416], [174.572648696202, -36.9216848877912], [174.57264731582, -36.9216914679676], [174.572646106377, -36.9216981720708], [174.572644852412, -36.9217048947906], [174.572643246639, -36.9217114328836], [174.572641266982, -36.9217178046692], [174.572638935702, -36.921724000839], [174.572636230353, -36.9217300216904], [174.572633162158, -36.9217358670745], [174.572629719893, -36.92174153714], [174.572625926006, -36.9217470315897], [174.572621758049, -36.9217523507207], [174.57261722743, -36.9217575033956], [174.572612333781, -36.9217624715919], [174.572607077469, -36.9217672733321], [174.572601458127, -36.9217718905936], [174.5725954649, -36.9217763415473], [174.572589120049, -36.921780616885], [174.572582401129, -36.9217847169036], [174.572575319362, -36.9217886414546], [174.572567863525, -36.9217923906864], [174.57256005625, -36.921795973313], [174.572551874721, -36.9217993716092], [174.572543341753, -36.9218026033], [174.572534895794, -36.9218056986341], [174.572526739417, -36.9218086819702], [174.572518872809, -36.9218115623193], [174.572511295784, -36.9218143306704], [174.572504008341, -36.9218169870236], [174.572496999258, -36.9218195315274], [174.572490291167, -36.921821972896], [174.572483872474, -36.9218242932557], [174.572477743549, -36.9218265106287], [174.572471893169, -36.9218286251638], [174.572466343411, -36.9218306185414], [174.572461083236, -36.9218324999215], [174.572456101606, -36.9218342784637], [174.572451420783, -36.9218359448597], [174.572447029544, -36.9218374992582], [174.57244291685, -36.921838950819], [174.572439104777, -36.9218402812226], [174.57243557125, -36.9218415087885], [174.57243233853, -36.9218426242084], [174.57242938417, -36.9218436277795], [174.572426673391, -36.9218444658808], [174.572423907354, -36.9218447999523], [174.572421028833, -36.9218445766701], [174.572418049421, -36.921843813908], [174.572414968749, -36.9218424936435], [174.572411787001, -36.9218406248879], [174.572408504178, -36.9218382076412], [174.572405109056, -36.9218352420519], [174.572401612859, -36.9218317279715], [174.572398026624, -36.92182765624], [174.572394328277, -36.9218230451772], [174.572390528669, -36.9218178766119], [174.572386627987, -36.9218121595554], [174.572382615006, -36.9218058941563], [174.572378511989, -36.9217990711062], [174.572374296675, -36.9217916997134], [174.57236998047, -36.9217837888405], [174.572365563007, -36.9217753204651], [174.572361044469, -36.9217663035984], [174.572356424673, -36.9217567292292], [174.572351692764, -36.9217466155284], [174.57234688889, -36.9217362774402], [174.572342047528, -36.921726300392], [174.572337169046, -36.921716702406], [174.572332253446, -36.9217074834823], [174.572327300356, -36.9216986255984], [174.572322310332, -36.9216901557879], [174.572317283005, -36.9216820560285], [174.572312218373, -36.9216743263202], [174.572307116621, -36.921666975674], [174.572301977565, -36.9216599950789], [174.57229680139, -36.9216533935461], [174.57229158791, -36.9216471620642], [174.572286337311, -36.9216413096446], [174.57228106063, -36.9216358271275], [174.572275735421, -36.9216307148099], [174.572270373277, -36.9216259905658], [174.572264973644, -36.9216216273615], [174.572259548114, -36.9216176430709], [174.57225407424, -36.921614037991], [174.572248563061, -36.9216108029621], [174.572243025801, -36.9216079378357], [174.572237433905, -36.9216051455411], [174.572231795636, -36.9216022817513], [174.572226099586, -36.9215993376039], [174.572220368386, -36.9215963218128], [174.572214579405, -36.9215932256639], [174.572208732644, -36.9215900491573], [174.572202850732, -36.921586801007], [174.57219691104, -36.9215834724989], [174.572190924974, -36.9215800724956], [174.572184881128, -36.9215765921346], [174.572178790724, -36.9215730312672], [174.572172653948, -36.9215693989047], [174.57216645939, -36.9215656861843], [174.572160218275, -36.9215618929576], [174.572153930787, -36.9215580282356], [174.572147596742, -36.9215540830073], [174.5721412051, -36.9215500664322], [174.572134766902, -36.9215459693508], [174.572128282145, -36.921541791763], [174.572121739793, -36.9215375428284], [174.572115162662, -36.9215332402724], [174.572108553158, -36.9215290012396], [174.572101912204, -36.9215248707859], [174.572095261879, -36.9215208305919], [174.57208857992, -36.9215168899657], [174.572081877551, -36.921513048759], [174.572075165994, -36.921509306823], [174.572068422619, -36.9215056554438], [174.572061647611, -36.9215021036324], [174.572054863415, -36.9214986510919], [174.572048047585, -36.9214952981192], [174.572041222383, -36.9214920354062], [174.572034365732, -36.9214888812722], [174.572027488486, -36.9214858175464], [174.572020590644, -36.9214828442287], [174.572013672577, -36.9214799793416], [174.57200672269, -36.9214772050111], [174.571999763616, -36.9214745299514], [174.571992772909, -36.9214719544596], [174.57198576179, -36.9214694783871], [174.571978730076, -36.9214670927227], [174.571971689175, -36.9214648063291], [174.571964650494, -36.9214626280688], [174.571957625071, -36.9214605487822], [174.571950612908, -36.9214585684692], [174.571943614003, -36.9214566871298], [174.571936617319, -36.9214549139238], [174.571929644932, -36.9214532305318], [174.57192267495, -36.9214516642843], [174.571915706819, -36.9214501881478], [174.571908763169, -36.9214488108364], [174.57190182174, -36.9214475416584], [174.571894893569, -36.9214463714541], [174.571887978842, -36.9214453092345], [174.571881065965, -36.9214443371261], [174.571874166532, -36.9214434730025], [174.571867280357, -36.9214427078525], [174.571860407441, -36.9214420416763], [174.571853547968, -36.9214414834848], [174.57184669053, -36.9214410244156], [174.57183984635, -36.9214406643201], [174.571833015429, -36.9214404031983], [174.571826411561, -36.9214402652613], [174.571820169982, -36.9214402757602], [174.571814290134, -36.9214404076617], [174.571808761351, -36.9214406881476], [174.571803594486, -36.9214410990474], [174.571798789722, -36.921441649372], [174.571794347061, -36.9214423391217], [174.571790255095, -36.9214431594338], [174.57178652523, -36.9214441191709], [174.571783157468, -36.9214452183332], [174.571780151623, -36.9214464479094], [174.571777496658, -36.9214478170593], [174.571775203794, -36.9214493256345], [174.571773273034, -36.9214509736348], [174.571771692967, -36.9214527521978], [174.571770486226, -36.9214546700374], [174.571769630364, -36.9214567274508], [174.571769136419, -36.9214589152784], [174.571768993354, -36.9214612426797], [174.571769212391, -36.9214637095063], [174.5717697709, -36.9214663070441], [174.571770444415, -36.9214690382637], [174.571771198898, -36.9214718855885], [174.571772034718, -36.9214748670408], [174.571772951691, -36.9214779736094], [174.571773949816, -36.9214812052943], [174.571775040132, -36.9214845529359], [174.571776200563, -36.9214880348534], [174.571777442146, -36.9214916418873], [174.571778764881, -36.9214953740374], [174.571780168769, -36.9214992313039], [174.571781665033, -36.9215032135381], [174.571783231227, -36.9215073210372], [174.571784878572, -36.9215115536525], [174.571786618294, -36.9215159112356], [174.571788427946, -36.9215203940836], [174.57179031875, -36.9215250020478], [174.571792290706, -36.9215297351282], [174.571794355039, -36.9215345931764], [174.571796489301, -36.9215395764894], [174.571798704717, -36.9215446849187], [174.571800943503, -36.9215498381065], [174.571803010427, -36.9215548223106], [174.57180492812, -36.921559646245], [174.571806673949, -36.9215643011956], [174.571808259138, -36.9215687870139], [174.571809695096, -36.9215731125625], [174.571810959005, -36.9215772601162], [174.571812062645, -36.92158125656], [174.571813005459, -36.9215850748603], [174.571813799041, -36.9215887328909], [174.571814420761, -36.9215922219378], [174.57181488184, -36.9215955418525], [174.571815182278, -36.9215986926349], [174.571815322262, -36.9216016832962], [174.571815301791, -36.9216045138364], [174.571815120494, -36.9216071662332], [174.571814778742, -36.9216096585089], [174.57181427635, -36.9216119816523], [174.571813613317, -36.9216141356634], [174.57181278983, -36.9216161295535], [174.571811805702, -36.9216179543113], [174.571810773906, -36.921619644496], [174.571809762521, -36.921621235261], [174.571808771363, -36.9216227175952], [174.571807811654, -36.9216240913499], [174.571806872357, -36.9216253656849], [174.571805953286, -36.9216265315891], [174.571805065665, -36.9216275889139], [174.57180419827, -36.9216285378079], [174.57180336251, -36.9216293871335], [174.571802535753, -36.9216301281769], [174.57180174063, -36.921630769652], [174.571800976958, -36.9216313025477], [174.571800233511, -36.9216317270126], [174.571799510292, -36.9216320430466], [174.571798807483, -36.9216322596609], [174.571798136124, -36.9216323676958], [174.571797484992, -36.9216323672999], [174.571796854271, -36.9216322674842], [174.571796255, -36.9216320590892], [174.571795675955, -36.9216317422633], [174.571795117507, -36.9216313350288], [174.571794470013, -36.9216309650273], [174.571793711582, -36.9216306595891], [174.571792864659, -36.9216304184173], [174.571791906985, -36.92163025082], [174.571790838188, -36.921630138775], [174.571789669677, -36.9216300911449], [174.571788401452, -36.9216301079296], [174.571787033699, -36.9216301981403], [174.571785554822, -36.9216303439032], [174.571783976232, -36.921630554081], [174.571782286704, -36.9216308288222], [174.571780497648, -36.9216311769893], [174.571778608692, -36.9216315805602], [174.571776608799, -36.9216320486944], [174.571774509377, -36.9216325902546], [174.571772310055, -36.9216331872184], [174.571769999797, -36.9216338487456], [174.571767590009, -36.9216345836988], [174.571765080322, -36.9216353740556], [174.571762459883, -36.9216362379869], [174.571759784252, -36.9216371477166], [174.571757154625, -36.9216381109189], [174.571754581853, -36.9216391094231], [174.5717520549, -36.9216401523889], [174.571749584987, -36.9216412396677], [174.57174717193, -36.9216423622483], [174.571744804691, -36.9216435292905], [174.571742494309, -36.9216447316347], [174.571740241152, -36.921645987303], [174.571738044851, -36.9216472782731], [174.571735894184, -36.9216486046937], [174.571733800742, -36.9216499844385], [174.571731752933, -36.9216513996337], [174.57172976198, -36.9216528501308], [174.571727828253, -36.9216543539521], [174.571725951383, -36.9216558930754], [174.571724120145, -36.921657467649], [174.571722346133, -36.9216590955469], [174.571720617754, -36.9216607588952], [174.571718946416, -36.9216624665566], [174.571717331934, -36.9216642095199], [174.571715682488, -36.9216658898507], [174.571713917849, -36.9216674274884], [174.571712049056, -36.9216688132734], [174.57171006507, -36.9216700563652], [174.571707988339, -36.9216711564669], [174.571705785008, -36.9216721050129], [174.571703488931, -36.9216729105687], [174.571701077661, -36.9216735734314], [174.571698562237, -36.9216740844412], [174.571695931622, -36.9216744527579], [174.571693196852, -36.9216746692218], [174.571690358113, -36.921674742844], [174.571687404182, -36.9216746737731], [174.571684346097, -36.9216744528493], [174.571681184043, -36.9216740890838], [174.571677906798, -36.9216735826251], [174.571674525398, -36.9216729243136], [174.571671040029, -36.9216721231603], [174.571667439283, -36.9216711703026], [174.571663734569, -36.9216700746032], [174.571659937109, -36.9216688359135], [174.57165622592, -36.9216674248236], [174.571652634857, -36.9216658498992], [174.571649186182, -36.921664101832], [174.571645857448, -36.9216621809192], [174.571642648654, -36.9216600871607], [174.571639582434, -36.9216578292706], [174.571636636154, -36.9216553985348], [174.571633809816, -36.9216527949534], [174.57163112605, -36.9216500272405], [174.571628562225, -36.9216470866819], [174.571626129564, -36.9216439731292], [174.571623816845, -36.9216406867309], [174.571621635475, -36.9216372363496], [174.571619585269, -36.9216336129741], [174.571617666228, -36.9216298166046], [174.571615867312, -36.9216258564006], [174.571614199561, -36.9216217232025], [174.571612662974, -36.9216174170103], [174.571611246514, -36.9216129469837], [174.571609961032, -36.9216082949518], [174.571608629733, -36.9216035984583], [174.571606742268, -36.9215991526917], [174.571604265521, -36.9215949851311], [174.571601210531, -36.9215910866167], [174.571597566259, -36.9215874663083], [174.57159334393, -36.9215841240571], [174.571588543358, -36.9215810508521], [174.571583153505, -36.9215782558527], [174.571577185594, -36.9215757389104], [174.571570628401, -36.9215735001737], [174.571563492966, -36.9215715304827], [174.57155576825, -36.921569838997], [174.571547465476, -36.9215684255681], [174.571538584458, -36.9215672811846], [174.571529114159, -36.921566415006], [174.571519054579, -36.9215658270322], [174.571508416755, -36.9215655081035], [174.571497200873, -36.9215654672308], [174.571485406932, -36.9215657044139], [174.571473012302, -36.9215662109386], [174.571460050835, -36.9215669953703], [174.571446767964, -36.9215679823525], [174.571433408934, -36.9215690875176], [174.571419973746, -36.9215703108658], [174.571406451546, -36.9215716705677], [174.571392853187, -36.9215731484525], [174.57137917867, -36.9215747445202], [174.571365428363, -36.921576476793], [174.571351601898, -36.9215783272487], [174.57133768805, -36.9215802960357], [174.571323698413, -36.9215824010277], [174.571309621394, -36.9215846243511], [174.571295479439, -36.9215869657087], [174.571281250471, -36.9215894434197], [174.571266945344, -36.9215920393135], [174.571252564058, -36.9215947533899], [174.571238095758, -36.9215976038198], [174.571223551299, -36.9216005724322], [174.571208930865, -36.9216036682384], [174.571194234272, -36.9216068822271], [174.571179461703, -36.9216102234094], [174.57116464646, -36.9216136733177], [174.571150300187, -36.9216169998432], [174.571136556638, -36.9216201561486], [174.571123426852, -36.9216231330745], [174.571110910645, -36.9216259216099], [174.571098997162, -36.9216285399258], [174.571087697443, -36.9216309788628], [174.571077000265, -36.9216332385695], [174.57106691685, -36.9216353188975], [174.571057435976, -36.9216372199956], [174.571048568866, -36.9216389417154], [174.571040315521, -36.9216404840569], [174.571032664716, -36.9216418471689], [174.571025627675, -36.921643030903], [174.571019193176, -36.9216440354077], [174.571013372626, -36.9216448695458], [174.571008154433, -36.9216455154435], [174.571003550004, -36.9216459819637], [174.570999559524, -36.9216462781176], [174.570996171402, -36.9216463860313], [174.570993397228, -36.9216463235788], [174.570990911716, -36.9216461040767], [174.570987762738, -36.9216458302557], [174.570983871733, -36.9216455031549], [174.570979238699, -36.9216451227744], [174.570973863638, -36.9216446891141], [174.570967746549, -36.9216442021737], [174.570960898655, -36.9216436618048], [174.570953297326, -36.9216430592931], [174.570944954338, -36.9216424215232], [174.570935880362, -36.9216417213133], [174.570926053134, -36.9216409679711], [174.570915495102, -36.9216401611996], [174.570904195042, -36.9216393011471], [174.570892141731, -36.9216383879616], [174.570879357616, -36.9216374213463], [174.570865831659, -36.9216364104604], [174.570851563489, -36.9216353372813], [174.570836553292, -36.9216342108199], [174.570820801068, -36.921633031076], [174.570804307001, -36.9216318070604], [174.570787081945, -36.9216305206021], [174.570780297162, -36.9216281316005], [174.570781236453, -36.9216191957156], [174.570782573863, -36.9216099661299], [174.570784343063, -36.921600442398], [174.57078652142, -36.9215906158057], [174.570789109121, -36.9215804953642], [174.570792117202, -36.9215700719137], [174.570795545848, -36.9215593544654], [174.570799394875, -36.9215483340082], [174.570803653244, -36.9215370197016], [174.57080832077, -36.9215254025343], [174.570813420268, -36.9215135002319], [174.570818917514, -36.921501286206], [174.570824846548, -36.9214887780337], [174.570831184922, -36.9214759760116], [174.570837943675, -36.9214628709803], [174.570845111768, -36.9214494720992], [174.570852700424, -36.9214357792197], [174.570860709457, -36.9214217833308], [174.570869127645, -36.9214074845807], [174.570877966394, -36.921392891832], [174.570887214482, -36.9213780052333], [174.570896882947, -36.9213628156246], [174.570906774207, -36.9213475419457], [174.570916239408, -36.9213328417584], [174.570925234766, -36.9213187697234], [174.570933749058, -36.9213053259893], [174.570941804732, -36.9212925102593], [174.570949390564, -36.9212803226819], [174.570956495332, -36.9212687634056], [174.57096313026, -36.9212578322822], [174.570969306755, -36.9212475381742], [174.570975002003, -36.9212378633565], [174.570980227595, -36.921228825703], [174.570984983348, -36.9212204162025], [174.57098925804, -36.9212126350035], [174.57099307393, -36.9212054727981], [174.570996420167, -36.9211989477571], [174.570999285527, -36.9211930600288], [174.571001680864, -36.9211877914427], [174.571003606363, -36.9211831510098], [174.571005062024, -36.9211791387303], [174.571006048032, -36.9211757636152], [174.571006564017, -36.9211730076423], [174.57100661035, -36.9211708888339], [174.57100618666, -36.9211693891677], [174.571005314654, -36.9211684723021], [174.571004361312, -36.9211674213085], [174.571003445837, -36.9211660272973], [174.571002568043, -36.9211642812572], [174.571001716708, -36.9211621833369], [174.571000903238, -36.9211597423989], [174.571000127635, -36.9211569584433], [174.570999378306, -36.9211538135962], [174.570998666843, -36.9211503257315], [174.570997993246, -36.9211464948491], [174.570997346107, -36.9211423120865], [174.57099673665, -36.921137777295], [174.57099616506, -36.921132899486], [174.570995631335, -36.9211276786593], [174.570995123884, -36.9211220969411], [174.5709946543, -36.9211161722053], [174.570994211359, -36.9211099046003], [174.570993806099, -36.9211032849665], [174.570993438521, -36.921096313304], [174.570993097586, -36.9210889987723], [174.57099280574, -36.9210813410745], [174.570992528945, -36.9210733226337], [174.570992301239, -36.9210649610268], [174.570992100177, -36.9210562565507], [174.570991977121, -36.9210475240019], [174.570991949953, -36.9210390876334], [174.570992041119, -36.9210309471484], [174.570992250617, -36.9210231025467], [174.570992556002, -36.9210155541255], [174.570992968498, -36.921008301736], [174.570993499326, -36.9210013452301], [174.570994137265, -36.9209946847559], [174.570994882498, -36.9209883293249], [174.570995734657, -36.9209822609145], [174.570996705148, -36.9209764883876], [174.570997771711, -36.9209710210521], [174.570998956422, -36.9209658405889], [174.571000248428, -36.9209609651687], [174.571001647544, -36.9209563857804], [174.571003164808, -36.9209520932644], [174.571004778144, -36.9209481059398], [174.571006509812, -36.9209444144986], [174.571008348591, -36.9209410190893], [174.571010294479, -36.9209379197118], [174.571012347477, -36.9209351163662], [174.571014507585, -36.9209326090524], [174.571016786027, -36.9209303976219], [174.571019125391, -36.9209284197391], [174.571021397231, -36.9209264337359], [174.571023579101, -36.9209244399091], [174.57102568204, -36.9209224290993], [174.571027706046, -36.9209204013063], [174.571029639898, -36.9209183566788], [174.571031495003, -36.9209163040792], [174.571033270991, -36.9209142254855], [174.571034957009, -36.9209121390683], [174.571036564095, -36.920910035668], [174.57103809225, -36.9209079152846], [174.571039530249, -36.9209057780666], [174.571040889317, -36.9209036238655], [174.571042158415, -36.920901461841], [174.571043359804, -36.9208992826849], [174.571044470853, -36.9208970776831], [174.571045491933, -36.9208948648579], [174.571046434265, -36.9208926440607], [174.571047297481, -36.9208903972693], [174.571048070542, -36.9208881336433], [174.571048776079, -36.920885861897], [174.571049380239, -36.9208835734645], [174.571049916689, -36.9208812679005], [174.571050374208, -36.9208789453535], [174.571050853619, -36.9208765954761], [174.571051399628, -36.9208742086633], [174.571052001014, -36.9208717850635], [174.571052669184, -36.9208693335395], [174.571053403952, -36.9208668450801], [174.571054194282, -36.9208643288449], [174.571055039802, -36.9208617668116], [174.571055952291, -36.9208591858652], [174.571056931195, -36.9208565589723], [174.571057965659, -36.9208539043035], [174.571059066722, -36.9208512126993], [174.571060223161, -36.9208484843082], [174.571061435161, -36.9208457281414], [174.57106271376, -36.920842935039], [174.571064058957, -36.9208401050013], [174.571065459716, -36.9208372471878], [174.571066927074, -36.9208343524388], [174.571068449807, -36.9208314209029], [174.571070028101, -36.9208284615912], [174.571071672994, -36.920825465344], [174.571073384486, -36.9208224321615], [174.571075151539, -36.920819371203], [174.57107698519, -36.9208162733092], [174.571078852696, -36.9208131839811], [174.571080754795, -36.9208101392634], [174.571082669227, -36.920807148464], [174.571084595991, -36.9208042115831], [174.571086557349, -36.9208013193124], [174.571088542078, -36.9207984718006], [174.571090539139, -36.9207956782072], [174.571092559571, -36.9207929293726], [174.571094603558, -36.9207902343079], [174.571096671101, -36.9207875930132], [174.571098762014, -36.9207849964773], [174.571100865075, -36.9207824448486], [174.571103002915, -36.9207799468414], [174.571105153087, -36.9207775027525], [174.57110732663, -36.9207751034225], [174.571109523728, -36.9207727578624], [174.571111744197, -36.9207704570612], [174.571113976814, -36.9207682011671], [174.571116244209, -36.9207659988945], [174.571118523937, -36.9207638505403], [174.571120827035, -36.9207617469449], [174.571123153689, -36.9207596971194], [174.571125503714, -36.9207576920527], [174.571127887962, -36.920755713574], [174.571130338625, -36.9207536891486], [174.57113288937, -36.9207516183312], [174.571135506345, -36.920749492556], [174.57113821218, -36.9207473205372], [174.571140995467, -36.9207450934121], [174.571143867614, -36.9207428200434], [174.571146817212, -36.9207404915684], [174.571149844448, -36.9207381169983], [174.571152960359, -36.9207356871733], [174.571156153907, -36.9207332112533], [174.571159424907, -36.9207306802269], [174.571162784767, -36.9207281029568], [174.571166222079, -36.9207254705805], [174.571169736842, -36.9207227830978], [174.571173340651, -36.9207200583826], [174.571177021726, -36.9207172695499], [174.571180780439, -36.9207144346219], [174.571184628011, -36.9207115534503], [174.571188553035, -36.9207086171723], [174.571192566919, -36.9207056346507], [174.571196647031, -36.9207025971711], [174.571200827042, -36.9206995042881], [174.571205062428, -36.920696374618], [174.571209174175, -36.9206932375699], [174.571213095684, -36.9206901300793], [174.571216837807, -36.9206870339754], [174.571220389508, -36.9206839584178], [174.571223762193, -36.9206809122692], [174.571226944086, -36.9206778686448], [174.571229946964, -36.9206748544294], [174.571232759419, -36.9206718607605], [174.571235392489, -36.9206688784783], [174.571237835137, -36.9206659167425], [174.571240098584, -36.9206629754048], [174.571242171609, -36.9206600546135], [174.571244054211, -36.9206571543687], [174.571245768651, -36.9206542653622], [174.571247281631, -36.9206514060618], [174.571248615225, -36.9206485581483], [174.571249758398, -36.9206457307813], [174.57125072237, -36.9206429238124], [174.571251507143, -36.9206401372414], [174.571252101308, -36.9206373622058], [174.571252505236, -36.9206346167279], [174.571252729779, -36.9206318826368], [174.5712527639, -36.9206291690923], [174.571252708235, -36.9206264567356], [174.571252652202, -36.9206237263567], [174.571252595983, -36.9206209869666], [174.571252539209, -36.920618220543], [174.57125248225, -36.9206154451082], [174.571252424922, -36.9206126516512], [174.571252367224, -36.9206098401718], [174.571252309155, -36.9206070106702], [174.571252250902, -36.9206041721574], [174.571252192094, -36.9206013066111], [174.571252133102, -36.9205984320537], [174.571252073739, -36.920595539474], [174.571252014006, -36.920592628872], [174.571251953904, -36.9205897002476], [174.571251893432, -36.920586753601], [174.571251832775, -36.9205837979432], [174.571251771748, -36.9205808242631], [174.571251710166, -36.9205778235496], [174.571251648399, -36.9205748138249], [174.571251586448, -36.920571795089], [174.571251523941, -36.9205687493197], [174.571251461065, -36.9205656855281], [174.571251398004, -36.9205626127253], [174.571251334758, -36.9205595309114], [174.571251294698, -36.9205564848451], [174.571251255192, -36.9205534658123], [174.571251250096, -36.9205504823786], [174.571251245739, -36.9205475349895], [174.571251253345, -36.9205446234966], [174.571251283952, -36.9205417387401], [174.571251326522, -36.9205388898798], [174.571251392278, -36.9205360767671], [174.571251458588, -36.9205332906879], [174.571251548269, -36.9205305493674], [174.571251649728, -36.920527834932], [174.571251774373, -36.9205251562441], [174.571251899758, -36.9205225136009], [174.571252059367, -36.9205198975457], [174.571252219715, -36.9205173175351], [174.571252392026, -36.9205147734206], [174.571252587523, -36.9205122650538], [174.571252794983, -36.920509792583], [174.57125301422, -36.9205073469973], [174.571253256644, -36.9205049371592], [174.57125351103, -36.9205025632172], [174.571253777194, -36.9205002161602], [174.571254054951, -36.920497886977], [174.571254192853, -36.9204953072633], [174.571254155567, -36.9204923963643], [174.571253954501, -36.9204891631425], [174.571253578061, -36.9204855897243], [174.571253026432, -36.9204816851206], [174.571252299616, -36.9204774493315], [174.571251397611, -36.9204728823571], [174.571250320418, -36.9204679841972], [174.57124907926, -36.9204627547035], [174.571247662914, -36.9204571940243], [174.57124607138, -36.9204513021597], [174.571244304658, -36.9204450791097], [174.571242362748, -36.9204385248742], [174.571240256873, -36.9204316393048], [174.571237975996, -36.9204244315611], [174.571235508523, -36.9204168837693], [174.571232877085, -36.9204090046434], [174.57123007046, -36.9204007943321], [174.57122709987, -36.9203922526867], [174.57122394287, -36.9203833800043], [174.571220621906, -36.9203741759879], [174.571217125755, -36.9203646407859], [174.571213454417, -36.9203547743982], [174.57120717911, -36.9203498548717], [174.571201164892, -36.9203450761082], [174.571195434025, -36.9203404287998], [174.571189975285, -36.9203359130949], [174.571184800081, -36.9203315378564], [174.571179885781, -36.9203272943699], [174.571175254832, -36.9203231823387], [174.571170884971, -36.9203192110707], [174.571166798461, -36.9203153712581], [174.571162984263, -36.9203116720604], [174.571159453415, -36.920308104318], [174.571156183471, -36.9203046683279], [174.571153197062, -36.9203013728043], [174.57115048278, -36.9202982088846], [174.571148040809, -36.9202951855799], [174.571145870966, -36.9202922938792], [174.571143973249, -36.9202895337824], [174.571142359066, -36.9202869141522], [174.571141005788, -36.9202844262744], [174.571139935859, -36.9202820698521], [174.571139138242, -36.920279854045], [174.571138556266, -36.9202777525619], [174.571137986253, -36.9202756869749], [174.571137417349, -36.9202736754548], [174.571136849001, -36.9202716909681], [174.571136281577, -36.9202697515373], [174.571135714892, -36.920267848151], [174.571135160355, -36.9202659896721], [174.571134595335, -36.9202641673862], [174.57113403124, -36.920262390156], [174.571133467884, -36.9202606489705], [174.571132905268, -36.9202589438296], [174.571132343576, -36.9202572837444], [174.571131782624, -36.9202556597039], [174.571131222412, -36.920254071708], [174.571130674347, -36.9202525286193], [174.571130115799, -36.9202510217237], [174.571129558176, -36.9202495598839], [174.571129001292, -36.9202481340887], [174.571128445333, -36.9202467533493], [174.571127889929, -36.9202453996433], [174.571127335634, -36.9202441000042], [174.571126792932, -36.920242818239], [174.571126269348, -36.920241373976], [174.571125808664, -36.9202397125546], [174.571125377211, -36.9202378344201], [174.571124997435, -36.9202357392756], [174.571124669152, -36.9202334181099], [174.571124370285, -36.9202308892422], [174.57112412291, -36.9202281343534], [174.571123927213, -36.9202251624546], [174.571123771969, -36.9202219736943], [174.571123656995, -36.9202185590612], [174.571123593883, -36.9202149364293], [174.571123571041, -36.9202110879246], [174.57112360006, -36.9202070314211], [174.571123669349, -36.9202027490449], [174.571123778907, -36.920198240796], [174.571123940328, -36.9201935245482], [174.571124142202, -36.9201885914389], [174.571124384346, -36.9201834324568], [174.571124678166, -36.9201780564648], [174.571125012441, -36.9201724636111], [174.571125398394, -36.9201666537475], [174.571125626299, -36.9201608009067], [174.571125520472, -36.9201550966984], [174.571125069506, -36.9201495322599], [174.571124273585, -36.9201441166024], [174.571123143747, -36.9201388405663], [174.571121668769, -36.9201337043], [174.571119848838, -36.9201287168146], [174.571117683766, -36.9201238690991], [174.57111517374, -36.9201191701644], [174.571112329613, -36.9201146018399], [174.571109140717, -36.9201101913074], [174.571105606496, -36.9201059115334], [174.571101727321, -36.9201017805403], [174.571097514414, -36.9200977981795], [174.571092945146, -36.9200939557367], [174.571088053184, -36.9200902527665], [174.57108280486, -36.9200866897143], [174.571077211582, -36.9200832754427], [174.571071284388, -36.9200800007921], [174.57106501224, -36.9200768749219], [174.571058394953, -36.9200738888211], [174.571051555609, -36.9200710228341], [174.57104486309, -36.9200681999725], [174.571038339841, -36.9200654199394], [174.571031985492, -36.9200626647124], [174.571025811821, -36.9200599611767], [174.57101980705, -36.9200572824472], [174.57101397155, -36.9200546465462], [174.571008316357, -36.9200520443143], [174.571002830434, -36.920049484911], [174.570997524819, -36.9200469591767], [174.570992388474, -36.9200444762711], [174.570987421213, -36.920042027183], [174.570982634261, -36.9200396117641], [174.570978016578, -36.9200372391739], [174.570973579204, -36.9200349002529], [174.570969311099, -36.9200326041606], [174.570965212079, -36.920030341886], [174.570961293366, -36.9200281132806], [174.570957543923, -36.920025927504], [174.570953963565, -36.9200237755451], [174.570950563515, -36.9200216572555], [174.570947321511, -36.9200195819432], [174.570944102324, -36.9200175243563], [174.570940861245, -36.9200154940996], [174.570937586867, -36.9200134823104], [174.570934301636, -36.920011488692], [174.570930983106, -36.9200095135411], [174.570927642685, -36.9200075657205], [174.57092426878, -36.9200056273562], [174.570920884206, -36.9200037161738], [174.570917466334, -36.920001823459], [174.570914026386, -36.9199999490632], [174.570910564546, -36.9199981019977], [174.570907080446, -36.9199962642402], [174.570903574454, -36.9199944538129], [174.570900035164, -36.9199926618531], [174.570896473982, -36.9199908972236], [174.570892890539, -36.9199891419021], [174.570889285205, -36.9199874139107], [174.570885646387, -36.9199856953758], [174.570881996901, -36.9199840040226], [174.570878314301, -36.9199823401482], [174.57087460944, -36.9199806855816], [174.570870823984, -36.9199789329313], [174.570866921677, -36.9199769564866], [174.570862891294, -36.9199747563957], [174.570858721799, -36.9199723418182], [174.570854435268, -36.9199696944351], [174.570850020847, -36.9199668324169], [174.570845478166, -36.9199637377414], [174.570840807596, -36.9199604284309], [174.570836008952, -36.9199568954742], [174.570831082233, -36.9199531388712], [174.57082602744, -36.919949158622], [174.570820844572, -36.9199449547266], [174.570815544854, -36.9199405270365], [174.570810106023, -36.9199358848596], [174.570804538934, -36.9199310100253], [174.570798855178, -36.9199259204074], [174.570793043164, -36.9199205981319], [174.57078710326, -36.9199150612212], [174.57078102406, -36.9199093008126], [174.57077482801, -36.9199033166091], [174.570768503885, -36.9198971087592], [174.570762120505, -36.9198907484615], [174.570755885242, -36.9198844943676], [174.570749809506, -36.9198783553402], [174.57074389311, -36.9198723223684], [174.570738147648, -36.9198664133259], [174.570732561712, -36.9198606193501], [174.570727135302, -36.919854940441], [174.570721879825, -36.9198493854614], [174.570716783689, -36.9198439365373], [174.570711858301, -36.9198386025316], [174.570707092624, -36.9198333926038], [174.570702486472, -36.9198282977429], [174.570698050884, -36.9198233087891], [174.570693775006, -36.9198184439134], [174.570689658653, -36.9198136941046], [174.570685713048, -36.9198090592142], [174.570681926968, -36.9198045393907], [174.570678311822, -36.9198001434969], [174.570674844793, -36.9197958538073], [174.570671559919, -36.9197916878989], [174.570668423163, -36.9197876281948], [174.570665445932, -36.9197836835577], [174.570662457663, -36.91977974808], [174.570659424132, -36.9197757951737], [174.570656334303, -36.9197718339982], [174.570653187804, -36.9197678465314], [174.570649984821, -36.9197638417841], [174.570646736577, -36.9197598196083], [174.570643431664, -36.9197557711409], [174.570640070451, -36.9197517144044], [174.570636652755, -36.9197476403876], [174.570633189797, -36.919743548942], [174.570629670355, -36.9197394402161], [174.570626094244, -36.9197353051988], [174.570622461834, -36.9197311619123], [174.570618783978, -36.9197269921859], [174.5706150386, -36.9197228143386], [174.570611247776, -36.9197186100515], [174.570607411875, -36.9197143973468], [174.570603508083, -36.919710158499], [174.57059955903, -36.9197059022224], [174.570595553677, -36.9197016376766], [174.570591491656, -36.9196973468392], [174.570587453744, -36.9196931368053], [174.570583509499, -36.9196891148182], [174.570579658734, -36.9196852718667], [174.570575890412, -36.9196816171104], [174.570572226794, -36.9196781412414], [174.570568645619, -36.9196748535677], [174.570565157924, -36.9196717449296], [174.57056176371, -36.9196688153272], [174.570558474385, -36.9196660736233], [174.570555267502, -36.9196635201147], [174.570552142692, -36.919661136779], [174.57054912277, -36.9196589413418], [174.570546196514, -36.9196569339515], [174.570543363738, -36.919655105597], [174.570540613405, -36.9196534654378], [174.570537956552, -36.9196520043143], [174.570535404403, -36.9196507220782], [174.570532934696, -36.9196496280375], [174.570530558469, -36.9196487130325], [174.570528275908, -36.9196479860745], [174.570526086827, -36.9196474381522], [174.570523944671, -36.919646988759], [174.57052167592, -36.9196463878087], [174.570519291428, -36.9196456171304], [174.570516779602, -36.9196446588503], [174.570514129589, -36.919643531139], [174.57051136365, -36.9196422246887], [174.570508470562, -36.9196407396477], [174.570505450324, -36.919639076016], [174.5705022919, -36.9196372429532], [174.57049901755, -36.9196352311512], [174.570495616051, -36.9196330407584], [174.570492087403, -36.919630671775], [174.570488431791, -36.9196281332119], [174.57048464903, -36.9196254160581], [174.570480727712, -36.9196225114507], [174.570476690839, -36.9196194461264], [174.570472526632, -36.9196161932001], [174.570468235461, -36.9196127706942], [174.570463817142, -36.9196091695974], [174.570459271674, -36.9196053899098], [174.570454599058, -36.9196014316313], [174.570449799662, -36.9195973127842], [174.570444853076, -36.9195931327881], [174.570439760222, -36.9195889366987], [174.570434509878, -36.9195847246643], [174.570429124489, -36.9195804963882], [174.570423592834, -36.9195762520188], [174.570417903503, -36.9195719826932], [174.570412067906, -36.9195676972742], [174.570406086041, -36.9195633957617], [174.570399946686, -36.9195590783042], [174.570393672287, -36.9195547446049], [174.570387240213, -36.9195503859493], [174.570380662057, -36.9195460202113], [174.570373937449, -36.9195416293687], [174.570367066389, -36.9195372134212], [174.570360038025, -36.9195327905398], [174.570352874616, -36.9195283514163], [174.570345553533, -36.9195238873364], [174.570338086183, -36.9195194071628], [174.570330472566, -36.9195149108956], [174.570322701274, -36.9195103896718], [174.570314795124, -36.919505861217], [174.570306922828, -36.9195013413276], [174.570299265062, -36.9194968816965], [174.570291821457, -36.9194924643012], [174.57028460342, -36.9194880980046], [174.570277599913, -36.9194837919663], [174.570270810566, -36.919479528164], [174.570264246787, -36.9194753154605], [174.570257897354, -36.9194711540043], [174.570251773673, -36.9194670526581], [174.570245864152, -36.9194629935481], [174.570240168976, -36.9194589856854], [174.570234699368, -36.9194550289218], [174.570229444104, -36.9194511234055], [174.570224403186, -36.9194472691367], [174.570219587835, -36.919443465967], [174.570214998052, -36.9194397138964], [174.570210611575, -36.9194360222329], [174.570206450481, -36.9194323726574], [174.570202514954, -36.9194287741811], [174.570198793772, -36.9194252269523], [174.570195286935, -36.9194217309713], [174.570191960588, -36.9194182776718], [174.57018872458, -36.9194148502187], [174.570185545425, -36.9194114580682], [174.570182433978, -36.9194080830496], [174.570179390423, -36.9194047341742], [174.570176426168, -36.9194014203047], [174.570173518397, -36.9193981237156], [174.570170678703, -36.9193948622807], [174.570167906716, -36.9193916179778], [174.570165202622, -36.9193883998181], [174.570162566419, -36.9193852078015], [174.570159998294, -36.9193820509392], [174.570157497875, -36.919378911209], [174.570155065349, -36.9193757976219], [174.570152700715, -36.919372710178], [174.570150404157, -36.9193696578883], [174.570148175307, -36.9193666227308], [174.570146014348, -36.9193636137164], [174.570143921282, -36.9193606308452], [174.570141896108, -36.9193576741172], [174.570139938825, -36.9193547435323], [174.570138038212, -36.9193518392391], [174.570136160044, -36.9193489346491], [174.570134292731, -36.9193460118883], [174.570132425232, -36.9193430801164], [174.570130557549, -36.9193401393332], [174.570128700719, -36.9193371803794], [174.570126843889, -36.9193342214255], [174.570124997913, -36.9193312443008], [174.570123151567, -36.9193282491539], [174.570121316445, -36.9193252538585], [174.570119480953, -36.9193222405408], [174.570117645276, -36.9193192182118], [174.570115820638, -36.9193161867234], [174.57011399563, -36.9193131372125], [174.570112181845, -36.9193100875533], [174.570110367691, -36.9193070198717], [174.570108564391, -36.9193039340194], [174.57010676109, -36.919300848167], [174.57010495742, -36.9192977442923], [174.570103164788, -36.9192946312581], [174.570101371972, -36.9192915092127], [174.570099590009, -36.9192883689965], [174.570097831046, -36.9192852555171], [174.570096129122, -36.9192821863515], [174.570094473384, -36.9192791796706], [174.570092874683, -36.9192762173036], [174.570091333206, -36.9192733082616], [174.570089837545, -36.919270443682], [174.570088387884, -36.9192676325758], [174.570087006854, -36.9192648836575], [174.570085660232, -36.9192621703387], [174.570084382241, -36.9192595192079], [174.570083150065, -36.9192569125393], [174.57008196389, -36.9192543593442], [174.570080834938, -36.9192518594741], [174.570079763209, -36.9192494129292], [174.57007873748, -36.9192470198577], [174.57007776879, -36.9192446711002], [174.570076857323, -36.9192423756678], [174.570075991672, -36.9192401246978], [174.570075172206, -36.9192379362123], [174.570074409778, -36.9192357920408], [174.570073704573, -36.9192337011944], [174.570073033961, -36.9192316549588], [174.570072352311, -36.9192296178826], [174.5700716484, -36.9192275901143], [174.570070922043, -36.9192255626427], [174.570070184833, -36.9192235533419], [174.570069425362, -36.9192215533489], [174.570068654668, -36.9192195535042], [174.570067861898, -36.9192175719786], [174.570067057905, -36.9192155906014], [174.570066231836, -36.9192136275432], [174.570065383321, -36.9192116647818], [174.570064512545, -36.9192097113282], [174.570063642139, -36.9192077758969], [174.570062738064, -36.9192058409107], [174.570061822952, -36.9192039150841], [174.570060885578, -36.9192019985653], [174.570059937166, -36.919200091206], [174.570058966493, -36.9191981931546], [174.570057984783, -36.9191963042628], [174.570056969403, -36.919194415816], [174.570055954394, -36.9191925453915], [174.570054905715, -36.9191906754121], [174.570053821336, -36.9191887067551], [174.57005267807, -36.9191866036724], [174.570051476103, -36.9191843751754], [174.570050226473, -36.9191820121044], [174.570048918327, -36.9191795326301], [174.570047562333, -36.9191769095707], [174.570046147822, -36.9191741701081], [174.570045516287, -36.9191729345798]]}, "properties": {"OBJECTID": 719, "TRACKNAME": "Taumata Track", "CONDITIONSOFUSE": "Waitakere North Regional Park", "STATUS": "Temp Closed", "WEBLINK": "https://www.aucklandcouncil.govt.nz/en/parks-recreation/find-park-beach/park-detail/3407.html", "VALIDATIONSTATE": 3, "created_user": "AC_owner", "last_edited_user": "AC_owner", "last_edited_date": 1789875254325, "created_date": 1789875254325, "PARK_SAPSITEID": null, "TRACK_ID": null, "KAURIDIEBACK_TRACK": null, "KAURIDIEBACK_MITIGATED": null, "SegmentID": null, "GlobalID": "ff808d9c-2693-4e43-9f90-62b817c2a3c5", "Shape__Length": 821.8517740178839}}]}