{"type": "FeatureCollection", "features": [{"type": "Feature", "id": 3143, "geometry": {"type": "LineString", "coordinates": [[175.06778633141, -36.8128968685819], [175.067659636829, -36.8129204333287], [175.067586895371, -36.8129386521305], [175.067519024299, -36.8129441589012], [175.067461493118, -36.8129452586774], [175.067429365143, -36.8129206169889], [175.067391756524, -36.8128876704528], [175.06737034188, -36.8128712515917], [175.067338587105, -36.8128592306636], [175.06732277727, -36.8128553145545], [175.067286287878, -36.8128602213359], [175.067198109903, -36.8128871535817], [175.06713148204, -36.8129347114079], [175.067049530499, -36.8129951809677], [175.06696245983, -36.8130599575914], [175.066911155313, -36.8130946035432], [175.06686520702, -36.8131333474075], [175.066829079073, -36.81315086603], [175.06677204487, -36.81316878419], [175.066678521042, -36.8131916089241], [175.066611011235, -36.813209727163], [175.066543512598, -36.8132278451697], [175.066470657426, -36.8132418561788], [175.06641896836, -36.8132638813288], [175.06638820795, -36.8132855065897], [175.066331794926, -36.8133244501927], [175.066301396238, -36.8133586964217], [175.066240123903, -36.8134103607423], [175.066164148993, -36.8134959623449], [175.066123285786, -36.8135304084474], [175.066097757135, -36.813551924673], [175.066076952686, -36.8135565314236], [175.066066499508, -36.8135567311368], [175.066055538118, -36.8135401123243], [175.066064759611, -36.8134978521054], [175.066077970872, -36.8134134496373], [175.066101273516, -36.813316226462], [175.066120224621, -36.8132485245416], [175.066134294551, -36.8131935617782], [175.066133548902, -36.8131683291942], [175.066137911101, -36.8131387897221], [175.066126960722, -36.8131221617101], [175.066121491378, -36.8131138566151], [175.066100562735, -36.8131142564342], [175.066053981492, -36.8131319745397], [175.065935053193, -36.8131805218361], [175.065779623848, -36.8132339755394], [175.065725962815, -36.8132314380536], [175.065695168083, -36.813228440088], [175.065659898029, -36.8132220047959], [175.065606714038, -36.8132017663535], [175.065553814347, -36.8131921042648], [175.065500630162, -36.8131718567644], [175.065442011807, -36.8131129115032], [175.065418580276, -36.8130568879443]]}, "properties": {"OBJECTID": 3143, "TRACKNAME": "Tawa Track", "CONDITIONSOFUSE": "Whakanewha Regional Park", "STATUS": "Open", "WEBLINK": "https://www.aucklandcouncil.govt.nz/en/parks-recreation/find-park-beach/park-detail/3422.html", "VALIDATIONSTATE": 3, "created_user": "AC_owner", "last_edited_user": "AC_owner", "last_edited_date": 1789875254325, "created_date": 1789875254325, "PARK_SAPSITEID": null, "TRACK_ID": null, "KAURIDIEBACK_TRACK": null, "KAURIDIEBACK_MITIGATED": null, "SegmentID": null, "GlobalID": "776eac8c-069b-4854-9743-f8f213dc5408", "Shape__Length": 311.392227430281}}]}