{"type": "FeatureCollection", "features": [{"type": "Feature", "id": 3239, "geometry": {"type": "LineString", "coordinates": [[174.474498250663, -36.9698577012823], [174.474549995833, -36.9698438580561], [174.474622521875, -36.9698090568358], [174.474716007474, -36.9697514430606], [174.474818918626, -36.969679317325], [174.474999964497, -36.9695428998392], [174.475334789154, -36.9692886014742], [174.475509672854, -36.9691560275063], [174.475681017699, -36.9690397578853], [174.475910953233, -36.9688745185667], [174.476364767708, -36.968535956587], [174.476567340315, -36.9683854781409], [174.476874713587, -36.9681603335432], [174.477396081596, -36.9677726591607], [174.477638640712, -36.9675972182307], [174.477935331929, -36.9673834709326], [174.478170844891, -36.9672062598403], [174.478287535257, -36.9671226654614], [174.478334448223, -36.9670932285885], [174.478451161668, -36.967010264718], [174.478536417905, -36.9669508846329], [174.478604087993, -36.9669080201955]]}, "properties": {"OBJECTID": 3239, "TRACKNAME": "Te Ahuahu Road", "CONDITIONSOFUSE": null, "STATUS": "Open", "WEBLINK": null, "VALIDATIONSTATE": 3, "created_user": "AC_owner", "last_edited_user": "AC_owner", "last_edited_date": 1789875254325, "created_date": 1789875254325, "PARK_SAPSITEID": null, "TRACK_ID": null, "KAURIDIEBACK_TRACK": null, "KAURIDIEBACK_MITIGATED": null, "SegmentID": null, "GlobalID": "76d82f2f-3296-4c7c-a8bc-90db5233738f", "Shape__Length": 491.3202372181166}}]}