{"type": "FeatureCollection", "features": [{"type": "Feature", "id": 12146, "geometry": {"type": "LineString", "coordinates": [[175.004846162951, -36.7771202852074], [175.004957823167, -36.7769946938743], [175.005078423415, -36.7769733542093], [175.005097246996, -36.7769448967318], [175.005004718376, -36.7768466510726], [175.00494443819, -36.7767825885606], [175.004902560753, -36.7767209161051], [175.00486000191, -36.7765857363089], [175.004809383457, -36.7765275199268], [175.004693739589, -36.7764684348555], [175.004527651021, -36.7764170139746], [175.004459121924, -36.7763667614624], [175.004417299958, -36.7762343253014], [175.004419293411, -36.7761689920096], [175.004505197264, -36.7760454431815], [175.004609713277, -36.7759523461846], [175.004724990078, -36.7758672687976], [175.004806904229, -36.7757800543064], [175.00495084457, -36.7756990325149], [175.005079886058, -36.7756106005478], [175.005184400198, -36.7755143845229], [175.005201524258, -36.7755335480532], [175.005143332861, -36.7756361358997], [175.005047573934, -36.7757496141558], [175.004988236225, -36.7758328591127], [175.004838315827, -36.7760052223308], [175.004720939448, -36.7761113810297], [175.004768096846, -36.7761630284044], [175.004861484491, -36.7761906026624], [175.004926797796, -36.7761942703907], [175.005000628533, -36.7761834869325], [175.005082355541, -36.7761344138366], [175.00522550068, -36.7760533041718], [175.005375067981, -36.7759911633616], [175.005462845454, -36.7759467577576], [175.005511976368, -36.7758982340768], [175.005540551398, -36.7758572117239], [175.005577333024, -36.7757898180603], [175.005618071902, -36.7757605140955], [175.005688193275, -36.7757211758892], [175.005778683932, -36.7756671847324], [175.006005831921, -36.7755107292386], [175.005945327417, -36.7754640556494], [175.005961863515, -36.7754160816004], [175.005981238629, -36.7753632898773], [175.005987952762, -36.7752797108474], [175.005953246111, -36.7751992154119], [175.006043798115, -36.7751476079158], [175.006155029862, -36.7750932674976], [175.006769126017, -36.7748849944569]]}, "properties": {"OBJECTID": 12146, "TRACKNAME": "Te Awaawa O Makoha", "CONDITIONSOFUSE": "Te Awaawa O Makoha", "STATUS": null, "WEBLINK": "https://www.aucklandcouncil.govt.nz/en/parks-recreation/find-park-beach/park-detail/952.html", "VALIDATIONSTATE": 3, "created_user": "AC_owner", "last_edited_user": "AC_owner", "last_edited_date": 1789875254325, "created_date": 1789875254325, "PARK_SAPSITEID": null, "TRACK_ID": null, "KAURIDIEBACK_TRACK": null, "KAURIDIEBACK_MITIGATED": null, "SegmentID": null, "GlobalID": "a1ba3fe8-f5f0-4a56-ae52-a08fa67f7069", "Shape__Length": 591.1692641973552}}]}