{"type": "FeatureCollection", "features": [{"type": "Feature", "id": 11978, "geometry": {"type": "LineString", "coordinates": [[175.143606272215, -36.8405724447614], [175.143611455106, -36.8405861656758], [175.143612473589, -36.8405977582411], [175.143610516131, -36.8406032745334], [175.143605845781, -36.840607835663], [175.143588178548, -36.8406142389113], [175.143563549108, -36.8406171124559], [175.143503928649, -36.8406194670571], [175.143481277305, -36.8406230208735], [175.143474088554, -36.8406212689151], [175.143477557176, -36.8406084305068], [175.143476854985, -36.8406059304596], [175.143463024553, -36.8406079843083], [175.143480376368, -36.8405995182661], [175.143478882373, -36.8405951896246], [175.143467258032, -36.8405841380028], [175.143466462151, -36.8405806592288], [175.143484064264, -36.8405733666554], [175.143483005353, -36.8405678940217], [175.143468957488, -36.8405548043066], [175.143465203446, -36.8405493531476], [175.143464946749, -36.8405372095751], [175.143471104004, -36.8405227280786], [175.143483297379, -36.8405071117501], [175.143498564088, -36.8404942423732], [175.143519986708, -36.8404843961557], [175.143546350386, -36.840478598403], [175.143570966493, -36.8404782428001], [175.143590598496, -36.8404833034637], [175.143605014464, -36.8404920202501], [175.143612052191, -36.8404919933386], [175.143616956868, -36.8404855677678], [175.143625659179, -36.8404400752779], [175.143632759221, -36.8404243359241], [175.143648741074, -36.840411004221], [175.143694509189, -36.8403870079853], [175.143711631839, -36.8403744643538], [175.143720494341, -36.8403638532298], [175.143727950431, -36.8403508367579], [175.143749018489, -36.8402914617327], [175.14376267794, -36.8402675528723], [175.143776990279, -36.8402531828091], [175.143816363199, -36.8402219747416], [175.143830906874, -36.8402044791908], [175.143837092029, -36.8401889841579], [175.143847587261, -36.8401435846449], [175.143861199536, -36.840118276839], [175.1439002634, -36.8400657833691], [175.143914557522, -36.8400418701541], [175.143937325756, -36.8399890292226], [175.143951203864, -36.8399434155499], [175.143957001326, -36.8399023400974], [175.14395470657, -36.8398654315166], [175.143947229201, -36.8398425461811], [175.143922417594, -36.8397929591446], [175.143916234809, -36.8397723501476], [175.143911642712, -36.8397315200351], [175.143912659046, -36.8397166057161], [175.143915899259, -36.839704038537], [175.143921923062, -36.8396940369344], [175.143932303896, -36.839684467291], [175.143947611695, -36.8396747704469], [175.144000069217, -36.8396468127732], [175.144013093894, -36.8396362961584], [175.144021007587, -36.8396253731546], [175.14402771241, -36.8396092890216], [175.144031836184, -36.8395939400239], [175.144033264949, -36.8395797592894], [175.144031988666, -36.8395669103387], [175.144029389852, -36.8395576901792], [175.144026238696, -36.8395551323647], [175.144021716556, -36.8395588541233], [175.144000083328, -36.839596412695], [175.143989491992, -36.8396093643615], [175.14397637728, -36.8396179159496], [175.14395884248, -36.8396260853708], [175.14391329895, -36.8396400884131], [175.143887162923, -36.8396451804136], [175.143863400643, -36.8396479085959], [175.143845346589, -36.8396478997885], [175.143835182479, -36.8396451552843], [175.143832124586, -36.8396378449865], [175.143835223857, -36.8396247398518], [175.143844300559, -36.8396066810002], [175.14385844941, -36.8395854987559], [175.143875928263, -36.8395637530547], [175.143894928983, -36.839543667108], [175.143913713182, -36.8395270663181], [175.143931238537, -36.8395148580428], [175.143952619444, -36.8395056414206], [175.14395847935, -36.8395009436883], [175.143958902429, -36.8394975589234], [175.1439567941, -36.8394934165234], [175.143939096381, -36.8394758589223], [175.143934339429, -36.8394682550549], [175.143933775774, -36.8394613424517], [175.143935777681, -36.8394535159453], [175.143953522616, -36.8394224449274], [175.143957556663, -36.8394090784811], [175.143955391403, -36.8393794472874], [175.143951367867, -36.83936597187], [175.143945570494, -36.8393541349732], [175.14393761981, -36.8393448339982], [175.143915585008, -36.83932639732], [175.143908942141, -36.8393183017246], [175.143902237884, -36.8393033088514], [175.143896536598, -36.8392805425328], [175.143894083455, -36.8392607215833], [175.143894941894, -36.8392383336348], [175.143908858139, -36.8391620639747], [175.143922437522, -36.8390874653868], [175.143941260995, -36.8390228512064], [175.143960008794, -36.8389769583054], [175.143982987771, -36.8389392310384], [175.143996212198, -36.8389234072235], [175.144010698776, -36.8389094755246], [175.144025905949, -36.8388988379092], [175.144066345602, -36.8388764152317], [175.14408278282, -36.8388629140586], [175.144096768648, -36.8388345976447], [175.144100873255, -36.8388299393083], [175.144105833538, -36.8388274164079], [175.144131900515, -36.8388282132971], [175.144134262747, -36.8388254190727], [175.144130934271, -36.8388198756749], [175.144101484264, -36.8387934894713], [175.144092757296, -36.8387838298869], [175.144086902224, -36.8387731752193], [175.144083041032, -36.8387614076716], [175.144081132816, -36.8387339148743], [175.144085171625, -36.8387062192999], [175.144100656361, -36.8386410842523], [175.144103443236, -36.8386117788782], [175.144099567633, -36.8385879748336], [175.144088734003, -36.8385684151987], [175.144064932081, -36.8385414486948], [175.14405473232, -36.8385332368408], [175.144044478503, -36.8385274704915], [175.144033334404, -36.8385243327077], [175.144006206347, -36.838520814481], [175.143996617427, -36.8385176627423], [175.143988788055, -36.8385116443149], [175.143982926294, -36.8385026002994], [175.14397141666, -36.8384622544122], [175.143963843748, -36.8384475903021], [175.143944122318, -36.8384233906714], [175.143927549764, -36.838411548226], [175.143892765427, -36.838403627048], [175.143882759818, -36.83839868051], [175.143873436643, -36.838391224708], [175.143840599044, -36.8383496860785], [175.143831546448, -36.8383412877865], [175.143822022134, -36.8383353571614], [175.143778268202, -36.8383204370242], [175.143761473902, -36.8383104901442], [175.143746214382, -36.8382973854689], [175.143732597242, -36.8382812130588], [175.143720773403, -36.8382621504355], [175.143710785268, -36.8382401400618], [175.143703048315, -36.8382159495632], [175.143697809046, -36.838190317883], [175.143695371305, -36.8381647008327], [175.143696572035, -36.8381512861845], [175.14370123044, -36.8381361804191], [175.143726008047, -36.83808712736], [175.143733054915, -36.8380698595666], [175.143736372408, -36.8380537967661], [175.143735437265, -36.838039349672], [175.143721652271, -36.8380116940487], [175.143720685003, -36.8380014642432], [175.143726904459, -36.8379939183956], [175.143749259214, -36.8379807451476], [175.143756894685, -36.8379741797602], [175.143767437687, -36.8379558019936], [175.143772484826, -36.8379353720317], [175.143769465407, -36.8379210268302], [175.14375210061, -36.8378895923671], [175.14375035644, -36.8378771180547], [175.143767622859, -36.8378428063591], [175.143760917883, -36.8377982441236], [175.143752693037, -36.837790783009], [175.143740229684, -36.8377846859256], [175.143723958714, -36.8377801728049], [175.143704803652, -36.8377775054032], [175.143683695824, -36.8377768781643], [175.143662860083, -36.8377784200524], [175.143644188876, -36.8377819852428], [175.143629070852, -36.8377873059824], [175.143620176064, -36.8377935541898], [175.143600560054, -36.837813066747], [175.143590514101, -36.8378173131961], [175.143585687774, -36.8378162286921], [175.143580541826, -36.8378129406858], [175.143561408964, -36.8377927052237], [175.143552207638, -36.8377858813372], [175.143506191741, -36.837772302454], [175.143476985575, -36.8377563189065], [175.143451175638, -36.8377353671806], [175.143431803705, -36.8377119518275], [175.143420528845, -36.8376881061614], [175.143419456229, -36.8376607586556], [175.143416588451, -36.8376532369702], [175.143407479757, -36.8376495719464], [175.143391787663, -36.8376505131219], [175.143369765028, -36.8376561598885], [175.143345175153, -36.8376655594891], [175.143334288831, -36.8376730077464], [175.143311659835, -36.8376958499621], [175.143305292337, -36.8376997180205], [175.143299075273, -36.8377012663138], [175.143288633246, -36.8376991073936], [175.143262849791, -36.8376845064957], [175.143250711349, -36.8376808140892], [175.143238390241, -36.8376816486601], [175.143203772845, -36.8376895730457], [175.143178251347, -36.8376891709828], [175.143150222574, -36.8376845015495], [175.143119460285, -36.8376755606367], [175.14308416349, -36.8376618289726], [175.143051636972, -36.8376416012429], [175.143036972962, -36.8376368932175], [175.143028005781, -36.837637688136], [175.14300696649, -36.8376434059523], [175.142998751081, -36.8376434309497], [175.142988684866, -36.8376368686061], [175.142969582117, -36.8376108246751], [175.142943765923, -36.8375922777748], [175.142912233193, -36.8375766210503], [175.142876747782, -36.8375647394623], [175.142839913496, -36.8375575164326], [175.142802027867, -36.8375551694408], [175.142791976687, -36.8375508225694], [175.142783284801, -36.8375429623953], [175.142757042449, -36.8374971374032], [175.14274924736, -36.8374880707823], [175.142740505434, -36.837481910714], [175.142695578134, -36.8374669076746], [175.142684133353, -36.8374580258111], [175.142661286193, -36.8374286354874], [175.142648220054, -36.8374179986929], [175.142633975773, -36.8374130765472], [175.142598113634, -36.8374069054129], [175.142584936747, -36.8374015708607], [175.142577382255, -36.8373949038823], [175.14256318112, -36.8373767532675], [175.14255551592, -36.8373710194529], [175.142546924766, -36.8373686294338], [175.142536079684, -36.837368553516], [175.142494852825, -36.8373764941148], [175.142479576202, -36.837377640388], [175.142458688803, -36.8373741567056], [175.142436376902, -36.8373652110405], [175.142415755714, -36.8373533372582], [175.142368488831, -36.8373220833141], [175.142344985216, -36.8373098573656], [175.142322326742, -36.8373032306107], [175.142300874415, -36.8373029582087], [175.142268603986, -36.8373100824088], [175.142235026697, -36.837312287955], [175.142198681336, -36.8373093089208], [175.142161161348, -36.8373012587593], [175.142125188858, -36.8372887077958], [175.142044053146, -36.837236489524], [175.142028618368, -36.8372334104014], [175.142010225822, -36.8372361904836], [175.141991552509, -36.8372430879944], [175.141939780329, -36.8372669462751], [175.141924443502, -36.8372718545384], [175.141910780459, -36.837274166353], [175.141857554498, -36.8372746687302], [175.141836774184, -36.8372816231685], [175.141794280604, -36.8373059281863], [175.141775495577, -36.8373114647064], [175.141748885152, -36.8373135462561], [175.141730904905, -36.8373111723806], [175.141721610083, -36.8373057867407], [175.141703992821, -36.8372866411602], [175.141694610444, -36.8372802011558], [175.141668111975, -36.8372724820325], [175.141656405935, -36.8372716252111], [175.141646498754, -36.8372728673918], [175.141623196709, -36.8372852303154], [175.141609360402, -36.8372852693118], [175.141574833518, -36.8372766383487], [175.141552716177, -36.8372774430557], [175.141527678221, -36.8372838552446], [175.14150342863, -36.8372936943507], [175.141448206554, -36.8373199759038], [175.141422617092, -36.837329154027], [175.141399237961, -36.8373324247753], [175.141388895276, -36.8373314360512], [175.141379283533, -36.837328690334], [175.141365479379, -36.837320351762], [175.141335446427, -36.8372943371731], [175.141321112795, -36.8372878276781], [175.141310979751, -36.837289004405], [175.141298673171, -36.8372954726172], [175.141281729099, -36.8373093264277], [175.141241703935, -36.8373482500862], [175.14123327417, -36.83735295332], [175.141230522922, -36.8373526440725], [175.14122866062, -36.8373505666974], [175.141229987021, -36.8373217052029], [175.141228241713, -36.8373143568397], [175.141222681186, -36.837311599499], [175.141213104094, -36.8373127921545], [175.141166717333, -36.8373312027051], [175.141148361668, -36.8373357731848], [175.141125276898, -36.8373351583213], [175.141073613091, -36.8373266849035], [175.141052557261, -36.8373267198878], [175.14100662433, -36.837337282266], [175.140992450342, -36.8373366967996], [175.140975840344, -36.8373320839802], [175.140920475318, -36.8373054732291], [175.140902660665, -36.8372989134521], [175.140886556966, -36.8372977916395], [175.140880079903, -36.8372999075246], [175.140874526492, -36.8373038376686], [175.140866814101, -36.8373126389002], [175.140863064971, -36.8373104956528], [175.140855414699, -36.8373004010621], [175.140864216032, -36.8373235354251], [175.140850042626, -36.8373010900638], [175.140842757485, -36.837280451919], [175.140843963093, -36.8372679787838], [175.140849224322, -36.837253963511], [175.14085846145, -36.8372386839163], [175.14087108947, -36.8372231197331], [175.140883137632, -36.837213107356], [175.140899857007, -36.8372044020987], [175.140964674019, -36.8371832170372], [175.140986591787, -36.8371739600351], [175.141048614403, -36.8371373308493], [175.141106964481, -36.8370943814609], [175.141159894971, -36.8370463966481], [175.141205695166, -36.8369949234757], [175.141220333698, -36.8369736318065], [175.141250141807, -36.8369221105641], [175.141266965459, -36.836899830346], [175.14128287359, -36.8368849737204], [175.141301977338, -36.8368718896091], [175.141324451535, -36.8368604545367], [175.141350658622, -36.836850482363], [175.141410274058, -36.8368352467551], [175.141541917379, -36.836812909743], [175.141596358517, -36.8368009835976], [175.141624050368, -36.8367926802187], [175.141648398398, -36.8367833252883], [175.141669863857, -36.8367727401206], [175.141688660235, -36.8367608161261], [175.141705059717, -36.8367474275706], [175.141742723793, -36.8367121361172], [175.141764431704, -36.8366965694037], [175.141782465099, -36.8366881687541], [175.141804318566, -36.836681633458], [175.141906610492, -36.8366657526813], [175.141929342602, -36.8366601131105], [175.14194824738, -36.8366529408543], [175.141976317803, -36.8366385311087], [175.142003638755, -36.8366217820149], [175.142029438889, -36.836603166141], [175.142052936847, -36.8365832462787], [175.142073156318, -36.8365599869978], [175.142109794509, -36.8365045093208], [175.142127285304, -36.8364850517856], [175.14214853276, -36.8364693650093], [175.142176736225, -36.8364548839947], [175.142206500009, -36.8364431139341], [175.142275798321, -36.8364190411885], [175.142304591773, -36.8364069831826], [175.142326053763, -36.836395013556], [175.142342113021, -36.8363821644597], [175.14235368517, -36.8363678960996], [175.142361698544, -36.8363515182127], [175.142366228453, -36.8363328846518], [175.142367345191, -36.8363117140187], [175.142365237116, -36.8362886419058], [175.142359933395, -36.8362619440759], [175.142325253979, -36.836145336752], [175.142315046395, -36.8360945889446], [175.142313750009, -36.8360683946881], [175.142316188232, -36.8360450374804], [175.142322408072, -36.8360240905646], [175.142332474071, -36.8360053551], [175.142343966287, -36.835993174701], [175.142388045398, -36.8359565889688], [175.142392603163, -36.8359473196628], [175.142391248794, -36.8359438751141], [175.14238745933, -36.8359411501321], [175.142373042455, -36.8359366241891], [175.142360002475, -36.8359372002951], [175.142345630336, -36.8359445014898], [175.142328702687, -36.8359595035299], [175.142292305917, -36.8359998240854], [175.142283955271, -36.8360050501409], [175.142277991926, -36.8360037631706], [175.142272412736, -36.8359951399585], [175.142267889012, -36.8359812181546], [175.142265619622, -36.8359657952213], [175.142266173443, -36.8359526333783], [175.142270884661, -36.8359407766104], [175.142291485816, -36.8359093397014], [175.142294931448, -36.835889154891], [175.142291618416, -36.8358385291193], [175.14229435841, -36.8358266163829], [175.142300203455, -36.8358171401895], [175.142314097371, -36.8358031859425], [175.142327173475, -36.8357927508871], [175.142336999051, -36.8357877678287], [175.14234345344, -36.8357881799049], [175.142346326552, -36.8357925512069], [175.142352673565, -36.8358125711177], [175.142357780722, -36.8358158470319], [175.142364978291, -36.8358159777211], [175.142374188762, -36.8358129578378], [175.142385227379, -36.835806846189], [175.142412573284, -36.8357850580247], [175.142437248016, -36.8357582993787], [175.142449232042, -36.8357409944663], [175.142453425182, -36.8357285851473], [175.142446719491, -36.8357027678366], [175.142448332601, -36.8356937810681], [175.142454416745, -36.8356828807876], [175.142491144944, -36.8356391609416], [175.14249267789, -36.8356319919259], [175.142487454601, -36.835628086274], [175.142463985556, -36.8356262841007], [175.142484869758, -36.8356248775958], [175.142491645569, -36.8356229310509], [175.142490093391, -36.8356178746699], [175.142471111296, -36.8355990421515], [175.142467895297, -36.8355883505904], [175.142469168746, -36.8355757818493], [175.142489998702, -36.8355285810106], [175.142493909501, -36.8355097748318], [175.142493264038, -36.8354761953095], [175.142489907159, -36.8354543188224], [175.142482714961, -36.8354366124921], [175.142471445679, -36.8354234424466], [175.142457939147, -36.8354132846077], [175.142448396349, -36.8354092336662], [175.142442954569, -36.8354098832979], [175.14243692352, -36.8354135606894], [175.142416406393, -36.8354361664304], [175.142409503647, -36.8354409599036], [175.142406105559, -36.8354410090853], [175.142403084433, -36.835439232862], [175.142398082221, -36.8354301321847], [175.142394188003, -36.8354129190988], [175.142386539738, -36.8353579533966], [175.142382618875, -36.8353482252293], [175.142380221616, -36.8353463797031], [175.142377485291, -36.835346496167], [175.142369440296, -36.8353535743059], [175.142341862319, -36.8353910870242], [175.142318288864, -36.8354116905819], [175.142296846291, -36.83542676411], [175.142276451319, -36.8354370664224], [175.142257037272, -36.83544259445], [175.142234210458, -36.8354446353392], [175.142210675593, -36.8354436417085], [175.14219035806, -36.835439804713], [175.142174810177, -36.8354334577015], [175.14216253526, -36.835424065439], [175.142151583481, -36.8354112161287], [175.14214327459, -36.8353964594057], [175.142138767553, -36.8353818254047], [175.142136131375, -36.8353608470859], [175.142137311812, -36.8353556691338], [175.142140192831, -36.8353535361816], [175.142158298498, -36.8353589852776], [175.142162449652, -36.8353581045512], [175.142159703045, -36.8353523644963], [175.142136245522, -36.8353303322219], [175.14210818878, -36.8353111518922], [175.142096991134, -36.835305786172], [175.142088644218, -36.8353037480091], [175.142078938729, -36.8353055741741], [175.142068651497, -36.8353121195969], [175.142029455218, -36.8353551102159], [175.142019497304, -36.8353636620722], [175.142009938286, -36.8353694204839], [175.141988345482, -36.835376839171], [175.141941352477, -36.8353863257685], [175.141922347074, -36.8353916324523], [175.141903245748, -36.8354006620428], [175.141856153326, -36.8354298355744], [175.141841452352, -36.835435508692], [175.141827379449, -36.8354378173062], [175.141801281103, -36.8354389771382], [175.141794196785, -36.8354376065089], [175.141789662301, -36.8354347990833], [175.141784548799, -36.835421514305], [175.14177651353, -36.8354154532488], [175.141763042388, -36.8354145176189], [175.141747506726, -36.8354173650272], [175.141706867856, -36.8354282716748], [175.141688743839, -36.8354306080566], [175.141668794774, -36.8354291580466], [175.141646461954, -36.8354245731794], [175.141571900295, -36.8354001140193], [175.141544632052, -36.8353931721436], [175.141517765944, -36.8353907268263], [175.141494200385, -36.8353942309541], [175.141466537485, -36.8354077961383], [175.141456146439, -36.8354095698479], [175.141448704749, -36.8354051453062], [175.141435488606, -36.8353867306395], [175.141428653111, -36.8353809455085], [175.141420778869, -36.8353791497647], [175.14141038308, -36.8353802531055], [175.141362646059, -36.8353951761616], [175.141354204004, -36.8353953625998], [175.141347935888, -36.8353930153568], [175.141343448539, -36.835387363295], [175.141335671483, -36.8353693369015], [175.141329830641, -36.8353651041932], [175.141324604025, -36.8353663647752], [175.141311180822, -36.835373584212], [175.141306444723, -36.835374240143], [175.141300223788, -36.8353685558028], [175.141294710473, -36.8353552135529], [175.141295147588, -36.8353483117069], [175.141300415763, -36.8353405070318], [175.141337090964, -36.8353093025939], [175.141339930189, -36.8353031446074], [175.141338296237, -36.8352978812977], [175.141318767273, -36.8352840919526], [175.141303208182, -36.8352748425816], [175.141293872471, -36.8352726930697], [175.141273840534, -36.8352830448053], [175.141276940451, -36.8352728187998], [175.141276042963, -36.8352665398335], [175.141271697496, -36.8352606758451], [175.141263968801, -36.8352553233047], [175.141253082371, -36.8352506414505], [175.141222499475, -36.8352439321385], [175.141192116243, -36.8352433563151], [175.141181632497, -36.8352466401188], [175.141156983899, -36.8352596639387], [175.141145680374, -36.8352612102131], [175.141132871533, -36.8352546970242], [175.141116426902, -36.8352385795413], [175.141107934104, -36.8352273445012], [175.141101068503, -36.8352138340947], [175.141092370542, -36.8351803236908], [175.141093318189, -36.8351662273754], [175.141103188667, -36.8351317273031], [175.141103252375, -36.8351232790764], [175.141100920698, -36.8351162871453], [175.141095268556, -36.8351088324679], [175.141086460661, -36.8351011577279], [175.141055909931, -36.8350824660342], [175.141019443803, -36.8350648897462], [175.140982844248, -36.8350530451984], [175.140949129078, -36.8350478900188], [175.140919284462, -36.8350495247958], [175.140875029091, -36.8350640667232], [175.140817470016, -36.8350772644466], [175.140758531249, -36.8350848142075], [175.140700654312, -36.8350864095142], [175.14064570043, -36.8350820046755], [175.140599880299, -36.8350750054055], [175.140572189975, -36.835066331369], [175.140550978114, -36.8350535031861], [175.140522067192, -36.8350291150408], [175.140475655104, -36.8349934845124], [175.140457758402, -36.8349766921436], [175.140451509868, -36.8349681231677], [175.140448209404, -36.8349602446165], [175.140447812124, -36.8349529462801], [175.140450317983, -36.8349461764304], [175.140458477437, -36.8349363788153], [175.140471356542, -36.8349255572364], [175.140480683546, -36.8349206177547], [175.140493415418, -36.8349170237057], [175.140561007236, -36.8349108302479], [175.140571478506, -36.8349081631317], [175.140576800017, -36.8349040991174], [175.140577133602, -36.8348975152475], [175.140571196374, -36.8348889782427], [175.140517367906, -36.8348449909683], [175.140506598511, -36.8348335042667], [175.140500441485, -36.8348232552378], [175.140496878957, -36.8348058211397], [175.140497067256, -36.8347655388932], [175.140493652513, -36.834750500137], [175.140480737769, -36.8347231918964], [175.14046649534, -36.8347071244098], [175.140453528388, -36.8347015154056], [175.140418413807, -36.8346947343262], [175.140406815156, -36.8346887684098], [175.140398056341, -36.8346782847562], [175.140390052495, -36.8346628256633], [175.140385027073, -36.8346420588481], [175.14038637079, -36.83461841537], [175.140394018885, -36.8345936344992], [175.14040706748, -36.8345707507944], [175.140421388217, -36.8345513199292], [175.140426751245, -36.8345469197947], [175.140431876678, -36.8345451020954], [175.140439754004, -36.8345471573708], [175.140463142368, -36.8345607756986], [175.140466940456, -36.8345591325362], [175.140467934633, -36.8345534988877], [175.140459710525, -36.8345141827579], [175.140460291466, -36.8344981630776], [175.1404462942, -36.8344645104685], [175.140443572512, -36.8344584616831], [175.14044310929, -36.8344370172081], [175.140436709692, -36.834427985498], [175.140425077879, -36.8344202777718], [175.14037240979, -36.8344017289021], [175.140355183356, -36.8343930965007], [175.140343207829, -36.8343833339565], [175.140331731517, -36.8343706010092], [175.140299998733, -36.8343235322779], [175.140287567195, -36.8343078274424], [175.14027318385, -36.8342948877143], [175.140257450181, -36.8342862269164], [175.140243105811, -36.8342829619123], [175.140200645607, -36.8342790152859], [175.140192708865, -36.8342759759364], [175.140189807797, -36.8342713489679], [175.140200452997, -36.834248341108], [175.140197796969, -36.8342411547234], [175.140189648577, -36.8342342179784], [175.140145634758, -36.8342137652246], [175.140121417214, -36.8342021946485], [175.140092454273, -36.8341919029083], [175.139966209006, -36.8341582176966], [175.13994141718, -36.8341487555716], [175.139920246304, -36.8341381607208], [175.139845647332, -36.8340864864983], [175.139809353594, -36.8340683301856], [175.139720659738, -36.8340332276875], [175.139700460186, -36.8340230924895], [175.139683456832, -36.8340125159441], [175.139644674427, -36.8339784021587], [175.139629226443, -36.8339677563719], [175.13960929585, -36.8339603322061], [175.139584529751, -36.8339571452232], [175.139556940053, -36.8339576597293], [175.139477087567, -36.8339641177537], [175.139453953672, -36.83396322447], [175.139434598953, -36.8339596264631], [175.139414754235, -36.8339523662302], [175.139394416863, -36.8339415297798], [175.139372546997, -36.8339266196672], [175.139307642739, -36.8338771234685], [175.139285274486, -36.8338640772899], [175.139263692502, -36.8338551458411], [175.139241662291, -36.833849805023], [175.139186999018, -36.8338413181917], [175.139162437543, -36.8338336458113], [175.139150834002, -36.8338265319971], [175.139139565416, -36.833815802764], [175.139108526755, -36.8337731949679], [175.139097098249, -36.8337602339266], [175.139084243972, -36.8337510666482], [175.139070572077, -36.8337471874552], [175.139057952889, -36.8337471721167], [175.139042924592, -36.8337492564127], [175.139001506023, -36.8337604718176], [175.138982945747, -36.833768558557], [175.138941738028, -36.8337931610432], [175.138919531294, -36.8338003701342], [175.138905455688, -36.833800958483], [175.138872962886, -36.8337979518467], [175.138858846022, -36.8337979806569], [175.138837842205, -36.8338011045984], [175.138815463875, -36.8338069345015], [175.138791558477, -36.8338155008128], [175.138765386767, -36.8338270663896], [175.138747441609, -36.8338382252276], [175.138708806098, -36.8338694261821], [175.138688860996, -36.8338791600818], [175.138678908507, -36.833880780769], [175.138668425149, -36.8338804081438], [175.138645286258, -36.8338736310461], [175.138622128174, -36.833861249987], [175.138555092313, -36.8338183117327], [175.138533950821, -36.8338085897778], [175.13851460089, -36.8338032618445], [175.138450312333, -36.8337971011074], [175.13842490779, -36.8337878334769], [175.138368393615, -36.833755619029], [175.13835324156, -36.8337507530724], [175.138339168001, -36.8337496589328], [175.13832351672, -36.8337539930318], [175.138283992071, -36.8337730263083], [175.138276188419, -36.83377410557], [175.138271776998, -36.8337711595378], [175.138269178947, -36.8337535986789], [175.138272074071, -36.8337440102696], [175.138280739806, -36.8337335812745], [175.138329412454, -36.8336967155404], [175.13833338548, -36.8336905185434], [175.138332714486, -36.8336853282989], [175.138324881344, -36.8336785622952], [175.138310005713, -36.8336718615201], [175.138288575848, -36.8336655216563], [175.138264400781, -36.8336606850236], [175.138253348033, -36.833660309185], [175.138238355016, -36.8336620009784], [175.138174931613, -36.8336749795166], [175.138167614862, -36.8336742091565], [175.138168428071, -36.8336696121901], [175.138205728271, -36.8336295051345], [175.138204426216, -36.833620346175], [175.138193466477, -36.8335988190187], [175.138193154873, -36.8335906126569], [175.138199625479, -36.8335802480606], [175.138210444933, -36.8335691148495], [175.138219507578, -36.8335633196178], [175.138224837731, -36.8335639583756], [175.138228526673, -36.8335763631557], [175.138233501047, -36.8335784137377], [175.138241934087, -36.8335760513972], [175.138272698617, -36.8335565818145], [175.13829604503, -36.8335373913711], [175.138312428769, -36.8335157622476], [175.13831709659, -36.8335005547862], [175.138318164534, -36.8334668223289], [175.138320810981, -36.8334530240325], [175.138328913992, -36.8334349529162], [175.138341233832, -36.8334157688562], [175.138383843068, -36.8333665638332], [175.138581701756, -36.8332154334454], [175.138764800748, -36.8331629261587], [175.138780019056, -36.8331520441122], [175.138813869584, -36.8331233108162], [175.138832946297, -36.8331113771083], [175.138887093095, -36.833092349759], [175.138903818433, -36.8330832327314], [175.13892050537, -36.8330710218326], [175.13897515652, -36.8330188036257], [175.13899991333, -36.8329995628847], [175.13904618451, -36.8329700846129], [175.139078115949, -36.8329561029207], [175.139106524514, -36.8329496818414], [175.139142321661, -36.8329457090205], [175.13916041521, -36.8329454177742], [175.139180520664, -36.8329470541016], [175.139253464053, -36.8329597841475], [175.139283304727, -36.8329628923907], [175.139305846999, -36.8329613112411], [175.139360057191, -36.8329510137988], [175.139380476056, -36.8329487458138], [175.139389745034, -36.8329492404258], [175.139396587193, -36.8329512501796], [175.139401155208, -36.8329548215419], [175.139403501604, -36.8329600004178], [175.139403668664, -36.8329752129896], [175.139408771369, -36.8329827331589], [175.1394196793, -36.8329885530847], [175.13947147871, -36.83299989803], [175.139507392251, -36.8330076409082], [175.139569715474, -36.8330164103346], [175.139617458864, -36.8330234210277], [175.139646325272, -36.833026175519], [175.139681603005, -36.833025093873], [175.139759697529, -36.83301491695], [175.139792170856, -36.8330146917303], [175.13981344394, -36.8330192551467], [175.139874133492, -36.8330398318708], [175.139887598194, -36.8330403464826], [175.139892024888, -36.8330384713146], [175.139895015869, -36.8330351441497], [175.139897660078, -36.8330255451063], [175.139898368851, -36.8330073997516], [175.139895011547, -36.8329725900537], [175.139883979377, -36.8329384849728], [175.139866811282, -36.8329096873458], [175.139856366668, -36.8328980164553], [175.139844892983, -36.8328884189635], [175.139822355022, -36.8328751198394], [175.139796157829, -36.8328643538147], [175.139769890033, -36.8328575703285], [175.139745735293, -36.8328553099868], [175.139729394705, -36.8328574628095], [175.13968956529, -36.8328698774948], [175.13967189053, -36.8328727446851], [175.139652933809, -36.8328718837123], [175.139632484805, -36.8328682831949], [175.139611266794, -36.8328620676977], [175.139590262917, -36.8328535221704], [175.139570487717, -36.8328430521894], [175.139553023856, -36.8328312214072], [175.139538743786, -36.8328186244655], [175.139528224248, -36.8328057732462], [175.139519963947, -36.8327896875015], [175.139514291681, -36.8327703822207], [175.139511462655, -36.8327486676869], [175.139511712483, -36.8327262711841], [175.139522524833, -36.8326820980792], [175.139521822684, -36.8326652116369], [175.139518533442, -36.8326474168832], [175.139512876857, -36.8326298801377], [175.139505156359, -36.8326135344803], [175.139495898362, -36.8325993472667], [175.139485263811, -36.832587443815], [175.139473513555, -36.8325781130891], [175.139460833791, -36.832571499185], [175.139448958609, -36.8325685927617], [175.139418305173, -36.8325654375425], [175.13940610044, -36.8325615662792], [175.139397526748, -36.8325540314191], [175.139382204175, -36.8325314373378], [175.139372907473, -36.8325257760276], [175.139362884236, -36.8325264424458], [175.139339920281, -36.8325344587495], [175.139330411346, -36.8325362947855], [175.139319159308, -36.8325351812536], [175.139307397925, -36.8325307740781], [175.139261885846, -36.8324996823844], [175.139250682234, -36.8324941393609], [175.139240054964, -36.8324911172909], [175.139205721503, -36.8324913797658], [175.139194876005, -36.8324886444265], [175.139189409609, -36.8324813805965], [175.139183521747, -36.8324585476653], [175.139180207745, -36.8324536914447], [175.139176654137, -36.8324542106071], [175.139172399734, -36.832458251281], [175.139154872986, -36.8324858381121], [175.139146429213, -36.8324958101788], [175.139132148527, -36.8325066986552], [175.139114977653, -36.8325169735773], [175.139074092562, -36.8325344932137], [175.139047759266, -36.8325416058123], [175.139018001241, -36.8325464308154], [175.138986682654, -36.8325486678709], [175.138955727802, -36.8325481783997], [175.138927296679, -36.8325450621149], [175.13890206901, -36.8325394629889], [175.138880910027, -36.832531576641], [175.138864294497, -36.8325215854438], [175.138856499642, -36.8325138948394], [175.13884978556, -36.832503620465], [175.138828206984, -36.8324484465287], [175.13882133372, -36.8324362819333], [175.138813415833, -36.8324267849954], [175.138742085794, -36.8323917908655], [175.138729848525, -36.8324017648548], [175.138732568315, -36.8324062152293], [175.138733063509, -36.8324134362348], [175.138727421821, -36.8324345186145], [175.138714921907, -36.8324569477809], [175.138709106711, -36.8324626024675], [175.138704786001, -36.8324631629352], [175.138693371077, -36.8324381057647], [175.138688190056, -36.8324307672914], [175.138677476183, -36.8324233237649], [175.138662811824, -36.8324171718261], [175.138645684317, -36.8324129588999], [175.138629098532, -36.832411447103], [175.138620829486, -36.8324126288034], [175.138611821716, -36.8324162560706], [175.138574345134, -36.8324395491483], [175.138565622381, -36.8324423657907], [175.138557432082, -36.8324428795032], [175.138532202748, -36.8324370947669], [175.138512772829, -36.8324360925107], [175.138491514428, -36.832439442533], [175.138468479257, -36.8324467887236], [175.138400809694, -36.8324737191238], [175.138379236333, -36.8324786852804], [175.138359702476, -36.8324796752357], [175.138321255561, -36.8324723319224], [175.1383066462, -36.8324723830684], [175.138295982134, -36.8324768852836], [175.138273629536, -36.8324948846034], [175.138262388714, -36.8325005461531], [175.138251688315, -36.8325021260768], [175.138224191337, -36.8325014096452], [175.138212432826, -36.8325027247994], [175.138199406911, -36.8325080411603], [175.138172477232, -36.8325262625798], [175.13815945946, -36.8325323974985], [175.138144501511, -36.8325350880364], [175.138108932958, -36.832536531598], [175.138095002821, -36.8325397318931], [175.138082230708, -36.8325483272874], [175.13805728248, -36.8325746196074], [175.138051441491, -36.8325782164365], [175.138046135735, -36.832579085332], [175.138037028465, -36.8325755105844], [175.13802674231, -36.8325664921181], [175.138016037279, -36.8325525681527], [175.138007662566, -36.8325372591063], [175.138005471577, -36.8325248061706], [175.138006600617, -36.832496310621], [175.138004226475, -36.832490278071], [175.138000913666, -36.8324902253039], [175.137996280965, -36.8324932561706], [175.137968318577, -36.8325230130902], [175.137953097038, -36.8325340317139], [175.13793941199, -36.8325409454271], [175.137933316489, -36.8325412824311], [175.137928287223, -36.8325314749345], [175.137926693227, -36.8325310510595], [175.137925012339, -36.8325327076783], [175.137916275166, -36.832553000486], [175.137910516496, -36.8325588838046], [175.137902619156, -36.8325580243781], [175.137876486782, -36.8325469400978], [175.137866931516, -36.8325468287204], [175.137856334259, -36.8325490829596], [175.137817827505, -36.8325654927513], [175.137801720528, -36.8325698231904], [175.137784787183, -36.8325701538413], [175.137743558298, -36.8325659261296], [175.137724689644, -36.8325681877098], [175.137713536224, -36.832573800095], [175.137690959852, -36.8325908849681], [175.137680685546, -36.8325955546901], [175.137663510006, -36.8325969309524], [175.137627587617, -36.8325918567942], [175.137613043311, -36.8325914060024], [175.137595468553, -36.8325947836993], [175.137554554136, -36.8326084285321], [175.137534085861, -36.832610222885], [175.137509413097, -36.832603212772], [175.137500892575, -36.8326023865284], [175.137490667994, -36.8326057540099], [175.137465103088, -36.8326220420524], [175.137448616896, -36.8326257511706], [175.137409285588, -36.8326277917087], [175.137393101772, -36.8326305915096], [175.137378683967, -36.8326369067086], [175.137364562411, -36.8326474556969], [175.137326060928, -36.8326904776516], [175.137312650979, -36.8327030713985], [175.137299162319, -36.832711585321], [175.137285226829, -36.8327160028136], [175.137267449909, -36.8327167103436], [175.137225612537, -36.8327116696949], [175.137207358482, -36.8327114348404], [175.13717088647, -36.8327163350045], [175.137144746439, -36.8327243848386], [175.137120857114, -36.8327379789444], [175.137100767986, -36.8327547134933], [175.137088513488, -36.8327711640449], [175.137084816199, -36.8327861599572], [175.137088090531, -36.8327952578937], [175.137102964002, -36.8328163503573], [175.137105519435, -36.8328255552997], [175.137101365505, -36.8328429001308], [175.137094958228, -36.8328533409302], [175.137086743645, -36.8328258064134], [175.137081856249, -36.8328229118724], [175.137074638175, -36.8328241776025], [175.137065282634, -36.8328295822994], [175.137054278884, -36.8328388493358], [175.13702983615, -36.8328672406347], [175.137014491634, -36.8328944536959], [175.137013066285, -36.8329038271109], [175.137014118248, -36.8329275213509], [175.137010803694, -36.8329380397248], [175.136990368616, -36.8329537169449], [175.136986160508, -36.8329591620626], [175.136986868864, -36.8329676759839], [175.136997258651, -36.8329856300809], [175.136999739062, -36.8329929830715], [175.136999213318, -36.8330084715397], [175.136994316137, -36.8330250335102], [175.136985419693, -36.833041383006], [175.136973419634, -36.8330558472721], [175.136963780505, -36.8330642710119], [175.136957033492, -36.8330662616822], [175.136948747234, -36.8330646714095], [175.13691065583, -36.8330421547263], [175.13690202317, -36.8330390836768], [175.136894713481, -36.8330388320201], [175.136884094126, -36.8330418347139], [175.136872733722, -36.8330472767204], [175.136853056279, -36.8330626793215], [175.136849244911, -36.8330693429276], [175.136843915159, -36.8330874087047], [175.136838304141, -36.8330939426569], [175.136818947441, -36.8330979383701], [175.136814332202, -36.8331001464471], [175.136812117933, -36.8331052197126], [175.136811900686, -36.8331225250462], [175.1368082653, -36.8331279062955], [175.136801727393, -36.8331325921207], [175.13675674457, -36.8331485921316], [175.136748501907, -36.8331536933197], [175.136744008461, -36.8331596153063], [175.136741492544, -36.8331869399013], [175.136737119784, -36.8331961643948], [175.136729193972, -36.8332052908952], [175.136687068247, -36.8332363313623], [175.136673180847, -36.833251228697], [175.136667893341, -36.8332639724758], [175.136658379694, -36.8332999067906], [175.136655332091, -36.8333043405665], [175.136652058412, -36.8333029459649], [175.136646357981, -36.8332923852846], [175.136643626609, -36.8332922301277], [175.136639908079, -36.833294400719], [175.13662666104, -36.8333078910069], [175.136616383531, -36.8333226135536], [175.136603444363, -36.833361261678], [175.136594307408, -36.8333766228601], [175.136573376887, -36.8333998868539], [175.136557771993, -36.8334135430835], [175.136543753552, -36.8334208979148], [175.136531610008, -36.8334215077012], [175.136525359906, -36.8334185098444], [175.136509351113, -36.8334053881169], [175.1365021901, -36.833401726927], [175.136495191112, -36.8334020225344], [175.136488175715, -36.8334063159422], [175.136460118771, -36.8334425720106], [175.136452151037, -36.8334494662989], [175.136444103434, -36.8334531911718], [175.136421274348, -36.8334578375419], [175.136406887525, -36.8334564604279], [175.136401543652, -36.8334524507707], [175.136388446791, -36.8334356728943], [175.136373890917, -36.8334284224574], [175.136355742654, -36.833423640469], [175.136338612858, -36.8334224924548], [175.136325415443, -36.8334251540924], [175.136318852544, -36.8334308755437], [175.136306540737, -36.8334503365996], [175.136302939972, -36.8334531633015], [175.136299180007, -36.8334538622348], [175.136279985061, -36.8334439289643], [175.136209744799, -36.833562408012], [175.13616030574, -36.8335804058157], [175.136113318875, -36.8335907831887], [175.136092413556, -36.8335927376806], [175.136073389131, -36.8335925474224], [175.13605639617, -36.8335902144408], [175.136041520143, -36.8335857513722], [175.136028000541, -36.8335766227792], [175.135998391307, -36.8335454301763], [175.135989116287, -36.8335400582066], [175.135979662539, -36.8335381844717], [175.135953342503, -36.8335422915311], [175.135913863859, -36.8335793807717], [175.135904031645, -36.833573847931], [175.135868327657, -36.8335657396304], [175.135863049472, -36.8335628905849], [175.13586097416, -36.8335594736679], [175.135863339292, -36.8335518564575], [175.135874971754, -36.8335341608113], [175.135874237417, -36.8335329066757], [175.13587060722, -36.8335347793687], [175.135855744937, -36.8335472253449], [175.135822417012, -36.8335826916782], [175.135812175066, -36.8336035279763], [175.135803626439, -36.8336355001682], [175.135796533349, -36.8336844424831], [175.135795183505, -36.8337087467495], [175.135795729209, -36.8337123488976], [175.135796935971, -36.8337077079815], [175.135740191352, -36.8337300883591], [175.135728153889, -36.833735849217], [175.135715632094, -36.8337473964718], [175.135711747516, -36.833756158882], [175.135709567676, -36.8337786967812], [175.135705070862, -36.8337863300476], [175.135690831716, -36.8337947600749], [175.135675231058, -36.8337988192126], [175.135669337177, -36.8337981412438], [175.135663096263, -36.8337953536898], [175.135640504091, -36.8337774081343], [175.135630219727, -36.8337720810481], [175.135614772227, -36.8337707862016], [175.135575363223, -36.8337755340888], [175.135566684149, -36.8337745124649], [175.135560064281, -36.8337715364656], [175.135551734356, -36.8337641301213], [175.135545897705, -36.833755903986], [175.135543800881, -36.8337485187324], [175.135544118412, -36.8337396100028], [175.135551933407, -36.8337177664693], [175.135561162038, -36.8337082378976], [175.135591241401, -36.8336898690038], [175.135595855066, -36.8336848725983], [175.135597615211, -36.8336798385333], [175.135600967214, -36.833676192062], [175.135609095361, -36.8336755104334], [175.135620020895, -36.8336706519501], [175.135629967027, -36.8336633458277], [175.135635417329, -36.8336561168222], [175.135636967724, -36.833644839791], [175.135634327523, -36.8336360006726], [175.135631351979, -36.8336342840309], [175.135626473388, -36.8336339795161], [175.135602681696, -36.8336383737098], [175.135593424183, -36.8336386410449], [175.135583701669, -36.8336354500145], [175.135561888307, -36.8336235724513], [175.1355521845, -36.8336222125319], [175.13554563056, -36.8336259734945], [175.135533050969, -36.8336412103188], [175.135526451687, -36.8336462274683], [175.135512014224, -36.8336489758996], [175.135470628507, -36.833647232374], [175.135450542497, -36.8336527268754], [175.135431037168, -36.8336638116735], [175.135411521602, -36.8336805229001], [175.135373538999, -36.8337210231262], [175.135356290979, -36.8337370625845], [175.135336318206, -36.833750558234], [175.135316067285, -36.8337582509975], [175.135297318114, -36.8337607269395], [175.135251111562, -36.8337617563662], [175.135230654757, -36.8337658783651], [175.135216055642, -36.8337730135515], [175.135178939205, -36.8337973099109], [175.13514805474, -36.8338083027064], [175.135074389289, -36.8338243126728], [175.135046421527, -36.8338352799989], [175.13501303231, -36.8338612470982], [175.134998056438, -36.8338680536827], [175.134983532395, -36.8338686837013], [175.134944244466, -36.8338635694028], [175.134920443779, -36.8338652918898], [175.134895977112, -36.8338701529499], [175.13487082936, -36.8338781552013], [175.134844961915, -36.833889310731], [175.134818500524, -36.8339035354057], [175.134791121715, -36.8339209749978], [175.134731931931, -36.8339666253613], [175.134703528958, -36.833992171247], [175.134680871084, -36.8340160134067], [175.13466311395, -36.8340390451268], [175.134650124216, -36.8340614658533], [175.134639224553, -36.834096887848], [175.134634114499, -36.8341081113112], [175.134624016324, -36.8341215324023], [175.134610361728, -36.8341345799287], [175.134593549429, -36.8341468690451], [175.134574231566, -36.8341579198135], [175.134553140529, -36.8341672954637], [175.134531352353, -36.8341744999548], [175.134509885536, -36.8341791986716], [175.134489610662, -36.8341812021726], [175.13446924058, -36.8341788285077], [175.134421541166, -36.8341658250683], [175.134402272355, -36.834165149679], [175.134390150392, -36.8341702831115], [175.13437949642, -36.8341813199346], [175.134353911181, -36.8342315371318], [175.134343837832, -36.8342466660793], [175.134333138577, -36.8342560793313], [175.134320967176, -36.8342607461204], [175.134285314142, -36.8342588002809], [175.134280261461, -36.8342594511166], [175.134277799727, -36.8342612915487], [175.134278387214, -36.8342658409229], [175.134288444674, -36.8342848439782], [175.134287738536, -36.8342915743062], [175.134284552296, -36.8342988898049], [175.134271356137, -36.8343140951253], [175.134251780018, -36.8343270450545], [175.134232202895, -36.8343333754804], [175.134219682574, -36.8343328113906], [175.134185851298, -36.8343255383723], [175.134170667815, -36.8343255091637], [175.134153524353, -36.8343279976903], [175.134079535901, -36.8343473107736], [175.134062160424, -36.8343485428402], [175.134046878672, -36.8343465771687], [175.134034888369, -36.8343421964855], [175.134008554254, -36.8343287860837], [175.133996167839, -36.8343248671855], [175.133971955567, -36.8343230238688], [175.133941517776, -36.8343255384672], [175.133926620533, -36.8343290875874], [175.133911316757, -36.834335741599], [175.133852001306, -36.8343753937591], [175.133837344598, -36.8343829381654], [175.133823333037, -36.8343877739641], [175.133790274089, -36.8343942709516], [175.133754517544, -36.8343976222837], [175.133732477237, -36.834396087635], [175.133677366162, -36.8343854099656], [175.133663118808, -36.834385189702], [175.133651252448, -36.8343876063364], [175.133633980163, -36.8343974740242], [175.133598196253, -36.8344291377071], [175.133572223681, -36.8344444492146], [175.133540219577, -36.8344582679431], [175.133429717498, -36.8344926783968], [175.133393336347, -36.8345059918397], [175.133362600729, -36.8345211483922], [175.133338020458, -36.8345383555105], [175.133311577213, -36.8345654436148], [175.133307903035, -36.8345683525694], [175.133306588477, -36.8345679007586], [175.133298962105, -36.8345846232143], [175.1332603211, -36.8346202463789], [175.13323482609, -36.834600027513], [175.133196283045, -36.8345231407549], [175.133198204604, -36.8345113128948], [175.133209541775, -36.8344830687851], [175.13321014505, -36.83447672065], [175.133208521498, -36.8344718016551], [175.13320429997, -36.834467853204], [175.133197140908, -36.8344647189077], [175.133158243773, -36.8344568933655], [175.133144231479, -36.8344512669887], [175.133132008529, -36.8344401219471], [175.133121932874, -36.8344245317987], [175.133113876414, -36.8344047573739], [175.133105339677, -36.8343746144837], [175.133103862037, -36.8343525449851], [175.133111639403, -36.8342982289265], [175.133110142996, -36.8342849830925], [175.133105506676, -36.8342739472007], [175.133093469568, -36.8342602819079], [175.133055383653, -36.8342291883616], [175.133039899988, -36.8342088397959], [175.133024741406, -36.8341800223457], [175.132986243689, -36.8340777114257], [175.132975907276, -36.8340545612918], [175.132969979919, -36.8340454272069], [175.132964304627, -36.8340402973913], [175.132958718133, -36.8340390274104], [175.132953123456, -36.8340416012399], [175.132945388757, -36.8340508605086], [175.132936691323, -36.8340670907252], [175.132913226194, -36.8341271378041], [175.13290573801, -36.8341604922216], [175.132902393129, -36.834225956685], [175.132899099288, -36.8342508898096], [175.132891209409, -36.8342747985438], [175.132878357631, -36.8342938120538], [175.132861968603, -36.8343075459883], [175.132815776891, -36.8343350585233], [175.132797640397, -36.8343490073729], [175.132780282002, -36.8343684810684], [175.132764390597, -36.8343920255065], [175.132749633303, -36.8344198428511], [175.132732009806, -36.8344594811608], [175.132725431156, -36.8344783906991], [175.132713591644, -36.8345238949635], [175.132704852001, -36.8345452279601], [175.132686711986, -36.8345752002595], [175.13266589766, -36.8346020809265], [175.132643164941, -36.8346249026578], [175.132618938389, -36.8346432538314], [175.13259745758, -36.8346540918381], [175.1325425932, -36.8346730194651], [175.132519863892, -36.8346834870875], [175.132501363602, -36.8346970307787], [175.132461955264, -36.8347342724582], [175.132450454063, -36.8347422828933], [175.132438978195, -36.8347479017938], [175.132412837904, -36.8347540729022], [175.132359949668, -36.8347577912424], [175.132339569477, -36.8347606839694], [175.132307282333, -36.8347706521397], [175.132230545364, -36.8348014620894], [175.132217188006, -36.8348046624106], [175.132211073883, -36.834802970753], [175.132211049725, -36.8347991224717], [175.132214594344, -36.8347929347464], [175.132255797191, -36.8347455495466], [175.132264833702, -36.8347323246245], [175.132269915137, -36.834721163849], [175.132276033947, -36.8346859181334], [175.132286488334, -36.8346720830925], [175.132321220899, -36.8346462160574], [175.132333115099, -36.8346332382567], [175.132340751563, -36.8346180732485], [175.132348454378, -36.8345962318107], [175.132356096606, -36.8345684901314], [175.132361063487, -36.8345412381748], [175.132363216551, -36.8345152505088], [175.132362528937, -36.8344909122441], [175.132359040745, -36.8344686474184], [175.132352783108, -36.8344484553737], [175.132343793811, -36.8344304561599], [175.132332109467, -36.8344147211592], [175.132301586612, -36.8343917313578], [175.132293300684, -36.8343814874857], [175.132289861551, -36.8343640806939], [175.132292630319, -36.8343451522468], [175.132297574485, -36.8343374592925], [175.132306905832, -36.8343307384425], [175.132361227982, -36.8343103477865], [175.132371967438, -36.8343044240905], [175.132379298595, -36.8342978782854], [175.132394112088, -36.8342745786526], [175.132401091564, -36.8342519035516], [175.132400831113, -36.8342429284762], [175.132398145544, -36.834233635763], [175.13238538689, -36.8342137884238], [175.132364764464, -36.8341934737385], [175.132321212827, -36.8341580685422], [175.132299636763, -36.834143871436], [175.132237672209, -36.8341131193196], [175.132223868704, -36.8341026331602], [175.132215097845, -36.8340915149087], [175.132210495624, -36.8340733434777], [175.132211375301, -36.8340213587886], [175.132210400357, -36.8340153475376], [175.132208057407, -36.8340138994575], [175.132200047183, -36.8340207176483], [175.132189036788, -36.834035951231], [175.13218021847, -36.8340522515589], [175.132175702433, -36.8340656147078], [175.132174558225, -36.8340807089321], [175.13217642968, -36.8340963820213], [175.132181097642, -36.834110904993], [175.13218819199, -36.8341231570801], [175.13219635785, -36.8341304062242], [175.13222030714, -36.8341447850041], [175.132227084234, -36.8341526191935], [175.132228666688, -36.8341630538681], [175.132226136532, -36.8341758682997], [175.132219819364, -36.8341892796032], [175.132211074061, -36.8342003116534], [175.132199864305, -36.8342090833152], [175.132186785722, -36.8342164172539], [175.13217544775, -36.8342203261868], [175.13216681768, -36.8342205555427], [175.132127422862, -36.8342241167209], [175.132116519793, -36.8342400870799], [175.132102076862, -36.8342561569778], [175.132084013145, -36.8342724250711], [175.132061962459, -36.8342892233139]]}, "properties": {"OBJECTID": 11978, "TRACKNAME": "Te Matuku Bay Esp Res DOC Section", "CONDITIONSOFUSE": null, "STATUS": "Closed Dieback", "WEBLINK": null, "VALIDATIONSTATE": 3, "created_user": "AC_owner", "last_edited_user": "AC_owner", "last_edited_date": 1789875254325, "created_date": 1789875254325, "PARK_SAPSITEID": null, "TRACK_ID": null, "KAURIDIEBACK_TRACK": null, "KAURIDIEBACK_MITIGATED": null, "SegmentID": null, "GlobalID": "0ca2c874-e87b-49fb-8cf0-98c6b88147b7", "Shape__Length": 3095.162613101154}}]}