{"type": "FeatureCollection", "features": [{"type": "Feature", "id": 7905, "geometry": {"type": "MultiLineString", "coordinates": [[[175.041921779027, -36.7929223381921], [175.041918779512, -36.792920035481], [175.041835565408, -36.7928731236482], [175.041830042902, -36.7928700044121], [175.041875270837, -36.7928176744871], [175.041896827417, -36.792751684311], [175.041941306688, -36.7926712454054], [175.041980087752, -36.7925955920677], [175.041983679362, -36.7925111730535], [175.041975986627, -36.7924410028902], [175.041980194313, -36.7923799983748], [175.041993801197, -36.7923184556836], [175.041994068934, -36.7923176921812], [175.042023553887, -36.7922573991007], [175.042144386246, -36.7921990801336], [175.04222431527, -36.7921367750077], [175.042237695963, -36.7921020465813], [175.042251576455, -36.7920660098776], [175.042284288993, -36.7919810861401], [175.042361670323, -36.7918933292926], [175.042372381678, -36.7917874142667], [175.042399511179, -36.7917119528285], [175.042416120195, -36.7916788660953], [175.042461464507, -36.7916312117596], [175.042481665155, -36.7915783345147], [175.042477721077, -36.7915371708792], [175.042470005838, -36.7914566702983], [175.042480001517, -36.7914016691129], [175.042505000386, -36.7913400036703], [175.042536663687, -36.7912216682475], [175.042550000546, -36.7911516686183], [175.042569610045, -36.791095062873], [175.042614465448, -36.7910286777145], [175.042698124402, -36.7909821027829], [175.042734037809, -36.7909235125243], [175.042755968699, -36.7908715762182], [175.04276005022, -36.7908058879203], [175.042761355614, -36.7907430567056], [175.042719999969, -36.7907183349166], [175.042711664593, -36.790614995852], [175.042746660127, -36.7905666620588], [175.042785000691, -36.7904349968176], [175.042858525537, -36.7903448967078], [175.042944027802, -36.7902731208173], [175.0430069828, -36.790229857717], [175.043069059889, -36.7901538001301], [175.043125312335, -36.7900778444035], [175.043175738989, -36.7900019887624], [175.043209069762, -36.7899404900468], [175.043253430663, -36.7898553658719], [175.043248782893, -36.789774266422], [175.043316837244, -36.7896753641002], [175.043396654847, -36.7895251398956], [175.043440922801, -36.7894513386224], [175.043499073044, -36.7894374414545], [175.043500277099, -36.7894371656895], [175.043500339202, -36.7894371411881], [175.043643085246, -36.7893533065434], [175.043646738647, -36.7893511635219], [175.043669317064, -36.7893413080664], [175.043691493428, -36.7893316307665], [175.043798333786, -36.7892849982267], [175.044117297992, -36.7890744874238], [175.044120116304, -36.7890719991216], [175.044120389173, -36.789071176941], [175.044143119426, -36.7890473484596], [175.044181448743, -36.7890673817985], [175.04422587523, -36.7890898159429], [175.044314397613, -36.789121694757], [175.044432076139, -36.789166057373], [175.044539558701, -36.7892170927485], [175.044645737535, -36.7892625830439], [175.044742562576, -36.7893035977567], [175.044800070916, -36.7893406422928], [175.044822683869, -36.7893538001082], [175.044870425475, -36.789381587564], [175.044886448248, -36.7893909136672], [175.044887696927, -36.7893918529897], [175.044919986771, -36.7894233185347], [175.044920035965, -36.789423356445], [175.044950838368, -36.7894424986979], [175.044981667219, -36.7894616657244], [175.045034998876, -36.7894849973247], [175.045079999147, -36.7894966668272], [175.045118333445, -36.7894949961965], [175.045131660917, -36.7894766641222], [175.045145000679, -36.7894583309338], [175.04515249542, -36.7894324993276], [175.045160000284, -36.7894066693495], [175.04514999613, -36.7893783302504], [175.045151663403, -36.7893533307449], [175.045153334013, -36.7893283302806], [175.045158339365, -36.7893074950994], [175.045163333754, -36.7892866691197], [175.045157502117, -36.7892500031405], [175.045151669367, -36.7892133371798], [175.045144170464, -36.7891833371334], [175.045136671567, -36.7891533370862], [175.045164174192, -36.7891833283439], [175.045191665902, -36.7892133296969], [175.045212493016, -36.7892299999214], [175.045233331293, -36.7892466681473], [175.045269880372, -36.7892414589851]], [[175.044527515673, -36.7925152314625], [175.044519995346, -36.7925266704307], [175.044484995132, -36.7925616645073], [175.044421671095, -36.7925950031919], [175.044378338161, -36.7926566624941], [175.044341668787, -36.7926866676324], [175.044303337947, -36.7927249969928], [175.044268338607, -36.7927749978186], [175.044220002339, -36.7928349945478], [175.044191667478, -36.7928533321805], [175.044170000747, -36.7928916625066], [175.044143320598, -36.7929513860133], [175.044091663399, -36.7929866672574], [175.044023337349, -36.793033331087], [175.043966666288, -36.793080000914], [175.043913339545, -36.7931183337806], [175.043866668429, -36.7931666622149], [175.043813332399, -36.793181667468], [175.043806664394, -36.7932166664293], [175.043779542729, -36.7932654834726], [175.043750479239, -36.793289980468], [175.043709999596, -36.7933399951208], [175.043681669128, -36.7933749986994], [175.043603334058, -36.7934316676397], [175.043520003119, -36.7934699977987], [175.043455836653, -36.7935083265968], [175.04339167148, -36.7935466643517], [175.043350028744, -36.7935610159742], [175.043292506666, -36.7935808311317], [175.043250562721, -36.7935952780273], [175.043193329439, -36.7936149980431], [175.043116993317, -36.7936383946722], [175.043062477591, -36.7936697993902], [175.042987161084, -36.7937170271048], [175.042926666604, -36.7937533312726], [175.042884998512, -36.7937783375673], [175.042836665577, -36.7938100036833], [175.042804994754, -36.793851666555], [175.042769994443, -36.7938666681606], [175.042724997627, -36.7938816675537], [175.042648338246, -36.7938866646691], [175.042614999738, -36.7938883289206], [175.042570004146, -36.7938600004106], [175.042508336612, -36.7938533301822], [175.042448334684, -36.7938400030673], [175.042390000043, -36.7938299983553], [175.042348333475, -36.7937966670789], [175.042316671114, -36.7937766673824], [175.042263332542, -36.7937599963144], [175.042240001359, -36.7937266628029], [175.042141661593, -36.7937349964023], [175.042086671416, -36.7937316695927], [175.04204832991, -36.7937016664225], [175.042005004339, -36.7936833369981], [175.041978332072, -36.7936283329076], [175.041958337384, -36.7935783308697], [175.041924993713, -36.7935433287746], [175.041876664119, -36.7934966641957], [175.041820000292, -36.7934466699707], [175.041778330379, -36.7933816637635], [175.041751664026, -36.7933399998221], [175.041730004358, -36.793276662591], [175.041728329459, -36.7932399989724], [175.041734995236, -36.7931883331055], [175.041756669609, -36.7931283337512], [175.041751664832, -36.7930700012073], [175.041764977659, -36.7930267511998], [175.041765007919, -36.7930266668582], [175.041775300273, -36.7929996580726], [175.041824117794, -36.7928795798486]], [[175.044527515673, -36.7925152314625], [175.044494165884, -36.792501018033], [175.044476660783, -36.7924538280706], [175.044453900186, -36.7924304699061], [175.044416435676, -36.7924097323158], [175.04439049728, -36.7923781241018], [175.044361149193, -36.7923085472996]], [[175.044843471136, -36.7919498017122], [175.044836095545, -36.7919676501366], [175.044813549262, -36.7920227411598], [175.044797136159, -36.7920628649838], [175.04477332834, -36.7920949978724], [175.044766660531, -36.7921350009607], [175.044753332015, -36.792173334904], [175.044703336658, -36.7922266663214], [175.044671679013, -36.792275929305], [175.04465778147, -36.7923193762457], [175.044630000645, -36.7923616621978], [175.044591669735, -36.792420000752], [175.044565005301, -36.7924583350718], [175.044527515673, -36.7925152314625]], [[175.045391514444, -36.7917281792968], [175.045339996835, -36.7917400029558], [175.045291665571, -36.7917916628983], [175.045225854037, -36.7918207212044], [175.045159999426, -36.7918483300064], [175.045113336412, -36.791865002938], [175.045068165127, -36.7918712724996], [175.045015003565, -36.7918699958013], [175.044972128713, -36.7918713010651], [175.044943329823, -36.7918833358745], [175.044908336109, -36.7919058278771], [175.044890002482, -36.7919166660019]], [[175.045391514444, -36.7917281792968], [175.045381670482, -36.7916050006446], [175.045368338732, -36.7915283283422], [175.045374996516, -36.7914799972813], [175.04538666641, -36.791451663006], [175.045415607764, -36.7913999904936], [175.045458113532, -36.7913547317863], [175.045423331647, -36.7913283304851], [175.045386666623, -36.7913250026813], [175.045328338582, -36.7913316636125], [175.045297610095, -36.7913358560443], [175.045291666469, -36.7913366658169], [175.045285612707, -36.7913388123253], [175.045240000642, -36.7913550012471], [175.045168338271, -36.7913833309568]], [[175.0466232764, -36.7906938004584], [175.046592973532, -36.7908161026756], [175.046592312861, -36.7908187747172], [175.046592210583, -36.7908205322311], [175.046584997023, -36.7909466623501], [175.04657957982, -36.7909603050013], [175.046572716507, -36.7909775931094], [175.046560840043, -36.7910074948261], [175.046556668075, -36.7910266627087], [175.046519995644, -36.7910533337074], [175.046481664165, -36.7911983329932], [175.046485001028, -36.7912266623407], [175.04646000059, -36.7912666674039], [175.046408337845, -36.7912866644008], [175.04637833089, -36.7913283329111], [175.046305831878, -36.7913725002115], [175.046198338876, -36.7914383297423], [175.046042491997, -36.7914633299984], [175.046001662091, -36.7914766653865], [175.045926666981, -36.7914833367188], [175.04585333319, -36.791524995343], [175.045749996772, -36.7915666690258], [175.045720833343, -36.7915658323642], [175.04569167101, -36.7915649947754], [175.045625005877, -36.7916116642772], [175.04552833051, -36.7916450023096], [175.045503327299, -36.7916799968382], [175.045470002967, -36.7917016644258], [175.045441670856, -36.79171666565], [175.045391514444, -36.7917281792968]], [[175.045269880372, -36.7892414589851], [175.045288326923, -36.789288329821], [175.045270004089, -36.7893316618853], [175.045275003848, -36.7893666675312], [175.04528167043, -36.7894249956748], [175.045283336614, -36.789481671204], [175.045308336996, -36.7895200029381], [175.045335000819, -36.7895749965316], [175.045340004555, -36.7896266691504], [175.04534667019, -36.7896699985846], [175.045328336132, -36.7897133317507], [175.045349997565, -36.7897766674002], [175.045353331707, -36.7898383309295], [175.045361669038, -36.7899016659473], [175.04537333683, -36.7899466686871], [175.045366671929, -36.7899966673051], [175.045373330417, -36.7900416642832], [175.045361662861, -36.7900849972378], [175.04534332978, -36.7901099968192], [175.045341668823, -36.7901483374219], [175.045338334478, -36.7902049980177], [175.045343328149, -36.7902566690015], [175.045331668542, -36.7903033366666], [175.045333327523, -36.7903533326947], [175.045324996805, -36.7903899953239], [175.045325002614, -36.7904566697088], [175.045330003596, -36.7905016618505], [175.045351662916, -36.7905733364554], [175.04535832948, -36.7906216690431], [175.045379998294, -36.7906683302944], [175.045401667677, -36.7907099973669], [175.045421670828, -36.7907733281684], [175.045433334813, -36.7908166635345], [175.045419998689, -36.7908600008605], [175.045418483336, -36.7908736439356], [175.045417563114, -36.7908819383076], [175.045416107672, -36.7908950530851], [175.045416085196, -36.7908957249484], [175.045419297799, -36.7909696682131], [175.045416113286, -36.7910148948995], [175.045410112391, -36.7910531181793], [175.045388724725, -36.7911071267324], [175.045334217697, -36.791169477027], [175.045303503622, -36.7912356496616], [175.045296871221, -36.7912617170024], [175.045291659319, -36.7912822042265], [175.04528993991, -36.7913259329636], [175.045288247778, -36.7913274933992]], [[175.045270992754, -36.7891387841075], [175.045273762523, -36.789149263778], [175.045271670431, -36.7891733305253], [175.045268626946, -36.789194615968], [175.045269880372, -36.7892414589851]]]}, "properties": {"OBJECTID": 7905, "TRACKNAME": "Te Toki Reserve loop", "CONDITIONSOFUSE": "Te Toki Reserve", "STATUS": "Open", "WEBLINK": "https://www.aucklandcouncil.govt.nz/en/parks-recreation/find-park-beach/park-detail/1054.html", "VALIDATIONSTATE": 3, "created_user": "AC_owner", "last_edited_user": "AC_owner", "last_edited_date": 1789875254325, "created_date": 1789875254325, "PARK_SAPSITEID": null, "TRACK_ID": null, "KAURIDIEBACK_TRACK": null, "KAURIDIEBACK_MITIGATED": null, "SegmentID": null, "GlobalID": "4d304d5e-483f-48df-86b3-800eb20fb6d8", "Shape__Length": 1718.7527954182476}}]}