{"type": "FeatureCollection", "features": [{"type": "Feature", "id": 6093, "geometry": {"type": "LineString", "coordinates": [[175.002366321354, -36.7903765658351], [175.002402685316, -36.7903871324803], [175.002403300203, -36.7903874637244], [175.002495467971, -36.7904681756698], [175.002495546786, -36.7904682329281], [175.002612034773, -36.7905379690317], [175.002612098228, -36.7905379959038], [175.002787947113, -36.7905859773683], [175.002788155813, -36.7905863316761], [175.002087795868, -36.7920473384007], [175.002087795914, -36.7920473402026], [175.002118850177, -36.7920916704594], [175.002986485327, -36.7933300922145], [175.002992040943, -36.7933388865126], [175.002948690914, -36.7933611321468], [175.002907412001, -36.7933922902534], [175.002884817256, -36.7934346037665], [175.002888265678, -36.7934827598455], [175.002915814796, -36.7935359692086], [175.002934676889, -36.7936652735105], [175.00293674283, -36.7936985991658], [175.002943209975, -36.793793554861], [175.00292599651, -36.7938691679278], [175.002925983402, -36.7938692240302], [175.002893154028, -36.7939950015888], [175.002893148779, -36.7939950151969], [175.002859762693, -36.7940563885825], [175.002787141325, -36.7940848434019], [175.002787136845, -36.7940848434774], [175.002688037426, -36.794006632605], [175.002662656303, -36.7940288458638], [175.002632017701, -36.7940647323268], [175.002631955609, -36.7940648009714], [175.00254748381, -36.794155094538], [175.002547385525, -36.7941551935356], [175.002465961728, -36.7942327442592], [175.002465986906, -36.7942327213022], [175.002465844236, -36.7942328372711], [175.002396183013, -36.7942847771976], [175.002292019986, -36.7943155781803], [175.001891375681, -36.794490255408], [175.001865849157, -36.7945070269912], [175.001851796401, -36.7945308636938], [175.001781689429, -36.7946091040027], [175.001781569256, -36.7946092231972], [175.001781522072, -36.794609261847], [175.001696385899, -36.7946741776998], [175.00159975155, -36.7947774704752], [175.00155293734, -36.7947982083425], [175.001552832023, -36.7947982524773], [175.001495986898, -36.794820946501], [175.001495832619, -36.7948210040785], [175.001386273504, -36.7948582232667], [175.001296905261, -36.7949785744017], [175.00129688139, -36.794978604547], [175.001296756992, -36.7949787337267], [175.001211992398, -36.7950572276411], [175.001211407392, -36.795078114703], [175.001153101363, -36.7951362837719], [175.001091131843, -36.7952271917351], [175.001034792089, -36.7952308637459], [175.001020552336, -36.7952474424868], [175.000957374508, -36.7952485057659], [175.000923202986, -36.795279943768], [175.000793496186, -36.7953266029945], [175.000793480597, -36.7953266068621], [175.000647108618, -36.7953399623863], [175.000542323681, -36.7953036007361], [175.000478039992, -36.7953001532479], [175.000477843392, -36.7953001349242], [175.000477803997, -36.7953001283765], [175.000367882639, -36.7952793060828], [175.000367869055, -36.7952793009034], [175.000260382121, -36.7952257404545], [175.000076129109, -36.7951716524494], [174.999983133285, -36.7952412960325], [174.999983128851, -36.7952412979098], [174.999639142564, -36.7952951943001], [174.999413448923, -36.7953398367486], [174.999254554851, -36.7953061991324], [174.99919127352, -36.7953027241774], [174.998957671251, -36.795302115595], [174.998957682454, -36.7953021154066], [174.998957484874, -36.7953021025048], [174.998516220918, -36.7952559787068], [174.998458192969, -36.7952814627258], [174.998223953053, -36.7952581673323], [174.998039075132, -36.7952667210341], [174.998039059426, -36.7952667203967], [174.997884921812, -36.7952420781773], [174.997796715603, -36.7952353917006], [174.997772521193, -36.7952167308576], [174.997613727089, -36.7950995831445], [174.997541856577, -36.7950645558698], [174.997541675772, -36.7950644552559], [174.997541610703, -36.7950644094806], [174.997424254187, -36.7949738887636], [174.997424210706, -36.7949738543427], [174.997268598878, -36.7948484912532], [174.997197894302, -36.7948316751384], [174.997153641917, -36.7948198333755], [174.997135913025, -36.794812648434], [174.997006384588, -36.7947475992974], [174.996843019682, -36.794541563582], [174.99683990983, -36.7944217945737], [174.996862140671, -36.7943725778738], [174.996865525587, -36.7943650842476], [174.996842701053, -36.7943554827824], [174.99667135236, -36.794233093431], [174.996661549482, -36.7942033018415], [174.996614163052, -36.7941169581597], [174.996529169173, -36.7940149627576], [174.99652910422, -36.7940148782231], [174.99652909143, -36.7940148604115], [174.996335104783, -36.7937149782191], [174.996335103569, -36.7937149746342], [174.99632776651, -36.7936497423312], [174.996358783181, -36.793496722081], [174.996325990061, -36.7934074049419], [174.996307352841, -36.7933850280768], [174.996274232782, -36.79337015089], [174.996250612533, -36.7933732703529], [174.99614543901, -36.7934521935056], [174.9961194661, -36.7934081503953], [174.996102327827, -36.7933131255001], [174.995971466353, -36.7934460370031], [174.996025864241, -36.7933221587186], [174.996011639579, -36.7931947807386], [174.996000168299, -36.7932015583472], [174.996000160505, -36.7932015602807], [174.99596526818, -36.7932022046195], [174.995965263676, -36.7932022037938], [174.995965261389, -36.7932022020296], [174.995965257982, -36.7932022002841], [174.995942038457, -36.7931534817372], [174.995917908047, -36.7930779110727], [174.995879772992, -36.7930691585951]]}, "properties": {"OBJECTID": 6093, "TRACKNAME": "Te Uri Karaka", "CONDITIONSOFUSE": "Te Uri Karaka Te Waera Reserve", "STATUS": "Open", "WEBLINK": "https://www.aucklandcouncil.govt.nz/en/parks-recreation/find-park-beach/park-detail/1364.html", "VALIDATIONSTATE": 3, "created_user": "AC_owner", "last_edited_user": "AC_owner", "last_edited_date": 1789875254325, "created_date": 1789875254325, "PARK_SAPSITEID": null, "TRACK_ID": null, "KAURIDIEBACK_TRACK": null, "KAURIDIEBACK_MITIGATED": null, "SegmentID": null, "GlobalID": "6259585e-ecb4-4569-9733-5886285bae63", "Shape__Length": 1366.4356910337635}}]}