{"type": "FeatureCollection", "features": [{"type": "Feature", "id": 3269, "geometry": {"type": "LineString", "coordinates": [[174.690960546133, -36.9229368390061], [174.690946631537, -36.922842120154], [174.690979466475, -36.9227230059384], [174.691255997097, -36.9215978432291], [174.691423227701, -36.9210732675193], [174.691545953279, -36.9206882677642], [174.691633112908, -36.9204068612876], [174.691638206953, -36.9203757554273], [174.691642874378, -36.920307051541], [174.691639913169, -36.9202497501687], [174.691621099538, -36.9201268403799], [174.691487901074, -36.9192567856139], [174.69148195431, -36.9191644373919], [174.691473778661, -36.919093149291], [174.691445121569, -36.918973327042], [174.691418913062, -36.9188261231028], [174.691410351026, -36.918771893943], [174.691356890567, -36.9184332808999], [174.691128450085, -36.9169055271725], [174.691006620765, -36.9161029193392], [174.690929996217, -36.9155981121636], [174.690920917232, -36.9155473785009], [174.690912598522, -36.915513281864], [174.690863747758, -36.9153730339698], [174.690859954602, -36.9153618932618], [174.690707076684, -36.9149113418388], [174.690496378635, -36.9142903665143], [174.690097403899, -36.9131264944605], [174.690059977949, -36.9130147463728], [174.690022552115, -36.9129029982686], [174.689978240191, -36.9127510759942], [174.689942876747, -36.9126180718123], [174.689882730442, -36.9123671095549], [174.689859136623, -36.9122414370723], [174.689847380233, -36.9122217675191], [174.689855230314, -36.9122206264899], [174.689727188085, -36.9114070634394], [174.689693594245, -36.9112331308748], [174.689668731085, -36.9111176075158], [174.689640045818, -36.9110308193617], [174.689594699146, -36.9109311175789], [174.689535239515, -36.910798167575], [174.689501285631, -36.9107224660758], [174.689458577159, -36.9106272451533], [174.689444084029, -36.9105772733585], [174.689426301535, -36.9105130259562], [174.689401228368, -36.9103879512365], [174.689435765783, -36.9103563427864]]}, "properties": {"OBJECTID": 3269, "TRACKNAME": "Te Whau Pathway", "CONDITIONSOFUSE": "SISTER RENE SHADBOLT PARK", "STATUS": "Open", "WEBLINK": null, "VALIDATIONSTATE": 3, "created_user": "AC_owner", "last_edited_user": "AC_owner", "last_edited_date": 1789875254325, "created_date": 1789875254325, "PARK_SAPSITEID": null, "TRACK_ID": null, "KAURIDIEBACK_TRACK": null, "KAURIDIEBACK_MITIGATED": null, "SegmentID": null, "GlobalID": "8f0acecd-0dd8-4f8c-a734-241b3296f997", "Shape__Length": 1425.9754343795034}}, {"type": "Feature", "id": 3272, "geometry": {"type": "LineString", "coordinates": [[174.657705057449, -36.8756762279304], [174.657683973166, -36.8756584418136], [174.657661035875, -36.8756377169881], [174.657638992883, -36.8756163739702], [174.657617871673, -36.8755944385162], [174.657597695223, -36.8755719355442], [174.657578488791, -36.8755488917428], [174.657560274273, -36.8755253338477], [174.657543072459, -36.8755012895114], [174.657526904143, -36.8754767863862], [174.657511787911, -36.8754518539579], [174.657497742332, -36.8754265208114], [174.657484781507, -36.8754008164949], [174.65747292292, -36.8753747714111], [174.657462179572, -36.875348416025], [174.657452563339, -36.8753217808174], [174.657444087239, -36.8752948971543], [174.657436759784, -36.8752677955633], [174.657430589545, -36.8752405092753], [174.657425583932, -36.8752130697346], [174.657421749234, -36.8751855084009], [174.657419089515, -36.8751578576665], [174.657417607737, -36.8751301508404], [174.657417305683, -36.8751024185438], [174.657417005609, -36.8750747258791], [174.657415528017, -36.8750470568511], [174.657412875874, -36.8750194447686], [174.657409052124, -36.8749919220391], [174.657404060797, -36.8749645192524], [174.65739790822, -36.8749372696702], [174.657390601808, -36.8749102047364], [174.657382148991, -36.8748833567958], [174.657372560508, -36.8748567554433], [174.657361847155, -36.8748304329766], [174.657350020792, -36.8748044189747], [174.657344327152, -36.8747927969984], [174.657337385954, -36.8747782170494], [174.657331078024, -36.8747634525021], [174.657325409379, -36.8747485222013], [174.657320388221, -36.8747334422571], [174.657316019443, -36.8747182315296], [174.657312310185, -36.874702908848], [174.657309263078, -36.8746874922026], [174.657306882997, -36.8746719995526], [174.657305172596, -36.8746564497895], [174.657304132301, -36.8746408627372], [174.657303765847, -36.8746252554695], [174.657304071399, -36.8746096469403], [174.657305050507, -36.8745940569578], [174.657306701317, -36.8745785035752], [174.657309020853, -36.8745630048608], [174.657310986091, -36.8745500087446], [174.657312427539, -36.874536967656], [174.657313344408, -36.8745238969289], [174.657313735849, -36.8745108091943], [174.657313601013, -36.8744977170829], [174.657312940232, -36.8744846359132], [174.657311754919, -36.8744715791858], [174.657310045347, -36.8744585595157], [174.65730781295, -36.8744455913048], [174.657305061365, -36.8744326871211], [174.657182009061, -36.8739068012684], [174.657180568557, -36.8738999494243], [174.657179421225, -36.8738930619438], [174.657178566118, -36.8738861469522], [174.657178006796, -36.8738792134134], [174.657177743395, -36.873872267635], [174.657177774988, -36.8738653186436], [174.657178102892, -36.8738583754342], [174.65717872612, -36.8738514443302], [174.657179642625, -36.8738445343737], [174.657180853723, -36.8738376545599], [174.657182357307, -36.8738308112275], [174.657249973838, -36.873547956517], [174.657254124791, -36.8735287934838]]}, "properties": {"OBJECTID": 3272, "TRACKNAME": "Te Whau Pathway", "CONDITIONSOFUSE": "MCLEOD PARK", "STATUS": "Open", "WEBLINK": null, "VALIDATIONSTATE": 3, "created_user": "AC_owner", "last_edited_user": "AC_owner", "last_edited_date": 1789875254325, "created_date": 1789875254325, "PARK_SAPSITEID": null, "TRACK_ID": null, "KAURIDIEBACK_TRACK": null, "KAURIDIEBACK_MITIGATED": null, "SegmentID": null, "GlobalID": "92ed43d4-204e-4b56-b0d5-a6fd5ef9ed8a", "Shape__Length": 248.0959900240331}}, {"type": "Feature", "id": 3274, "geometry": {"type": "MultiLineString", "coordinates": [[[174.671952137088, -36.8960593392972], [174.671950613363, -36.8960560599975], [174.671946940818, -36.8960472378914], [174.671943647731, -36.8960383194078], [174.671940738827, -36.8960293152965], [174.671938216584, -36.8960202363389], [174.671936085726, -36.8960110932847], [174.671934346489, -36.8960018969469], [174.671933003576, -36.895992657174], [174.67193205614, -36.8959833865971], [174.671931507745, -36.8959740941793], [174.67193135644, -36.8959647934685], [174.671931087116, -36.8959468946319], [174.671939320332, -36.895924646084], [174.671938894513, -36.8959051297228], [174.671936095459, -36.8958882498654], [174.671930739763, -36.8958655490153], [174.671917084205, -36.895833855032], [174.671903050842, -36.8958058817319], [174.671896366844, -36.8957888059767], [174.671888995559, -36.8957719138548], [174.671880944113, -36.895755223293], [174.671799729394, -36.8955857883909], [174.671790368242, -36.895565235038], [174.671781871582, -36.8955444414762], [174.671774248881, -36.895523430106], [174.671767509644, -36.8955022251303], [174.671761659991, -36.8954808498983], [174.671756708324, -36.8954593295297], [174.671741829948, -36.8953664834618], [174.67173372178, -36.8953275384339], [174.671723956951, -36.8952888384516], [174.671712545478, -36.8952504311452], [174.671699501791, -36.8952123604773], [174.671684840337, -36.8951746713116], [174.671668580032, -36.8951374075473], [174.671650737566, -36.8951006140167], [174.671556367742, -36.8949240018063], [174.67155082245, -36.8949141054882], [174.671544850882, -36.8949043711019], [174.671538457781, -36.8948948102981], [174.671531653498, -36.8948854346487], [174.671524443899, -36.8948762557885], [174.671516840438, -36.8948672843726], [174.671508850123, -36.8948585329211], [174.671500484387, -36.894850011188], [174.671475357395, -36.894824417561], [174.671451357806, -36.8947981347559], [174.671428515497, -36.8947711948016], [174.671406857017, -36.8947436315768], [174.671399161905, -36.894734675864], [174.671391836153, -36.8947255211633], [174.671384888991, -36.8947161790624], [174.671378327368, -36.8947066593785], [174.671372157089, -36.8946969710435], [174.671366387384, -36.8946871256452], [174.671361021834, -36.894677133048], [174.671356954628, -36.8946695044536], [174.671353217237, -36.8946617675632], [174.671349814365, -36.8946539322256], [174.671346750696, -36.8946460073884], [174.671344028669, -36.8946380020308], [174.671341651866, -36.8946299260173], [174.67133962387, -36.8946217892124], [174.67133794712, -36.8946136005952], [174.671336622955, -36.8946053700619], [174.671335652731, -36.8945971084095], [174.671335037767, -36.8945888246331], [174.671334779402, -36.8945805286286], [174.67133487785, -36.8945722303079], [174.671335332227, -36.8945639404997], [174.671336142708, -36.8945556673136], [174.671337308407, -36.8945474215784], [174.671338827298, -36.8945392132373], [174.671340698474, -36.8945310522181], [174.671342917643, -36.8945229475945], [174.671345485023, -36.8945149092783], [174.671348396341, -36.8945069472446], [174.671351647287, -36.894499069666], [174.671355234731, -36.8944912874028], [174.671359154383, -36.8944836095289], [174.67136340195, -36.8944760451181], [174.671367972001, -36.894468602359], [174.671372859122, -36.8944612903411], [174.671378056798, -36.8944541190711], [174.671383559558, -36.8944470949353], [174.671387815631, -36.8944417215881], [174.67139183576, -36.8944362325822], [174.671395614475, -36.8944306343041], [174.671399149687, -36.8944249339939], [174.671402435945, -36.8944191389392], [174.671405467759, -36.8944132546253], [174.671408244182, -36.8944072891778], [174.671410759763, -36.8944012498841], [174.671413011293, -36.8943951440003], [174.671414997808, -36.8943889787507], [174.6714167161, -36.8943827613913], [174.671418164101, -36.8943765000633], [174.671419338604, -36.8943702020227], [174.671420240907, -36.8943638753635], [174.671420867782, -36.8943575264403], [174.671421218324, -36.894351165181], [174.671421294894, -36.8943447969604], [174.671421094324, -36.8943384308364], [174.671420617892, -36.8943320740021], [174.671419865756, -36.8943257336659], [174.671418840356, -36.894319418807], [174.67141754185, -36.8943131366341], [174.671415971516, -36.8943068943398], [174.671414131775, -36.8943007000024], [174.671412025029, -36.8942945607987], [174.671409652556, -36.8942884839217], [174.671407019021, -36.8942824774177], [174.671395872418, -36.894259852606], [174.671385679044, -36.8942369403705], [174.671376450646, -36.8942137648825], [174.671368199052, -36.8941903539178], [174.671360931543, -36.894166732612], [174.671354657701, -36.8941429287724], [174.671349383706, -36.8941189684513], [174.671345116896, -36.8940948794875], [174.671341861226, -36.8940706888659], [174.671339619548, -36.8940464244886], [174.671338395797, -36.8940221124393], [174.671338190599, -36.8939977815524], [174.671339004545, -36.8939734588604], [174.6713408371, -36.8939491714111], [174.67135431873, -36.8938270938295], [174.67137180141, -36.8937053448273], [174.671391643408, -36.8936056412202], [174.671405124641, -36.8935556897479], [174.671420790825, -36.8935061518973], [174.671438620815, -36.8934570874542], [174.671458594647, -36.8934085588918], [174.67148068557, -36.8933606260746], [174.671504866831, -36.8933133488673], [174.671557047139, -36.8931787225296], [174.671558532305, -36.8931706678888], [174.671559672178, -36.8931625775459], [174.671560465813, -36.8931544596264], [174.671560912324, -36.8931463249589], [174.671561010807, -36.8931381834711], [174.671560761437, -36.8931300432727], [174.671560164451, -36.8931219151764], [174.671559220046, -36.8931138081931], [174.671557930661, -36.893105731302], [174.671556296533, -36.8930976953158], [174.671554320103, -36.8930897092139], [174.671552003809, -36.8930817819752], [174.671549350114, -36.8930739234801], [174.671546362578, -36.8930661426919], [174.671543043661, -36.8930584494908], [174.671539398009, -36.8930508510223], [174.671535430364, -36.8930433589371], [174.671531144229, -36.8930359794954], [174.671526546553, -36.8930287225142], [174.671521640896, -36.893021596957], [174.671516433046, -36.8930146108543], [174.671510931031, -36.8930077722055], [174.671505139536, -36.8930010899579], [174.67149906543, -36.8929945703243], [174.671492716763, -36.8929882222051], [174.671486100422, -36.892982052714], [174.671479225558, -36.8929760698343], [174.67147209792, -36.8929702797947], [174.671464727741, -36.8929646887605], [174.671234941741, -36.8927836350836], [174.67106148174, -36.8926417004504], [174.670937281842, -36.8925349716902], [174.670788716418, -36.892414195418], [174.67072999977, -36.8923658308901], [174.670723951413, -36.8923600751988], [174.670718139831, -36.8923541647501], [174.670712571872, -36.8923481048559], [174.670707252181, -36.8923419026616], [174.670702187606, -36.8923355634792], [174.670697382812, -36.8923290953551], [174.670692843566, -36.8923225054191], [174.670688574471, -36.8923157990146], [174.670684580212, -36.8923089850893], [174.670680864293, -36.8923020699034], [174.670677431376, -36.8922950615035], [174.670542482157, -36.8920647261383], [174.670536951329, -36.8920556831412], [174.670531047908, -36.892046793205], [174.670524775516, -36.8920380679964], [174.670518144427, -36.8920295154829], [174.670511159362, -36.8920211464143], [174.670503829494, -36.8920129696751], [174.670496164012, -36.8920049950509], [174.670488168724, -36.8919972314734], [174.670479855023, -36.8919896868945], [174.670471232062, -36.8919823692977], [174.670462307908, -36.8919752884842], [174.670453093958, -36.8919684524059], [174.670443600426, -36.8919618663272], [174.670433837643, -36.8919555409191], [174.670423816926, -36.8919494805289], [174.670413548549, -36.8919436931245], [174.670403045008, -36.8919381857408], [174.67039231764, -36.8919329636265], [174.670381377801, -36.8919280329312], [174.670370240192, -36.8919233988564], [174.670062556603, -36.8918017321276], [174.669857489349, -36.8917072292712], [174.669837418733, -36.8916968006376], [174.669817745079, -36.8916858950139], [174.669798487655, -36.8916745211428], [174.66977966128, -36.8916626896325]], [[174.672038723159, -36.8961638931593], [174.67203037882, -36.8961574415687], [174.672022316832, -36.8961507633697], [174.672014545223, -36.8961438665614], [174.672007073147, -36.8961367591271], [174.67200497382, -36.8961346164212]]]}, "properties": {"OBJECTID": 3274, "TRACKNAME": "Te Whau Pathway", "CONDITIONSOFUSE": "ARCHIBALD PARK", "STATUS": "Open", "WEBLINK": null, "VALIDATIONSTATE": 3, "created_user": "AC_owner", "last_edited_user": "AC_owner", "last_edited_date": 1789875254325, "created_date": 1789875254325, "PARK_SAPSITEID": null, "TRACK_ID": null, "KAURIDIEBACK_TRACK": null, "KAURIDIEBACK_MITIGATED": null, "SegmentID": null, "GlobalID": "7741b1ac-c84c-454b-8500-629081d8a649", "Shape__Length": 580.1207206594001}}, {"type": "Feature", "id": 3276, "geometry": {"type": "LineString", "coordinates": [[174.683392911956, -36.9009253662642], [174.683395257063, -36.900905728699], [174.683395002074, -36.9009005594736], [174.683394523993, -36.9008954015221], [174.683393821798, -36.9008902593655], [174.683392897891, -36.9008851401808], [174.68339175127, -36.9008800493902], [174.683390385477, -36.9008749950555], [174.683388800593, -36.9008699807811], [174.68338699904, -36.9008650146447], [174.68338498316, -36.9008601011199], [174.683382755376, -36.9008552482846], [174.683380318011, -36.900850459711], [174.683342171949, -36.9007747579426], [174.683340521684, -36.9007713138418], [174.683339016383, -36.9007678271259], [174.68333765949, -36.9007643013515], [174.683336453329, -36.900760740091], [174.683335396896, -36.9007571487669], [174.683334493616, -36.9007535300345], [174.683333744731, -36.9007498892845], [174.683333148056, -36.9007462292518], [174.683332708217, -36.9007425561802], [174.683332423029, -36.9007388728049], [174.683332293714, -36.9007351836152], [174.683332319269, -36.9007314940335], [174.683332501976, -36.90072780583], [174.68333283973, -36.9007241253441], [174.683333333734, -36.9007204561642], [174.683333981841, -36.9007168028273], [174.68333478413, -36.9007131689378], [174.68333573958, -36.9007095590168], [174.683336846044, -36.9007059776016], [174.683338104725, -36.9007024282805], [174.683339511212, -36.9006989147213], [174.683341066748, -36.9006954423145], [174.683342766904, -36.900692013827], [174.683344611778, -36.9006886337641], [174.683346598084, -36.9006853057778], [174.683348875757, -36.9006806811285], [174.68335095458, -36.9006759962027], [174.683352831326, -36.9006712573557], [174.683354506093, -36.9006664690929], [174.683355974533, -36.9006616377853], [174.683357236765, -36.9006567688394], [174.683358290663, -36.9006518676932], [174.683359134122, -36.9006469406863], [174.683359766139, -36.9006419932407], [174.683360187975, -36.9006370316482], [174.683360396382, -36.9006320613628], [174.683360393723, -36.9006270877592], [174.683360180929, -36.9006221531875], [174.683359758449, -36.9006172269955], [174.683359127523, -36.9006123145737], [174.683358289432, -36.9006074231148], [174.683357244275, -36.9006025571241], [174.683355993292, -36.9005977219921], [174.683354538886, -36.9005929248955], [174.683352881137, -36.9005881694386], [174.683351023568, -36.9005834627823], [174.683348966258, -36.9005788085307], [174.683346713874, -36.90057421473], [174.68334426872, -36.9005696840515], [174.683341632054, -36.9005652227866], [174.683338808485, -36.9005608362784], [174.683335800375, -36.9005565299013], [174.683332611189, -36.9005523081129], [174.683329245533, -36.9005481762561], [174.683325706852, -36.9005441378875], [174.683321896481, -36.9005400952568], [174.683317913422, -36.9005361614324], [174.68331376118, -36.900532342674], [174.683309445423, -36.9005286416052], [174.683304970779, -36.90052506447], [174.68316111909, -36.9004219372016], [174.683156691145, -36.9004183395692], [174.683152419904, -36.9004146207381], [174.683148312218, -36.9004107860194], [174.683144371532, -36.9004068389696], [174.683140602472, -36.9004027858327], [174.683137010727, -36.9003986301333], [174.683133599782, -36.9003943772304], [174.683130374223, -36.9003900315656], [174.683127337556, -36.9003855993987], [174.683124493263, -36.9003810860885], [174.683121844811, -36.9003764960927], [174.683119395684, -36.9003718347698], [174.683117148284, -36.9003671092969], [174.683115106056, -36.9003623232303], [174.683113271403, -36.9003574837469], [174.683111645564, -36.9003525962372], [174.683110230923, -36.9003476669768], [174.683109029822, -36.9003427004395], [174.683108042419, -36.9003377038336], [174.683036098553, -36.9000170066557], [174.683035210832, -36.9000126134414], [174.683034512284, -36.9000081977171], [174.683034005271, -36.9000037648573], [174.683033688811, -36.8999993211855], [174.683033564105, -36.8999948702899], [174.683033632432, -36.8999904193633], [174.683033891668, -36.8999859738439], [174.683034341891, -36.8999815373359], [174.683034983221, -36.8999771152458], [174.683035815816, -36.899972714782], [174.683036836389, -36.8999683395966], [174.6830380462, -36.8999639959811], [174.683039441963, -36.8999596875874], [174.683041021593, -36.899955421656], [174.683042785168, -36.8999512017911], [174.683044729441, -36.8999470334467], [174.683046852268, -36.8999429211601], [174.683049151543, -36.8999388712703], [174.683051622857, -36.8999348874455], [174.683054265187, -36.8999309742066], [174.683055962206, -36.8999286291884], [174.683057556098, -36.8999262387613], [174.683059045762, -36.8999238038423], [174.68306042795, -36.8999213298853], [174.683061701561, -36.8999188178075], [174.683062865572, -36.89991627213], [174.683063917777, -36.8999136946867], [174.683064858277, -36.8999110899831], [174.683065683745, -36.8999084598689], [174.68306639428, -36.8999058088495], [174.683066989921, -36.899903138727], [174.683067468524, -36.8999004540386], [174.68306783127, -36.8998977574716], [174.683068074873, -36.8998950526779], [174.683068201635, -36.899892342329], [174.683068210513, -36.8998896300449], [174.683068101588, -36.8998869194301], [174.683067873797, -36.8998842132035], [174.683067529482, -36.8998815158388], [174.68306706756, -36.899878829154], [174.683066489234, -36.8998761567374], [174.683065795705, -36.8998735021774], [174.683064985929, -36.8998708690942], [174.683064063331, -36.8998682601433], [174.68306302687, -36.8998656789449], [174.683061878848, -36.8998631281703], [174.683060621588, -36.8998606113921], [174.68305925515, -36.8998581313134], [174.683057781837, -36.8998556906057], [174.683056202869, -36.8998532937584], [174.683054520512, -36.8998509416408], [174.683052737107, -36.8998486387263], [174.683050854938, -36.8998463867854], [174.683048875206, -36.8998441894064], [174.683046802438, -36.8998420483279], [174.683044636714, -36.8998399671541], [174.683042382561, -36.8998379476236], [174.68304004118, -36.8998359933247], [174.683037617079, -36.899834105095], [174.683035111458, -36.8998322865227], [174.683032528845, -36.8998305393465], [174.683029871524, -36.8998288653367], [174.683027144042, -36.8998272671328], [174.68302434756, -36.8998257465212], [174.683021486586, -36.8998243043393], [174.683018565686, -36.8998229441277], [174.683015587125, -36.8998216667558], [174.683012554288, -36.899820473077], [174.683009471722, -36.8998193657307], [174.683006342812, -36.8998183455705], [174.683003170946, -36.8998174134497], [174.68299996177, -36.899816571091], [174.682996716428, -36.8998158193794], [174.682993441671, -36.8998151591208], [174.682990139762, -36.8998145911843], [174.682986814068, -36.8998141155223], [174.682983471359, -36.8998137338416], [174.682980112757, -36.8998134461262], [174.682976745015, -36.8998132531819], [174.682973370375, -36.8998131549767], [174.682969993305, -36.8998131505462], [174.682966618334, -36.8998132416288], [174.682963248787, -36.8998134263748], [174.682959890313, -36.8998137065067], [174.682934649586, -36.8998155270115], [174.682577864815, -36.8998355258], [174.682570678286, -36.8998364739642], [174.682563536361, -36.8998376134834], [174.68255644461, -36.899838942476], [174.68254941199, -36.8998404599139], [174.682542446333, -36.8998421647848], [174.682535555416, -36.899844053373], [174.682528745968, -36.8998461255834], [174.682522025785, -36.8998483786015], [174.68251540266, -36.8998508096127], [174.682508883246, -36.8998534149177], [174.682502475376, -36.8998561935039], [174.682496186826, -36.899859141656], [174.682490023126, -36.8998622556902], [174.682483990947, -36.899865532808], [174.682478098065, -36.8998689692939], [174.682436133437, -36.899899434383], [174.682395212151, -36.8999308031544], [174.682355363963, -36.8999630508513], [174.682316619793, -36.8999961545032], [174.682312890349, -36.8999993205816], [174.682309032972, -36.9000023848168], [174.682305050987, -36.9000053453587], [174.682300948784, -36.9000081976387], [174.68229672965, -36.9000109380046], [174.682292400296, -36.90001356546], [174.682287963969, -36.900016074551], [174.68228342628, -36.9000184651979], [174.682278792719, -36.900020731915], [174.682274067774, -36.9000228746387], [174.682269255853, -36.9000248897011], [174.682264363649, -36.9000267752047], [174.682259396713, -36.900028528367], [174.682254359531, -36.9000301491242], [174.682249257636, -36.9000316337928], [174.682244097737, -36.9000329813761], [174.682238884285, -36.9000341900087], [174.682222566079, -36.900036283297], [174.682206167258, -36.9000379252476], [174.68218970912, -36.9000391146576], [174.682173209615, -36.9000398512727], [174.682156687759, -36.9000401321195], [174.682140164887, -36.9000399577973], [174.68212365785, -36.9000393289687], [174.682107187984, -36.9000382462331], [174.68209077326, -36.9000367102371], [174.682074435055, -36.9000347233823], [174.682051585051, -36.9000323672463], [174.682028650752, -36.9000306189074], [174.68200565692, -36.9000294816201], [174.681982628236, -36.9000289550351], [174.681959590565, -36.90002904149], [174.681931019528, -36.900030743091], [174.681902529683, -36.9000331781348], [174.681874151302, -36.9000363452915], [174.681845914598, -36.900040240528], [174.681817847539, -36.900044859843], [174.681789979217, -36.9000501992193], [174.681672981124, -36.90006482068], [174.681341183449, -36.900087769058], [174.681296173476, -36.9000914869633], [174.681251341239, -36.9000964002287], [174.681206737104, -36.9001025027333], [174.681154689225, -36.9001111829739], [174.681102999557, -36.9001211515579], [174.681047110945, -36.9001306405374], [174.680984433536, -36.9001392079411], [174.680921413371, -36.9001459648454], [174.680833493132, -36.900152326848], [174.680745360595, -36.9001563789281], [174.680620794035, -36.9001616170446], [174.680597046682, -36.9001616366619], [174.680573311023, -36.9001610125458], [174.680549615164, -36.9001597470028], [174.680525986035, -36.9001578396518], [174.68050245064, -36.9001552937162], [174.680479034864, -36.9001521124353], [174.680374447576, -36.9001317217015], [174.680339832201, -36.900123310564], [174.680305519968, -36.9001141370936], [174.680271534578, -36.9001042072646], [174.68025668238, -36.9000996131682], [174.680242016217, -36.9000946486879], [174.680227549673, -36.9000893190398], [174.680213297431, -36.900083628523], [174.680199273133, -36.9000775850568], [174.680185491444, -36.9000711920391], [174.68017196376, -36.900064457421], [174.680158703685, -36.9000573873197], [174.680007648629, -36.8999679278652], [174.67972806304, -36.8998098535229], [174.679718656935, -36.8998048794908], [174.679709046598, -36.8998001625265], [174.679699243388, -36.8997957087786], [174.679689259763, -36.8997915234792], [174.679679104819, -36.8997876119075], [174.679668790975, -36.8997839774934], [174.679658330671, -36.8997806245676], [174.679647735226, -36.8997775574769], [174.67963701706, -36.8997747796509], [174.679626188573, -36.8997722936183], [174.679615261063, -36.8997701028247], [174.679604248054, -36.8997682097829], [174.679593161925, -36.8997666161206], [174.679582015077, -36.8997653243664], [174.679570819872, -36.899764335247], [174.679559589812, -36.8997636503739], [174.679548337258, -36.8997632704739], [174.679537074551, -36.8997631953724], [174.679525815193, -36.8997634266811], [174.67951457261, -36.8997639624077], [174.679503359161, -36.8997648032786], [174.679492187148, -36.8997659473173], [174.679372122778, -36.8997820475168], [174.679358131494, -36.8997837514804], [174.679344082375, -36.8997851209582], [174.679329989947, -36.8997861530406], [174.679315864327, -36.899786848486], [174.679301720042, -36.899787204385], [174.679289694059, -36.8997869192203], [174.679277662765, -36.8997869550098], [174.679265639623, -36.8997873115631], [174.679253638078, -36.8997879877889], [174.679241671592, -36.8997889834968], [174.679229751364, -36.8997902976271], [174.679217893082, -36.8997919290568], [174.679206109029, -36.8997938749082], [174.679194410402, -36.8997961341217], [174.679182812832, -36.899798702871], [174.678962825809, -36.8998526296809], [174.678949524297, -36.8998560048632], [174.678936373249, -36.8998597420624], [174.678923388232, -36.8998638347491], [174.678910582651, -36.8998682800298], [174.678897974338, -36.8998730722444], [174.678885574413, -36.8998782067291], [174.678873400651, -36.8998836751206], [174.67886146419, -36.8998894736561], [174.67884977944, -36.8998955940199], [174.678838361988, -36.8999020305836], [174.678827222857, -36.8999087741781], [174.678816375371, -36.8999158183057], [174.678805831694, -36.8999231546823], [174.678795605092, -36.8999307741072], [174.678785706627, -36.8999386692131], [174.678776148403, -36.8999468290131], [174.67876694034, -36.8999552452547], [174.678758094562, -36.8999639078519], [174.678749619827, -36.8999728067662], [174.678741527139, -36.8999819319272], [174.678733824133, -36.8999912733123], [174.678726521772, -36.9000008190491], [174.678719627673, -36.9000105582139], [174.678688519276, -36.9000573975094], [174.678659433454, -36.9001050671994], [174.678651890849, -36.9001177863721], [174.678644887912, -36.9001307034254], [174.678638435547, -36.9001438037836], [174.678632539028, -36.9001570720494], [174.678627207015, -36.9001704936789], [174.678622443642, -36.9001840523895], [174.678618256426, -36.900197732752], [174.678614648417, -36.9002115203019], [174.678611624832, -36.9002253969384], [174.678609188739, -36.900239349098], [174.67860734311, -36.9002533587118], [174.678606090997, -36.900267411315], [174.678605432003, -36.9002814888864], [174.678605366935, -36.9002955769929], [174.678605897663, -36.9003096584824], [174.67860702273, -36.9003237180526], [174.678608739516, -36.9003377386149], [174.678611048789, -36.9003517039341], [174.678613945725, -36.9003655987554], [174.678617426584, -36.900379406006], [174.678618703303, -36.9003829708267], [174.678619824742, -36.9003865684877], [174.678620789699, -36.9003901954005], [174.678621595834, -36.9003938470915], [174.678622243046, -36.9003975190553], [174.678623056942, -36.9004049058277], [174.678623227272, -36.9004123215245], [174.678623071659, -36.9004160273675], [174.678622276221, -36.9004234161517], [174.678621638423, -36.9004270891495], [174.678620841955, -36.9004307427572], [174.678619886679, -36.9004343706673], [174.678618774781, -36.9004379701448], [174.678617507283, -36.9004415366687], [174.678616085189, -36.9004450648165], [174.678614510684, -36.9004485518534], [174.678612785893, -36.9004519923413], [174.678610912961, -36.900455381743], [174.678608894073, -36.9004587173236], [174.678606731354, -36.9004619936451], [174.678604426989, -36.9004652079724], [174.678601985367, -36.9004683557368], [174.678599368089, -36.9004714771403]]}, "properties": {"OBJECTID": 3276, "TRACKNAME": "Te Whau Pathway", "CONDITIONSOFUSE": "KEN MAUNDER PARK", "STATUS": "Open", "WEBLINK": null, "VALIDATIONSTATE": 3, "created_user": "AC_owner", "last_edited_user": "AC_owner", "last_edited_date": 1789875254325, "created_date": 1789875254325, "PARK_SAPSITEID": null, "TRACK_ID": null, "KAURIDIEBACK_TRACK": null, "KAURIDIEBACK_MITIGATED": null, "SegmentID": null, "GlobalID": "4c8a7364-bd46-4c6f-be9c-76802fccc1f5", "Shape__Length": 601.1834176318963}}, {"type": "Feature", "id": 3280, "geometry": {"type": "LineString", "coordinates": [[174.657188051278, -36.873806991905], [174.657108886149, -36.8737962134685], [174.657058683309, -36.8737969136325], [174.65693988545, -36.8738187436279], [174.656824279036, -36.8738430509953], [174.656689792415, -36.8738650995132], [174.656526956603, -36.8738824991412], [174.656357682163, -36.8738924241275], [174.656106773036, -36.8739009647715], [174.656053539692, -36.8739067507389], [174.655944100304, -36.8739259273098], [174.655841425956, -36.8739677047395], [174.655726745249, -36.8740348648235], [174.655652309783, -36.8740762485709], [174.655520797292, -36.8740906892487], [174.655422347846, -36.8741828401141], [174.655421712763, -36.8742988444451], [174.655406350546, -36.8743141886414], [174.655407438844, -36.8743646061396], [174.655403557844, -36.8744756126061], [174.655391877916, -36.874516120925], [174.655376896546, -36.8745491110619], [174.655336704082, -36.8745774093573], [174.655305761838, -36.8745980136878], [174.655290453939, -36.8746158782046], [174.655284721645, -36.8746411743951], [174.655304292507, -36.8754024373758]]}, "properties": {"OBJECTID": 3280, "TRACKNAME": "Te Whau Pathway", "CONDITIONSOFUSE": "MCLEOD PARK", "STATUS": "Open", "WEBLINK": null, "VALIDATIONSTATE": 3, "created_user": "AC_owner", "last_edited_user": "AC_owner", "last_edited_date": 1789875254325, "created_date": 1789875254325, "PARK_SAPSITEID": null, "TRACK_ID": null, "KAURIDIEBACK_TRACK": null, "KAURIDIEBACK_MITIGATED": null, "SegmentID": null, "GlobalID": "1c25d765-0a53-450c-ac74-fde6b097c2e3", "Shape__Length": 308.19218640382286}}, {"type": "Feature", "id": 3281, "geometry": {"type": "MultiLineString", "coordinates": [[[174.678533451311, -36.9005121202794], [174.678551156953, -36.900505214515], [174.678555230817, -36.900503468719], [174.678559225881, -36.9005016095651], [174.678563138838, -36.900499639804], [174.678566962996, -36.9004975613331], [174.678570695048, -36.900495376903], [174.678574330566, -36.9004930892805], [174.678577864019, -36.9004907021491], [174.678581290938, -36.9004882164734], [174.678584608057, -36.9004856368061], [174.67858781205, -36.9004829649972], [174.678590896282, -36.9004802056469], [174.678593860814, -36.9004773614587], [174.678596698993, -36.9004744361318]], [[174.678599368089, -36.9004714771403], [174.678681874532, -36.900512734058], [174.678735498763, -36.90054672412], [174.678760373362, -36.9005849809589], [174.678795620936, -36.9006578390986], [174.678811223222, -36.90071167069], [174.678831798906, -36.9007731538444], [174.678856928495, -36.9008229902939], [174.678896220421, -36.900861043327], [174.678945293379, -36.9009066799532], [174.679169491963, -36.9010463628802], [174.679817554519, -36.9014425904329], [174.67987185805, -36.9015074568794], [174.679939648025, -36.9015296637052], [174.680257343027, -36.90154833565], [174.680517537161, -36.9015755412318], [174.680555730791, -36.9015634185307], [174.680574530152, -36.9015438483631], [174.680583718708, -36.9015244132704], [174.680612469742, -36.901520146005], [174.681416234781, -36.9015628230677], [174.681691925362, -36.9014199295278], [174.681934312868, -36.9012929497343], [174.682039278456, -36.9012567154963], [174.682087846189, -36.9012791932914], [174.682131946415, -36.9013171771391], [174.682185318444, -36.9013395859557], [174.682262636015, -36.9013577960431], [174.68235900783, -36.9013680134523], [174.682419394951, -36.9013714855202], [174.682468922518, -36.9013646827739], [174.682506445356, -36.90134349868], [174.682542090905, -36.9013167095404], [174.682548924059, -36.9012818801828], [174.682548948195, -36.9012297800907], [174.682549774695, -36.9010796073141], [174.682571294365, -36.900527199407], [174.682581005138, -36.9003011442121], [174.682403464937, -36.9001087423053], [174.682343881163, -36.900051087779], [174.682285177003, -36.9000175426597]], [[174.682915034263, -36.9000732499423], [174.682939602417, -36.9000424921568], [174.682979222141, -36.9000074659413], [174.683009014811, -36.8999847426508], [174.683041021593, -36.899955421656], [174.683035253691, -36.8999756845785]], [[174.678620841955, -36.9004307427572], [174.678619886679, -36.9004343706673], [174.678618774781, -36.9004379701448], [174.678617507283, -36.9004415366687], [174.678616085189, -36.9004450648165], [174.678614510684, -36.9004485518534], [174.678612785893, -36.9004519923413], [174.678610912961, -36.900455381743], [174.678608894073, -36.9004587173236], [174.678606731354, -36.9004619936451], [174.678604426989, -36.9004652079724]]]}, "properties": {"OBJECTID": 3281, "TRACKNAME": "Te Whau Pathway", "CONDITIONSOFUSE": "KEN MAUNDER PARK", "STATUS": "Open", "WEBLINK": null, "VALIDATIONSTATE": 3, "created_user": "AC_owner", "last_edited_user": "AC_owner", "last_edited_date": 1789875254325, "created_date": 1789875254325, "PARK_SAPSITEID": null, "TRACK_ID": null, "KAURIDIEBACK_TRACK": null, "KAURIDIEBACK_MITIGATED": null, "SegmentID": null, "GlobalID": "917db1ef-9d7e-4aae-bea4-07e12d0bf743", "Shape__Length": 607.8884749810809}}, {"type": "Feature", "id": 3282, "geometry": {"type": "MultiLineString", "coordinates": [[[174.669937063863, -36.8917439007458], [174.669770161474, -36.8920708514822], [174.669711311624, -36.8920424460355], [174.669641673687, -36.8920200383524], [174.669587098662, -36.8920208053933], [174.669503607492, -36.8920307489467], [174.669412711628, -36.8920349494332], [174.669336115824, -36.8920272556662], [174.668955053531, -36.8919098323033]], [[174.668101254193, -36.8908401950631], [174.668499030097, -36.890566634261], [174.668529071503, -36.8905584444692], [174.668560447897, -36.8905560622576], [174.668589533564, -36.8905595376504], [174.668617601209, -36.8905717650402], [174.668648318843, -36.8905946362199], [174.668755605288, -36.8906921634072], [174.668786175062, -36.8907082395327], [174.668822511093, -36.8907116130168], [174.668868389236, -36.8907090261013], [174.6690275387, -36.8906902846568], [174.669114502218, -36.8906871213048], [174.669154252572, -36.8906807373534], [174.669192689009, -36.8906695162685], [174.669227667422, -36.8906574928852]]]}, "properties": {"OBJECTID": 3282, "TRACKNAME": "Te Whau Pathway", "CONDITIONSOFUSE": "COBHAM RESERVE", "STATUS": "Open", "WEBLINK": null, "VALIDATIONSTATE": 3, "created_user": "AC_owner", "last_edited_user": "AC_owner", "last_edited_date": 1789875254325, "created_date": 1789875254325, "PARK_SAPSITEID": null, "TRACK_ID": null, "KAURIDIEBACK_TRACK": null, "KAURIDIEBACK_MITIGATED": null, "SegmentID": null, "GlobalID": "d5212d0b-a03d-488f-8051-5ab6c09d4ede", "Shape__Length": 235.0830315491315}}, {"type": "Feature", "id": 3283, "geometry": {"type": "LineString", "coordinates": [[174.669102115712, -36.8954628347048], [174.66912639792, -36.8954375621419], [174.669183567027, -36.8953544844066], [174.669962015102, -36.8956078195001], [174.67024058933, -36.8957136027308], [174.67034440786, -36.8957769653897], [174.670431894713, -36.8958031596658], [174.670525261937, -36.8958143132632], [174.670630934204, -36.8958203065562], [174.670749289658, -36.8958385870503], [174.670880928428, -36.8958965716671], [174.67103853944, -36.8959840507268], [174.671167354556, -36.8960630041057], [174.671264033488, -36.8961412872963], [174.671328921188, -36.8962268481424], [174.671377170933, -36.8962698180767], [174.671467913355, -36.8961949739306], [174.671544079932, -36.8961290797275], [174.671703162746, -36.8960221284517], [174.671748514932, -36.8959666403093], [174.671901566423, -36.8958020890096], [174.671903050842, -36.8958058817319], [174.671917084205, -36.895833855032], [174.671930739763, -36.8958655490153], [174.671936095459, -36.8958882498654], [174.671938894513, -36.8959051297228], [174.671939320332, -36.895924646084], [174.671931087116, -36.8959468946319], [174.67192324751, -36.8959608488182], [174.671900713994, -36.8959876918202], [174.671868449992, -36.8960226306951]]}, "properties": {"OBJECTID": 3283, "TRACKNAME": "Te Whau Pathway", "CONDITIONSOFUSE": "ARCHIBALD PARK", "STATUS": "Open", "WEBLINK": null, "VALIDATIONSTATE": 3, "created_user": "AC_owner", "last_edited_user": "AC_owner", "last_edited_date": 1789875254325, "created_date": 1789875254325, "PARK_SAPSITEID": null, "TRACK_ID": null, "KAURIDIEBACK_TRACK": null, "KAURIDIEBACK_MITIGATED": null, "SegmentID": null, "GlobalID": "f315de68-ec63-428a-88ed-f2ba8d4bced5", "Shape__Length": 336.6327413026571}}, {"type": "Feature", "id": 3284, "geometry": {"type": "LineString", "coordinates": [[174.652474316606, -36.8678532285809], [174.652990254752, -36.8683267955486], [174.653033627769, -36.868356238893], [174.653180706933, -36.8683522277034], [174.653291538044, -36.8683452811147], [174.65341564234, -36.8683300438238], [174.653536501923, -36.8683202560933], [174.653596669648, -36.8683032060739], [174.653646575907, -36.8682781929307], [174.653713175762, -36.8682475428984], [174.653770097607, -36.8682359416011], [174.653864176619, -36.8682319299028], [174.65391802742, -36.8682338826195], [174.65405584954, -36.868270583693]]}, "properties": {"OBJECTID": 3284, "TRACKNAME": "Te Whau Pathway", "CONDITIONSOFUSE": "TIROROA ESPLANADE", "STATUS": "Open", "WEBLINK": null, "VALIDATIONSTATE": 3, "created_user": "AC_owner", "last_edited_user": "AC_owner", "last_edited_date": 1789875254325, "created_date": 1789875254325, "PARK_SAPSITEID": null, "TRACK_ID": null, "KAURIDIEBACK_TRACK": null, "KAURIDIEBACK_MITIGATED": null, "SegmentID": null, "GlobalID": "86f75b18-2131-4e7e-8392-18f154f4976e", "Shape__Length": 169.1108172350095}}, {"type": "Feature", "id": 3287, "geometry": {"type": "LineString", "coordinates": [[174.690876683181, -36.9096532655005], [174.690936166785, -36.9096283139485], [174.691016207023, -36.9096271743966], [174.691141875282, -36.9096408783602], [174.691279311302, -36.9096314095594], [174.691421448134, -36.9096365322498]]}, "properties": {"OBJECTID": 3287, "TRACKNAME": "Te Whau Pathway", "CONDITIONSOFUSE": "OLYMPIC PARK", "STATUS": "Open", "WEBLINK": null, "VALIDATIONSTATE": 3, "created_user": "AC_owner", "last_edited_user": "AC_owner", "last_edited_date": 1789875254325, "created_date": 1789875254325, "PARK_SAPSITEID": null, "TRACK_ID": null, "KAURIDIEBACK_TRACK": null, "KAURIDIEBACK_MITIGATED": null, "SegmentID": null, "GlobalID": "a722dd64-7642-4ba7-a4d1-9ec0869b39be", "Shape__Length": 49.383115127267075}}, {"type": "Feature", "id": 3288, "geometry": {"type": "LineString", "coordinates": [[174.690876683181, -36.9096532655005], [174.690716582699, -36.9094952870686], [174.690663457822, -36.9094355305008], [174.69066205844, -36.9094348825227]]}, "properties": {"OBJECTID": 3288, "TRACKNAME": "Te Whau Pathway", "CONDITIONSOFUSE": "OLYMPIC PARK", "STATUS": "Open", "WEBLINK": null, "VALIDATIONSTATE": 3, "created_user": "AC_owner", "last_edited_user": "AC_owner", "last_edited_date": 1789875254325, "created_date": 1789875254325, "PARK_SAPSITEID": null, "TRACK_ID": null, "KAURIDIEBACK_TRACK": null, "KAURIDIEBACK_MITIGATED": null, "SegmentID": null, "GlobalID": "302f4a66-3ce5-49dd-8f8c-f2783a5f088f", "Shape__Length": 30.89209121138514}}, {"type": "Feature", "id": 3289, "geometry": {"type": "LineString", "coordinates": [[174.691421448134, -36.9096365322498], [174.691540665217, -36.9095450567294], [174.691695982813, -36.9094376782225], [174.691800756993, -36.909325522163], [174.691800152535, -36.9093317455553]]}, "properties": {"OBJECTID": 3289, "TRACKNAME": "Te Whau Pathway", "CONDITIONSOFUSE": "OLYMPIC PARK", "STATUS": "Open", "WEBLINK": null, "VALIDATIONSTATE": 3, "created_user": "AC_owner", "last_edited_user": "AC_owner", "last_edited_date": 1789875254325, "created_date": 1789875254325, "PARK_SAPSITEID": null, "TRACK_ID": null, "KAURIDIEBACK_TRACK": null, "KAURIDIEBACK_MITIGATED": null, "SegmentID": null, "GlobalID": "fbbe929c-6529-497b-ad1f-a26c0aa25a7c", "Shape__Length": 49.20534378036316}}, {"type": "Feature", "id": 3290, "geometry": {"type": "LineString", "coordinates": [[174.69066205844, -36.9094348825227], [174.690568291609, -36.9093915005196], [174.6904879178, -36.9093775163164], [174.690370261077, -36.9093747057769]]}, "properties": {"OBJECTID": 3290, "TRACKNAME": "Te Whau Pathway", "CONDITIONSOFUSE": "OLYMPIC PARK", "STATUS": "Open", "WEBLINK": null, "VALIDATIONSTATE": 3, "created_user": "AC_owner", "last_edited_user": "AC_owner", "last_edited_date": 1789875254325, "created_date": 1789875254325, "PARK_SAPSITEID": null, "TRACK_ID": null, "KAURIDIEBACK_TRACK": null, "KAURIDIEBACK_MITIGATED": null, "SegmentID": null, "GlobalID": "4cfb8c64-16db-42bc-906f-7f7740594fe4", "Shape__Length": 27.459340064121875}}, {"type": "Feature", "id": 3291, "geometry": {"type": "LineString", "coordinates": [[174.690370261077, -36.9093747057769], [174.690314741563, -36.9093464942001], [174.69025083839, -36.9093052494582], [174.690247440216, -36.9093041549106]]}, "properties": {"OBJECTID": 3291, "TRACKNAME": "Te Whau Pathway", "CONDITIONSOFUSE": "OLYMPIC PARK", "STATUS": "Open", "WEBLINK": null, "VALIDATIONSTATE": 3, "created_user": "AC_owner", "last_edited_user": "AC_owner", "last_edited_date": 1789875254325, "created_date": 1789875254325, "PARK_SAPSITEID": null, "TRACK_ID": null, "KAURIDIEBACK_TRACK": null, "KAURIDIEBACK_MITIGATED": null, "SegmentID": null, "GlobalID": "3db02999-e2da-4290-a53a-2cf79c4e3b1f", "Shape__Length": 13.486062619939394}}, {"type": "Feature", "id": 3292, "geometry": {"type": "LineString", "coordinates": [[174.690247440216, -36.9093041549106], [174.68994726029, -36.9092074548686]]}, "properties": {"OBJECTID": 3292, "TRACKNAME": "Te Whau Pathway", "CONDITIONSOFUSE": "OLYMPIC PARK", "STATUS": "Open", "WEBLINK": null, "VALIDATIONSTATE": 3, "created_user": "AC_owner", "last_edited_user": "AC_owner", "last_edited_date": 1789875254325, "created_date": 1789875254325, "PARK_SAPSITEID": null, "TRACK_ID": null, "KAURIDIEBACK_TRACK": null, "KAURIDIEBACK_MITIGATED": null, "SegmentID": null, "GlobalID": "ce0f02e5-5fff-4024-81ae-cd3f4af1d1f9", "Shape__Length": 28.8199671926016}}, {"type": "Feature", "id": 3293, "geometry": {"type": "LineString", "coordinates": [[174.691255254918, -36.9078689051394], [174.69134858285, -36.9078297556752], [174.691465867724, -36.9078091761185], [174.691607028306, -36.9078033837022], [174.691861600536, -36.9078148859361], [174.691966939251, -36.9078218868981], [174.692019298472, -36.9078353552454]]}, "properties": {"OBJECTID": 3293, "TRACKNAME": "Te Whau Pathway", "CONDITIONSOFUSE": "OLYMPIC PARK", "STATUS": "Open", "WEBLINK": null, "VALIDATIONSTATE": 3, "created_user": "AC_owner", "last_edited_user": "AC_owner", "last_edited_date": 1789875254325, "created_date": 1789875254325, "PARK_SAPSITEID": null, "TRACK_ID": null, "KAURIDIEBACK_TRACK": null, "KAURIDIEBACK_MITIGATED": null, "SegmentID": null, "GlobalID": "672f07bb-260f-458f-b4bd-a8f3b4b7f780", "Shape__Length": 69.71333326776038}}, {"type": "Feature", "id": 3294, "geometry": {"type": "LineString", "coordinates": [[174.692019298472, -36.9078353552454], [174.69205276569, -36.9079407515255], [174.692053851485, -36.9079899027008], [174.692061649972, -36.9081297265308], [174.692059364, -36.9082394385289], [174.692032869005, -36.9083192390141], [174.691527665107, -36.9093799800386], [174.691421448134, -36.9096365322498]]}, "properties": {"OBJECTID": 3294, "TRACKNAME": "Te Whau Pathway", "CONDITIONSOFUSE": "OLYMPIC PARK", "STATUS": "Open", "WEBLINK": null, "VALIDATIONSTATE": 3, "created_user": "AC_owner", "last_edited_user": "AC_owner", "last_edited_date": 1789875254325, "created_date": 1789875254325, "PARK_SAPSITEID": null, "TRACK_ID": null, "KAURIDIEBACK_TRACK": null, "KAURIDIEBACK_MITIGATED": null, "SegmentID": null, "GlobalID": "c041c2c5-f61e-487e-afb8-8d3aaf353b53", "Shape__Length": 210.41215964946394}}, {"type": "Feature", "id": 3295, "geometry": {"type": "LineString", "coordinates": [[174.692019298472, -36.9078353552454], [174.692048559787, -36.9078428828592], [174.692093634414, -36.9078720924086], [174.692147413927, -36.9079092539871], [174.69219086871, -36.9079659866543], [174.692219804897, -36.9080404870901], [174.692228706969, -36.9080931809573], [174.692241936758, -36.9081136008474], [174.692337119037, -36.9081892241663]]}, "properties": {"OBJECTID": 3295, "TRACKNAME": "Te Whau Pathway", "CONDITIONSOFUSE": "OLYMPIC PARK", "STATUS": "Open", "WEBLINK": null, "VALIDATIONSTATE": 3, "created_user": "AC_owner", "last_edited_user": "AC_owner", "last_edited_date": 1789875254325, "created_date": 1789875254325, "PARK_SAPSITEID": null, "TRACK_ID": null, "KAURIDIEBACK_TRACK": null, "KAURIDIEBACK_MITIGATED": null, "SegmentID": null, "GlobalID": "32d6ae5c-3b96-4a2c-972f-8621f465e8af", "Shape__Length": 50.65737451892649}}, {"type": "Feature", "id": 3297, "geometry": {"type": "MultiLineString", "coordinates": [[[174.683330298262, -36.9013774172915], [174.683338722877, -36.9013232458362], [174.683318227132, -36.901265623754], [174.68330245309, -36.9012040733774], [174.683296375723, -36.9011462469603], [174.683319217527, -36.9010918711929], [174.683341974486, -36.9010336352464], [174.683371239863, -36.9009868497276], [174.683396526989, -36.9009107104816], [174.68339454023, -36.9009004821935], [174.68339175127, -36.9008800493902], [174.683390385477, -36.9008749950555], [174.683388800593, -36.9008699807811], [174.68338699904, -36.9008650146447], [174.68338498316, -36.9008601011199], [174.683382755376, -36.9008552482846], [174.683380318011, -36.900850459711], [174.683342171949, -36.9007747579426], [174.683340521684, -36.9007713138418], [174.683339016383, -36.9007678271259], [174.68333765949, -36.9007643013515], [174.683336453329, -36.900760740091], [174.683335396896, -36.9007571487669], [174.683334493616, -36.9007535300345], [174.683333744731, -36.9007498892845], [174.683333148056, -36.9007462292518], [174.683332708217, -36.9007425561802], [174.683332423029, -36.9007388728049], [174.68333231175, -36.9007356980296], [174.683332293714, -36.9007351836152], [174.683332319269, -36.9007314940335], [174.683332501976, -36.90072780583], [174.68333283973, -36.9007241253441], [174.683333333734, -36.9007204561642], [174.683333981841, -36.9007168028273], [174.68333478413, -36.9007131689378], [174.68333573958, -36.9007095590168], [174.683336846044, -36.9007059776016], [174.683338104725, -36.9007024282805], [174.683339511212, -36.9006989147213], [174.683341066748, -36.9006954423145], [174.683342766904, -36.900692013827], [174.683344611778, -36.9006886337641], [174.683346598084, -36.9006853057778], [174.683347669217, -36.9006831300656], [174.683348875757, -36.9006806811285], [174.68335095458, -36.9006759962027], [174.683352831326, -36.9006712573557], [174.683354506093, -36.9006664690929], [174.683355974533, -36.9006616377853], [174.683357236765, -36.9006567688394], [174.683358290663, -36.9006518676932], [174.683359134122, -36.9006469406863], [174.683359766139, -36.9006419932407], [174.683360187975, -36.9006370316482], [174.683360396382, -36.9006320613628], [174.683360395961, -36.9006309184588], [174.683360393723, -36.9006270877592], [174.683360180929, -36.9006221531875], [174.683359758449, -36.9006172269955], [174.683359127523, -36.9006123145737], [174.683358289432, -36.9006074231148], [174.683357244275, -36.9006025571241], [174.683355993292, -36.9005977219921], [174.683354538886, -36.9005929248955], [174.683352881137, -36.9005881694386], [174.683352225134, -36.9005865085364], [174.683351023568, -36.9005834627823], [174.683348966258, -36.9005788085307], [174.683346713874, -36.90057421473], [174.68334426872, -36.9005696840515], [174.683341632054, -36.9005652227866], [174.683338808485, -36.9005608362784], [174.683335800375, -36.9005565299013], [174.683332611189, -36.9005523081129], [174.683329245533, -36.9005481762561], [174.683325706852, -36.9005441378875], [174.683321896481, -36.9005400952568], [174.683317913422, -36.9005361614324], [174.68331376118, -36.900532342674], [174.683309445423, -36.9005286416052], [174.683304970779, -36.90052506447], [174.683275639855, -36.9005040370415], [174.683267463709, -36.9004968258433], [174.683229548262, -36.9004709932827], [174.68316111909, -36.9004219372016], [174.683156691145, -36.9004183395692], [174.683152419904, -36.9004146207381], [174.683148312218, -36.9004107860194], [174.683144371532, -36.9004068389696], [174.683140602472, -36.9004027858327], [174.683137010727, -36.9003986301333], [174.683133599782, -36.9003943772304], [174.683130374223, -36.9003900315656], [174.683127337556, -36.9003855993987], [174.683124493263, -36.9003810860885], [174.683121844811, -36.9003764960927], [174.683119395684, -36.9003718347698], [174.683117148284, -36.9003671092969], [174.683115106056, -36.9003623232303], [174.683113823012, -36.9003589397209], [174.683113271403, -36.9003574837469], [174.683111645564, -36.9003525962372], [174.683110230923, -36.9003476669768], [174.683109029822, -36.9003427004395], [174.683108042419, -36.9003377038336], [174.683055876268, -36.9001051667557], [174.683051001824, -36.9000928395742], [174.68303451566, -36.9000172922775], [174.68303466077, -36.9000091330158], [174.683034512284, -36.9000081977171], [174.683034005271, -36.9000037648573], [174.683033688811, -36.8999993211855], [174.683033564105, -36.8999948702899], [174.683033632432, -36.8999904193633], [174.683033891668, -36.8999859738439], [174.683034341891, -36.8999815373359], [174.683041021593, -36.899955421656]], [[174.677090805609, -36.901072972026], [174.677135399179, -36.9010432738837], [174.677172041477, -36.9010224085495], [174.677206112859, -36.901008119696], [174.677246627915, -36.9009988270615], [174.677273842969, -36.9009959135861], [174.677290324074, -36.9009931453666], [174.677306909109, -36.9009908182397], [174.677310586818, -36.900990301211], [174.67731424106, -36.9009896862665], [174.677317867327, -36.9009889725685], [174.67732146115, -36.9009881610814], [174.677325019203, -36.900987253655], [174.677328538141, -36.9009862512378], [174.677332012353, -36.900985153909], [174.677335438533, -36.9009839644195], [174.677338814436, -36.9009826828008], [174.677342133351, -36.9009813100491], [174.677345394234, -36.9009798497846], [174.677437602752, -36.9009395435682], [174.677761622114, -36.9008131653118], [174.677823249026, -36.9007891283579], [174.678533451311, -36.9005121202794]]]}, "properties": {"OBJECTID": 3297, "TRACKNAME": "Te Whau Pathway", "CONDITIONSOFUSE": "KEN MAUNDER PARK", "STATUS": "Open", "WEBLINK": null, "VALIDATIONSTATE": 3, "created_user": "AC_owner", "last_edited_user": "AC_owner", "last_edited_date": 1789875254325, "created_date": 1789875254325, "PARK_SAPSITEID": null, "TRACK_ID": null, "KAURIDIEBACK_TRACK": null, "KAURIDIEBACK_MITIGATED": null, "SegmentID": null, "GlobalID": "f13ef47c-6051-477e-964d-c68474a25462", "Shape__Length": 313.6111517945617}}, {"type": "Feature", "id": 3300, "geometry": {"type": "LineString", "coordinates": [[174.65722583633, -36.8757138269364], [174.657225272493, -36.8756877360552], [174.657235407955, -36.8756556966174], [174.657252760918, -36.8756235565064], [174.657273471477, -36.8755797709179], [174.657311785514, -36.8755154403532], [174.657335415013, -36.8754397150696], [174.657361847163, -36.8753604642433], [174.65738730172, -36.8753463472736], [174.657458611376, -36.875338532865], [174.657452563339, -36.8753217808174], [174.657444087239, -36.8752948971543]]}, "properties": {"OBJECTID": 3300, "TRACKNAME": "Te Whau Pathway", "CONDITIONSOFUSE": "MCLEOD PARK", "STATUS": "Open", "WEBLINK": null, "VALIDATIONSTATE": 3, "created_user": "AC_owner", "last_edited_user": "AC_owner", "last_edited_date": 1789875254325, "created_date": 1789875254325, "PARK_SAPSITEID": null, "TRACK_ID": null, "KAURIDIEBACK_TRACK": null, "KAURIDIEBACK_MITIGATED": null, "SegmentID": null, "GlobalID": "d20d39df-237e-4ec5-a8b2-d4f42adb0bae", "Shape__Length": 55.513881980008925}}]}