{"type": "FeatureCollection", "features": [{"type": "Feature", "id": 11071, "geometry": {"type": "MultiLineString", "coordinates": [[[175.070424504332, -36.8047742281051], [175.070389247795, -36.8048518523454], [175.070389246747, -36.8048518550675], [175.070343865595, -36.8049248156145]], [[175.070343865595, -36.8049248156145], [175.070330738066, -36.804934083425], [175.070315814801, -36.8049386425438], [175.070300726954, -36.804943125212], [175.070192422613, -36.8049746939782], [175.070177431774, -36.8049789919766], [175.070144878523, -36.8049883231487], [175.07014244917, -36.8049885123657]], [[175.070438438893, -36.8046754907949], [175.070435140123, -36.804678106151], [175.070431843209, -36.8047566131682], [175.070431833049, -36.8047566521013], [175.070424504332, -36.8047742281051]]]}, "properties": {"OBJECTID": 11071, "TRACKNAME": "Tennis Court track", "CONDITIONSOFUSE": "Onetangi Sports Park (Rangihoua)", "STATUS": "Open", "WEBLINK": "https://www.aucklandcouncil.govt.nz/en/parks-recreation/find-park-beach/park-detail/120.html", "VALIDATIONSTATE": 3, "created_user": "AC_owner", "last_edited_user": "AC_owner", "last_edited_date": 1789875254325, "created_date": 1789875254325, "PARK_SAPSITEID": null, "TRACK_ID": null, "KAURIDIEBACK_TRACK": null, "KAURIDIEBACK_MITIGATED": null, "SegmentID": null, "GlobalID": "eefc787c-c0e8-4547-8146-1b0e18e62b27", "Shape__Length": 48.83864114013372}}]}