{"type": "FeatureCollection", "features": [{"type": "Feature", "id": 1479, "geometry": {"type": "LineString", "coordinates": [[175.018359284678, -36.8814619264369], [175.018407473571, -36.8815101024936], [175.018431755129, -36.8815417222295], [175.018472061044, -36.8815879321659], [175.018555596203, -36.8816618346178], [175.018578332287, -36.8817097491051], [175.018597766998, -36.8817686344687], [175.018583152797, -36.8818114333284], [175.018542620619, -36.8818759433561], [175.01853159016, -36.8818916512315], [175.018521878159, -36.8819033168901], [175.018502397387, -36.8819249186676], [175.018471791541, -36.8819582101078], [175.018446772962, -36.8819868099567], [175.018426888303, -36.8820199192129], [175.018404234733, -36.8820565275046], [175.018381920541, -36.8820787542407]]}, "properties": {"OBJECTID": 1479, "TRACKNAME": "The Beachlands-Maraetai Walkway", "CONDITIONSOFUSE": "Te Puru Park", "STATUS": "Open", "WEBLINK": "https://www.aucklandcouncil.govt.nz/en/parks-recreation/find-park-beach/park-detail/408.html", "VALIDATIONSTATE": 3, "created_user": "AC_owner", "last_edited_user": "AC_owner", "last_edited_date": 1789875254325, "created_date": 1789875254325, "PARK_SAPSITEID": null, "TRACK_ID": null, "KAURIDIEBACK_TRACK": null, "KAURIDIEBACK_MITIGATED": null, "SegmentID": null, "GlobalID": "3d2b3f64-e083-4d80-b10d-abd7e9e1b8ed", "Shape__Length": 80.49308320682098}}, {"type": "Feature", "id": 12169, "geometry": {"type": "LineString", "coordinates": [[175.021163427757, -36.8787015218937], [175.021235201867, -36.878727664262], [175.021508544677, -36.8788649791447], [175.021758352655, -36.8789914853236], [175.022167386676, -36.8791601114291], [175.022299116284, -36.8792176442782], [175.022422354799, -36.879129619618], [175.02246716422, -36.879065345529], [175.022583274192, -36.8790596327806], [175.022738146878, -36.8791130352013], [175.022890145023, -36.8792337325689], [175.023501836882, -36.8793279207349], [175.023990602561, -36.8793457454263], [175.024485805308, -36.879255116426], [175.024549211063, -36.8792584720465]]}, "properties": {"OBJECTID": 12169, "TRACKNAME": "The Beachlands-Maraetai Walkway", "CONDITIONSOFUSE": "Omana Regional Park", "STATUS": "Open", "WEBLINK": null, "VALIDATIONSTATE": 3, "created_user": "AC_owner", "last_edited_user": "AC_owner", "last_edited_date": 1789875254325, "created_date": 1789875254325, "PARK_SAPSITEID": null, "TRACK_ID": null, "KAURIDIEBACK_TRACK": null, "KAURIDIEBACK_MITIGATED": null, "SegmentID": null, "GlobalID": "e5c307b7-2f94-4f1e-b7c7-b26cd7fd91dc", "Shape__Length": 333.86635768587246}}, {"type": "Feature", "id": 12216, "geometry": {"type": "LineString", "coordinates": [[175.019250073828, -36.8807022825046], [175.019695463112, -36.8800792334032], [175.019680145027, -36.8799896221943], [175.019673447623, -36.8799542968201], [175.019673131554, -36.8799231351287], [175.019680596355, -36.8798900655812], [175.01969148699, -36.8798486277716], [175.019701150147, -36.8797993514665], [175.019709825126, -36.8797611148999], [175.019716480982, -36.8797250217115], [175.019720016342, -36.8796875935707], [175.019720906127, -36.8796515263128], [175.019719125479, -36.879620560769], [175.019716791653, -36.8795920201229], [175.019709335678, -36.8795606914061], [175.019695417187, -36.8795106172996], [175.019686475601, -36.8794799627773], [175.019684066666, -36.8794715675349], [175.019684054028, -36.8794715136716], [175.019674591972, -36.8794313231953], [175.019659333877, -36.8793721326431], [175.019647057793, -36.8793166858765], [175.01963700749, -36.8792639592548], [175.019633958818, -36.8792121140417], [175.019635117704, -36.8791513374823], [175.019638756231, -36.879099937385], [175.019646841928, -36.8790610528869], [175.019658462648, -36.87902603797], [175.019677682687, -36.8789950037945], [175.019697727276, -36.8789744017027], [175.019715374624, -36.8789596889228], [175.019745511757, -36.8789419724506], [175.019765377892, -36.8789309082698], [175.019835084438, -36.8788960413671], [175.019909505161, -36.878861256501], [175.019972006371, -36.8788297026492], [175.020031230203, -36.8788010796531], [175.020065858698, -36.8787846999706], [175.020095054602, -36.8787729101637], [175.020095631806, -36.8787726750225], [175.020129775362, -36.8787621620395], [175.020170014984, -36.8787526539819], [175.020207615711, -36.8787447590556], [175.020243637195, -36.8787382429298], [175.020272032336, -36.8787352363788], [175.020309151975, -36.8787295217432], [175.020369896771, -36.8787136649107], [175.020457670474, -36.8786897900092], [175.020573087089, -36.8786576981631], [175.020669816918, -36.8786280754794], [175.020740543662, -36.8786079342169], [175.020795841932, -36.8785919291688], [175.020831562881, -36.8785852954011], [175.020865256455, -36.8785830007356], [175.020899436928, -36.8785834296276], [175.020931066933, -36.8785839731016], [175.020958697045, -36.8785877842413], [175.021163427757, -36.8787015218937]]}, "properties": {"OBJECTID": 12216, "TRACKNAME": "The Beachlands-Maraetai Walkway", "CONDITIONSOFUSE": "Omana Regional Park", "STATUS": "Open", "WEBLINK": null, "VALIDATIONSTATE": 3, "created_user": "AC_owner", "last_edited_user": "AC_owner", "last_edited_date": 1789875254325, "created_date": 1789875254325, "PARK_SAPSITEID": null, "TRACK_ID": null, "KAURIDIEBACK_TRACK": null, "KAURIDIEBACK_MITIGATED": null, "SegmentID": null, "GlobalID": "9d38d558-e46c-4622-b2b3-2b5b21e47106", "Shape__Length": 349.3464834779447}}, {"type": "Feature", "id": 12232, "geometry": {"type": "LineString", "coordinates": [[175.018359284678, -36.8814619264369], [175.018327624611, -36.881417245985], [175.018293113557, -36.8813537677126], [175.018278516883, -36.8812953859387]]}, "properties": {"OBJECTID": 12232, "TRACKNAME": "The Beachlands-Maraetai Walkway", "CONDITIONSOFUSE": "Omana Regional Park", "STATUS": "Open", "WEBLINK": null, "VALIDATIONSTATE": 3, "created_user": "AC_owner", "last_edited_user": "AC_owner", "last_edited_date": 1789875254325, "created_date": 1789875254325, "PARK_SAPSITEID": null, "TRACK_ID": null, "KAURIDIEBACK_TRACK": null, "KAURIDIEBACK_MITIGATED": null, "SegmentID": null, "GlobalID": "d2117a52-c8b0-40d8-839d-8a3528a4d3c0", "Shape__Length": 20.000857837970376}}, {"type": "Feature", "id": 12259, "geometry": {"type": "LineString", "coordinates": [[175.018571179776, -36.8807768235364], [175.018488617734, -36.8808331608891], [175.018416535898, -36.8808908252896], [175.018399091098, -36.8809126177823], [175.018389913537, -36.8809373342342], [175.018387835174, -36.8809623717009], [175.018380590639, -36.8809774113627], [175.0183714804, -36.880995736429], [175.018358409975, -36.881005124762], [175.018343913507, -36.881015321457], [175.018334285339, -36.8810284638137], [175.018330885885, -36.8810438076762], [175.018318206741, -36.8810684844734], [175.018305538567, -36.8810931520698], [175.018300433766, -36.8811161679577], [175.018299101826, -36.8811375965406], [175.018307389106, -36.8811634403092], [175.018319891618, -36.8812044985611], [175.018320454707, -36.8812258859332], [175.01831187003, -36.8812611916315], [175.018303052019, -36.8812735721389], [175.018302641616, -36.8812720468963], [175.018278516883, -36.8812953859387]]}, "properties": {"OBJECTID": 12259, "TRACKNAME": "The Beachlands-Maraetai Walkway", "CONDITIONSOFUSE": "Omana Regional Park", "STATUS": "Open", "WEBLINK": null, "VALIDATIONSTATE": 3, "created_user": "AC_owner", "last_edited_user": "AC_owner", "last_edited_date": 1789875254325, "created_date": 1789875254325, "PARK_SAPSITEID": null, "TRACK_ID": null, "KAURIDIEBACK_TRACK": null, "KAURIDIEBACK_MITIGATED": null, "SegmentID": null, "GlobalID": "2620ec96-34e7-4d15-a691-ed18f2d2de0a", "Shape__Length": 67.97143631796487}}]}