{"type": "FeatureCollection", "features": [{"type": "Feature", "id": 506, "geometry": {"type": "LineString", "coordinates": [[174.36487931313, -36.3260393598737], [174.364949198391, -36.3259657852653], [174.364985459102, -36.3259175464141], [174.36500418512, -36.3258824231694], [174.365025256324, -36.3258111612176], [174.36502705455, -36.3257437306835], [174.365024265961, -36.3256691299759], [174.365016346133, -36.3256415345425], [174.364985004983, -36.3255504079086], [174.364970926339, -36.3255108446078], [174.36494029905, -36.3254606373694], [174.364906696782, -36.3254104631985], [174.364871606517, -36.3253603069128], [174.364673307068, -36.3251639527563], [174.364224293783, -36.3247302119292], [174.364159294428, -36.3246705726345], [174.36399124422, -36.3245085983718], [174.363860946829, -36.324372070583], [174.363797524154, -36.3243009112509], [174.363775757354, -36.3242752820858], [174.363762973315, -36.3242553008797], [174.363748211274, -36.3242238413067], [174.363734976367, -36.3241779867819], [174.363698073047, -36.324050753612], [174.363644070663, -36.323862330023], [174.363572839403, -36.3235671455156], [174.363538079155, -36.3234245177841], [174.363547232887, -36.3233323805944], [174.363544720925, -36.3232764433674], [174.363534937715, -36.3232442193019], [174.363522225888, -36.3232156453415], [174.363517806991, -36.323142073701], [174.363532596371, -36.3225503836366], [174.363517130993, -36.3223830049578], [174.363500475073, -36.3223273435761], [174.363471228304, -36.3222692863989], [174.363442025812, -36.3222137681466], [174.363374653989, -36.3221282201784], [174.363265842922, -36.3220050641162], [174.363233813807, -36.3219673496115], [174.363208014334, -36.3219270237001], [174.363168827209, -36.3218386155804], [174.363110203106, -36.3217148878181], [174.363068012459, -36.3216341295278], [174.363038854704, -36.321581149193], [174.362984560855, -36.3215259169807], [174.362942989282, -36.3214806938045], [174.362860731402, -36.3214410125605], [174.362769107641, -36.3214039765926], [174.362554407437, -36.3213251859609], [174.36233321293, -36.3212337744774], [174.362140513269, -36.3211572708416], [174.361976440764, -36.3211032892987], [174.361702057901, -36.3210200992681], [174.361443403634, -36.3209392679662], [174.361326733516, -36.3209050556298], [174.361257331368, -36.3208829974957], [174.361234757904, -36.3208477123707], [174.361199417319, -36.3207998790619], [174.361161027636, -36.3207571584457], [174.361053193049, -36.32068984151], [174.360847332789, -36.320577943394], [174.360745683075, -36.3205054777718], [174.360571364445, -36.3204033750967], [174.360448114021, -36.3203514652279], [174.360259128077, -36.3203079190351], [174.360041869252, -36.3202621557435], [174.359978874061, -36.3202476404626], [174.359801949854, -36.3201760305603], [174.359606029583, -36.3200944823392], [174.359476021574, -36.3200147216978], [174.359308199764, -36.3199252368391], [174.359228993446, -36.3198804412655], [174.359080783259, -36.3198364294431], [174.358948168769, -36.3197871630269], [174.358828056637, -36.3197352157774], [174.358761307779, -36.3196852002725], [174.3586725169, -36.3196303573292], [174.358625072805, -36.3196080489192]]}, "properties": {"OBJECTID": 506, "TRACKNAME": "Ti Tree Point Trail", "CONDITIONSOFUSE": "Atiu Regional Park", "STATUS": "Open", "WEBLINK": "https://www.aucklandcouncil.govt.nz/en/parks-recreation/find-park-beach/park-detail/205.html", "VALIDATIONSTATE": 3, "created_user": "AC_owner", "last_edited_user": "AC_owner", "last_edited_date": 1789875254325, "created_date": 1789875254325, "PARK_SAPSITEID": null, "TRACK_ID": null, "KAURIDIEBACK_TRACK": null, "KAURIDIEBACK_MITIGATED": null, "SegmentID": null, "GlobalID": "599eb4f6-79ab-458f-aa2a-1086ae44a9f3", "Shape__Length": 1009.3103399364308}}]}