{"type": "FeatureCollection", "features": [{"type": "Feature", "id": 671, "geometry": {"type": "LineString", "coordinates": [[174.8307986565, -36.6055766767423], [174.830581398449, -36.605676921404], [174.830535134999, -36.6057047724767], [174.83029167969, -36.6058233744081], [174.83002223371, -36.6058981178837], [174.829464427567, -36.6059942890665], [174.828918300636, -36.60612681084], [174.828660618383, -36.6062240130545], [174.828456496681, -36.6063831640264], [174.828443622203, -36.6063952056106], [174.828326429351, -36.6064892412959]]}, "properties": {"OBJECTID": 671, "TRACKNAME": "Tiri Tiri Track", "CONDITIONSOFUSE": "Shakespear Regional Park", "STATUS": "Open", "WEBLINK": "https://www.aucklandcouncil.govt.nz/en/parks-recreation/find-park-beach/park-detail/226.html", "VALIDATIONSTATE": 3, "created_user": "AC_owner", "last_edited_user": "AC_owner", "last_edited_date": 1789875254325, "created_date": 1789875254325, "PARK_SAPSITEID": null, "TRACK_ID": null, "KAURIDIEBACK_TRACK": null, "KAURIDIEBACK_MITIGATED": null, "SegmentID": null, "GlobalID": "34c027eb-a928-4587-9642-3adf29972982", "Shape__Length": 247.96401695497272}}, {"type": "Feature", "id": 1289, "geometry": {"type": "LineString", "coordinates": [[174.837369504579, -36.6105904452641], [174.837423199172, -36.610387152011], [174.837434183142, -36.6102441249147], [174.837361654702, -36.6100132316508], [174.837102576914, -36.6097081663901], [174.836784786109, -36.6094160029969], [174.836470911723, -36.6089928276721], [174.836416117869, -36.6085949884771], [174.836432127878, -36.6083625764393], [174.83633551143, -36.6081934549044], [174.836040441819, -36.6079901474676], [174.835958952923, -36.6079464341008], [174.835865171517, -36.607798739042], [174.835850178364, -36.6076284763823], [174.83583504883, -36.6074581166667], [174.835767159481, -36.6072976106746], [174.835539184418, -36.6070145154872], [174.835356732987, -36.606714313609], [174.834996154342, -36.6053903321396], [174.834905005873, -36.6050591131338], [174.83483143035, -36.6048990816646], [174.834699413097, -36.6047666486929], [174.834304195858, -36.6046607664328], [174.833890721308, -36.6047190957656], [174.833109580326, -36.6049810399756], [174.832372058689, -36.6053120200774], [174.831971870282, -36.6053494880951], [174.831579528413, -36.6054204642053], [174.831182851511, -36.6054769305304], [174.8307986565, -36.6055766767423]]}, "properties": {"OBJECTID": 1289, "TRACKNAME": "Tiri Tiri Track", "CONDITIONSOFUSE": "Shakespear Regional Park", "STATUS": "Open", "WEBLINK": "https://www.aucklandcouncil.govt.nz/en/parks-recreation/find-park-beach/park-detail/226.html", "VALIDATIONSTATE": 3, "created_user": "AC_owner", "last_edited_user": "AC_owner", "last_edited_date": 1789875254325, "created_date": 1789875254325, "PARK_SAPSITEID": null, "TRACK_ID": null, "KAURIDIEBACK_TRACK": null, "KAURIDIEBACK_MITIGATED": null, "SegmentID": null, "GlobalID": "ee6d6094-4a93-4e42-af7f-fa8c322f3a71", "Shape__Length": 1084.331318281675}}, {"type": "Feature", "id": 2213, "geometry": {"type": "LineString", "coordinates": [[174.828051841456, -36.6071397167787], [174.828057885978, -36.6071622844434], [174.828064359543, -36.6071855035233], [174.828071159655, -36.6072092944682], [174.828078238845, -36.6072335408282], [174.828085482799, -36.6072581361934], [174.828092810521, -36.6072829646284], [174.82810015304, -36.6073079460684], [174.828107406581, -36.6073329469007], [174.828114501961, -36.6073578780498], [174.828121347219, -36.6073826327627], [174.828127861994, -36.6074071221358], [174.828134055974, -36.6074312829246], [174.828139928732, -36.6074550971084], [174.828145456641, -36.6074785109676], [174.828150672588, -36.6075014969565], [174.828155553585, -36.607524028387], [174.828160121131, -36.6075460688743], [174.828164362773, -36.6075675645276], [174.828168278087, -36.6075884973259], [174.828171877609, -36.6076088400666], [174.828175160275, -36.6076285476976], [174.82817816089, -36.6076476737669], [174.82818086998, -36.6076662905296], [174.828183333098, -36.6076844333411], [174.82818555216, -36.6077021832956], [174.82818756197, -36.6077195939409], [174.82818937498, -36.6077367191682], [174.828191003855, -36.6077536218789], [174.828192483826, -36.6077703736418], [174.828193827131, -36.6077870193377], [174.8281950574, -36.6078036126861], [174.828196186233, -36.6078201715363], [174.828197236409, -36.6078367135661], [174.828198230279, -36.6078532384325], [174.828199179659, -36.6078697729953], [174.828200118075, -36.60788631674], [174.828201045954, -36.6079028876874], [174.828201985436, -36.6079194764841], [174.828202970686, -36.6079361096468], [174.828204013306, -36.6079528050248], [174.828205101695, -36.6079695447689], [174.828206247454, -36.6079863467284], [174.828207382676, -36.6080031758905], [174.828208484796, -36.6080200235879], [174.828209508684, -36.6080368724859], [174.828210431774, -36.6080537139169], [174.828211220113, -36.6080705303747], [174.828211817394, -36.6080873046961], [174.828212200627, -36.6081040101927], [174.82821232532, -36.608120656561], [174.828212179658, -36.6081372169413], [174.828211775456, -36.6081537181933], [174.828211146666, -36.6081701778234], [174.828210327031, -36.6081866043274], [174.828209351143, -36.608203042243], [174.828208252316, -36.6082194820452], [174.828207042578, -36.6082359596041], [174.828205778448, -36.6082525010934], [174.828204482492, -36.6082691151807], [174.828203188874, -36.6082858283826], [174.828201908986, -36.6083026495379], [174.828200664753, -36.608319560283], [174.828199409981, -36.6083364982308], [174.828198166386, -36.608353436007], [174.82819688841, -36.608370338256], [174.828195597131, -36.6083871505723], [174.828194246991, -36.6084038376001], [174.828192859707, -36.6084203719653], [174.828191389296, -36.6084367002912], [174.82818984587, -36.6084527773543], [174.828188217829, -36.6084685853052], [174.828186493995, -36.6084841243155], [174.828184718861, -36.6084993846887], [174.828182892853, -36.6085143844455], [174.828181005219, -36.6085291417785], [174.828179112054, -36.6085436648405], [174.828177191004, -36.6085579539744], [174.828175286988, -36.6085720175047], [174.828173378078, -36.6085858737951], [174.828171497804, -36.6085995223314], [174.828169668943, -36.6086129807911], [174.828167881382, -36.608626294398], [174.828166148, -36.608639535064], [174.828164458259, -36.6086527299917], [174.828162847389, -36.6086659507502], [174.828161305278, -36.6086792425629], [174.828159844592, -36.6086926683314], [174.828158488745, -36.6087062727647], [174.828157205487, -36.60872011044], [174.828156018445, -36.6087342350767], [174.828154951037, -36.6087486913839], [174.828153934928, -36.6087634263282], [174.828152969268, -36.6087784038678], [174.828151996473, -36.6087935527769], [174.828150981525, -36.6088088104971], [174.828149901009, -36.6088241323193], [174.82814870873, -36.6088394558565], [174.828147369883, -36.6088547275607], [174.828145860626, -36.608869884702], [174.828144124228, -36.6088848920962], [174.828142158772, -36.6088996686496], [174.82813994212, -36.6089142237155], [174.828137518976, -36.6089285566079], [174.828134877951, -36.6089426584878], [174.828132063963, -36.6089565376798], [174.828129065409, -36.6089701763343], [174.828125927209, -36.6089835827759], [174.828122637972, -36.6089967481655], [174.828119231441, -36.6090096809991], [174.828115718791, -36.6090223811052], [174.828112122162, -36.6090348391304], [174.828108431655, -36.6090471093086], [174.82810467026, -36.6090592183281], [174.828100828502, -36.6090712384437], [174.82809690702, -36.6090831966869], [174.828092918267, -36.6090951469485], [174.828088863305, -36.6091071342808], [174.828084743199, -36.6091192037357], [174.828080548049, -36.6091314095473], [174.828076312234, -36.6091437872428], [174.82807201404, -36.6091563641965], [174.828067654105, -36.6091691674396], [174.828063175697, -36.609182161788], [174.828058567213, -36.6091953293923], [174.828053795338, -36.6092086797773], [174.828048847831, -36.6092221680625], [174.828043702552, -36.6092358036012], [174.828038303408, -36.6092495782406], [174.82803263837, -36.6092634561103], [174.828026707438, -36.6092774372104], [174.828020454731, -36.6092915223983], [174.828013923465, -36.6093056479151], [174.828007158558, -36.609319822085], [174.828000170334, -36.6093340086949], [174.827993025852, -36.6093482067157], [174.827985723622, -36.6093623530746], [174.827978308351, -36.6093764470855], [174.827970835706, -36.6093904788805], [174.827963315587, -36.6094043942255], [174.827955792488, -36.6094181834241], [174.827948299725, -36.6094318369516], [174.827940826334, -36.6094453639897], [174.82793336199, -36.6094588007516], [174.827925907543, -36.6094721832791], [174.827918463207, -36.6094855205826], [174.827910996515, -36.6094988582286], [174.827903507681, -36.6095122052276], [174.827895986592, -36.6095256068032], [174.827888445274, -36.6095390988255], [174.827880850412, -36.6095526908195], [174.82787321382, -36.6095664096449], [174.827865513357, -36.6095802646551], [174.827857782128, -36.6095942373148], [174.827849997992, -36.6096083369774], [174.827842182877, -36.609622545279], [174.827834314642, -36.6096368715731], [174.827826415003, -36.6096512884854], [174.827818473207, -36.6096658142082], [174.827810511183, -36.6096804303777], [174.827802506365, -36.6096951283265], [174.827794492282, -36.60970990754], [174.827786435404, -36.6097247685328], [174.827778358085, -36.6097397109618], [174.827770248935, -36.6097547259882], [174.827762119344, -36.6097698224508], [174.827753957497, -36.6097849734899], [174.827745764244, -36.6098002151471], [174.827737549699, -36.6098155021989], [174.827729303749, -36.6098308798688], [174.827721025329, -36.6098463031047], [174.827712714866, -36.6098617899275], [174.827704394074, -36.6098773129629], [174.82769603975, -36.6098928365122], [174.827687662857, -36.6099083513935], [174.827679284259, -36.6099237941908], [174.827670892993, -36.6099391740862], [174.827662498746, -36.609954427835], [174.827654101731, -36.6099695644478], [174.827645711635, -36.6099845206802], [174.827637317283, -36.6099992967035], [174.827628939963, -36.6100138471228], [174.827620580314, -36.6100281989693], [174.827612261115, -36.610042369921], [174.827603983215, -36.6100563960195], [174.827595746402, -36.6100702682545], [174.827587596659, -36.6100840400026], [174.827579500243, -36.6100977027678], [174.827571491747, -36.6101113010878], [174.827563604913, -36.6101248434588], [174.827555795886, -36.6101383666083], [174.827548109159, -36.61015186084], [174.827540545371, -36.6101653531853], [174.827533103883, -36.6101788166129], [174.827525784695, -36.6101922511227], [174.827518565668, -36.6102056660683], [174.827511479692, -36.6102190339038], [174.827504515592, -36.6102323548009], [174.82749767358, -36.6102456377699], [174.827490953443, -36.6102588738006], [174.82748434358, -36.6102720450434], [174.827477866131, -36.610285142145], [174.827471487779, -36.6102981746304], [174.827465219064, -36.6103111152967], [174.827459059771, -36.6103239551335], [174.82745296541, -36.6103367038371], [174.827446946091, -36.610349316184], [174.827440979676, -36.6103618015274], [174.827435076702, -36.6103741326646], [174.82742921503, -36.6103863189491], [174.827423360493, -36.6103983338637], [174.827417557582, -36.6104101677124], [174.827411772983, -36.6104218300199], [174.827406017445, -36.6104333025939], [174.827400302146, -36.610444585263], [174.827394604945, -36.6104556873805], [174.827388981512, -36.6104665990787], [174.827383386929, -36.610477312033], [174.827377865901, -36.6104878255576], [174.827372396288, -36.610498149006], [174.827367000019, -36.6105082640142], [174.827361666341, -36.6105181887747], [174.827356395894, -36.6105279503187], [174.827351178563, -36.6105375938698], [174.827345993271, -36.6105471738333], [174.827340863223, -36.6105567259082], [174.827335744776, -36.6105662958324], [174.827330650169, -36.6105759284864], [174.827325558325, -36.6105856782757], [174.827320481059, -36.6105955720602], [174.827315375153, -36.6106056735985], [174.827310274562, -36.6106160003973], [174.827305156933, -36.6106265527993], [174.827300055157, -36.610637303259], [174.827294991162, -36.6106482334128], [174.827289964949, -36.6106593432605], [174.827284998019, -36.6106705964176], [174.827280123477, -36.610681974349], [174.827275318544, -36.6106934593767], [174.827270627502, -36.6107050327942], [174.827266072278, -36.6107166762377], [174.827261652021, -36.6107283536656], [174.827257366307, -36.6107400470569], [174.827253202684, -36.6107517025208], [174.827249193616, -36.6107632744906], [174.827245304087, -36.6107747004078], [174.827241556237, -36.610785970919], [174.827237926225, -36.6107970232943], [174.827234424163, -36.61080781231], [174.827231048989, -36.610818292914], [174.827227799853, -36.6108284290646], [174.82722465355, -36.6108381850631], [174.827221577403, -36.6108475974653], [174.827218527341, -36.6108566939884], [174.827215426619, -36.6108655389052], [174.827212231381, -36.6108741689432], [174.827208887019, -36.6108826390221], [174.827205338289, -36.6108909770301], [174.827201531008, -36.6108992559079], [174.827197409721, -36.6109074945335], [174.827192920031, -36.6109157568368], [174.827188029048, -36.6109240703634], [174.827182726657, -36.6109324803368], [174.827177013496, -36.6109410137882], [174.827170913195, -36.6109497244373], [174.827164437355, -36.6109586301334], [174.827157575861, -36.6109677761], [174.827150363308, -36.610977206875], [174.82714278873, -36.61098693164], [174.827134864793, -36.6109970132966], [174.827126602886, -36.6110074606838], [174.827118015247, -36.6110183186821], [174.827109067072, -36.6110295337432], [174.827099734943, -36.6110410611577], [174.827089995444, -36.6110528562164], [174.827079824946, -36.6110648651992], [174.827069199608, -36.6110770253761], [174.827058073871, -36.6110893013909], [174.827046446247, -36.6111016301704], [174.827034270967, -36.611113967348], [174.827021524614, -36.6111262682143], [174.827008194735, -36.611138478878], [174.826994271218, -36.6111506445624], [174.826979743521, -36.6111627924699], [174.826964601533, -36.6111749678239], [174.826948868669, -36.6111872153336], [174.826932534814, -36.6111995802221], [174.826915601032, -36.6112121075414], [174.826898045395, -36.6112248156549], [174.826879880353, -36.6112377584534], [174.826861096006, -36.6112509901708], [174.826841714918, -36.6112645194742], [174.826821836404, -36.6112782907584], [174.826801526034, -36.6112922399218], [174.826780927403, -36.6113062926527], [174.826760116834, -36.6113203666573], [174.826739204605, -36.6113343971489], [174.826718300994, -36.6113483193405], [174.826697504464, -36.6113620415854], [174.826676914331, -36.6113755082787], [174.826656651412, -36.6113886274311], [174.826636770527, -36.6114013531337], [174.826617272314, -36.6114137124181], [174.826598112706, -36.611425733001], [174.826579269562, -36.6114374242359], [174.82656067731, -36.6114488502241], [174.826542324987, -36.6114600201475], [174.826524169161, -36.6114709887542], [174.826506154163, -36.6114817659115], [174.826488281056, -36.6114923966718], [174.826470483629, -36.6115029181048], [174.826452728566, -36.6115133397351], [174.826435060573, -36.6115236608774], [174.826417502004, -36.6115338811889], [174.826400107679, -36.6115439547607], [174.826382888775, -36.6115538814217], [174.826365889999, -36.6115636604864], [174.826349143606, -36.6115732373783], [174.826332694515, -36.6115826204226], [174.826316564867, -36.6115918002662], [174.826300820873, -36.6116007398396], [174.826285451143, -36.6116094303037], [174.826270477606, -36.6116178532952], [174.826255899412, -36.6116259727725], [174.826241727312, -36.6116337705436], [174.826227949282, -36.6116412107381], [174.826214553718, -36.6116482755068], [174.826201573514, -36.6116549373044], [174.82618897429, -36.6116611606033], [174.826176789151, -36.6116669268689], [174.826164984143, -36.6116722185943], [174.82615356938, -36.6116769905563], [174.826142478864, -36.611681288835], [174.826131634785, -36.6116851326507], [174.826120981683, -36.611688540881], [174.826110430997, -36.6116915509382], [174.826099916303, -36.6116941908816], [174.826089348402, -36.6116964710923], [174.826078695037, -36.6116984461467], [174.826067844443, -36.6117001177581], [174.826056741586, -36.6117015228248], [174.826045320256, -36.6117026984162], [174.826033569278, -36.6117036447038], [174.826021489075, -36.6117043797082], [174.826009080072, -36.6117049214501], [174.825996320555, -36.6117052973034], [174.825983221488, -36.6117054980863], [174.825969761579, -36.6117055691934], [174.825955962969, -36.6117055012714], [174.825941792555, -36.6117053128552], [174.825927273113, -36.6117050216227], [174.825912405281, -36.6117046546052], [174.825897189061, -36.6117042118025], [174.825881681184, -36.6117037283996], [174.825865904004, -36.6117032040539], [174.82584989169, -36.6117026652826], [174.825833678408, -36.611702138603], [174.825817286511, -36.6117016236725], [174.825800739416, -36.6117011652004], [174.825784092581, -36.6117007443094], [174.825767369422, -36.611700405709], [174.825750581115, -36.611700149228], [174.825733772579, -36.6116999831914], [174.825716932213, -36.6116998897498], [174.825700070981, -36.6116998597214], [174.82568318867, -36.6116998840957], [174.825666318598, -36.6116999533485], [174.825649449588, -36.6117000676511], [174.825632603357, -36.6117001996297], [174.825615780116, -36.6117003582945], [174.825598990404, -36.6117005164432], [174.825582245612, -36.6117006829148], [174.825565523598, -36.6117008670623], [174.825548791045, -36.6117010784101], [174.8255320372, -36.6117013351502], [174.825515217994, -36.6117016649991], [174.825498322464, -36.6117020771384], [174.825481306114, -36.6117025812635], [174.825464169369, -36.6117031953954], [174.825446868373, -36.6117039562606], [174.825429380347, -36.6117048461809], [174.825411694965, -36.6117059013692], [174.825393845117, -36.6117070942802], [174.825375897441, -36.6117084058655], [174.825357885041, -36.6117098175905], [174.825339885303, -36.6117112922145], [174.825321920582, -36.611712829395], [174.82530407944, -36.6117143917204], [174.825286372419, -36.6117159519881], [174.82526887754, -36.6117174999891], [174.825251661229, -36.6117190076646], [174.825234734236, -36.6117204568226], [174.825218141693, -36.6117218647992], [174.825201861672, -36.6117232499578], [174.825185905349, -36.6117246121274], [174.825170284751, -36.6117259871785], [174.825155000091, -36.6117273841218], [174.82514005158, -36.6117288119677], [174.825125440068, -36.6117303067582], [174.825111165555, -36.6117318684933], [174.825097262421, -36.6117335327013], [174.825083685747, -36.6117352910567], [174.825070480027, -36.6117371338643], [174.825057611306, -36.6117390436171], [174.825045090336, -36.611741002123], [174.825032904879, -36.6117429645013], [174.825021054934, -36.611744930752], [174.825009528688, -36.6117468740151], [174.824998348069, -36.6117487759275], [174.824993102749, -36.6117496585023], [174.824987478697, -36.6117506009611], [174.824976942714, -36.6117523397632], [174.824966705741, -36.6117539568058], [174.824956767777, -36.6117554520889], [174.824947072301, -36.6117567994375], [174.824937607925, -36.6117579900123], [174.824928352295, -36.6117590241559], [174.824919248467, -36.6117598576721], [174.824910274299, -36.611760499914], [174.824901417977, -36.6117609240213], [174.824892623618, -36.6117611308504], [174.824883890585, -36.6117610933698], [174.82487516257, -36.6117607944147], [174.82486644021, -36.6117602610164], [174.824857689762, -36.6117594846782], [174.82484891144, -36.6117584744105], [174.824840094491, -36.6117572484052], [174.824831183244, -36.611755816529], [174.824822211017, -36.6117541692578], [174.824813145129, -36.6117523431467], [174.824803951627, -36.6117503206887], [174.824794631146, -36.6117481289149], [174.824785161334, -36.6117457681678], [174.824775530801, -36.611743229608], [174.824765750937, -36.6117405220748], [174.824755765859, -36.6117376464241], [174.824745609096, -36.6117346021422], [174.824735235729, -36.6117313809036], [174.824724645547, -36.6117279736976], [174.824713838974, -36.6117243985451], [174.82470278248, -36.6117206559597], [174.824691475428, -36.6117167189098], [174.824679929207, -36.6117125962348], [174.824668189162, -36.6117083142811], [174.8246563116, -36.6117038902135], [174.824644363581, -36.6116993230048], [174.824632412804, -36.6116946386593], [174.824620548893, -36.6116898448177], [174.824608806228, -36.6116849770084], [174.824597274011, -36.6116800248514], [174.824585997797, -36.6116750237038], [174.824575067, -36.6116699721962], [174.824564504823, -36.6116649060282], [174.824554299876, -36.6116598163604], [174.82454444162, -36.6116547303956], [174.824534874596, -36.6116496670106], [174.824525576238, -36.6116446175373], [174.824516513654, -36.6116396095207], [174.824507642135, -36.6116346436456], [174.824498929002, -36.6116297564673], [174.824490351689, -36.6116249393176], [174.824481876878, -36.6116202017207], [174.824473471888, -36.6116155802317], [174.824465124906, -36.6116110479907], [174.824456835932, -36.6116066049975], [174.824448605177, -36.6116022602627], [174.824440432218, -36.6115979957653], [174.8244322947, -36.6115938118479], [174.824424214978, -36.6115897081679], [174.824416181661, -36.6115856758861], [174.824408183574, -36.6115817151738], [174.824400220292, -36.61157780801], [174.824392314805, -36.6115739810838], [174.824384444759, -36.6115702347375], [174.824376655711, -36.6115666043282], [174.824368970438, -36.6115631075344], [174.824361401179, -36.6115597892372], [174.824353981676, -36.6115566579336], [174.824346723954, -36.6115537494943], [174.824339639403, -36.6115510727584], [174.824332785392, -36.6115486899433], [174.824326139143, -36.6115465833705], [174.82431973546, -36.6115448065892], [174.824313528999, -36.6115433332527], [174.824307452275, -36.6115421463671], [174.824301460582, -36.6115412466172], [174.824295497187, -36.6115405988169], [174.824289494605, -36.6115401859723], [174.824283419094, -36.6115399995864], [174.824277180816, -36.6115400230077], [174.824270756781, -36.611540229547], [174.824264068752, -36.6115406204024], [174.824257093526, -36.6115411598744], [174.824249876023, -36.6115418562888], [174.82424250523, -36.6115426902555], [174.824235025643, -36.6115436520794], [174.824227504322, -36.6115447407336], [174.824220052607, -36.6115459364856], [174.82421270403, -36.6115472388221], [174.824205536615, -36.6115486375346], [174.824198639562, -36.6115501222436], [174.824192057791, -36.6115517012748], [174.824185857512, -36.6115533375598], [174.824180028611, -36.6115550763218], [174.824174515416, -36.6115569274273], [174.824169295998, -36.6115589092393], [174.8241643265, -36.6115610584842], [174.824159573817, -36.6115633936964], [174.824154993666, -36.6115659335813], [174.824150541766, -36.6115686968444], [174.824146196399, -36.6115717108594], [174.82414190232, -36.6115750035133], [174.824137648563, -36.6115785839876], [174.824133401812, -36.6115824618063], [174.824129127898, -36.6115866104514], [174.824124816283, -36.6115910571254], [174.824120455365, -36.6115957839785], [174.824116000437, -36.6116007916954], [174.824111462464, -36.6116060710944], [174.824106818879, -36.6116116135074], [174.824102014013, -36.6116174288005], [174.824097069792, -36.6116234986104], [174.824091941724, -36.6116298326322], [174.824086695593, -36.6116363757765], [174.824081375046, -36.6116430823064], [174.824076035117, -36.6116499153245], [174.824070730415, -36.6116568199124], [174.82406550501, -36.6116637683544], [174.824060424265, -36.6116706875401], [174.824055532461, -36.6116775587642], [174.824050872819, -36.6116843182689], [174.824046522939, -36.6116909378251], [174.824042492725, -36.6116973631991], [174.824038804742, -36.6117036030591], [174.824035392567, -36.6117096854631], [174.824032256413, -36.6117156194218], [174.824029363598, -36.6117214414902], [174.824026691557, -36.6117271430001], [174.824024207821, -36.6117327695172], [174.824021878436, -36.6117383035341], [174.824019693498, -36.6117437992844], [174.824017608089, -36.6117492484424], [174.824015622846, -36.6117546780392], [174.824013726591, -36.6117600882461], [174.824011952855, -36.6117654785496], [174.824010279072, -36.6117708402816], [174.824008738986, -36.6117761819391], [174.824007354735, -36.6117814941694], [174.824006115358, -36.6117867861542], [174.824005042994, -36.6117920485407], [174.824004137643, -36.6117972813289], [174.824003444438, -36.6118025018552], [174.82400292921, -36.6118076836016], [174.824002604199, -36.6118128714492], [174.824002436511, -36.6118180929428], [174.824002426995, -36.6118233841241], [174.824002531581, -36.6118287727088], [174.824002728977, -36.6118343040915], [174.824003030572, -36.6118399871115], [174.824003392933, -36.611845876516], [174.824003794344, -36.6118519996785], [174.824004246829, -36.6118583924696], [174.824004683542, -36.6118650649265], [174.824005047537, -36.6118719728528], [174.824005293258, -36.6118790808911], [174.824005329594, -36.6118863183271], [174.824005077245, -36.6118936413065], [174.82400449002, -36.6119009874406], [174.824003477229, -36.6119083040359], [174.824001970753, -36.6119155470671], [174.823999879902, -36.6119226638404], [174.823997169237, -36.6119295737754], [174.823993771484, -36.6119362688882], [174.823989675255, -36.6119427403396], [174.823984925892, -36.6119490144763], [174.823979546174, -36.6119551089768], [174.823973581657, -36.6119610591984], [174.823967021376, -36.6119668743223], [174.823959910463, -36.6119725716851], [174.823952294261, -36.6119781776332], [174.823944173618, -36.6119837282086], [174.823935582279, -36.6119892319079], [174.82392656516, -36.6119946970573], [174.82391715728, -36.6120001862161], [174.823907437298, -36.6120057162075], [174.823897472913, -36.6120113130358], [174.823887309892, -36.6120170210688], [174.823877038498, -36.6120228749791], [174.823866703863, -36.6120288921033], [174.823856374321, -36.6120351254771], [174.823846106179, -36.6120415922659], [174.823835989489, -36.6120483181321], [174.823826047665, -36.6120553477857], [174.823816302211, -36.6120626448428], [174.823806763243, -36.61207016408], [174.823797440876, -36.6120778602742], [174.823788334262, -36.6120856973836], [174.823779442763, -36.612093648377], [174.823770765319, -36.6121016682022], [174.823762322797, -36.6121096934439], [174.823754114985, -36.6121177150919], [174.823746140397, -36.6121256700729], [174.823738398822, -36.6121335493767], [174.823730889834, -36.6121413349824], [174.823723591506, -36.6121490452531], [174.823716526614, -36.6121566978675], [174.823709650241, -36.6121642844997], [174.823702974411, -36.6121718410204], [174.82369648816, -36.612179376611], [174.823690169135, -36.612186891614], [174.823684017547, -36.6121943950396], [174.823678022646, -36.61220190508], [174.823672184643, -36.6122094307455], [174.823666447866, -36.6122169819022], [174.82366081274, -36.6122245765709], [174.823655223382, -36.6122322156072], [174.823649668826, -36.6122399081927], [174.823644127143, -36.6122476726903], [174.823638542663, -36.6122555189659], [174.823632904207, -36.6122634471909], [174.823627178883, -36.6122714849096], [174.823621321559, -36.6122796147856], [174.823615332872, -36.6122878638503], [174.823609212184, -36.6122962050722], [174.823602981, -36.6123046020674], [174.823596639109, -36.6123130458255], [174.823590230367, -36.6123214996203], [174.823583754352, -36.6123299454308], [174.823577243743, -36.6123383467021], [174.823570697905, -36.6123466764029], [174.82356688606, -36.6123514579269], [174.823564149731, -36.6123549069885], [174.82356211867, -36.612357443885], [174.82353168664, -36.6124078545779], [174.823512285234, -36.6124765744766], [174.823512308252, -36.6125449609822], [174.82358981774, -36.6126704438594]]}, "properties": {"OBJECTID": 2213, "TRACKNAME": "Tiri Tiri Track", "CONDITIONSOFUSE": "Shakespear Regional Park", "STATUS": "Open", "WEBLINK": "https://www.aucklandcouncil.govt.nz/en/parks-recreation/find-park-beach/park-detail/226.html", "VALIDATIONSTATE": 3, "created_user": "AC_owner", "last_edited_user": "AC_owner", "last_edited_date": 1789875254325, "created_date": 1789875254325, "PARK_SAPSITEID": null, "TRACK_ID": null, "KAURIDIEBACK_TRACK": null, "KAURIDIEBACK_MITIGATED": null, "SegmentID": null, "GlobalID": "b402bbb0-7bbe-48d5-b539-74bf2dd59a18", "Shape__Length": 893.6136905782588}}, {"type": "Feature", "id": 2434, "geometry": {"type": "LineString", "coordinates": [[174.832367174665, -36.6138343133112], [174.832644326277, -36.6138011069529], [174.832926508446, -36.6138283223249], [174.833483158302, -36.6139247653397], [174.833759412941, -36.6139820945006], [174.834011269592, -36.6140875080064], [174.834363389042, -36.6144459141324], [174.834378022402, -36.614462787728], [174.834390948396, -36.6144788583559], [174.834404051743, -36.6144934480091], [174.834417245163, -36.6145066481686], [174.834430431264, -36.6145185955391], [174.834443499983, -36.6145293639249], [174.83445638746, -36.6145390895145], [174.834468950955, -36.6145478826701], [174.834481103613, -36.6145558528935], [174.834492758794, -36.6145631186969], [174.834503920553, -36.6145698512776], [174.834514657874, -36.6145761306963], [174.834525050064, -36.6145820008004], [174.834535120116, -36.6145874882767], [174.834544902203, -36.6145926196402], [174.834554430924, -36.6145974394262], [174.834563751412, -36.6146019649673], [174.834572875486, -36.6146062231225], [174.834581837317, -36.6146102404065], [174.834590682681, -36.6146140611827], [174.834599479708, -36.6146177294703], [174.834608306636, -36.6146212440644], [174.834617196784, -36.6146245954381], [174.834626206251, -36.6146277917411], [174.834635368139, -36.6146308144362], [174.834644715768, -36.6146336539966], [174.834654293417, -36.6146362917129], [174.834664123442, -36.6146387272407], [174.834674227981, -36.6146409512254], [174.834684662495, -36.6146429447854], [174.834695393664, -36.6146447174474], [174.834706387744, -36.6146462607174], [174.834717600241, -36.6146475842943], [174.834728986445, -36.6146486888667], [174.834740513041, -36.6146495839612], [174.834752135531, -36.6146502792769], [174.834763820814, -36.614650793351], [174.834775523752, -36.6146511088512], [174.834787210816, -36.6146512262941], [174.834798837936, -36.6146511733993], [174.834810393723, -36.6146509413288], [174.834821878177, -36.6146505300824], [174.834833323974, -36.6146499031023], [174.834844754323, -36.6146490960857], [174.834856179546, -36.6146480728189], [174.834867633174, -36.6146468327854], [174.834879114994, -36.6146453669747], [174.834890658323, -36.6146436658602], [174.834902285729, -36.6146417381078], [174.834913985821, -36.6146395748791], [174.834925769349, -36.6146371579814], [174.834937626203, -36.6146345326387], [174.834949489108, -36.6146316908735], [174.834961370308, -36.6146286775656], [174.834973214346, -36.6146255115966], [174.834985032397, -36.6146221927943], [174.834996758469, -36.6146187672437], [174.835008370205, -36.6146152352892], [174.835019868248, -36.6146116239619], [174.83503119714, -36.6146079521435], [174.83504236827, -36.6146042286723], [174.835053381425, -36.6146004445379], [174.835064258747, -36.6145965903856], [174.835075000234, -36.6145926662155], [174.835085605673, -36.6145886630172], [174.835096108168, -36.6145845622535], [174.835106485365, -36.6145803642687], [174.835116770582, -36.614576059536], [174.835126952641, -36.6145716482275], [174.835137042079, -36.61456710314], [174.835147028359, -36.6145624514768], [174.835156911055, -36.6145576752171], [174.835166623744, -36.6145528024254], [174.83517616664, -36.614547842112], [174.835185495677, -36.6145428219967], [174.835194588499, -36.6145377424242], [174.8352034004, -36.6145326040831], [174.835211920842, -36.6145274341769], [174.835220116935, -36.6145222602534], [174.835227965685, -36.6145170556258], [174.835235412061, -36.6145118571967], [174.835242489595, -36.6145066644497], [174.835249209249, -36.6145014682021], [174.835255604768, -36.6144962769479], [174.835261686689, -36.6144910634838], [174.835267511111, -36.6144858359592], [174.835273088996, -36.6144805851915], [174.83527846484, -36.6144753014816], [174.835283638856, -36.61446999384], [174.835288699606, -36.6144646248475], [174.835293722979, -36.6144590941846], [174.835298728339, -36.6144532753616], [174.835303701732, -36.6144470514158], [174.835308552673, -36.6144403786729], [174.835312845831, -36.6144337595918], [174.835324490691, -36.6143953108467], [174.835326770105, -36.6143457248847], [174.835319246561, -36.6142391910642], [174.83531552657, -36.6140983106421], [174.8353265871, -36.6139800341222], [174.835323374363, -36.6138581917641], [174.835319259677, -36.6137020752989], [174.835288301028, -36.6136035641402], [174.835243689205, -36.6135243362398], [174.835227409352, -36.6134446087487], [174.835215857562, -36.6133648174283], [174.835236930097, -36.6132849561571], [174.835242025661, -36.6132805871477], [174.835323607301, -36.6132105469521], [174.835448102976, -36.6132122703456], [174.835682574711, -36.6133149286107], [174.83590560519, -36.613434401967], [174.836169030564, -36.6134726790735], [174.836300770902, -36.6134573892721], [174.836412333477, -36.6133993701159], [174.836482062206, -36.6133066982653], [174.836483923824, -36.6131985235656], [174.836418853436, -36.6127659151189], [174.836414462871, -36.6127278820209], [174.836407634128, -36.6124183046309], [174.836497777517, -36.6121200948153], [174.836720915833, -36.6118761248325], [174.83700750839, -36.6112872431293], [174.837026278694, -36.6110809011615], [174.837108366579, -36.6109498979125], [174.837353319877, -36.6105625632186]]}, "properties": {"OBJECTID": 2434, "TRACKNAME": "Tiri Tiri Track", "CONDITIONSOFUSE": "Shakespear Regional Park", "STATUS": "Open", "WEBLINK": "https://www.aucklandcouncil.govt.nz/en/parks-recreation/find-park-beach/park-detail/226.html", "VALIDATIONSTATE": 3, "created_user": "AC_owner", "last_edited_user": "AC_owner", "last_edited_date": 1789875254325, "created_date": 1789875254325, "PARK_SAPSITEID": null, "TRACK_ID": null, "KAURIDIEBACK_TRACK": null, "KAURIDIEBACK_MITIGATED": null, "SegmentID": null, "GlobalID": "0b5e7db7-ad85-4a9b-8bab-08160a643151", "Shape__Length": 887.8094916923616}}, {"type": "Feature", "id": 2641, "geometry": {"type": "LineString", "coordinates": [[174.829423857368, -36.6145394449321], [174.829481155062, -36.6145406291111], [174.82953330119, -36.6145409910138], [174.829580678325, -36.6145406329354], [174.829623690545, -36.6145396207849], [174.82966272085, -36.6145380748757], [174.829698206636, -36.6145360515893], [174.829730497161, -36.6145336627423], [174.829760018856, -36.6145309738963], [174.829787165687, -36.61452809618], [174.829812330769, -36.6145251046796], [174.829835885073, -36.6145220838346], [174.829858062467, -36.6145189939989], [174.829879064352, -36.6145158410931], [174.829899102451, -36.6145125948246], [174.829918388065, -36.6145092068795], [174.829937121955, -36.6145056561468], [174.829955516484, -36.6145019393645], [174.829973771775, -36.6144980083901], [174.829992099979, -36.6144938509509], [174.830010712394, -36.6144894187325], [174.830029754536, -36.614484718513], [174.830049215226, -36.6144797504638], [174.8300690059, -36.6144745520001], [174.830089059921, -36.6144691421728], [174.83010932183, -36.6144635398611], [174.830129692099, -36.6144577916625], [174.830150126445, -36.6144519162844], [174.8301705247, -36.6144459332933], [174.830190842582, -36.6144398613967], [174.830210991741, -36.6144337470206], [174.830230916503, -36.6144276000341], [174.830250605691, -36.6144214206089], [174.83027007091, -36.6144152265944], [174.830289311732, -36.6144089999697], [174.830308339123, -36.6144027315529], [174.830327142756, -36.6143964575575], [174.830345743921, -36.614390132588], [174.830364154648, -36.6143837925143], [174.830382352155, -36.6143774196594], [174.830400369975, -36.6143710135079], [174.830418230034, -36.6143645556959], [174.830436142141, -36.6143579348352], [174.830454349421, -36.6143510300123], [174.83047304965, -36.6143436939691], [174.830492508308, -36.6143358054482], [174.830512957129, -36.6143272346969], [174.830534605706, -36.6143178613161], [174.830557730054, -36.6143075368449], [174.830582528376, -36.6142961320451], [174.830609244007, -36.6142835350123], [174.830638141359, -36.6142695794356], [174.830669494527, -36.6142540357594], [174.830703643604, -36.6142366283449], [174.830740896215, -36.6142171271202], [174.83078154774, -36.6141952571325], [174.830825961262, -36.6141707694289], [174.830874421407, -36.6141434072478], [174.830927245906, -36.6141128952905], [174.830984753338, -36.6140789942991], [174.831047273033, -36.614041446822], [174.831165412855, -36.61397908599], [174.831322383098, -36.6138821735859], [174.831510605707, -36.6138779728761], [174.831768184489, -36.6141166785426], [174.831853333232, -36.6141551645571], [174.831949864632, -36.6141492453618], [174.832085015569, -36.614036082347], [174.832214289259, -36.6139145998197], [174.832378835078, -36.6138269797977]]}, "properties": {"OBJECTID": 2641, "TRACKNAME": "Tiri Tiri Track", "CONDITIONSOFUSE": "Shakespear Regional Park", "STATUS": "Open", "WEBLINK": "https://www.aucklandcouncil.govt.nz/en/parks-recreation/find-park-beach/park-detail/226.html", "VALIDATIONSTATE": 3, "created_user": "AC_owner", "last_edited_user": "AC_owner", "last_edited_date": 1789875254325, "created_date": 1789875254325, "PARK_SAPSITEID": null, "TRACK_ID": null, "KAURIDIEBACK_TRACK": null, "KAURIDIEBACK_MITIGATED": null, "SegmentID": null, "GlobalID": "a1218c3e-f5cf-4849-bc15-db4a46aef148", "Shape__Length": 311.40308471388494}}, {"type": "Feature", "id": 2785, "geometry": {"type": "LineString", "coordinates": [[174.828326429351, -36.6064892412959], [174.828320749402, -36.6064982159634], [174.828315262959, -36.6065068631681], [174.828309905308, -36.6065152830538], [174.828304578631, -36.6065235942996], [174.828299207249, -36.6065319062312], [174.828293704307, -36.6065403283458], [174.828288005091, -36.6065489607872], [174.828282109812, -36.6065578125658], [174.828276039759, -36.6065668382863], [174.828269838998, -36.6065760102316], [174.828263540842, -36.6065853188764], [174.828257155192, -36.6065947099869], [174.828250714725, -36.6066041470067], [174.828244252755, -36.6066136204109], [174.828237813135, -36.6066230934717], [174.828231395441, -36.6066325481684], [174.828225031922, -36.6066419299239], [174.828218723431, -36.6066512747798], [174.828212481569, -36.6066606005855], [174.828206250881, -36.6066699262194], [174.828200065533, -36.6066792781983], [174.828193892637, -36.6066886840679], [174.828187732191, -36.6066981438283], [174.828181573871, -36.6067076936927], [174.82817539575, -36.6067173520249], [174.828169220606, -36.6067271365027], [174.828163015335, -36.6067370656616], [174.828156824005, -36.6067471117842], [174.828150634375, -36.6067572299899], [174.828144501048, -36.6067673653587], [174.828138457127, -36.6067774993552], [174.828132490586, -36.6067875961093], [174.828126667203, -36.6067976005293], [174.82812096399, -36.6068074859271], [174.828115458326, -36.6068172150605], [174.828110126796, -36.6068267432203], [174.828105002503, -36.6068360518713], [174.828100075123, -36.6068451772267], [174.828095312402, -36.6068541738635], [174.82809070423, -36.6068630870054], [174.82808619579, -36.6068719625619], [174.828081788783, -36.6068808726166], [174.82807745032, -36.6068898447151], [174.828073159538, -36.6068989422736], [174.828068883972, -36.6069082108584], [174.82806461351, -36.6069176956934], [174.828060294613, -36.6069274967506], [174.82805591908, -36.6069377403474], [174.828051467115, -36.606948534952], [174.828046963406, -36.6069599793361], [174.828042377619, -36.6069722091705], [174.828037700915, -36.6069853237414], [174.828032947235, -36.6069994400129], [174.828028096781, -36.6070146664529], [174.828023129966, -36.60703112054], [174.828016047008, -36.6070554940762]]}, "properties": {"OBJECTID": 2785, "TRACKNAME": "Tiri Tiri Track", "CONDITIONSOFUSE": "Shakespear Regional Park", "STATUS": "Open", "WEBLINK": "https://www.aucklandcouncil.govt.nz/en/parks-recreation/find-park-beach/park-detail/226.html", "VALIDATIONSTATE": 3, "created_user": "AC_owner", "last_edited_user": "AC_owner", "last_edited_date": 1789875254325, "created_date": 1789875254325, "PARK_SAPSITEID": null, "TRACK_ID": null, "KAURIDIEBACK_TRACK": null, "KAURIDIEBACK_MITIGATED": null, "SegmentID": null, "GlobalID": "a9487eb8-4ba1-4618-a0dc-a8ae5845c290", "Shape__Length": 68.95762332953967}}]}