{"type": "FeatureCollection", "features": [{"type": "Feature", "id": 5823, "geometry": {"type": "LineString", "coordinates": [[174.997582483434, -36.7984789211932], [174.997631662347, -36.7984992947772], [174.997631665732, -36.7984992956216], [174.997691555553, -36.7985278164851], [174.997691557817, -36.7985278173484], [174.997743194393, -36.7985676378765], [174.997743200158, -36.7985676440888], [174.997780512128, -36.7986246644876], [174.997780512245, -36.7986246689922], [174.997769366039, -36.7986825036513], [174.997769364988, -36.7986825063729], [174.99774746935, -36.7987320492723], [174.997747466129, -36.7987320547343], [174.997698558081, -36.7987973036123], [174.997649635711, -36.7988690791511], [174.997649631394, -36.7988690855328], [174.997601228594, -36.7989464549113], [174.99760122535, -36.7989464594724], [174.997546915585, -36.7990474092006], [174.997546913508, -36.7990474155447], [174.997501088934, -36.7991499198677], [174.997501085831, -36.7991499298344], [174.997484499174, -36.7992417607304], [174.997484498241, -36.7992417679566], [174.997463735728, -36.7993353733994], [174.997463734748, -36.7993353788237], [174.997439505073, -36.7994578675456], [174.997439504, -36.7994578693663], [174.997401189546, -36.7996060280884], [174.997401188543, -36.7996060326119], [174.997391272353, -36.7997113180536], [174.997391271443, -36.7997113261807], [174.997375380381, -36.7998302876425], [174.997375379354, -36.799830291265], [174.997369772509, -36.7999388995664], [174.997470719649, -36.800075709019], [174.99747072308, -36.8000757116654], [174.997638463448, -36.8001678777381], [174.997769922631, -36.8002274000319], [174.99791662876, -36.8002597796609], [174.997916637793, -36.800259782213], [174.998207161199, -36.8003173023266], [174.998431845456, -36.8003789866198], [174.99843184772, -36.8003789874831], [174.998661313951, -36.8005084637371], [174.998661317358, -36.8005084654824], [174.998783862195, -36.8005839870553], [174.998783863362, -36.8005839888383], [174.99885324021, -36.8007016115133], [174.998853241471, -36.8007016169], [174.998868698818, -36.8008322661027], [174.998868699028, -36.800832274211], [174.998863119504, -36.8009656926331], [174.998863118454, -36.8009656953547], [174.998767711334, -36.8011224530076], [174.998767706994, -36.8011224584885], [174.998670921595, -36.8012259092125], [174.998599237144, -36.8013677296752], [174.998533210394, -36.8014948969157], [174.998533208224, -36.8014948996561], [174.998416728088, -36.801746277313], [174.998416727015, -36.8017462791336], [174.998420367602, -36.8018862537491], [174.998420366576, -36.8018862573716], [174.998365612146, -36.801957194755], [174.998288291486, -36.8019970031797], [174.998288287051, -36.8019970050569], [174.998206330945, -36.8020263882967], [174.998173153127, -36.8020899624102], [174.998149680673, -36.8021918884704], [174.998149679623, -36.802191891192], [174.998130110137, -36.8022762363575], [174.998130106963, -36.8022762436214], [174.998079889493, -36.8023540988424], [174.99807988842, -36.8023541006631], [174.998017349163, -36.8024601803825], [174.998017345943, -36.8024601858446], [174.997966848786, -36.8025275462784], [174.997977107612, -36.8025868923335], [174.99800911075, -36.8026458702475], [174.998009113108, -36.8026458747144], [174.998037311479, -36.8027259118386], [174.998037311643, -36.802725918145], [174.998004224369, -36.802792992305], [174.998004224416, -36.8027929941069], [174.998014382013, -36.8028488303262], [174.998014383367, -36.8028488393167], [174.99802944257, -36.8029256019513], [174.998029442781, -36.8029256100596], [174.998018932742, -36.8030238049026], [174.998048042167, -36.8031388473718], [174.998048044548, -36.8031388527397], [174.998084046139, -36.8032404885455], [174.99809226572, -36.803247454579], [174.9980922748, -36.803247458933], [174.998116088049, -36.8032512642474], [174.998116091457, -36.8032512659927], [174.998118584181, -36.8032535521985], [174.998125657763, -36.8032600237401], [174.998129264021, -36.8032633232379], [174.998129266331, -36.803263325903], [174.998132286114, -36.8032797241803], [174.998132489828, -36.8032836378793], [174.998130336527, -36.8033046747517], [174.9981303293, -36.8033047848338], [174.99812857521, -36.8033451058798], [174.998128574207, -36.8033451104033], [174.998110936736, -36.8033621370815], [174.99807821891, -36.8034119087801], [174.998078213426, -36.8034119133789], [174.998026217742, -36.8034521684849], [174.998026210017, -36.8034521731213], [174.997933421438, -36.8034931029465], [174.997933419244, -36.803493104786], [174.997863713313, -36.8035270219584], [174.997863435203, -36.8035271888691], [174.997791923174, -36.8035799396229], [174.997791773711, -36.8035800538979], [174.997701682171, -36.8036507258421], [174.997701675636, -36.8036507331624], [174.997662785622, -36.8036940576944], [174.997627995019, -36.8037332637149], [174.997627973174, -36.8037332857135], [174.997581373542, -36.8037769804163], [174.997581368081, -36.803776985916], [174.997512089967, -36.8038673722096], [174.997512084599, -36.8038673813129], [174.99747866267, -36.8039323086061], [174.997478659403, -36.8039323122663], [174.997438062153, -36.8039917295808], [174.997438059959, -36.8039917314203], [174.997360449259, -36.8040511018092], [174.997358861432, -36.8040524543231], [174.997265862006, -36.8041374255197], [174.997264468339, -36.8041374074729], [174.997262369565, -36.8041356166646], [174.99722365206, -36.8040999611727], [174.997219082929, -36.8040969608372], [174.997132910353, -36.8040584098418], [174.997132906968, -36.8040584089973], [174.996982058622, -36.8039287991299], [174.996837929771, -36.8038143201714], [174.996837924075, -36.8038143166618], [174.996579737166, -36.803661658912], [174.996579729207, -36.8036616545391], [174.996359016963, -36.8035491785637], [174.99635773384, -36.8035486692347], [174.996230034633, -36.8035109401732], [174.996229997358, -36.803510929082], [174.996033219357, -36.8034536366257], [174.996033212542, -36.8034536331349], [174.995663357199, -36.8032342552212], [174.995663351503, -36.8032342517115], [174.994924862542, -36.8027605674055], [174.994924852296, -36.8027605612682], [174.994384780824, -36.8024674143922], [174.99438477856, -36.8024674135289], [174.993882932845, -36.8023830441825], [174.993882921595, -36.8023830425685], [174.993760740267, -36.8023655114267], [174.993760730138, -36.802365509794], [174.993567469539, -36.8023423664055], [174.993567462794, -36.8023423656173], [174.993510196278, -36.8023382208241], [174.993487758434, -36.8023300805136], [174.993417234975, -36.8023003442293]]}, "properties": {"OBJECTID": 5823, "TRACKNAME": "Titchner Reserve track", "CONDITIONSOFUSE": "Park Point Walkway", "STATUS": "Open", "WEBLINK": null, "VALIDATIONSTATE": 3, "created_user": "AC_owner", "last_edited_user": "AC_owner", "last_edited_date": 1789875254325, "created_date": 1789875254325, "PARK_SAPSITEID": null, "TRACK_ID": null, "KAURIDIEBACK_TRACK": null, "KAURIDIEBACK_MITIGATED": null, "SegmentID": null, "GlobalID": "88431503-c079-4f34-8277-5189616a3b95", "Shape__Length": 1189.6520594282063}}]}