{"type": "FeatureCollection", "features": [{"type": "Feature", "id": 2433, "geometry": {"type": "LineString", "coordinates": [[174.65834472379, -36.9475808696917], [174.658336547757, -36.9475876259044], [174.658333272194, -36.9475901737904], [174.658257157481, -36.9476614318662], [174.658233913013, -36.9476848129286], [174.658198309781, -36.9477286468626], [174.658171189416, -36.9477726777839], [174.658152777937, -36.9478174884157], [174.658145374933, -36.9478437939121], [174.65814027055, -36.947870454884], [174.658137236424, -36.9479123196767], [174.658138599537, -36.9479819295574], [174.658134543373, -36.948030523645], [174.658125351891, -36.9480825965361], [174.658114536808, -36.9481240111606], [174.65810166331, -36.9481632011682], [174.658097861738, -36.9481867613421], [174.658098393337, -36.9482263049447], [174.658106194974, -36.948260861725], [174.658115943208, -36.9482852331588], [174.658128861067, -36.9483086950335], [174.658178828931, -36.9483757603047], [174.658388649205, -36.9486693091411], [174.658405881961, -36.948697541921], [174.658436603469, -36.9487553577079], [174.658462238264, -36.9488147497875], [174.658481445596, -36.948871374382], [174.65849550826, -36.9489331183712], [174.6585025076, -36.9489798634976], [174.65850707784, -36.9490425062281], [174.658506204079, -36.9491052700735], [174.658501218516, -36.9491524259808], [174.658489379674, -36.9492144686931], [174.658476979896, -36.9492604843123], [174.658461591321, -36.9493059107386], [174.65843959569, -36.9493568645651], [174.658426763999, -36.9494047159421], [174.658424654353, -36.9494306861192], [174.658426137437, -36.9494535054842], [174.658430591139, -36.9494760760443], [174.658451951306, -36.9495356450024], [174.658462337544, -36.9495738882], [174.65846924521, -36.9496112245627], [174.658472814277, -36.9496525554526], [174.658471515274, -36.9496993353734], [174.658466554236, -36.9497388204876], [174.658457767191, -36.9497795037547], [174.65844306054, -36.9498320412753], [174.658436075208, -36.9498765751558], [174.658434611471, -36.9499281885846], [174.658440788304, -36.9499753237612], [174.658447518246, -36.9500018735069], [174.65845737439, -36.9500306870254], [174.658469973623, -36.95005963348], [174.65848506025, -36.9500877970701], [174.658552821531, -36.9501891801637], [174.65860340146, -36.9502538390916], [174.658691497884, -36.9503488539349], [174.658738042552, -36.9503931447046], [174.658788313108, -36.9504347244309], [174.658840177687, -36.9504731632101], [174.65888533211, -36.950503574608], [174.658929377089, -36.9505297444392], [174.659002267063, -36.9505682219524], [174.659027230179, -36.9505808110277], [174.659118262876, -36.9506123478675], [174.659237758102, -36.9506492734923], [174.659286548203, -36.9506697011046], [174.65933294014, -36.9506934701491], [174.659376559124, -36.9507203875712], [174.659421521767, -36.9507538479854], [174.659449257557, -36.950782107752]]}, "properties": {"OBJECTID": 2433, "TRACKNAME": "Titirangi Beach Road", "CONDITIONSOFUSE": "Waitakere Central Regional Park", "STATUS": "Open", "WEBLINK": "https://www.aucklandcouncil.govt.nz/en/parks-recreation/find-park-beach/park-detail/204.html", "VALIDATIONSTATE": 3, "created_user": "AC_owner", "last_edited_user": "AC_owner", "last_edited_date": 1789875254325, "created_date": 1789875254325, "PARK_SAPSITEID": null, "TRACK_ID": null, "KAURIDIEBACK_TRACK": null, "KAURIDIEBACK_MITIGATED": null, "SegmentID": null, "GlobalID": "99eef7f9-1daa-4d8d-b435-f558da94e5c5", "Shape__Length": 413.1004061442818}}]}