{"type": "FeatureCollection", "features": [{"type": "Feature", "id": 2111, "geometry": {"type": "LineString", "coordinates": [[174.861913736937, -36.3669219879032], [174.862135619087, -36.3669519182167], [174.86268114401, -36.3670745836523], [174.862805066041, -36.3670774202067], [174.862937661558, -36.3670729678622], [174.863115042307, -36.3670916649945], [174.863660001926, -36.3671904855963], [174.863731261506, -36.3672108376816], [174.864080878854, -36.3674033326012], [174.86414023402, -36.3674191009499], [174.864190290022, -36.3674159345646], [174.864251227781, -36.3673744395045], [174.864504730344, -36.3672464646248], [174.86474695224, -36.3671401302866], [174.864990028319, -36.3670695567305], [174.865109977774, -36.3670295239379], [174.8652384865, -36.366977433688], [174.865341261173, -36.36695913383], [174.865513304085, -36.3668777431345], [174.86575251958, -36.3667690686471], [174.86600607457, -36.3666434748993], [174.866212463353, -36.36651861852], [174.866414380563, -36.3664534544983], [174.866607396544, -36.3663860441596], [174.866678641836, -36.3662823779641], [174.86671394396, -36.3661554243738], [174.866694833156, -36.3660960993324], [174.86652980038, -36.3659770460054], [174.866478321465, -36.3659206118602], [174.866434774038, -36.3658258940491], [174.866421730312, -36.3657736294274], [174.866440314381, -36.3656874810468], [174.866465248828, -36.3656203123711], [174.86652266642, -36.3655550211487], [174.866635635697, -36.3654697827633], [174.86668154614, -36.3654165967764], [174.866718272028, -36.365349243759], [174.866758629396, -36.3653104541954], [174.866786853188, -36.3652575437035], [174.866768255283, -36.3652196755899], [174.86681473516, -36.3651903297879], [174.866857926379, -36.3651467257103], [174.866874017661, -36.3650796951736], [174.866872650409, -36.3650224778987], [174.866848441525, -36.3649966220669], [174.866764766067, -36.3649502307464], [174.866652524074, -36.364942445529], [174.866564092146, -36.3649438275782], [174.866495724931, -36.3649210459646], [174.866427071891, -36.3648863451104], [174.866341303172, -36.364875760807], [174.866287503691, -36.3648455970529], [174.866209210881, -36.3647776562813], [174.866155867095, -36.3647665651978], [174.866103149712, -36.3647816985369], [174.866049862883, -36.3647729916102], [174.865987276795, -36.3647453500908], [174.865913583494, -36.3647465013903], [174.865834223221, -36.3647572806492], [174.865743412902, -36.3647825492849], [174.86570299834, -36.3648189543103], [174.865659521977, -36.3648506378617], [174.86559229368, -36.364875537119], [174.865550968176, -36.364873798418], [174.865422261364, -36.3648865407117], [174.865342216691, -36.364868711004], [174.865256527543, -36.3647996934652], [174.86521633451, -36.3647836263942], [174.865127988068, -36.364788583684], [174.865088051172, -36.364783244594], [174.86501321956, -36.3647367139243], [174.864965969855, -36.3647338749783], [174.864901091801, -36.3647336954583], [174.864813906341, -36.3647255163662], [174.864744634877, -36.364726597904], [174.864677234563, -36.3647443449513], [174.864619020467, -36.3647762582163], [174.864561425689, -36.3647723871651], [174.864537416783, -36.3647548755623], [174.864461077798, -36.3646451666631], [174.864420515191, -36.3646136028738], [174.864353935715, -36.3646039101356], [174.864262641484, -36.3646089127961], [174.86412242454, -36.3646027534834], [174.86405757502, -36.3646037656054], [174.864025150259, -36.3646042716532]]}, "properties": {"OBJECTID": 2111, "TRACKNAME": "Tokatu Loop Track", "CONDITIONSOFUSE": "Tawharanui Regional Park", "STATUS": "Open", "WEBLINK": "https://www.aucklandcouncil.govt.nz/en/parks-recreation/find-park-beach/park-detail/228.html", "VALIDATIONSTATE": 3, "created_user": "AC_owner", "last_edited_user": "AC_owner", "last_edited_date": 1789875254325, "created_date": 1789875254325, "PARK_SAPSITEID": null, "TRACK_ID": null, "KAURIDIEBACK_TRACK": null, "KAURIDIEBACK_MITIGATED": null, "SegmentID": null, "GlobalID": "bb25c14d-591b-457d-ab2d-28346dd8bca8", "Shape__Length": 925.254497779401}}, {"type": "Feature", "id": 2282, "geometry": {"type": "LineString", "coordinates": [[174.861884785906, -36.3631699281091], [174.862052710167, -36.3633340227698], [174.862166693321, -36.3634666917811], [174.862270237945, -36.3636264121013], [174.862325168622, -36.3637922680698], [174.862377671169, -36.3639491992785], [174.86240630821, -36.3640347982821], [174.86243998055, -36.3642386306949], [174.862466701958, -36.3643368069921], [174.8625216709, -36.3644112398816], [174.862606254446, -36.364519270189], [174.862664463811, -36.3646366743351], [174.862705157031, -36.3646700989791], [174.86278534616, -36.3646867744264], [174.862860292727, -36.3646694723146], [174.862945847855, -36.3646322857345], [174.863025054181, -36.3646077464675], [174.86358883877, -36.3645487576786], [174.863666299055, -36.364543964184], [174.863754582541, -36.3645282453851], [174.863838262011, -36.3645054286595], [174.863914191416, -36.3645293404303], [174.864025150259, -36.3646042716532]]}, "properties": {"OBJECTID": 2282, "TRACKNAME": "Tokatu Loop Track", "CONDITIONSOFUSE": "Tawharanui Regional Park", "STATUS": "Open", "WEBLINK": "https://www.aucklandcouncil.govt.nz/en/parks-recreation/find-park-beach/park-detail/228.html", "VALIDATIONSTATE": 3, "created_user": "AC_owner", "last_edited_user": "AC_owner", "last_edited_date": 1789875254325, "created_date": 1789875254325, "PARK_SAPSITEID": null, "TRACK_ID": null, "KAURIDIEBACK_TRACK": null, "KAURIDIEBACK_MITIGATED": null, "SegmentID": null, "GlobalID": "e6534e1d-03c3-4209-bc2d-7073e886a59b", "Shape__Length": 310.5880615849432}}]}