{"type": "FeatureCollection", "features": [{"type": "Feature", "id": 328, "geometry": {"type": "LineString", "coordinates": [[174.864025150259, -36.3646042716532], [174.864056012322, -36.3645783480784], [174.864080689384, -36.364512883918], [174.864114770558, -36.3644156988621], [174.864143138113, -36.3643687503646], [174.864186358856, -36.3643263384203], [174.864220508348, -36.3642745294699], [174.864265202966, -36.3642320953944], [174.86434234943, -36.3641903464031], [174.864403426902, -36.3641548118366], [174.864467195056, -36.364108502309], [174.864508998435, -36.3640684974711]]}, "properties": {"OBJECTID": 328, "TRACKNAME": "Tokatu Point Lookout Track", "CONDITIONSOFUSE": "Tawharanui Regional Park", "STATUS": "Open", "WEBLINK": "https://www.aucklandcouncil.govt.nz/en/parks-recreation/find-park-beach/park-detail/228.html", "VALIDATIONSTATE": 3, "created_user": "AC_owner", "last_edited_user": "AC_owner", "last_edited_date": 1789875254325, "created_date": 1789875254325, "PARK_SAPSITEID": null, "TRACK_ID": null, "KAURIDIEBACK_TRACK": null, "KAURIDIEBACK_MITIGATED": null, "SegmentID": null, "GlobalID": "8cbae7be-3cb0-42ab-980f-0551f94d8948", "Shape__Length": 75.97775035151396}}, {"type": "Feature", "id": 934, "geometry": {"type": "LineString", "coordinates": [[174.864007634576, -36.3646117002993], [174.864053298569, -36.3646559871485], [174.8640875987, -36.3647231494029], [174.864083908101, -36.3647877325675], [174.864066714591, -36.364834543614], [174.864006787877, -36.3650013935174], [174.863928232028, -36.3651695662162], [174.86386843443, -36.3652587425069], [174.863830739165, -36.365285564996], [174.86377836219, -36.3653150016736], [174.863719748062, -36.3653302259865], [174.863464942314, -36.3654033659214], [174.863339439671, -36.3654577924517], [174.86321353886, -36.3654955312001], [174.863149541398, -36.3655323032695], [174.863106177291, -36.3655687543453], [174.862938162624, -36.3656953919523], [174.862698102543, -36.3658923171095], [174.862503669657, -36.3660241372192], [174.862338545276, -36.3661483438321], [174.862266896403, -36.3662353190402], [174.86210189076, -36.3664883123151], [174.862070885818, -36.3665484194812], [174.862043168652, -36.3666227850515], [174.861993631271, -36.3667714242386], [174.86197384988, -36.3668075063531], [174.861896220529, -36.3669294162576]]}, "properties": {"OBJECTID": 934, "TRACKNAME": "Tokatu Point Lookout Track", "CONDITIONSOFUSE": "Tawharanui Regional Park", "STATUS": "Open", "WEBLINK": "https://www.aucklandcouncil.govt.nz/en/parks-recreation/find-park-beach/park-detail/228.html", "VALIDATIONSTATE": 3, "created_user": "AC_owner", "last_edited_user": "AC_owner", "last_edited_date": 1789875254325, "created_date": 1789875254325, "PARK_SAPSITEID": null, "TRACK_ID": null, "KAURIDIEBACK_TRACK": null, "KAURIDIEBACK_MITIGATED": null, "SegmentID": null, "GlobalID": "fddcfef4-6caf-4f7e-b1dd-c94cdff90684", "Shape__Length": 345.1978775766949}}, {"type": "Feature", "id": 1075, "geometry": {"type": "LineString", "coordinates": [[174.858419377931, -36.3692016198768], [174.858594801864, -36.3692179203516], [174.858852970163, -36.3691614339681], [174.859083983364, -36.3690791345818], [174.859242997074, -36.3689454871222], [174.859363687499, -36.3688124360915], [174.8596188458, -36.3686295920855], [174.860066632464, -36.3683626589372], [174.860270542859, -36.3682569302411], [174.860536527597, -36.3681573895063], [174.860693327093, -36.3680547781801], [174.860826652621, -36.3678332857396], [174.860997957649, -36.3675968916981], [174.861324475158, -36.3673151495932], [174.861742030848, -36.3670176778782], [174.861913736937, -36.3669219879032]]}, "properties": {"OBJECTID": 1075, "TRACKNAME": "Tokatu Point Lookout Track", "CONDITIONSOFUSE": "Tawharanui Regional Park", "STATUS": "Open", "WEBLINK": "https://www.aucklandcouncil.govt.nz/en/parks-recreation/find-park-beach/park-detail/228.html", "VALIDATIONSTATE": 3, "created_user": "AC_owner", "last_edited_user": "AC_owner", "last_edited_date": 1789875254325, "created_date": 1789875254325, "PARK_SAPSITEID": null, "TRACK_ID": null, "KAURIDIEBACK_TRACK": null, "KAURIDIEBACK_MITIGATED": null, "SegmentID": null, "GlobalID": "9015c268-8b78-4dea-b56a-bbd68eda387e", "Shape__Length": 417.2689439246467}}]}