{"type": "FeatureCollection", "features": [{"type": "Feature", "id": 728, "geometry": {"type": "LineString", "coordinates": [[174.549218124052, -36.9999537575259], [174.549076528653, -36.9997459660463], [174.549048653971, -36.999675384543], [174.549064055346, -36.9996097544071], [174.549165730397, -36.9993780507536], [174.549184923479, -36.9993586194422], [174.549220350071, -36.9993400488124], [174.549508646995, -36.9992295107325], [174.549558019375, -36.9992242240988], [174.549699812865, -36.999232882289], [174.549748574458, -36.9992213121198], [174.549788381373, -36.9991821513349], [174.550068496642, -36.9988076408375], [174.550108214989, -36.9987669037385], [174.550166075724, -36.9987457773968], [174.550293933067, -36.9987189865092], [174.55046372258, -36.9987333711943], [174.550502971873, -36.9987287572408], [174.550757802582, -36.9985708186889], [174.550918139361, -36.9985237188896], [174.551168655986, -36.9983924617627], [174.551363887528, -36.9982470545543], [174.551408007943, -36.9982216996267], [174.551650470395, -36.9981570394697], [174.552224155883, -36.9979402162975], [174.552427330793, -36.9979081835793], [174.55249235332, -36.9978790034936], [174.552510957263, -36.9978527651437], [174.552514180573, -36.9978250424798], [174.552493640956, -36.9978019571742], [174.552459131466, -36.9977865268193], [174.551920957402, -36.9977407016666], [174.551824786659, -36.9977224450278], [174.551771193169, -36.9976963666839], [174.551752362886, -36.9976622714229], [174.551767846591, -36.9976378676757], [174.551811109152, -36.9976162193584], [174.551993370394, -36.9975604128092], [174.552049511849, -36.9974995584509], [174.552070556325, -36.9974446703456], [174.552069542554, -36.9974135959972], [174.552051997833, -36.9973852526182], [174.551860841898, -36.9972367400678], [174.55184161152, -36.9972089414824], [174.551842147327, -36.9971888613807], [174.551868362292, -36.9971649933046], [174.551901899138, -36.9971574701232], [174.551939709021, -36.9971639070661], [174.551981983741, -36.9971854463368], [174.552047696412, -36.9972405428356], [174.552173570823, -36.9973977236584], [174.552206655328, -36.9974165888595], [174.55222408057, -36.9974108626985], [174.552237836036, -36.997384372334], [174.55226418067, -36.9971983043064], [174.552282744667, -36.9971573925132], [174.552314460462, -36.997152606103], [174.552364551121, -36.9971584045538], [174.552545737896, -36.997200146446], [174.552574476636, -36.9971965075757], [174.552597178078, -36.9971838891039], [174.552612935979, -36.9971436989997], [174.55260489505, -36.9970975288239], [174.552562509451, -36.9970197018373], [174.552482365351, -36.9969070087817], [174.55247616639, -36.9968751549978], [174.552486687681, -36.9968360699672], [174.552519512529, -36.9968034893461], [174.55272217276, -36.9966761269506], [174.552775539806, -36.9966314157013], [174.552978317842, -36.9963850278866], [174.553147136456, -36.9961071943643], [174.553202678772, -36.9960589662267], [174.553240685542, -36.9960430646965], [174.55329110238, -36.9960356536968], [174.553438005647, -36.9960582385832], [174.553499277775, -36.9960580133866], [174.554024677846, -36.9959813969714], [174.554203964274, -36.9959889459474], [174.554290935532, -36.9960013992871], [174.554418420538, -36.9960283744799], [174.554546094617, -36.9960762223521], [174.554869137607, -36.9960334665456], [174.554926699423, -36.9960132792279], [174.554992789747, -36.9959737543132], [174.555113418744, -36.9958125173178], [174.555164167045, -36.9957662259051], [174.555204148279, -36.9957419153102], [174.555241157365, -36.9957421604044], [174.555385456306, -36.9957858415856], [174.555658561335, -36.9958220475195], [174.555723718839, -36.9958239064458], [174.555818126679, -36.9958081119829], [174.555864293723, -36.9957895878675], [174.555885221103, -36.9957726745599], [174.55597178068, -36.995596740671], [174.556035069054, -36.9955234332251], [174.556128786003, -36.9954500512414], [174.556368274112, -36.9953663479511], [174.556439679724, -36.9953489437957], [174.556563563226, -36.9953668422498], [174.556679845582, -36.9954236344287], [174.556757048704, -36.9954177634371], [174.556831624828, -36.9953745388164], [174.55700081288, -36.9952098506927], [174.557040989105, -36.9951886429827]]}, "properties": {"OBJECTID": 728, "TRACKNAME": "Tom Thumb Track", "CONDITIONSOFUSE": "Waitakere South Regional Park", "STATUS": "Temp Closed", "WEBLINK": "https://www.aucklandcouncil.govt.nz/en/parks-recreation/find-park-beach/park-detail/212.html", "VALIDATIONSTATE": 3, "created_user": "AC_owner", "last_edited_user": "AC_owner", "last_edited_date": 1789875254325, "created_date": 1789875254325, "PARK_SAPSITEID": null, "TRACK_ID": null, "KAURIDIEBACK_TRACK": null, "KAURIDIEBACK_MITIGATED": null, "SegmentID": null, "GlobalID": "5ce311e9-d103-464b-ba83-dbdbd4f9347b", "Shape__Length": 1237.4024583725266}}, {"type": "Feature", "id": 1218, "geometry": {"type": "LineString", "coordinates": [[174.557040989105, -36.9951886429827], [174.557049807461, -36.9951839880803], [174.557128718649, -36.9951858460579], [174.55718840092, -36.9952173493517], [174.55720801126, -36.9952510369142], [174.557235466189, -36.9953354667483], [174.557274630202, -36.9954000574209], [174.557556144554, -36.9956975944934], [174.557602525085, -36.9958294753281], [174.557635823541, -36.9958802800795], [174.557738250316, -36.9959579210327], [174.557788769725, -36.9959869574077], [174.557828130036, -36.9959911818409], [174.557924806585, -36.9959791956771], [174.557966201284, -36.9959812391291], [174.558022209908, -36.9960044797629], [174.558121726874, -36.9960689087227], [174.55815814051, -36.9960988872715], [174.558183873656, -36.9961374246594], [174.558239579126, -36.9962862093017], [174.558273226774, -36.9963265626241], [174.558302957356, -36.9963484265868], [174.558513900002, -36.9964225687778], [174.558587719821, -36.9964402842984], [174.558673080918, -36.9964365582863], [174.558798034546, -36.9963911745221], [174.55892467125, -36.9964034639735], [174.559005136472, -36.9964219301942], [174.559050071204, -36.9964503904144], [174.559105186451, -36.9965399095617], [174.55917505084, -36.9966280541334], [174.559316979451, -36.9967926327368], [174.559418597658, -36.9968861105374], [174.559468951442, -36.9969014748689], [174.559719980582, -36.9969486695212], [174.560243591747, -36.9970814868586], [174.560410618225, -36.9971592675949], [174.560479647993, -36.9972306662399], [174.560540645802, -36.9972648094914], [174.560700689951, -36.9973390672121], [174.561078650847, -36.9974897230707], [174.561236455507, -36.9975264051842], [174.561545540073, -36.9975691852911]]}, "properties": {"OBJECTID": 1218, "TRACKNAME": "Tom Thumb Track", "CONDITIONSOFUSE": "Waitakere South Regional Park", "STATUS": "Temp Closed", "WEBLINK": "https://www.aucklandcouncil.govt.nz/en/parks-recreation/find-park-beach/park-detail/212.html", "VALIDATIONSTATE": 3, "created_user": "AC_owner", "last_edited_user": "AC_owner", "last_edited_date": 1789875254325, "created_date": 1789875254325, "PARK_SAPSITEID": null, "TRACK_ID": null, "KAURIDIEBACK_TRACK": null, "KAURIDIEBACK_MITIGATED": null, "SegmentID": null, "GlobalID": "b35508f0-edd7-4769-bf27-1d229a2fdd26", "Shape__Length": 522.5439436990332}}, {"type": "Feature", "id": 1791, "geometry": {"type": "LineString", "coordinates": [[174.556944918403, -36.9945843649232], [174.556904894223, -36.994655230546], [174.556869798487, -36.9946904912257], [174.556841369677, -36.9947257527683], [174.556799160168, -36.9947678704874], [174.55678807692, -36.9948117899952], [174.556797810206, -36.9948622623631], [174.55679624181, -36.9949795604344], [174.556905791637, -36.9950578478052], [174.556952710575, -36.9950847198686], [174.55699387393, -36.995148349709], [174.557040989105, -36.9951886429827]]}, "properties": {"OBJECTID": 1791, "TRACKNAME": "Tom Thumb Track", "CONDITIONSOFUSE": "Waitakere South Regional Park", "STATUS": "Temp Closed", "WEBLINK": "https://www.aucklandcouncil.govt.nz/en/parks-recreation/find-park-beach/park-detail/212.html", "VALIDATIONSTATE": 3, "created_user": "AC_owner", "last_edited_user": "AC_owner", "last_edited_date": 1789875254325, "created_date": 1789875254325, "PARK_SAPSITEID": null, "TRACK_ID": null, "KAURIDIEBACK_TRACK": null, "KAURIDIEBACK_MITIGATED": null, "SegmentID": null, "GlobalID": "b6115b3d-e63a-41f8-b3f0-5920f179e7ce", "Shape__Length": 80.22350715964986}}]}