{"type": "FeatureCollection", "features": [{"type": "Feature", "id": 4363, "geometry": {"type": "LineString", "coordinates": [[175.070719405465, -36.8057508967561], [175.070727141178, -36.8056327162983], [175.070727069157, -36.8056322479729], [175.070656114731, -36.8054469362985]]}, "properties": {"OBJECTID": 4363, "TRACKNAME": "Track to bleachers", "CONDITIONSOFUSE": "Onetangi Sports Park (Rangihoua)", "STATUS": "Open", "WEBLINK": "https://www.aucklandcouncil.govt.nz/en/parks-recreation/find-park-beach/park-detail/120.html", "VALIDATIONSTATE": 3, "created_user": "AC_owner", "last_edited_user": "AC_owner", "last_edited_date": 1789875254325, "created_date": 1789875254325, "PARK_SAPSITEID": null, "TRACK_ID": null, "KAURIDIEBACK_TRACK": null, "KAURIDIEBACK_MITIGATED": null, "SegmentID": null, "GlobalID": "125460c6-575b-47c7-b98e-240ab49ea68c", "Shape__Length": 34.70367116057316}}]}