{"type": "FeatureCollection", "features": [{"type": "Feature", "id": 11979, "geometry": {"type": "LineString", "coordinates": [[175.132061962459, -36.8342892233139], [175.132053494589, -36.8342951119492], [175.13201748201, -36.8343226252943], [175.132006681763, -36.8343267255536], [175.131997335721, -36.8343261666924], [175.131979734306, -36.8343150189372], [175.131966618402, -36.8343028693246], [175.131956778191, -36.8342880214892], [175.13195020991, -36.834270470776], [175.131946905001, -36.8342501950549], [175.131946839568, -36.8342273998079], [175.131949963719, -36.8342017516523], [175.131956259862, -36.8341731298221], [175.13196615475, -36.8341395846809], [175.131980320481, -36.8341106173192], [175.131983422426, -36.8340989754719], [175.131982563074, -36.8340920096447], [175.131979013323, -36.8340842295205], [175.131955254388, -36.8340514932337], [175.131952822362, -36.8340440558598], [175.1319532469, -36.8340373682768], [175.131967577964, -36.8340180228412], [175.13197001143, -36.8340115105154], [175.131968079568, -36.8340048672833], [175.131957460026, -36.8339904059772], [175.131954840434, -36.8339843113213], [175.131956052032, -36.8339765801954], [175.131962114392, -36.8339685817123], [175.132002247793, -36.8339404791637], [175.132013344727, -36.8339277746781], [175.132016078813, -36.8339139300127], [175.132012863815, -36.8338976805666], [175.132005271528, -36.8338809521136], [175.131979018844, -36.8338344726882], [175.131973764411, -36.8338206432067], [175.131971602471, -36.8338084156582], [175.131972303829, -36.8337930576037], [175.131976130422, -36.8337758439154], [175.132002175684, -36.8337046115864], [175.13200529935, -36.8336765687228], [175.131999850448, -36.8336515445214], [175.13197809447, -36.8335972601247], [175.131973866463, -36.8335754831928], [175.131976437975, -36.833555014288], [175.131992712496, -36.8335044106732], [175.131993457374, -36.8334913114851], [175.131990630251, -36.8334801809512], [175.131980597628, -36.833467561706], [175.131947821509, -36.833441466764], [175.13193966854, -36.833428715736], [175.13194066078, -36.8334139765804], [175.131956295128, -36.8333805461087], [175.131959450057, -36.8333660618132], [175.131956254331, -36.8333503316582], [175.131938693005, -36.8333140356995], [175.131934304454, -36.8332975388895], [175.131935591073, -36.8332814858881], [175.131948169275, -36.8332412322027], [175.131950230221, -36.8332228570048], [175.131947303721, -36.8332083046197], [175.131935713522, -36.8331766073137], [175.131933466344, -36.833163679721], [175.131935877459, -36.8331376754197], [175.131946121683, -36.8331014447536], [175.131951225297, -36.8330897917887], [175.131959461145, -36.8330771434683], [175.131996460943, -36.8330343193183], [175.132008384647, -36.8330176188455], [175.132015292842, -36.8330000263227], [175.132014519054, -36.8329838051471], [175.132004041213, -36.8329605451225], [175.132001959908, -36.8329449369442], [175.132004811944, -36.8329281834354], [175.132012575575, -36.8329104348339], [175.132025135734, -36.832891959326], [175.132042735889, -36.8328726463857], [175.132064473217, -36.8328536640686], [175.132089279229, -36.8328359694314], [175.13211476639, -36.8328212803073], [175.132132582511, -36.8328146608575], [175.132154478972, -36.8328108797043], [175.132181343704, -36.8328096838422], [175.132269410147, -36.8328106810592], [175.132296001366, -36.8328073720565], [175.132317944533, -36.8328008700673], [175.1323435918, -36.8327890509182], [175.132350934078, -36.8327833590113], [175.132357234486, -36.8327757152366], [175.132377559056, -36.8327330531822], [175.132384034983, -36.8327242030076], [175.132391621198, -36.8327177631385], [175.132418495978, -36.8327048227747], [175.132451551034, -36.832696012183], [175.132470871412, -36.8326939016351], [175.132492373266, -36.8326940200184], [175.132515910312, -36.8326963687991], [175.132541154255, -36.8327009161868], [175.132558561763, -36.8327063821532], [175.132595650933, -36.8327224439155], [175.132611478163, -36.8327269408512], [175.13263190321, -36.8327280513559], [175.132654785122, -36.8327242471153], [175.132679633372, -36.8327160896034], [175.132751518408, -36.8326869439465], [175.132773753541, -36.832681471761], [175.132793449055, -36.8326801284919], [175.132814983655, -36.832683106573], [175.13283869152, -36.8326906707714], [175.132911673007, -36.8327262704272], [175.132935632495, -36.8327362714682], [175.13295610122, -36.8327420530421], [175.132975084723, -36.8327443339088], [175.132993440125, -36.8327436205261], [175.133013931287, -36.8327403592555], [175.133092487797, -36.8327187840201], [175.133125791181, -36.8327128597383], [175.133149535813, -36.8327125600806], [175.133177040406, -36.8327158319534], [175.133274241924, -36.8327386274577], [175.133309744541, -36.8327442338784], [175.133327629691, -36.83274476199], [175.133343471035, -36.8327431489883], [175.133357584574, -36.832739361184], [175.133370123862, -36.8327333540667], [175.133412117213, -36.8326974787159], [175.133427501673, -36.8326911812819], [175.13347012985, -36.832680916571], [175.13347930072, -36.8326764304371], [175.133485207069, -36.8326707826545], [175.133488159782, -36.8326637269969], [175.133490541452, -36.8326446571873], [175.133493169967, -36.8326369620595], [175.133500611354, -36.8326284201988], [175.13351259122, -36.8326210679395], [175.133562713925, -36.8326035140315], [175.133579085118, -36.8325958484748], [175.133600747058, -36.8325809060197], [175.133643683221, -36.8325453462638], [175.133663407015, -36.8325308891339], [175.133715582724, -36.8324993863106], [175.133770110847, -36.8324719085349], [175.133825854329, -36.8324490261614], [175.133881923113, -36.8324311017526], [175.133961886085, -36.8324135003974], [175.134015181249, -36.8323948520422], [175.134068146607, -36.8323699847476], [175.134119576599, -36.8323394563215], [175.134167745464, -36.8323042842322], [175.134191569287, -36.8322807424352], [175.134240542875, -36.8322196068284], [175.134254958151, -36.8322057759249], [175.134269669549, -36.8321949839089], [175.13428746624, -36.832185697197], [175.134309164602, -36.8321777681684], [175.134406511636, -36.8321549221021], [175.134427958292, -36.8321482309178], [175.134445941241, -36.8321406690046], [175.134469865619, -36.8321261446509], [175.134523292642, -36.8320856742957], [175.134538630875, -36.8320768502134], [175.134553481571, -36.8320707224905], [175.134580510984, -36.8320655584476], [175.134654046973, -36.8320643741933], [175.134671120743, -36.8320625102069], [175.134685580025, -36.8320591133602], [175.134709768632, -36.8320473037852], [175.134760846388, -36.8320106608841], [175.134774221982, -36.8320042792203], [175.13478708553, -36.8320008593295], [175.134809652135, -36.8320012137161], [175.134869214335, -36.8320154592462], [175.134882980565, -36.8320171172778], [175.13489470838, -36.8320166589507], [175.134912681402, -36.8320117144622], [175.134930939616, -36.8320017052445], [175.134947657458, -36.8319887662213], [175.134990744695, -36.8319504992471], [175.13501733603, -36.8319336363546], [175.135045923424, -36.8319234241253], [175.135116775697, -36.8319057766582], [175.135133092822, -36.8318997816882], [175.135146500813, -36.8318929424853], [175.135163042427, -36.8318805532566], [175.135178427565, -36.8318639875305], [175.135222823013, -36.8317960955124], [175.135243562982, -36.8317712791641], [175.13529332798, -36.831724427319], [175.135332303374, -36.8316930546898], [175.135370497452, -36.8316690968194], [175.135408435287, -36.8316525487067], [175.135479933421, -36.8316352823039], [175.135515527204, -36.8316198371077], [175.135548335069, -36.8315982572017], [175.13557845668, -36.831570480184], [175.135606069447, -36.8315363442857], [175.135630731436, -36.8314967933941], [175.135653698331, -36.8314502318373], [175.135675260888, -36.831396484559], [175.135700208502, -36.8313236007824], [175.135707315151, -36.831293047933], [175.135712613931, -36.8312805178608], [175.135721580986, -36.8312703264264], [175.135735395545, -36.8312611793347], [175.135792624998, -36.8312376681215], [175.13581160501, -36.8312275446589], [175.135829539939, -36.8312139783179], [175.135846816604, -36.8311977110221], [175.135894951947, -36.8311410784957], [175.135913640074, -36.8311218007643], [175.13593569381, -36.8311045197721], [175.135959768327, -36.8310915223433], [175.13610815551, -36.831051440943], [175.136127240726, -36.8310538201054], [175.136149406813, -36.831052236805], [175.136174321137, -36.8310470004602], [175.136212008184, -36.8310359764788], [175.136233539001, -36.8310265544617], [175.136282687922, -36.8309964809805], [175.136296644841, -36.8309910878718], [175.136309825291, -36.8309888282839], [175.136326083843, -36.8309891041264], [175.136344235531, -36.8309916561401], [175.13638400459, -36.8310032034382], [175.136418434957, -36.8310243071095], [175.136430524442, -36.8310286001466], [175.136441216181, -36.8310273546185], [175.136452368113, -36.8310210317025], [175.136488446624, -36.8309837607605], [175.136503781708, -36.8309721485388], [175.136531155757, -36.8309591989925], [175.136561519522, -36.830948294954], [175.13659393342, -36.8309397759881], [175.136627163609, -36.830933968901], [175.136671733576, -36.8309270501707], [175.136683974533, -36.830927633237], [175.136693129256, -36.8309307829677], [175.136698979955, -36.8309364214222], [175.136709101538, -36.8309527065921], [175.136714000285, -36.8309568930599], [175.136726843139, -36.8309584038747], [175.136744499698, -36.8309534532789], [175.136764282877, -36.8309426656781], [175.136779127498, -36.8309297784618], [175.136791365029, -36.8309032912167], [175.13680047195, -36.8308917094209], [175.13681365233, -36.8308806598188], [175.136876526863, -36.8308446151655], [175.136899072498, -36.8308265961567], [175.136909452068, -36.8308129641713], [175.136929935477, -36.8307787597669], [175.136942743356, -36.8307641094559], [175.136979402059, -36.8307414725324], [175.136989093626, -36.8307338506844], [175.136996660466, -36.830723787252], [175.137001661404, -36.8307110951174], [175.137008258607, -36.8306546155167], [175.137011521884, -36.8306424020262], [175.137016419085, -36.8306322624478], [175.13702650862, -36.8306201629029], [175.137056591012, -36.8305927260267], [175.137065621231, -36.8305776959273], [175.137066042074, -36.8305693406433], [175.13706319113, -36.830559763325], [175.137035111061, -36.8305157217157], [175.137031071902, -36.8305056292534], [175.13703033351, -36.8304969357929], [175.137035249832, -36.8304848326945], [175.137047752081, -36.8304693053226], [175.137071689895, -36.8304470015387], [175.137117254647, -36.830410148512], [175.13711947933, -36.8304069929093], [175.137113649796, -36.8304087577619], [175.137100574375, -36.8304149188744], [175.137096366945, -36.8304161709416], [175.137100290955, -36.8304126939681], [175.137154720958, -36.8303756223928], [175.137177184104, -36.8303585093237], [175.137189938573, -36.8303455462266], [175.137202262465, -36.8303295672017], [175.137250045284, -36.8302536510973], [175.13726536698, -36.8302368526326], [175.13728195825, -36.8302242732928], [175.137323662549, -36.8302028710238], [175.137368336005, -36.8301872917433], [175.137411546529, -36.8301790511381], [175.137431970407, -36.8301777934579], [175.137451356189, -36.8301784659321], [175.137471108566, -36.830180124578], [175.137476585481, -36.8301819021488], [175.137456302371, -36.8301894457264], [175.137795265778, -36.8302032764711], [175.13780640494, -36.8302133954367], [175.137809683103, -36.8302146338672], [175.137799122141, -36.8302172744482], [175.137797799748, -36.8302229209277], [175.137804328043, -36.830222720739], [175.137894237167, -36.8301842355872], [175.137919334887, -36.8301776365434], [175.13793792652, -36.8301772081462], [175.137983606478, -36.8301921697936], [175.137997783488, -36.8301940982282], [175.138012602102, -36.8301940439207], [175.138044971833, -36.8301879527294], [175.138075663792, -36.8301768466549], [175.138148779292, -36.8301445868956], [175.138185360536, -36.8301332450651], [175.138476414382, -36.8300954969209], [175.138237914011, -36.8300015664376], [175.138202495767, -36.8299744084022], [175.138186533258, -36.8299653144158], [175.13816555449, -36.8299601060803], [175.138114897293, -36.8299574218258], [175.138094583482, -36.8299536629184], [175.138074020048, -36.8299453874777], [175.138053891721, -36.8299338696758], [175.138034466902, -36.8299192605704], [175.138016120164, -36.829901839846], [175.137999101768, -36.8298817819505], [175.137984153009, -36.8298598920829], [175.137971819788, -36.8298369660612], [175.137962652433, -36.8298140208702], [175.137953265056, -36.8297615922175], [175.137946834887, -36.8297480075036], [175.137936648503, -36.8297341080432], [175.137874971492, -36.8296758500934], [175.137862892368, -36.8296610067996], [175.137855029323, -36.8296467179189], [175.137851411744, -36.8296340876371], [175.137846420088, -36.8296017863966], [175.137839940516, -36.8295867452631], [175.137833577019, -36.8295799061296], [175.137824148041, -36.8295734537456], [175.137777212042, -36.8295507074159], [175.13776400154, -36.8295387169088], [175.137752960472, -36.8295165619223], [175.13774924895, -36.8294950894094], [175.137750891392, -36.8294869986563], [175.137758494413, -36.8294685997899], [175.137759307815, -36.8294605981364], [175.137757016141, -36.8294540063947], [175.137751915843, -36.8294471083693], [175.137720918209, -36.8294186882539], [175.137698276573, -36.8293835950835], [175.137680390378, -36.829342876292], [175.137667097627, -36.8292962273539], [175.137657969507, -36.8292421652684], [175.137652036187, -36.8291970364137], [175.137652580254, -36.8291831799664], [175.13765537147, -36.8291713804504], [175.137659551376, -36.8291638506034], [175.137666935634, -36.829155743264], [175.13770696123, -36.829122963051], [175.137712329936, -36.8291149679575], [175.137713122564, -36.829107719097], [175.137710236451, -36.8291015168293], [175.137703982831, -36.8290948235896], [175.137672962403, -36.8290725605358], [175.137662915842, -36.8290635468011], [175.137647595036, -36.8290426728298], [175.137635874194, -36.8290188786657], [175.137627749804, -36.8289921581581], [175.137623213977, -36.8289624860923], [175.137622254598, -36.8289299996983], [175.13762483416, -36.8288944147168], [175.137630952127, -36.8288555506777], [175.137640787035, -36.8288122575349], [175.137617234436, -36.8286065649353], [175.137609046726, -36.8285846935726], [175.13760355963, -36.8285600227946], [175.13760076398, -36.8285325266917], [175.137600638159, -36.8285020009388], [175.137527044662, -36.8283260235103], [175.137503374181, -36.8283099413823], [175.137483458706, -36.8282898968427], [175.137466471827, -36.828262261464], [175.137457010137, -36.8282328569234], [175.137455682786, -36.8282192576277], [175.137456618306, -36.8282066930626], [175.137459798908, -36.8281953845802], [175.137465186727, -36.8281854593946], [175.137476683031, -36.8281744471351], [175.137478933514, -36.8281701200414], [175.137475868467, -36.828165691928], [175.137460487292, -36.8281573847126], [175.137455799306, -36.8281532718775], [175.137454582243, -36.8281439566365], [175.137463210958, -36.8281215988684], [175.137464012678, -36.8281124939614], [175.137458382298, -36.828101906923], [175.137434458081, -36.8280792832015], [175.13742746814, -36.8280684048066], [175.137426840736, -36.8280549537264], [175.137436971842, -36.8280217428487], [175.137437526502, -36.828007427323], [175.137429850717, -36.8279926527783], [175.137401226319, -36.8279613540808], [175.13739536496, -36.8279466156769], [175.137396464713, -36.8279316583341], [175.137401568092, -36.8279141360517], [175.137410401082, -36.8279001707782], [175.13744147299, -36.8278707940521], [175.137451608195, -36.8278565530089], [175.13745937536, -36.8278333273846], [175.137462341799, -36.8278092751085], [175.137460235205, -36.8277867737975], [175.137453200222, -36.8277670757431], [175.137447829471, -36.8277562110561], [175.137443309624, -36.8277516531745], [175.137436687862, -36.8277505696247], [175.137415985151, -36.8277529106885], [175.137407717421, -36.8277487619377], [175.137404552732, -36.8277393922252], [175.137405554408, -36.8277270120062], [175.137414099001, -36.8276843735034], [175.137413778722, -36.8276725737122], [175.13741061963, -36.8276636847289], [175.1374008053, -36.8276526219008], [175.137372922606, -36.8276305517485], [175.137364939363, -36.8276208540153], [175.137360975633, -36.8276079197888], [175.137362341367, -36.8275925119693], [175.137367709996, -36.8275766024721], [175.137387250933, -36.8275325444619], [175.137390765325, -36.8275195721638], [175.13739167741, -36.8275081588069], [175.137389144368, -36.8274952917412], [175.137376032385, -36.8274595647747], [175.137375690095, -36.8274496754567], [175.137378936872, -36.8274416896853], [175.137406262197, -36.8274204838891], [175.137409040807, -36.8274135244988], [175.137409111868, -36.8274049249631], [175.137398969901, -36.8273649539977], [175.137402076458, -36.8273382683477], [175.137419934568, -36.8272761627785], [175.137421488813, -36.8272604626992], [175.137420176484, -36.8272463502523], [175.137415097703, -36.8272261392932], [175.137408775637, -36.8272110200813], [175.137398006227, -36.8271978374679], [175.137362841577, -36.8271710229488], [175.137350690004, -36.8271575861458], [175.137341850116, -36.8271388170954], [175.137336425547, -36.8271168742164], [175.137334606717, -36.8270924481036], [175.137336523488, -36.8270671448798], [175.137344347633, -36.8270441930148], [175.137373154803, -36.8269972085048], [175.137382290458, -36.8269762431695], [175.137390250401, -36.8269437226156], [175.137394051166, -36.8269153346257], [175.137393836034, -36.8268899812001], [175.13738958193, -36.8268674884229], [175.137380657502, -36.8268494249658], [175.137352277211, -36.8268106273409], [175.13734540955, -36.8267939370992], [175.137344929487, -36.8267744483831], [175.137350126837, -36.8267529324335], [175.137360803936, -36.8267302410957], [175.137376388485, -36.8267076081982], [175.137396009874, -36.8266863288728], [175.137418389664, -36.8266678202057], [175.13744218264, -36.8266531862234], [175.137466276188, -36.8266431053466], [175.137487976521, -36.8266356740472], [175.13749871454, -36.8266353089179], [175.137504260516, -36.826639347522], [175.137510621037, -36.8266477038667], [175.137515583239, -36.8266576439414], [175.137514723774, -36.8266607492523]]}, "properties": {"OBJECTID": 11979, "TRACKNAME": "Track Te Matuku Bay Esp Res Section", "CONDITIONSOFUSE": "Te Matuku Bay Esplanade Res 1", "STATUS": "Closed Dieback", "WEBLINK": null, "VALIDATIONSTATE": 3, "created_user": "AC_owner", "last_edited_user": "AC_owner", "last_edited_date": 1789875254325, "created_date": 1789875254325, "PARK_SAPSITEID": null, "TRACK_ID": null, "KAURIDIEBACK_TRACK": null, "KAURIDIEBACK_MITIGATED": null, "SegmentID": null, "GlobalID": "bec41c0d-48c2-4ffb-b4b3-b9c1b3d7927a", "Shape__Length": 1381.9570230596598}}]}