{"type": "FeatureCollection", "features": [{"type": "Feature", "id": 680, "geometry": {"type": "LineString", "coordinates": [[174.563135912161, -36.8772568403605], [174.56313700578, -36.8772550638005], [174.563226656292, -36.8771882981586], [174.56324271967, -36.8771758606739], [174.563326435287, -36.877102352399], [174.563400434604, -36.8770316039071], [174.563438709, -36.8769943695751], [174.563506270259, -36.8769562000112], [174.563562561642, -36.8769370353127], [174.563634176902, -36.8769045540351], [174.563670928116, -36.8768867190632], [174.563727740405, -36.8768628422966], [174.563781214546, -36.8768348270954], [174.563820875246, -36.8768017657523], [174.563826480075, -36.8767613558137], [174.563822729009, -36.8767116587444], [174.563816762158, -36.8766787472492], [174.563822752532, -36.8766561432461], [174.563844347366, -36.8766306838401], [174.563874238018, -36.8765982918919], [174.563902967557, -36.8765716839676], [174.564015587123, -36.8765076917731], [174.564081335657, -36.8764752964689], [174.564146508932, -36.8764460544722], [174.564175206337, -36.8764178785276], [174.564199231383, -36.876385058952], [174.564228417736, -36.8763500532102], [174.56428602636, -36.8763036405372], [174.564352317811, -36.8762665237881], [174.56440369953, -36.8762327671114], [174.564433740539, -36.8762066645858], [174.564468610452, -36.8761637330453], [174.564499033749, -36.876125574194], [174.564513928437, -36.8760928837917], [174.564538487838, -36.8759977275892], [174.564598012305, -36.8758648664779], [174.56463303944, -36.875799407659], [174.564682593029, -36.8757431587911], [174.564710305892, -36.8757008442229], [174.564734211714, -36.8756633029473], [174.564755430148, -36.8756216237294], [174.5647645985, -36.8755947774564], [174.564760443102, -36.8755560824152], [174.564779849009, -36.8755207005769], [174.564813696798, -36.8754898336731], [174.564827871557, -36.8754257220458], [174.564830975614, -36.8753623060528], [174.564846445743, -36.8753259394657], [174.564872664556, -36.8752747480441], [174.564880999132, -36.875240584629], [174.56488226328, -36.8752107147046], [174.564877044126, -36.8751814709883], [174.564867011828, -36.875142330557], [174.564872454755, -36.8750951173768], [174.564877993661, -36.8750526080678], [174.564874704669, -36.8750222843301], [174.564862156419, -36.8749868546107], [174.564851199255, -36.8749639689913], [174.564862211963, -36.8749323932827], [174.564880783983, -36.874889694295], [174.56487879592, -36.8748593444091], [174.564880174257, -36.8748053794376], [174.564889256056, -36.8747753975356], [174.564898434935, -36.8747490739045], [174.564904624542, -36.874706565036], [174.564900087783, -36.8746788716957], [174.564895379103, -36.8746438525049], [174.564886068588, -36.8745790496578], [174.564862842615, -36.8745327729001], [174.564852961378, -36.8744999310292], [174.56485075382, -36.8744318798453], [174.564845433484, -36.8743261925102], [174.564846395193, -36.8742677532268], [174.564850564948, -36.8742175282158], [174.564862545122, -36.8741607916196], [174.564886708394, -36.874112800074], [174.564918894237, -36.8740692457518], [174.564964302951, -36.8740216143433], [174.565007195308, -36.873980424782], [174.565101281986, -36.8739128809267], [174.565306541208, -36.8737689688672], [174.565581196165, -36.8735813542107], [174.565819313962, -36.8734220185868], [174.56598160256, -36.8733160964042], [174.566058699449, -36.8732605295433], [174.566096405874, -36.8732247530523], [174.566122287748, -36.8731944955399], [174.566142623333, -36.873154702553], [174.566170638452, -36.8731019999115], [174.566194475104, -36.8730408163939], [174.566212831687, -36.8729722417864], [174.566214549664, -36.872931657619], [174.566207561917, -36.872858126057], [174.566200901533, -36.8727995258327], [174.566201034178, -36.872747235774], [174.56621331951, -36.8727033034465], [174.56623092017, -36.8726603466398], [174.566260564734, -36.8726204219111], [174.566294311134, -36.8725857791986], [174.566332082273, -36.8725531926204], [174.566371177244, -36.8725206066061], [174.566422238987, -36.872487826766], [174.566470784737, -36.8724614978083], [174.566523410425, -36.8724393785082], [174.566593154954, -36.872410597721], [174.56663536677, -36.8723982422748], [174.566682982387, -36.8723889973893], [174.566735979562, -36.8723828723651], [174.566811608211, -36.8723796217054], [174.566886197912, -36.8723881204985], [174.566983473972, -36.872401629116], [174.567054344345, -36.8724219216664], [174.56714676321, -36.872455774968], [174.56744868692, -36.8725889715113], [174.56760575345, -36.8726602887301], [174.567748019902, -36.8727243557232], [174.567866090216, -36.8727759604363], [174.567953139417, -36.8728066931153], [174.568037355307, -36.8728299907881], [174.568105229368, -36.8728353956079], [174.568158204788, -36.8728281976077], [174.568205765765, -36.8728168256065], [174.568246391503, -36.8727927457109], [174.56828414033, -36.8727591042155], [174.568313717739, -36.8727170436322], [174.568324743766, -36.872676327573], [174.568324678034, -36.8726155041992], [174.568315664559, -36.872569743591], [174.56829962823, -36.8725080854259], [174.568285517414, -36.872472009679], [174.56827507072, -36.8724219955035], [174.568264657367, -36.8723730625269], [174.568281896276, -36.8723141199507], [174.568300841608, -36.8722711450994], [174.568348336113, -36.8721989316488], [174.568455488759, -36.8720639527022], [174.568611972805, -36.8718791438399], [174.568988063236, -36.8714232063692], [174.569108317487, -36.8712805544649], [174.569213301848, -36.8711669388334], [174.569283316867, -36.8710922643144], [174.569367748577, -36.871008845371], [174.569517107917, -36.8708614910953], [174.57009037993, -36.8703161888802], [174.570322088765, -36.8701099768229], [174.570640587181, -36.8698085775192], [174.57084562658, -36.8696062142788], [174.570941571157, -36.8694956911563], [174.571037713987, -36.8693609005344], [174.5711263371, -36.8692122741282], [174.571207640589, -36.8690573898049], [174.571281776463, -36.8689250262206], [174.571328630876, -36.868825084989], [174.571353522641, -36.868752141685], [174.571375307023, -36.8686600403484], [174.571404330978, -36.8685358086792], [174.571442805762, -36.8684178427095], [174.571486170513, -36.8683304855805], [174.571523913795, -36.8682512970595], [174.571568435353, -36.8681744165148], [174.571593189772, -36.8681369527865], [174.571638435502, -36.8680740698837], [174.571693393528, -36.8680028380321], [174.57247663831, -36.8670717921155], [174.572724244884, -36.8667810691905], [174.572770222672, -36.8667348244248], [174.572833160687, -36.8666808377494], [174.572873656098, -36.8666506287242], [174.572916049593, -36.8666221702538], [174.572960241532, -36.866595526751], [174.572999460693, -36.8665742040311], [174.573062370466, -36.8665434728843], [174.573105384217, -36.8665244795056], [174.573149196923, -36.8665067013936], [174.573216287378, -36.8664823595938], [174.573277773142, -36.8664631576465], [174.573364355056, -36.8664401801561], [174.573452324865, -36.8664208798307], [174.573511615647, -36.8664100715155], [174.573571333505, -36.8664009430719], [174.573653564314, -36.8663911739384], [174.573804181217, -36.8663814094138], [174.57388333576, -36.8663737089411], [174.573922652113, -36.8663664369458], [174.573968026642, -36.8663509814017], [174.574012353067, -36.8663265440798], [174.574046601186, -36.866298066914], [174.574075596387, -36.866261799401], [174.573913789644, -36.8661761495341], [174.573807671234, -36.866121724376], [174.573635920695, -36.8660336369252], [174.573596122118, -36.8660146583829], [174.573571234916, -36.8659996286545], [174.573548085882, -36.8659829264016], [174.573526834429, -36.8659646666918], [174.573507640156, -36.8659449736043], [174.573489347924, -36.8659205814592], [174.573467524022, -36.8658651118641], [174.573457959361, -36.8658253980809], [174.5734526965, -36.8657821120025], [174.573450373582, -36.8657399587721], [174.57346434662, -36.8656270577688], [174.573558799372, -36.8656225170475], [174.573650578315, -36.8656177863188], [174.573772878121, -36.8656079641931], [174.573900937601, -36.8655945503219], [174.574199168736, -36.865558961845], [174.574658569181, -36.8655086088404], [174.574733178728, -36.8655003280676], [174.574826415368, -36.8654955771146], [174.574918266191, -36.8654943597876], [174.574997067614, -36.8654968306835], [174.575074459193, -36.8655016637691], [174.575166526487, -36.8655109893759], [174.575298126827, -36.8655279932728], [174.575453246879, -36.865554059414], [174.575942199559, -36.865644833273], [174.576116417817, -36.8656776759167], [174.576458023205, -36.8657399339249]]}, "properties": {"OBJECTID": 680, "TRACKNAME": "Tram Valley Road", "CONDITIONSOFUSE": null, "STATUS": "Open", "WEBLINK": null, "VALIDATIONSTATE": 3, "created_user": "AC_owner", "last_edited_user": "AC_owner", "last_edited_date": 1789875254325, "created_date": 1789875254325, "PARK_SAPSITEID": null, "TRACK_ID": null, "KAURIDIEBACK_TRACK": null, "KAURIDIEBACK_MITIGATED": null, "SegmentID": null, "GlobalID": "0d5622d7-e8b6-4449-88eb-22e38115fb48", "Shape__Length": 2131.3151851061975}}, {"type": "Feature", "id": 3098, "geometry": {"type": "LineString", "coordinates": [[174.56089760696, -36.8791105739611], [174.56089949839, -36.8791069778968], [174.560901506635, -36.8791035533602], [174.560903632833, -36.8791003012378], [174.560905874706, -36.8790972197567], [174.560908234533, -36.8790943106898], [174.560910712295, -36.8790915731359], [174.560913305769, -36.8790890080257], [174.560916017178, -36.8790866144284], [174.560918845402, -36.8790843923589], [174.560921791561, -36.8790823418023], [174.560924854534, -36.8790804627735], [174.56092803434, -36.8790787561735], [174.56093133096, -36.8790772211012], [174.560934691695, -36.8790758041669], [174.560937982609, -36.8790743746293], [174.560941199106, -36.8790729271406], [174.560944341166, -36.8790714607996], [174.560947407686, -36.8790699765224], [174.560950399788, -36.879068474294], [174.560953317454, -36.8790669532134], [174.560956160703, -36.8790654141817], [174.560958928393, -36.8790638563126], [174.560961621665, -36.8790622804923], [174.56096424052, -36.8790606867211], [174.560966783816, -36.8790590741124], [174.560969252695, -36.8790574435526], [174.560971647155, -36.8790557950418], [174.56097396718, -36.8790541276788], [174.560976211665, -36.8790524423795], [174.560978381713, -36.879050738228], [174.560980476222, -36.8790490161403], [174.560982497435, -36.8790472760867], [174.56098444309, -36.8790455171958], [174.560986326611, -36.8790437374884], [174.560988241836, -36.8790419168029], [174.5609902089, -36.8790400521706], [174.560992227749, -36.8790381408883], [174.560994297315, -36.879036185674], [174.560996419824, -36.879034185597], [174.560998593015, -36.8790321397859], [174.561000818026, -36.8790300491268], [174.561003094859, -36.87902791362], [174.561005423513, -36.8790257332652], [174.561007803988, -36.8790235080626], [174.561010235143, -36.8790212371257], [174.56101271926, -36.8790189222273], [174.561015254059, -36.8790165615947], [174.561017840678, -36.8790141561142], [174.561020479099, -36.8790117048846], [174.561023168239, -36.8790092097231], [174.561025910303, -36.8790066687978], [174.561028703085, -36.8790040839404], [174.561031547669, -36.8790014533341], [174.561034444019, -36.8789987751764], [174.561037366161, -36.878995875845], [174.561040298431, -36.8789926473814], [174.561043240868, -36.878989091588], [174.561046193434, -36.8789852066625], [174.561049156148, -36.8789809935061], [174.561052130131, -36.8789764521039], [174.56105511314, -36.8789715824856], [174.561058107418, -36.8789663846215], [174.561061110722, -36.8789608585412], [174.561064125277, -36.878955003314], [174.561067149997, -36.8789488207571], [174.561070184846, -36.878942309068], [174.561073229843, -36.8789354691479], [174.561076286108, -36.8789283009822], [174.561079351399, -36.8789208046002], [174.561082426837, -36.8789129799873], [174.561085513526, -36.8789048262275], [174.56108861038, -36.8788963451379], [174.561091717363, -36.8788875349161], [174.561094834511, -36.8788783973645], [174.561098050798, -36.8788691142916], [174.561101540549, -36.8788600367426], [174.561105306228, -36.8788511755015], [174.561109347779, -36.878842527865], [174.561113666361, -36.8788340956206], [174.561118261974, -36.8788258787682], [174.561123132337, -36.8788178755351], [174.561128280871, -36.8788100885803], [174.561133704156, -36.8788025152446], [174.561139404471, -36.8787951573009], [174.561145381816, -36.878788014749], [174.56115163393, -36.8787810867173], [174.561158164178, -36.8787743731615], [174.561164969213, -36.8787678750269], [174.561172052382, -36.8787615913681], [174.561179410338, -36.8787555231305], [174.561187045305, -36.8787496693833], [174.561194956182, -36.8787440310424], [174.56120314407, -36.8787386071918], [174.561211608971, -36.8787333978315], [174.561220284428, -36.8787283903142], [174.561228804201, -36.8787235065265], [174.561237108601, -36.8787187355351], [174.561245196489, -36.8787140764535], [174.561253070126, -36.8787095301534], [174.561260728354, -36.8787050948475], [174.56126817121, -36.8787007723379], [174.561275398657, -36.8786965608225], [174.56128241075, -36.8786924630047], [174.561289207434, -36.8786884761811], [174.56129578985, -36.8786846012383], [174.561302155772, -36.8786808391067], [174.561308306303, -36.8786771888705], [174.561314242567, -36.8786736505152], [174.561319962318, -36.8786702240701], [174.561325466697, -36.8786669104217], [174.561330756809, -36.8786637086542], [174.56133583153, -36.8786606187823], [174.56134068974, -36.8786576408207], [174.561345333681, -36.8786547747401], [174.56134976672, -36.8786520204963], [174.561354131497, -36.878649330245], [174.561358497191, -36.8786466850499], [174.561362863748, -36.8786440822075], [174.561367231221, -36.8786415244212], [174.561371599557, -36.8786390089877], [174.561375967688, -36.8786365386251], [174.561380337803, -36.8786341106005], [174.561384708835, -36.878631727632], [174.561389080729, -36.8786293870163], [174.561393453541, -36.8786270914568], [174.561397827214, -36.8786248382499], [174.561402201787, -36.8786226291981], [174.561406577258, -36.8786204643013], [174.56141095361, -36.8786183426584], [174.56141533086, -36.8786162651705], [174.561419708991, -36.8786142309364], [174.561424088003, -36.8786122399563], [174.561428467914, -36.8786102931312], [174.561432848723, -36.878608390461], [174.561437230413, -36.8786065310448], [174.561441665779, -36.8786046628106], [174.561446233969, -36.8786027053982], [174.561450937245, -36.878600659679], [174.561455774465, -36.8785985247668], [174.561460745613, -36.8785962997603], [174.561465851846, -36.8785939864471], [174.561471090902, -36.8785915839555], [174.561476465025, -36.8785890922559], [174.561481973076, -36.8785865104621], [174.561487616211, -36.8785838403614], [174.56149339217, -36.8785810810823], [174.561499303195, -36.8785782325952], [174.561505348166, -36.8785752949148], [174.561511527082, -36.8785722680412], [174.561517839942, -36.8785691519742], [174.561524287869, -36.8785659466992], [174.561530869741, -36.8785626522309], [174.561537585558, -36.8785592685692], [174.56154443532, -36.8785557957142], [174.561551419026, -36.8785522336657], [174.561558501022, -36.8785485946102], [174.561565519633, -36.8785449284449], [174.561572457022, -36.8785412408126], [174.561579310983, -36.878537533545], [174.561586083722, -36.8785338048103], [174.561592774136, -36.8785300555244], [174.561599383328, -36.8785262847715], [174.561605910214, -36.8785224943686], [174.561612354756, -36.8785186825134], [174.561618716974, -36.8785148501071], [174.56162499797, -36.8785109962339], [174.561631195537, -36.8785071227254], [174.561637311883, -36.8785032277499], [174.561643347026, -36.8784993122087], [174.561649299844, -36.8784953761163], [174.561655169196, -36.8784914185866], [174.561660958468, -36.8784874404763], [174.561666664292, -36.8784834418298], [174.561672288914, -36.8784794226175], [174.56167783121, -36.8784753828543], [174.561683305782, -36.8784713232494], [174.561688977974, -36.8784672709619], [174.561694950117, -36.8784632372657], [174.561701222193, -36.8784592212596], [174.56170779308, -36.8784552229585], [174.561714663899, -36.8784512423473], [174.56172183467, -36.8784472803273], [174.561729304251, -36.878443336012], [174.561737073765, -36.8784394093866], [174.561745143211, -36.8784355004511], [174.561753511486, -36.8784316101212], [174.561762179676, -36.8784277365799], [174.561771147816, -36.8784238816293], [174.561780414785, -36.8784200452843], [174.561789981668, -36.8784162257276], [174.561799848501, -36.8784124247615], [174.561810014146, -36.8784086414996], [174.561820479722, -36.8784048759269], [174.561831245248, -36.8784011289446], [174.561842309585, -36.8783973996662], [174.561853673854, -36.8783936880768], [174.561865024385, -36.8783900181298], [174.561875996017, -36.8783864198638], [174.561886587594, -36.8783828914912], [174.561896800255, -36.8783794338986], [174.561906633982, -36.878376046185], [174.561916087672, -36.8783727292663], [174.561925162446, -36.8783694831278], [174.561933857184, -36.8783663077845], [174.561942172987, -36.8783632023204], [174.561950109894, -36.878360168538], [174.561957666727, -36.8783572037487], [174.561964844664, -36.8783543106411], [174.561971642545, -36.8783514874279], [174.56197806153, -36.8783487358966], [174.561984101563, -36.8783460533439], [174.561989761578, -36.8783434424879], [174.561995042659, -36.8783409015118], [174.561999943704, -36.8783384313314], [174.562004465835, -36.8783360319321], [174.562008609032, -36.8783337024127], [174.562012458289, -36.8783314290369], [174.562016310983, -36.8783291592211], [174.562020190598, -36.8783268890514], [174.562024097134, -36.8783246185276], [174.562028030608, -36.8783223485508], [174.562031990984, -36.8783200773189], [174.562035979403, -36.8783178057183], [174.562039994742, -36.8783155337635], [174.562044037001, -36.8783132614547], [174.56204810618, -36.8783109887918], [174.562052203421, -36.8783087166613], [174.562056327563, -36.8783064432755], [174.562060478625, -36.8783041695357], [174.562064656608, -36.8783018954419], [174.562068862633, -36.8782996209792], [174.562073095579, -36.8782973461624], [174.562077355463, -36.8782950718927], [174.562081642249, -36.8782927963677], [174.562085957078, -36.878290520474], [174.562090298826, -36.8782882442261], [174.562094667183, -36.8782859523051], [174.562099058294, -36.8782834554744], [174.562103472086, -36.8782806951462], [174.562107907475, -36.8782776731375], [174.562112364442, -36.8782743885472], [174.562116842987, -36.8782708413752], [174.562121343111, -36.8782670316217], [174.562125865934, -36.8782629592717], [174.562130410336, -36.87825862434], [174.562134977437, -36.878254026812], [174.562139564995, -36.8782491667171], [174.562144175271, -36.8782440449269], [174.562148807106, -36.878238659654], [174.562153460538, -36.8782330127005], [174.562158135529, -36.8782271022642], [174.562162833238, -36.8782209301326], [174.562167552525, -36.8782144954195], [174.562172293389, -36.8782077981246], [174.562177056953, -36.8782008382333], [174.562181840972, -36.8781936157751], [174.562186647709, -36.8781861316217], [174.562191439054, -36.8781786629936], [174.562196180777, -36.8781714573156], [174.562200874, -36.8781645145728], [174.562205517602, -36.87815783478], [174.562210111582, -36.8781514179374], [174.562214657063, -36.8781452640299], [174.562219154025, -36.8781393721567], [174.562223601385, -36.8781337441346], [174.562228000246, -36.8781283790478], [174.562232349466, -36.87812327601], [174.562236650188, -36.8781184359074], [174.562240901307, -36.8781138596561], [174.562245103908, -36.878109545439], [174.562249256888, -36.8781054941719], [174.562253361369, -36.8781017058401], [174.56225741623, -36.8780981804585], [174.562261422572, -36.878094917111], [174.562265379313, -36.8780919176148], [174.562269287554, -36.8780891810539], [174.562273146157, -36.878086706542], [174.562277021045, -36.8780844256097], [174.562281083402, -36.8780821494232], [174.562285343103, -36.8780798670362], [174.562289802409, -36.8780775793204], [174.562294457937, -36.8780752854188], [174.562299313053, -36.8780729852871], [174.562304365531, -36.8780706798561], [174.562309615371, -36.8780683691255], [174.562315063658, -36.8780660512785], [174.562320710447, -36.8780637290183], [174.562326554561, -36.8780613996563], [174.562332596037, -36.8780590649947], [174.562338835997, -36.8780567250188], [174.562345274423, -36.8780543788274], [174.562351910191, -36.8780520264351], [174.562358744444, -36.8780496687285], [174.562365777162, -36.8780473048062], [174.562373007223, -36.878044934683], [174.562380434646, -36.87804255926], [174.562388060553, -36.8780401785224], [174.562395854529, -36.8780377865606], [174.562403557778, -36.8780353471175], [174.562411107265, -36.8780328502057], [174.562418505251, -36.8780302966968], [174.562425750597, -36.8780276857045], [174.562432842181, -36.8780250172436], [174.562439782265, -36.8780222921856], [174.562446569726, -36.8780195105454], [174.562453204529, -36.8780166705208], [174.562459686728, -36.8780137748151], [174.562466016268, -36.8780108207251], [174.562472194308, -36.8780078100381], [174.562478218605, -36.8780047427839], [174.562484090261, -36.8780016180464], [174.562489810398, -36.877998435811], [174.562495376791, -36.8779951970084], [174.562500791666, -36.8779919007078], [174.562506053919, -36.8779885478253], [174.56251116241, -36.8779851374744], [174.562516119382, -36.8779816696257], [174.562520924854, -36.8779781451804], [174.562525656626, -36.8779745829452], [174.562530367693, -36.877970995744], [174.562535059195, -36.8779673844629], [174.562539729974, -36.8779637473145], [174.562544381188, -36.8779600860864], [174.562549012819, -36.8779563998773], [174.562553623744, -36.8779526887021], [174.562558215087, -36.877948952546], [174.562562786864, -36.8779451923101], [174.562567337937, -36.8779414071081], [174.562571869407, -36.877937596024], [174.562576380192, -36.877933760875], [174.562580871411, -36.8779299016461], [174.562585343028, -36.8779260165352], [174.562589793941, -36.8779221064582], [174.562594225289, -36.8779181723015], [174.562598635931, -36.8779142131786], [174.562603026991, -36.8779102290748], [174.562607398467, -36.8779062199902], [174.562611749256, -36.8779021868405], [174.562616096036, -36.877898177179], [174.562620471203, -36.8778942942366], [174.562624877093, -36.8778905424897], [174.562629311444, -36.8778869210664], [174.562633776518, -36.8778834308386], [174.562638272296, -36.8778800709049], [174.562642796553, -36.877876842196], [174.562647351516, -36.8778737437814], [174.562651936079, -36.8778707765768], [174.562656550225, -36.8778679396812], [174.562661193972, -36.8778652339956], [174.562665868424, -36.8778626586043], [174.562670572459, -36.8778602135219], [174.562675306095, -36.8778578996495], [174.562680069314, -36.8778557160861], [174.562684863256, -36.877853663718], [174.562689686781, -36.8778517416587], [174.562694539907, -36.8778499508096], [174.562699422616, -36.8778482902693], [174.562704336049, -36.8778467609243], [174.562709294345, -36.8778453409559], [174.562714396954, -36.8778439001604], [174.562719661307, -36.8778424130704], [174.562725088526, -36.877840879671], [174.562730677508, -36.8778393008781], [174.562736429356, -36.8778376757759], [174.562742342967, -36.8778360052802], [174.562748419463, -36.8778342893761], [174.562754657703, -36.8778325271774], [174.562761057687, -36.8778307186839], [174.562767620556, -36.8778288647821], [174.562774346309, -36.8778269654719], [174.562781233806, -36.8778250198669], [174.562788283048, -36.877823027967], [174.562795495174, -36.8778209906587], [174.562802869062, -36.8778189079565], [174.562810405817, -36.8778167789448], [174.562818104334, -36.8778146045392], [174.562825965717, -36.8778123838239], [174.562833988844, -36.8778101168135], [174.562842168106, -36.8778078035819], [174.562850241804, -36.877805375462], [174.562858066748, -36.8778027982826], [174.562865642921, -36.8778000711426], [174.562872972564, -36.8777971940126], [174.562880054576, -36.8777941678084], [174.562886887797, -36.8777909907427], [174.562893473405, -36.8777876655041], [174.562899811344, -36.8777841893893], [174.562905901651, -36.8777805642006], [174.562911743186, -36.8777767890515], [174.562917338193, -36.8777728639127], [174.562922684445, -36.8777687897149], [174.562927783048, -36.8777645655421], [174.562932634018, -36.8777601922956], [174.562937236199, -36.8777556681878], [174.562941591869, -36.8777509949915], [174.562945698767, -36.8777461718352], [174.562949558033, -36.8777411996052], [174.562953169649, -36.8777360774005], [174.562956533615, -36.877730805221], [174.56295971964, -36.8777253902621], [174.562962846918, -36.8777198453778], [174.562965917673, -36.8777141696373], [174.562968930801, -36.8777083639566], [174.562971887407, -36.8777024274198], [174.562974786387, -36.8776963609428], [174.562977628862, -36.8776901645108], [174.562980414814, -36.8776838372227], [174.562983141999, -36.8776773791081], [174.562985813802, -36.8776707910237], [174.562988427979, -36.8776640729992], [174.562990984512, -36.8776572241333], [174.562993484539, -36.8776502453125], [174.562995926922, -36.8776431356504], [174.562998312801, -36.8776358960334], [174.563000642157, -36.8776285255602], [174.563002913887, -36.877621025147], [174.56300512799, -36.8776133947935], [174.563007285571, -36.8776056335839], [174.563009386629, -36.8775977415184], [174.563011421822, -36.8775897556757], [174.563013356686, -36.8775818567826], [174.563015184969, -36.877574068357], [174.56301690555, -36.8775663904136], [174.563018520689, -36.877558823824], [174.563020029229, -36.8775513668008], [174.563021430085, -36.8775440211609], [174.563022725482, -36.8775367859736], [174.563023914297, -36.8775296612539], [174.56302499655, -36.8775226479027], [174.563025972204, -36.8775157441179], [174.563026841296, -36.8775089517016], [174.563027603806, -36.8775022697529], [174.563028259736, -36.8774956982716], [174.563028809104, -36.8774892381589], [174.563029251891, -36.8774828885137], [174.563029588097, -36.8774766493359], [174.563029817723, -36.8774705206257], [174.563029940768, -36.8774645023829], [174.56302995725, -36.8774585955087], [174.563029875023, -36.8774527998998], [174.563029881239, -36.8774471599653], [174.563030053662, -36.8774416927095], [174.563030393413, -36.8774363981176], [174.563030899354, -36.8774312753032], [174.563031571519, -36.8774263260687], [174.563032410995, -36.877421548597], [174.563033417818, -36.8774169446904], [174.563034589707, -36.8774125125761], [174.563035930065, -36.877408254012], [174.56303743549, -36.8774041672403], [174.563039109365, -36.8774002531177], [174.563040948325, -36.8773965116886], [174.563042955735, -36.8773929429086], [174.56304512823, -36.877389546822], [174.563047468053, -36.8773863233993], [174.563049975205, -36.8773832726404], [174.563052648564, -36.8773803945602], [174.563055488129, -36.8773776891586], [174.563058495023, -36.8773751564208], [174.563061668105, -36.8773727954605], [174.563064900781, -36.8773704959104], [174.563068049793, -36.8773681100283], [174.563071115159, -36.8773656387153], [174.563074097964, -36.8773630801544]]}, "properties": {"OBJECTID": 3098, "TRACKNAME": "Tram Valley Road", "CONDITIONSOFUSE": null, "STATUS": "Closed Dieback", "WEBLINK": null, "VALIDATIONSTATE": 3, "created_user": "AC_owner", "last_edited_user": "AC_owner", "last_edited_date": 1789875254325, "created_date": 1789875254325, "PARK_SAPSITEID": null, "TRACK_ID": null, "KAURIDIEBACK_TRACK": null, "KAURIDIEBACK_MITIGATED": null, "SegmentID": null, "GlobalID": "109c3ae4-247a-4f5e-8984-b2d02aa05ef2", "Shape__Length": 289.5639575987195}}]}