{"type": "FeatureCollection", "features": [{"type": "Feature", "id": 12009, "geometry": {"type": "LineString", "coordinates": [[175.087022706243, -36.8055385105601], [175.08704273437, -36.8055335109281], [175.08703062072, -36.805517093668], [175.087030676816, -36.8055161048558], [175.087022296067, -36.8054332817019], [175.087021592886, -36.805426372045], [175.087021591594, -36.8054263657585], [175.086834831505, -36.8049934825125], [175.086834829142, -36.8049934780475], [175.086682519687, -36.8046975113801], [175.086682516155, -36.804697505133], [175.086557786117, -36.8044826941569], [175.086557781441, -36.8044826870285], [175.086422956121, -36.8042895275203], [175.086336993709, -36.8041064935843], [175.086333981948, -36.8041000877061], [175.086331588577, -36.8040949922848]]}, "properties": {"OBJECTID": 12009, "TRACKNAME": "Trigg Hill Road", "CONDITIONSOFUSE": "Trig Hill Walkways", "STATUS": "Open", "WEBLINK": null, "VALIDATIONSTATE": 3, "created_user": "AC_owner", "last_edited_user": "AC_owner", "last_edited_date": 1789875254325, "created_date": 1789875254325, "PARK_SAPSITEID": null, "TRACK_ID": null, "KAURIDIEBACK_TRACK": null, "KAURIDIEBACK_MITIGATED": null, "SegmentID": null, "GlobalID": "f737746c-730c-4abd-a0b4-855e35801d91", "Shape__Length": 174.45906802165962}}]}