{"type": "FeatureCollection", "features": [{"type": "Feature", "id": 3315, "geometry": {"type": "LineString", "coordinates": [[174.47949695432, -37.0047854432887], [174.479267019661, -37.0048468007742], [174.479107359013, -37.0050149411009], [174.478516538853, -37.0054785995577], [174.47827698284, -37.0055459744136], [174.477796179676, -37.005823836245], [174.477496338036, -37.0060028562519], [174.477215606858, -37.0060170828561], [174.476759923812, -37.005979827359], [174.476613595805, -37.006024575491]]}, "properties": {"OBJECTID": 3315, "TRACKNAME": "Tunnel Point Campground", "CONDITIONSOFUSE": "Waitakere West Regional Park", "STATUS": "Open", "WEBLINK": "https://www.aucklandcouncil.govt.nz/en/parks-recreation/find-park-beach/park-detail/3451.html", "VALIDATIONSTATE": 3, "created_user": "AC_owner", "last_edited_user": "AC_owner", "last_edited_date": 1789875254325, "created_date": 1789875254325, "PARK_SAPSITEID": null, "TRACK_ID": null, "KAURIDIEBACK_TRACK": null, "KAURIDIEBACK_MITIGATED": null, "SegmentID": null, "GlobalID": "b94e469b-8570-4939-a5a1-058e5208c701", "Shape__Length": 306.89410424306925}}]}