{"type": "FeatureCollection", "features": [{"type": "Feature", "id": 429, "geometry": {"type": "LineString", "coordinates": [[174.558357811404, -36.9946870034197], [174.558402775843, -36.9945429990228], [174.558433660535, -36.9944821488586], [174.558531791422, -36.9944358106609], [174.558597671336, -36.9943943936862], [174.558838022053, -36.994201322228], [174.558925850465, -36.9939817261452], [174.558939832775, -36.993923558565], [174.558919748772, -36.9938887057518], [174.55883099011, -36.9938139328137], [174.558539069162, -36.9936180725262], [174.558474013261, -36.9935858653021], [174.558332504944, -36.9935411506968], [174.558093535192, -36.9934863134213], [174.558018815347, -36.9934761086123], [174.557693275052, -36.9934806523219], [174.557491353326, -36.9935062238221], [174.557364097004, -36.9934925077664], [174.557294216832, -36.9934733156131], [174.557091194712, -36.9933556581263], [174.557038102122, -36.9933364438571], [174.556897434854, -36.9933863764058], [174.556657845129, -36.9934537405554], [174.556455167442, -36.9934896496965], [174.556372992386, -36.9934924129207], [174.55630440011, -36.9934796119001], [174.556209411502, -36.993446362799], [174.556097631006, -36.9933621821044], [174.556061130716, -36.9933449401204], [174.555699913323, -36.9932772070711], [174.5556398301, -36.9932904513404], [174.555475501735, -36.9933582597016], [174.555381581627, -36.9934375747289], [174.555347202974, -36.9934555295344], [174.555276837461, -36.9934737215942], [174.55512067744, -36.9934973823873], [174.55506665477, -36.9935146931694], [174.554989062186, -36.9935614985197], [174.554908455926, -36.9936324814987], [174.554874719848, -36.9936522034122], [174.554792156506, -36.9936717808365], [174.554719774245, -36.9936709624455], [174.554391752472, -36.9936165902314], [174.554212470286, -36.993574195172], [174.55370976396, -36.9934945723262], [174.55349900939, -36.9933765772182], [174.553340795305, -36.9932164228568], [174.553138821842, -36.9930842510685], [174.553081025384, -36.9930767961209], [174.552908517025, -36.9930971977382], [174.552813743791, -36.9930849445755], [174.552550203853, -36.993030633876], [174.552350431575, -36.9929331339755], [174.552302285248, -36.9928973671443], [174.552190879279, -36.9927755283388], [174.551877781634, -36.9923615668327], [174.55168475993, -36.9921349579623], [174.551520873675, -36.9919967240152], [174.551518094867, -36.9919677998984], [174.551556908423, -36.9918716770388], [174.551557266635, -36.9918312376976], [174.551431969979, -36.991612359881], [174.55135186217, -36.9915060560051], [174.551325940577, -36.9914413983316], [174.551322436051, -36.9914099328661], [174.551332372386, -36.9913890718815], [174.551450391532, -36.9912906968588], [174.551516258963, -36.9912093360172], [174.551543193936, -36.9911623749661], [174.551561752379, -36.9910272179369], [174.55152986485, -36.9907845040419], [174.551608151477, -36.9905257839347], [174.551578544131, -36.990372066797], [174.551533845349, -36.9902426310757], [174.551508358995, -36.990204359335], [174.551411684613, -36.9901199044919], [174.551382819108, -36.990083434532], [174.551332810049, -36.9899569614801], [174.551310430726, -36.9898470546531], [174.551307074681, -36.9897786407994], [174.551330934114, -36.9896151390582], [174.551341765736, -36.9895930044732], [174.551416645723, -36.9895089930715], [174.551459507874, -36.9894241563096], [174.551432483189, -36.9892050482669], [174.551421649481, -36.9891739760466], [174.551403873736, -36.9891557216688], [174.551328798757, -36.9891255702962], [174.551121208788, -36.9890940051282], [174.550850436858, -36.9890812111526], [174.550446117443, -36.9890847721933], [174.550027052364, -36.9890505053803], [174.549983638204, -36.989034577616], [174.549922701257, -36.9889569196842], [174.549892979219, -36.9889341070103], [174.549703884919, -36.9888643238179], [174.549642991623, -36.988850264621], [174.549579347952, -36.988859586341], [174.549184440557, -36.9889626106593], [174.548972141364, -36.989057788332], [174.548936615806, -36.9890507527269], [174.548856137715, -36.9890089887604], [174.548805825974, -36.9890042011644], [174.54849412971, -36.989047801709], [174.548295122555, -36.989120288957], [174.548196994243, -36.9891174048125], [174.548113169615, -36.9891017691485], [174.548037193428, -36.9890359608966], [174.547985793526, -36.9889597459076], [174.547957171701, -36.9888847480807], [174.547936763353, -36.9887476480596], [174.54794801592, -36.9886386899578], [174.547995483927, -36.9885508649324], [174.548046209675, -36.9883687699461], [174.548020782801, -36.988017330523], [174.547989975791, -36.9879536912004], [174.547849367428, -36.987788459251], [174.54780160766, -36.9877775988709], [174.547715479677, -36.98778517575], [174.547544707439, -36.9878103420357], [174.547314635115, -36.9878623212938], [174.547225639533, -36.9878930819551], [174.547105430206, -36.9879881914388], [174.546956112336, -36.9880130681995], [174.546901602796, -36.9880151216921], [174.546852007128, -36.9880068176614], [174.546542420615, -36.9879153087505], [174.546510132715, -36.9878966658576], [174.546495053487, -36.9878594651961], [174.546452795603, -36.9874361003216], [174.546422164406, -36.9874043752037], [174.546282332896, -36.987320586526], [174.546254199398, -36.9872917942747], [174.546265358388, -36.9872558020664], [174.546418074207, -36.9870375415984], [174.546432516346, -36.9870038861693], [174.546387479555, -36.9870170468558], [174.546201221523, -36.9871408137236], [174.546164490451, -36.9871535416341], [174.546139412085, -36.9871274676949], [174.546065919576, -36.9869782415556], [174.546033372482, -36.9869456579627], [174.545812561729, -36.9868489345362], [174.545650195596, -36.9868308047485], [174.545544860869, -36.9867831428458], [174.545265607538, -36.9865284059754], [174.544969156698, -36.9863076840353], [174.544803891387, -36.9861389205187], [174.544660011605, -36.9859208628177], [174.544610626516, -36.9858762215175], [174.544458941039, -36.9858021843094], [174.544399899103, -36.9857806080376], [174.544326188776, -36.9857781960975], [174.544133237406, -36.9857915408498], [174.543787136923, -36.9859285692245], [174.543618435738, -36.9860160495484], [174.543487754027, -36.9860989791156], [174.543442986201, -36.9861115493078], [174.5433400806, -36.9860744447376], [174.5432835993, -36.9860383498546], [174.543187059313, -36.9858502757191], [174.543159244876, -36.9858171700892], [174.543102075284, -36.9858042759036], [174.542861905819, -36.9857901102378], [174.542694485327, -36.9857179608304], [174.542672064853, -36.9856904454759], [174.542631278293, -36.9855997225155], [174.542606751152, -36.9855758219182], [174.54241134146, -36.9855325186709], [174.542259974202, -36.9854423853111], [174.54216183938, -36.9853165064274], [174.54196622825, -36.9850255219201], [174.541715710076, -36.9848219245281], [174.541704311538, -36.9847999353281], [174.541703916291, -36.9847753425026], [174.541745024227, -36.9845747889819], [174.541744087835, -36.9844582560266], [174.541694700285, -36.9843248481275], [174.541632659364, -36.9842096947397], [174.541606866063, -36.9841786896688], [174.541577333856, -36.9841795419521], [174.541483837043, -36.9842198840829], [174.541379666783, -36.9842402014554], [174.541327086986, -36.9842397666031], [174.541233219439, -36.9842216515023], [174.541195175941, -36.9842244349496], [174.541153744105, -36.9842491743088], [174.541011822604, -36.984361955757], [174.540956978865, -36.984386310343], [174.54077992261, -36.984394900417], [174.540651555077, -36.9843736633557], [174.540612652203, -36.9843739520067], [174.540573182128, -36.9843979265903], [174.540409347036, -36.9845534545729], [174.54037540741, -36.9845680913897], [174.540334909513, -36.9845672919852], [174.540173399305, -36.9845422752023], [174.540137874675, -36.9845273410497], [174.540147911571, -36.9844957535339], [174.540313915948, -36.9842744980207], [174.540333060146, -36.984229866872], [174.540317916439, -36.984202653212], [174.540198331185, -36.9840808997918], [174.540144593429, -36.9839444560148], [174.540123563374, -36.9838587757262], [174.540110039052, -36.9838399867163], [174.540069148367, -36.983822472185], [174.539998517913, -36.9838077681612], [174.539821374187, -36.9837913363215], [174.539751044469, -36.9837960073738], [174.539706209548, -36.9838119030221], [174.539627210791, -36.9838697672391], [174.539598516612, -36.9839038320924], [174.539589334194, -36.9839438181215], [174.539478935907, -36.9841144884689], [174.539452884219, -36.9841391899912], [174.539425595533, -36.9841499005002], [174.539157121867, -36.9841905542307], [174.538850732999, -36.9841199129316], [174.538670812596, -36.9841447072931], [174.538351854874, -36.984233776454], [174.538144110236, -36.984314138635], [174.538020672889, -36.9843820328983], [174.53790380121, -36.9844004747566], [174.537777135804, -36.9844090563803], [174.537315585957, -36.9843831545703], [174.537185157866, -36.9843694667504], [174.537138202628, -36.9843515069645], [174.537029806124, -36.9842830287068], [174.536970967909, -36.984261923779], [174.536899285915, -36.9842496741976], [174.536819208925, -36.9842697116464], [174.536746630381, -36.9842614846111], [174.53636203128, -36.9841589229783], [174.535989789532, -36.9840478446056], [174.535920362336, -36.9840219908407], [174.535870318614, -36.983988981829], [174.535770790026, -36.9838596633504], [174.535718429134, -36.983817571554], [174.535644000345, -36.9837714928334], [174.535544525795, -36.9837292263408], [174.535202158036, -36.9835145087134], [174.53514373272, -36.9834898551987], [174.534932348337, -36.9834322072751], [174.534808880861, -36.9833806870551], [174.534776032581, -36.9833361522142], [174.534624419554, -36.9830558351495], [174.53448757403, -36.9829378773896], [174.534370797933, -36.9828513787194], [174.534329120641, -36.982803000932], [174.534284323568, -36.9827245942384], [174.534211387661, -36.9824993328571], [174.534183590206, -36.9824522718507], [174.533977616594, -36.9822778357072], [174.533808948545, -36.9822143787489], [174.533597385514, -36.9820938791681]]}, "properties": {"OBJECTID": 429, "TRACKNAME": "Twin Peaks Track", "CONDITIONSOFUSE": "Waitakere South Regional Park", "STATUS": "Temp Closed", "WEBLINK": "https://www.aucklandcouncil.govt.nz/en/parks-recreation/find-park-beach/park-detail/212.html", "VALIDATIONSTATE": 3, "created_user": "AC_owner", "last_edited_user": "AC_owner", "last_edited_date": 1789875254325, "created_date": 1789875254325, "PARK_SAPSITEID": null, "TRACK_ID": null, "KAURIDIEBACK_TRACK": null, "KAURIDIEBACK_MITIGATED": null, "SegmentID": null, "GlobalID": "90645017-60b0-42d9-a831-7808664997b4", "Shape__Length": 3540.4473866884678}}, {"type": "Feature", "id": 2099, "geometry": {"type": "LineString", "coordinates": [[174.561639100334, -36.997705848101], [174.561834767464, -36.9978915290899], [174.562016746045, -36.9980430484802], [174.562184974478, -36.9981947576005], [174.562593929295, -36.9984274560227], [174.562709678371, -36.9984385327244], [174.562800297385, -36.9983956699791], [174.56285412847, -36.9983118295567], [174.562899502981, -36.9982057470048], [174.562941468268, -36.9981252626061], [174.562964105831, -36.9980706220737], [174.563042203189, -36.9980023888188], [174.563183932381, -36.9979300184116], [174.563265929665, -36.9978585338479], [174.563328448135, -36.9977594090538], [174.56346873203, -36.9976702742148], [174.563467704235, -36.9976255717856], [174.563368572224, -36.9974705025704], [174.563363632834, -36.9974290424476], [174.563419015609, -36.9974122597928], [174.563693688473, -36.9975613205389], [174.564012518142, -36.997650219463], [174.564248138408, -36.9977458658176], [174.564450985827, -36.9977803995811], [174.564646065759, -36.9977775212298], [174.56476674283, -36.9978300471275], [174.564922830325, -36.9978628801602], [174.56507042757, -36.9978734895117], [174.565148665007, -36.9978116436105], [174.565160490611, -36.9976325787383], [174.565083192385, -36.9973877460342], [174.564990052592, -36.9971463309812], [174.565053414773, -36.9969569329967], [174.565172519205, -36.9967667006606], [174.565257188124, -36.9966376733819], [174.565388671105, -36.9964664312455], [174.56543837869, -36.9963762444749], [174.565412733341, -36.9962999680227], [174.565331717454, -36.996240456939], [174.565238694888, -36.9961779404214], [174.565168296665, -36.9960607830546], [174.565165516967, -36.9959394349164], [174.565207490096, -36.9958589586341], [174.565349716508, -36.9958089416101], [174.565508031809, -36.9957999038724], [174.565699948665, -36.9957860510682], [174.56573370027, -36.9957074497183], [174.565682937815, -36.9956431321114], [174.565646584496, -36.9955553965974], [174.565665689825, -36.9954891927668], [174.565911997617, -36.9954525209393], [174.566076718036, -36.9954500949646], [174.566265122388, -36.9953653063015], [174.566333313182, -36.9952833298787], [174.566400154771, -36.9950715047269], [174.56649718812, -36.994961467056], [174.566578119394, -36.9949078861003], [174.566647071906, -36.9948904541267], [174.566713147425, -36.9948850570619], [174.566768202553, -36.994879814467], [174.566812676702, -36.9948813544913]]}, "properties": {"OBJECTID": 2099, "TRACKNAME": "Twin Peaks Track", "CONDITIONSOFUSE": "Waitakere South Regional Park", "STATUS": "Temp Closed", "WEBLINK": "https://www.aucklandcouncil.govt.nz/en/parks-recreation/find-park-beach/park-detail/212.html", "VALIDATIONSTATE": 3, "created_user": "AC_owner", "last_edited_user": "AC_owner", "last_edited_date": 1789875254325, "created_date": 1789875254325, "PARK_SAPSITEID": null, "TRACK_ID": null, "KAURIDIEBACK_TRACK": null, "KAURIDIEBACK_MITIGATED": null, "SegmentID": null, "GlobalID": "79577c57-7fbb-4e96-b35b-adf699401055", "Shape__Length": 898.2393520497516}}, {"type": "Feature", "id": 2988, "geometry": {"type": "LineString", "coordinates": [[174.561639100334, -36.997705848101], [174.561529982725, -36.997545329359], [174.561455994656, -36.997384303223], [174.56131205958, -36.9972383845599], [174.561213004747, -36.9971341125702], [174.561158041788, -36.997036245933], [174.561172548141, -36.9969020964179], [174.561241385069, -36.996837645637], [174.561274760145, -36.9967596183222], [174.561230180436, -36.9967320826768], [174.56109792882, -36.9967128750804], [174.560929727448, -36.9966589604883], [174.560725409927, -36.9965632833582], [174.560485487429, -36.996446982457], [174.56018133139, -36.9962117991534], [174.560028128094, -36.9960448730477], [174.559867105574, -36.9959203589071], [174.559663124149, -36.9958387726088], [174.559555133297, -36.9957275770615], [174.55951612399, -36.9955589782774], [174.559538309353, -36.9953753790427], [174.559543712277, -36.9952272792112], [174.55942596197, -36.9950739384249], [174.559213043297, -36.9949854292014], [174.558885280516, -36.9948704142141], [174.558699182392, -36.9948026523693], [174.558548556329, -36.9947484764469], [174.558357806965, -36.994687006182]]}, "properties": {"OBJECTID": 2988, "TRACKNAME": "Twin Peaks Track", "CONDITIONSOFUSE": "Waitakere South Regional Park", "STATUS": "Temp Closed", "WEBLINK": "https://www.aucklandcouncil.govt.nz/en/parks-recreation/find-park-beach/park-detail/212.html", "VALIDATIONSTATE": 3, "created_user": "AC_owner", "last_edited_user": "AC_owner", "last_edited_date": 1789875254325, "created_date": 1789875254325, "PARK_SAPSITEID": null, "TRACK_ID": null, "KAURIDIEBACK_TRACK": null, "KAURIDIEBACK_MITIGATED": null, "SegmentID": null, "GlobalID": "a816ab21-d181-4843-924b-bd6ee20f0d17", "Shape__Length": 495.7547151604086}}]}