{"type": "FeatureCollection", "features": [{"type": "Feature", "id": 2003, "geometry": {"type": "LineString", "coordinates": [[175.063441024412, -36.8197988681457], [175.063815641066, -36.8195754112782], [175.064079249642, -36.8194879860417], [175.064416201103, -36.8194107510096], [175.064546389523, -36.8193774308683], [175.064637650316, -36.8193163956844], [175.064668684354, -36.8192368483002], [175.064719870221, -36.8190624401075], [175.064712660978, -36.8190123446692], [175.064665254512, -36.8189481841063], [175.064567413332, -36.8188890545623], [175.064464868948, -36.8188422102814], [175.064402532523, -36.8187864657201], [175.064372842187, -36.8186994827596], [175.064392576214, -36.818619933407], [175.064461549371, -36.8185576180343], [175.064570839734, -36.8184904833883], [175.064700835393, -36.8184392034503], [175.064778937077, -36.8184033087927], [175.064920509936, -36.8183414985631], [175.065088156535, -36.8182441924686], [175.065228646066, -36.8181566955036], [175.065373918297, -36.8180494578277], [175.06554041118, -36.8179230410035], [175.065625789541, -36.8178463615187], [175.06564248891, -36.8177828358153], [175.065644218076, -36.8177108005755], [175.065668625324, -36.8176400116027], [175.065707464389, -36.8175743886578], [175.065760575699, -36.8174742230381], [175.065814998856, -36.8174582975241], [175.065855458141, -36.817457531261], [175.06592811282, -36.8174530057861], [175.065991325315, -36.8174346020636], [175.066051153875, -36.8174049998371], [175.066093003339, -36.8173417038875], [175.0661550264, -36.8173257632881], [175.066230737082, -36.8173202471529], [175.066311972063, -36.817330903476], [175.06644114512, -36.8173621143043]]}, "properties": {"OBJECTID": 2003, "TRACKNAME": "Upland Road Track", "CONDITIONSOFUSE": "Whakanewha Regional Park", "STATUS": "Open", "WEBLINK": "https://www.aucklandcouncil.govt.nz/en/parks-recreation/find-park-beach/park-detail/3422.html", "VALIDATIONSTATE": 3, "created_user": "AC_owner", "last_edited_user": "AC_owner", "last_edited_date": 1789875254325, "created_date": 1789875254325, "PARK_SAPSITEID": null, "TRACK_ID": null, "KAURIDIEBACK_TRACK": null, "KAURIDIEBACK_MITIGATED": null, "SegmentID": null, "GlobalID": "7ce0a763-9f54-4b57-9aa0-b107055fcc6a", "Shape__Length": 464.4793402882764}}]}