{"type": "FeatureCollection", "features": [{"type": "Feature", "id": 132, "geometry": {"type": "LineString", "coordinates": [[174.605403918117, -36.9444012702945], [174.605305846741, -36.9443716708848], [174.605260470999, -36.9443348872579], [174.605232168138, -36.9442891927725], [174.605223610621, -36.9442458182148], [174.605225392653, -36.9441830419704], [174.605243093891, -36.9441007976171], [174.60523734993, -36.9440031326199], [174.605217573473, -36.9439575842455], [174.605158513228, -36.9438974422548], [174.605148420575, -36.9438761625626], [174.605154080794, -36.9438440790181], [174.605188570826, -36.9437533062458]]}, "properties": {"OBJECTID": 132, "TRACKNAME": "Upper Loop", "CONDITIONSOFUSE": "Waitakere Central Regional Park", "STATUS": "Open", "WEBLINK": "https://www.aucklandcouncil.govt.nz/en/parks-recreation/find-park-beach/park-detail/204.html", "VALIDATIONSTATE": 3, "created_user": "AC_owner", "last_edited_user": "AC_owner", "last_edited_date": 1789875254325, "created_date": 1789875254325, "PARK_SAPSITEID": null, "TRACK_ID": null, "KAURIDIEBACK_TRACK": null, "KAURIDIEBACK_MITIGATED": null, "SegmentID": null, "GlobalID": "dc8f1ad3-5f2a-4b7b-8d1a-fe321f19c549", "Shape__Length": 83.18961804650532}}, {"type": "Feature", "id": 669, "geometry": {"type": "LineString", "coordinates": [[174.605134560447, -36.9437149357394], [174.605232246116, -36.9437738254584], [174.605364580849, -36.9438206912839], [174.605506599785, -36.9438575922571], [174.605534259672, -36.9438870980723], [174.60552822353, -36.943925874751], [174.605436455848, -36.943999169712], [174.605390492859, -36.9440580005183], [174.605373948092, -36.9440963514228], [174.605366658651, -36.9441867114072], [174.605441536264, -36.944273346486], [174.605471220794, -36.9443238715135], [174.605458199992, -36.9443530260524], [174.605403918117, -36.9444012702945]]}, "properties": {"OBJECTID": 669, "TRACKNAME": "Upper Loop", "CONDITIONSOFUSE": "Waitakere Central Regional Park", "STATUS": "Open", "WEBLINK": "https://www.aucklandcouncil.govt.nz/en/parks-recreation/find-park-beach/park-detail/204.html", "VALIDATIONSTATE": 3, "created_user": "AC_owner", "last_edited_user": "AC_owner", "last_edited_date": 1789875254325, "created_date": 1789875254325, "PARK_SAPSITEID": null, "TRACK_ID": null, "KAURIDIEBACK_TRACK": null, "KAURIDIEBACK_MITIGATED": null, "SegmentID": null, "GlobalID": "395b73fa-9a04-492d-957c-c8cdf951e8ea", "Shape__Length": 107.82559820393972}}, {"type": "Feature", "id": 981, "geometry": {"type": "LineString", "coordinates": [[174.604580995522, -36.9440919724516], [174.604547741448, -36.9441852827819], [174.604540020895, -36.9442466241004], [174.604546359252, -36.9443067109318], [174.604574799992, -36.9443727562596], [174.604617094956, -36.9444178814398], [174.604677945908, -36.9444636039947], [174.605010286495, -36.9446077359503], [174.605049351064, -36.9446350380325], [174.605084990504, -36.9446982980831], [174.60509775016, -36.9447818657287], [174.60509686906, -36.9448322992878], [174.605069528734, -36.9449390365691], [174.605075949689, -36.9449738690573], [174.605211879626, -36.9451244825423], [174.605319096277, -36.945224125935], [174.605378885055, -36.945267022314], [174.605470395505, -36.9452899051531], [174.605584779854, -36.9452736285246], [174.605644566012, -36.9452533165805], [174.605815521419, -36.9451673068329], [174.605889634903, -36.9451161081499], [174.606042652822, -36.944936830808], [174.606129298637, -36.9448791809348]]}, "properties": {"OBJECTID": 981, "TRACKNAME": "Upper Loop", "CONDITIONSOFUSE": "Waitakere Central Regional Park", "STATUS": "Open", "WEBLINK": "https://www.aucklandcouncil.govt.nz/en/parks-recreation/find-park-beach/park-detail/204.html", "VALIDATIONSTATE": 3, "created_user": "AC_owner", "last_edited_user": "AC_owner", "last_edited_date": 1789875254325, "created_date": 1789875254325, "PARK_SAPSITEID": null, "TRACK_ID": null, "KAURIDIEBACK_TRACK": null, "KAURIDIEBACK_MITIGATED": null, "SegmentID": null, "GlobalID": "aa4b40ec-c329-453c-b857-25ace80e8f16", "Shape__Length": 250.50939402606465}}, {"type": "Feature", "id": 2473, "geometry": {"type": "LineString", "coordinates": [[174.606131206455, -36.9448834013973], [174.606106961365, -36.944827764408], [174.606072650405, -36.9447831609199], [174.605924172292, -36.9446398081819], [174.605660735305, -36.9444193128536], [174.605609090462, -36.9444037959198], [174.605463622152, -36.944409125013], [174.605403918117, -36.9444012702945]]}, "properties": {"OBJECTID": 2473, "TRACKNAME": "Upper Loop", "CONDITIONSOFUSE": "Waitakere Central Regional Park", "STATUS": "Open", "WEBLINK": "https://www.aucklandcouncil.govt.nz/en/parks-recreation/find-park-beach/park-detail/204.html", "VALIDATIONSTATE": 3, "created_user": "AC_owner", "last_edited_user": "AC_owner", "last_edited_date": 1789875254325, "created_date": 1789875254325, "PARK_SAPSITEID": null, "TRACK_ID": null, "KAURIDIEBACK_TRACK": null, "KAURIDIEBACK_MITIGATED": null, "SegmentID": null, "GlobalID": "a5ba3f8f-ab64-483b-9a3a-c63ece721bff", "Shape__Length": 90.20948843051528}}]}