{"type": "FeatureCollection", "features": [{"type": "Feature", "id": 739, "geometry": {"type": "LineString", "coordinates": [[174.538613082641, -36.964322433929], [174.538451472817, -36.9645051217188], [174.538202041524, -36.9647372996883], [174.537706789358, -36.9652123875437]]}, "properties": {"OBJECTID": 739, "TRACKNAME": "Upper Dam Walk", "CONDITIONSOFUSE": "Waitakere South Regional Park", "STATUS": "Closed Dieback", "WEBLINK": "https://www.aucklandcouncil.govt.nz/en/parks-recreation/find-park-beach/park-detail/212.html", "VALIDATIONSTATE": 3, "created_user": "AC_owner", "last_edited_user": "AC_owner", "last_edited_date": 1789875254325, "created_date": 1789875254325, "PARK_SAPSITEID": null, "TRACK_ID": null, "KAURIDIEBACK_TRACK": null, "KAURIDIEBACK_MITIGATED": null, "SegmentID": null, "GlobalID": "5ef190d4-4edc-4ff0-9eaa-bec1aba7cf14", "Shape__Length": 127.59859880697255}}]}