{"type": "FeatureCollection", "features": [{"type": "Feature", "id": 1967, "geometry": {"type": "LineString", "coordinates": [[175.270063735149, -37.0383500071254], [175.270074024104, -37.0384085891343], [175.270075439572, -37.0384402586964], [175.270076873286, -37.0384725407532], [175.270078686165, -37.0385058519794], [175.270083661127, -37.0385422840584], [175.27008518938, -37.0385694362419], [175.27009344507, -37.0386073105931], [175.270099942324, -37.0386416316635], [175.270110854825, -37.0386894409089], [175.270124348875, -37.038733712932], [175.270134160874, -37.0387634463161], [175.270146123972, -37.0388019887106], [175.270157105809, -37.0388404237137], [175.270166078805, -37.0388691637649], [175.270178062537, -37.0389046235151], [175.270191690305, -37.0389413045172], [175.270201502898, -37.0389710559075], [175.270214185866, -37.0390114951438], [175.270226961555, -37.0390505176546], [175.270241193836, -37.0390825817347], [175.27025594865, -37.0391121844334], [175.270271144225, -37.0391403547312], [175.270295152915, -37.0391730247386], [175.27032441952, -37.0391938779471], [175.27035365927, -37.0392074135839], [175.270383841972, -37.039220147081], [175.270419946885, -37.0392365704272], [175.270451173723, -37.0392549166739], [175.27048002496, -37.039270127013], [175.270528780326, -37.0392904177846], [175.270571787865, -37.0393034374207], [175.270631982557, -37.0393182639045], [175.270663720578, -37.03932659653], [175.270709307928, -37.0393401705512], [175.270746659579, -37.0393561733777], [175.270774573358, -37.0393753850792], [175.270800546457, -37.0394049261074], [175.270813191216, -37.0394304865132], [175.270826692345, -37.0394674312185], [175.270841623942, -37.0395044656917], [175.270854420883, -37.0395404144874], [175.270861155634, -37.0395694857347], [175.270868417197, -37.03961019994], [175.270877777296, -37.0396405998121], [175.27089449373, -37.0396816917333], [175.27090824967, -37.0397245436884], [175.270923642469, -37.0397687522077], [175.270936437215, -37.0398004742137], [175.270959041407, -37.0398444725335], [175.270980486738, -37.0398914581232], [175.270992609278, -37.0399262752387], [175.2710073068, -37.0399724257147], [175.271021237414, -37.0400192487807], [175.271035700547, -37.0400673414087], [175.271047464965, -37.0401052295942], [175.271064335867, -37.0401533842566], [175.271073660262, -37.0401863533292], [175.271083981783, -37.0402278831185], [175.2710852369, -37.0402669819496], [175.271074889827, -37.0402966506815], [175.271058003559, -37.0403419189484], [175.271036667359, -37.0403910306057], [175.271017395069, -37.0404290445089], [175.271004904094, -37.040454302161], [175.270984549559, -37.040486181309], [175.270964075572, -37.0405114115832], [175.270948915014, -37.040537630605], [175.270935632644, -37.040573682246], [175.270914780301, -37.0406122491101], [175.270896892312, -37.0406416386476], [175.270878182995, -37.0406819489249], [175.270855565084, -37.0407167283266], [175.270832892267, -37.0407538159522], [175.270820075455, -37.0407858751809], [175.270805266785, -37.0408306980707], [175.270804718779, -37.0408794656956], [175.270802592468, -37.0409182777936], [175.270813274557, -37.0409677586552], [175.270825475472, -37.0410150114041], [175.270831539778, -37.0410506294795], [175.270833932062, -37.0411007287105], [175.270837478568, -37.0411518332535], [175.270839090984, -37.0411878339858], [175.27084272419, -37.0412335474476], [175.270845844926, -37.0412748906918], [175.270851962176, -37.0413043612883], [175.270865268893, -37.0413408050022], [175.270884535123, -37.0413746381567], [175.270902084178, -37.0413983832566], [175.270926895386, -37.0414307853959], [175.27096379642, -37.041461811434], [175.271005799783, -37.0414844753708], [175.271035894613, -37.0414991300084], [175.271073508791, -37.0415205080902], [175.271105235202, -37.0415393582824], [175.271135988063, -37.0415579837758], [175.271181339125, -37.0415805564978], [175.271209113646, -37.0415969498609], [175.271239183189, -37.0416250874906], [175.271261084144, -37.0416496143758], [175.271283911799, -37.0416841092546], [175.271304937363, -37.041728678465], [175.271316114882, -37.0417604404011], [175.271331763799, -37.0418064283961], [175.271339045967, -37.0418549829519], [175.27134535531, -37.0418923987803], [175.271361654014, -37.0419349135603], [175.271388213899, -37.0419671288909], [175.271410756994, -37.0419882998429], [175.271441655568, -37.0420061473941], [175.271477649349, -37.0420093603301], [175.271511634775, -37.04201761361], [175.271747323801, -37.0420887759818], [175.271795185907, -37.0421092004659], [175.271830725955, -37.042123966877], [175.271852570712, -37.0421477286684], [175.271886785449, -37.0421746060874], [175.271910807203, -37.0421940813177], [175.271936366936, -37.0422176277221], [175.271960277811, -37.0422405478049], [175.271986623185, -37.0422629165458], [175.272012237137, -37.0422852632442], [175.272041115049, -37.0423103682845], [175.272063926037, -37.0423322189172], [175.272087888967, -37.0423534887054], [175.27211484902, -37.0423742234064], [175.272151771769, -37.0424044375239], [175.272190950908, -37.0424345362965], [175.272221930991, -37.0424577444564], [175.272257651572, -37.0424906222083], [175.272293556263, -37.0425236406195], [175.272319150115, -37.0425464382535], [175.272350900846, -37.0425747506565], [175.272385459354, -37.0426029641853], [175.272412718215, -37.0426265500215], [175.272442717074, -37.0426515343422], [175.272486096499, -37.0426841120461], [175.272528577105, -37.0427216097053], [175.272560309635, -37.042750814626], [175.272598490798, -37.0427885298381], [175.272631950739, -37.042827777501], [175.27266157349, -37.0428650258392], [175.272684952445, -37.0428927145102], [175.272722807968, -37.0429289308491], [175.272755034106, -37.0429547015413], [175.272800994062, -37.0429882210312], [175.272852677944, -37.0430236675994], [175.272890812309, -37.0430507579863], [175.272936691106, -37.0430868294868], [175.272978740934, -37.0431204238501], [175.273004224335, -37.0431466661828], [175.273034899063, -37.043179595342], [175.273068312663, -37.0432089841942], [175.273095312463, -37.0432348008939], [175.273120417665, -37.0432611766231], [175.273144955954, -37.043287391978], [175.273162680603, -37.0433173609232], [175.2731623184, -37.0433466761959], [175.273158314621, -37.0433790443785], [175.27314827227, -37.0434196665118], [175.273139492405, -37.0434498461079], [175.273126676133, -37.0434898184445], [175.273113545471, -37.0435275437058], [175.273106673984, -37.0435561185606], [175.273096588936, -37.0435979491695], [175.273087666958, -37.0436384416726], [175.273084466918, -37.0436694876475], [175.273071938191, -37.043711563368], [175.273061848099, -37.0437539798763], [175.273055969909, -37.0437864560827], [175.273048595358, -37.0438313349977], [175.27303847136, -37.0438745001829], [175.273031855301, -37.0439071167049], [175.273021231846, -37.0439486151554], [175.273011854524, -37.0439855294444], [175.273010096367, -37.0440178005024], [175.273002536614, -37.0440625027156], [175.272994935848, -37.0441024381544], [175.272993671846, -37.0441369528401], [175.272996850784, -37.0441666328297], [175.273014245244, -37.0441949498385], [175.273035578648, -37.0442166122904], [175.273057837009, -37.0442387526904], [175.273078643418, -37.0442544319893], [175.273127300895, -37.0442841234299], [175.273159435345, -37.0443007661928], [175.273202224979, -37.0443225760837], [175.273238637431, -37.0443454364852], [175.273262488296, -37.0443697002806], [175.273278612734, -37.0444029263147], [175.273296082219, -37.0444288535547], [175.273321766516, -37.0444546503473], [175.273355088099, -37.0444749022943], [175.273385788115, -37.0444894365539], [175.273426289869, -37.0445008809003], [175.273483954858, -37.044518187701], [175.273547081005, -37.04453426322], [175.273597469456, -37.0445454638805], [175.273629643783, -37.0445547696546], [175.273661573051, -37.0445660358091], [175.273692527798, -37.0445781768179], [175.273733538212, -37.0445972448067], [175.273773437508, -37.0446160006271], [175.273814584323, -37.044630595822], [175.273868327621, -37.0446479686172], [175.273919397737, -37.0446676908091], [175.273956429345, -37.0446826532619], [175.274002592408, -37.0447033347044], [175.274048630603, -37.0447168176169], [175.274083087282, -37.0447249889976], [175.274125096476, -37.044735701226], [175.274167236008, -37.0447485198409], [175.274199056456, -37.0447629152368], [175.274226796609, -37.0447826160674], [175.274267538033, -37.0448103679649], [175.274295122893, -37.0448290082941], [175.274324270025, -37.0448574241425], [175.274358369705, -37.0448826357197], [175.274387528845, -37.0449050490646], [175.274418112329, -37.0449288500298], [175.274446850859, -37.0449526142738], [175.274477294858, -37.0449755076462], [175.274502174288, -37.0449912707872], [175.274531844116, -37.0450145935642], [175.274553492876, -37.0450385117933], [175.274572334657, -37.0450682067312], [175.274589230701, -37.0450948657603], [175.274605487621, -37.0451234656989], [175.274617336777, -37.0451501674556], [175.274624993744, -37.0451799327272], [175.274627711669, -37.0452118475637], [175.27462725234, -37.0452442919895], [175.274629534483, -37.0452729076351], [175.27462988075, -37.0453037143766], [175.274630585037, -37.0453348386968], [175.274630387132, -37.0453764166774], [175.274634263411, -37.0454200163962], [175.274636425373, -37.0454517616476], [175.274639378473, -37.0454889171858], [175.274645838008, -37.0455207512369], [175.274665382673, -37.0455461157353], [175.274690695761, -37.0455654754721], [175.274724818623, -37.0455782674086], [175.27476002292, -37.0455858564625], [175.274793266988, -37.0455850294818], [175.274827429607, -37.0455724146821], [175.274856393642, -37.0455532574649], [175.2748923287, -37.0455318485962], [175.274929712385, -37.0455115114384], [175.274964486154, -37.0454911252027], [175.275006780775, -37.0454635559894], [175.275041666745, -37.0454337496256], [175.275065380447, -37.0454097092322], [175.275095221654, -37.0453803961841], [175.275129959097, -37.0453610560358], [175.275164848031, -37.0453490490608], [175.275198227726, -37.0453437311929], [175.275228818634, -37.0453440454962], [175.275262748804, -37.0453447373285], [175.275292910662, -37.0453608045019]]}, "properties": {"OBJECTID": 1967, "TRACKNAME": "Upper Link Track", "CONDITIONSOFUSE": "Waharau Regional Park", "STATUS": "Temp Closed", "WEBLINK": "https://www.aucklandcouncil.govt.nz/en/parks-recreation/find-park-beach/park-detail/233.html", "VALIDATIONSTATE": 3, "created_user": "AC_owner", "last_edited_user": "AC_owner", "last_edited_date": 1789875254325, "created_date": 1789875254325, "PARK_SAPSITEID": null, "TRACK_ID": null, "KAURIDIEBACK_TRACK": null, "KAURIDIEBACK_MITIGATED": null, "SegmentID": null, "GlobalID": "a10e42e3-f64b-4917-b402-2e6ff513bfde", "Shape__Length": 1075.4245034879166}}]}