{"type": "FeatureCollection", "features": [{"type": "Feature", "id": 98, "geometry": {"type": "LineString", "coordinates": [[175.090005514414, -37.0672179499834], [175.090096709572, -37.0672009578081], [175.090234723433, -37.0672166763591], [175.090311094163, -37.0672152128266], [175.090401822593, -37.0671828620389], [175.090493088479, -37.0671688605204], [175.090569447907, -37.0671673970212], [175.090668178429, -37.0671471351357], [175.090743081012, -37.0670967133401], [175.090795814148, -37.0670712059116], [175.090878898314, -37.0670389985723], [175.090954898915, -37.067025292933], [175.091023995478, -37.0670362144574], [175.091063088464, -37.0670660779766], [175.09114055736, -37.0671013301931], [175.091210382447, -37.0671367261867], [175.091318583524, -37.0671775107889], [175.091410947942, -37.0672002338487], [175.091495691254, -37.0672231092951], [175.091611322999, -37.0672576159094], [175.091664964285, -37.0672627171307], [175.091764972541, -37.0672852870397], [175.091864801563, -37.0673017404226], [175.091949544864, -37.0673246065282], [175.092086449163, -37.0673036068475], [175.092200455685, -37.0672830471085], [175.092313172642, -37.0672196547739], [175.092388444058, -37.0671814646482], [175.092477691077, -37.0671001545672], [175.092529885324, -37.0670562880643], [175.092573863893, -37.066994216741], [175.092572035734, -37.0669330169299], [175.092532392738, -37.0668847958014], [175.09247783227, -37.0668491041655], [175.092416009403, -37.0668257978971], [175.092370180568, -37.066826678749], [175.092187089487, -37.0668363176255], [175.09207327417, -37.0668629935734], [175.091958730101, -37.066865194845], [175.091821265714, -37.066867827415], [175.091683084219, -37.066845994062], [175.091605615355, -37.0668107421984], [175.091497414667, -37.0667699578444], [175.091396857681, -37.0667290205392], [175.09121373666, -37.0666728659327]]}, "properties": {"OBJECTID": 98, "TRACKNAME": "Upper Lookout Walk", "CONDITIONSOFUSE": "Hunua Ranges Regional Park", "STATUS": "Open", "WEBLINK": "https://www.aucklandcouncil.govt.nz/en/parks-recreation/find-park-beach/park-detail/213.html", "VALIDATIONSTATE": 3, "created_user": "AC_owner", "last_edited_user": "AC_owner", "last_edited_date": 1789875254325, "created_date": 1789875254325, "PARK_SAPSITEID": null, "TRACK_ID": null, "KAURIDIEBACK_TRACK": null, "KAURIDIEBACK_MITIGATED": null, "SegmentID": null, "GlobalID": "a991f8bb-136c-49dc-99d1-b47ee459e773", "Shape__Length": 392.4207308419436}}, {"type": "Feature", "id": 1204, "geometry": {"type": "LineString", "coordinates": [[175.090422805681, -37.0668378114394], [175.090702344908, -37.0667448649135], [175.091037817123, -37.06669464279], [175.09121373666, -37.0666728659327]]}, "properties": {"OBJECTID": 1204, "TRACKNAME": "Upper Lookout Walk", "CONDITIONSOFUSE": "Hunua Ranges Regional Park", "STATUS": "Open", "WEBLINK": "https://www.aucklandcouncil.govt.nz/en/parks-recreation/find-park-beach/park-detail/213.html", "VALIDATIONSTATE": 3, "created_user": "AC_owner", "last_edited_user": "AC_owner", "last_edited_date": 1789875254325, "created_date": 1789875254325, "PARK_SAPSITEID": null, "TRACK_ID": null, "KAURIDIEBACK_TRACK": null, "KAURIDIEBACK_MITIGATED": null, "SegmentID": null, "GlobalID": "a4f53edb-d619-404d-bd05-d9d8ecc9cd25", "Shape__Length": 73.09913403013991}}, {"type": "Feature", "id": 1457, "geometry": {"type": "LineString", "coordinates": [[175.09121373666, -37.0666728659327], [175.091563109983, -37.066629634327], [175.09176777111, -37.0664693115681], [175.091895403253, -37.0662799387506], [175.091841554371, -37.0660711639209], [175.091620583543, -37.0658960524782]]}, "properties": {"OBJECTID": 1457, "TRACKNAME": "Upper Lookout Walk", "CONDITIONSOFUSE": "Hunua Ranges Regional Park", "STATUS": "Open", "WEBLINK": "https://www.aucklandcouncil.govt.nz/en/parks-recreation/find-park-beach/park-detail/213.html", "VALIDATIONSTATE": 3, "created_user": "AC_owner", "last_edited_user": "AC_owner", "last_edited_date": 1789875254325, "created_date": 1789875254325, "PARK_SAPSITEID": null, "TRACK_ID": null, "KAURIDIEBACK_TRACK": null, "KAURIDIEBACK_MITIGATED": null, "SegmentID": null, "GlobalID": "904b3410-5305-4aaf-b1ea-6ba10df141ee", "Shape__Length": 132.07919454040382}}]}