{"type": "FeatureCollection", "features": [{"type": "Feature", "id": 1804, "geometry": {"type": "LineString", "coordinates": [[174.515547578169, -36.8902969789385], [174.515588706751, -36.8903078025118], [174.515624333832, -36.8903076995339], [174.515712196416, -36.8902762925245], [174.515760459704, -36.8902733782578], [174.515809031411, -36.8902820877186], [174.51589508161, -36.890320190368], [174.515957135591, -36.8903342531365], [174.516032996774, -36.8903405952053], [174.516252713209, -36.8903408648538], [174.516326791703, -36.8903319692817], [174.516462832285, -36.8902803059203], [174.516520240591, -36.8902410575384], [174.516679917593, -36.8900954397949], [174.51679461686, -36.8898488566936], [174.516931352835, -36.8896968703827], [174.516994294404, -36.8896344580059], [174.517134752601, -36.8895203265712], [174.517176115124, -36.8894919550132], [174.517214528426, -36.8894778627621], [174.517523708432, -36.8894246449226], [174.518042511867, -36.8894158174932], [174.518347345965, -36.8893636175145], [174.518564376949, -36.8893361009392], [174.518628538786, -36.8893427261076], [174.51888238828, -36.8894081112722], [174.5189818728, -36.8895097127358], [174.519193775036, -36.8896690065097], [174.519254951302, -36.8897072895881], [174.519352467189, -36.88974746047], [174.519403395915, -36.8897527942323], [174.519573715713, -36.8897118929508], [174.519635484989, -36.8897110217309], [174.519700314992, -36.8897366116148], [174.519794544589, -36.8898176021623], [174.51982632941, -36.8898286068924], [174.51988441031, -36.8898126306924], [174.520042695072, -36.8897448686408], [174.520085510976, -36.8897066525477], [174.520167901021, -36.8896036984139], [174.520251269689, -36.8894261883748], [174.520354707339, -36.8893558647917], [174.520369989485, -36.8893320172622], [174.520355260057, -36.8892949070567], [174.520311664283, -36.8892343790913], [174.520224250607, -36.8891739701498], [174.520138357804, -36.8890702849167], [174.5201268229, -36.8890312859948], [174.520146670275, -36.8889682966581], [174.520267867125, -36.8887959271095], [174.520457257741, -36.888590803233], [174.520666237625, -36.8883883848145], [174.520787261229, -36.8883284268644], [174.520816383689, -36.888298588269], [174.5208201904, -36.8882449891219], [174.520797996053, -36.8882156632141], [174.520571528406, -36.8881558897107], [174.520202878177, -36.8881342243909], [174.519672869842, -36.8880653170689], [174.519630800558, -36.8880670089432], [174.519595122905, -36.8880809227573], [174.519457084837, -36.8882098356319], [174.51941704495, -36.8882346576866], [174.519026985186, -36.8882906271695], [174.518979344116, -36.8882812671416], [174.51886854009, -36.8882001182384], [174.518822834969, -36.8881814222372], [174.518178266246, -36.888140202643], [174.518116485891, -36.8881285531941], [174.518073561723, -36.8881086135291], [174.518075045916, -36.8880951641396], [174.518092609145, -36.8880799499194], [174.518166029673, -36.8880458863425], [174.518605939514, -36.8879431593559], [174.518828564205, -36.8879008334201], [174.51887589096, -36.8878847157802], [174.518909426154, -36.8878521531718], [174.518939681841, -36.8878047238117], [174.519003996408, -36.8876039324229], [174.519023584527, -36.8875657703193], [174.519064150815, -36.8875482698103], [174.519252870318, -36.8875215917436], [174.519324543789, -36.8874905874182], [174.519389469019, -36.8874480506849], [174.51947773771, -36.8873700078226], [174.519574356707, -36.8872094097117], [174.519728441184, -36.887025349288]]}, "properties": {"OBJECTID": 1804, "TRACKNAME": "Upper Kauri Track", "CONDITIONSOFUSE": "Waitakere North Regional Park", "STATUS": "Open", "WEBLINK": "https://www.aucklandcouncil.govt.nz/en/parks-recreation/find-park-beach/park-detail/3407.html", "VALIDATIONSTATE": 3, "created_user": "AC_owner", "last_edited_user": "AC_owner", "last_edited_date": 1789875254325, "created_date": 1789875254325, "PARK_SAPSITEID": null, "TRACK_ID": null, "KAURIDIEBACK_TRACK": null, "KAURIDIEBACK_MITIGATED": null, "SegmentID": null, "GlobalID": "4166e1c7-e3ac-4136-a5c9-3ebc1888ecc5", "Shape__Length": 1151.0572422558948}}, {"type": "Feature", "id": 3042, "geometry": {"type": "LineString", "coordinates": [[174.503357281289, -36.8987165896079], [174.50344336869, -36.8986202702605], [174.503454605354, -36.8986072384422], [174.503465650739, -36.8985941820026], [174.50347649345, -36.8985810920722], [174.50348714506, -36.8985679865321], [174.503497593818, -36.8985548384899], [174.503507851476, -36.8985416748381], [174.503517917679, -36.8985284775537], [174.503527781385, -36.8985152557904], [174.503537442594, -36.8985020095481], [174.503546923569, -36.8984887295313], [174.503556202046, -36.8984754250357], [174.50356527785, -36.8984620870499], [174.503574173773, -36.8984487333127], [174.503582855803, -36.8984353462273], [174.5035913576, -36.8984219253677], [174.503599657076, -36.8984084890409], [174.503607765099, -36.898395019082], [174.503615670626, -36.8983815246446], [174.503623384699, -36.8983679965751], [174.503630896276, -36.8983544440271], [174.503638216577, -36.8983408668587], [174.503645345602, -36.8983272650698], [174.503652271955, -36.898313629791], [174.503659007031, -36.8982999698918], [174.503665550831, -36.8982862853723], [174.503671914577, -36.8982725760904], [174.503678337073, -36.8982590012701], [174.503684908789, -36.8982455958211], [174.503691618505, -36.8982323598855], [174.503698466397, -36.8982193024746], [174.503705463509, -36.8982064144349], [174.50371259862, -36.8981936959084], [174.503719871908, -36.8981811559067], [174.503727283018, -36.8981687764066], [174.503734843525, -36.8981565752892], [174.503742542208, -36.8981445526964], [174.503750378714, -36.8981326906051], [174.503758364615, -36.8981210068965], [174.503766488517, -36.8981094927008], [174.503774750594, -36.8980981570298], [174.503783150494, -36.8980869818602], [174.503791699791, -36.898075985073], [174.503800387086, -36.8980651577987], [174.503809212558, -36.8980545090489], [174.50381818725, -36.8980440296699], [174.50382729994, -36.8980337198038], [174.50383655063, -36.8980235794504], [174.503845939496, -36.8980136176214], [174.503855477405, -36.8980038161515], [174.503865153667, -36.8979942022174], [174.503874967751, -36.8979847487845], [174.503884931232, -36.8979754737336], [174.503894943305, -36.8979663873547], [174.503904758365, -36.8979575558529], [174.503914354327, -36.8979489975355], [174.503923731013, -36.897940703391], [174.503932888247, -36.8979326644079], [174.503941815162, -36.8979248987513], [174.503950522803, -36.8979173972678], [174.503959011169, -36.8979101599573], [174.50396728026, -36.8979031868199], [174.5039753299, -36.8978964688442], [174.503983149222, -36.8978900241953], [174.50399074927, -36.8978838437195], [174.503998130043, -36.8978779274171], [174.504005291543, -36.897872275288], [174.504012222549, -36.8978668874743], [174.504018945678, -36.8978617727034], [174.504025438136, -36.8978569132366], [174.504031711321, -36.8978523179432], [174.504037765232, -36.8978479868233], [174.50404358865, -36.897843920019], [174.504049192972, -36.8978401263997], [174.504054577844, -36.8978365879426], [174.504059743442, -36.8978333136591], [174.504064689945, -36.8978303125607], [174.504069416997, -36.8978275666245], [174.504073913557, -36.897825085004], [174.504078191021, -36.8978228765688], [174.504082422543, -36.8978206146328], [174.504086792497, -36.8978179723681], [174.504091301237, -36.8978149677976], [174.504095937542, -36.8978116010634], [174.504100712279, -36.8978078540003], [174.504105625802, -36.8978037446315], [174.504110666712, -36.8977992640873], [174.504115846232, -36.8977944122258], [174.504121164359, -36.8977891890469], [174.504126610052, -36.8977836037042], [174.504132194352, -36.8977776470441], [174.504137906041, -36.8977713192086], [174.504143767557, -36.8977646199137], [174.504149745241, -36.8977575495854], [174.50415587293, -36.897750116809], [174.504162128006, -36.8977423128573], [174.50416852169, -36.897734137588], [174.50417504276, -36.8977255911432], [174.504181713835, -36.8977166822503], [174.504188501076, -36.897707402324], [174.504195438144, -36.8976977509379], [174.504202502599, -36.8976877283764], [174.504209705661, -36.8976773344972], [174.504217036285, -36.8976665784539], [174.504224505516, -36.8976554510929], [174.504232113353, -36.8976439524141], [174.504239826666, -36.8976321098783], [174.504247427953, -36.8976202777743], [174.504254829576, -36.8976085653763], [174.504262031536, -36.8975969726844], [174.504269044875, -36.8975854905451], [174.504275847331, -36.897574128254], [174.504282461343, -36.897562885527], [174.504288875692, -36.8975517625063], [174.504295090378, -36.8975407591918], [174.504301116445, -36.89752986643], [174.504306931628, -36.8975190935167], [174.504312558369, -36.8975084401676], [174.50431798527, -36.8974978975134], [174.504323223905, -36.8974874834349], [174.504328251481, -36.8974771801935], [174.504333090615, -36.8974669965165], [174.50433772991, -36.8974569235344], [174.504342169543, -36.8974469702589], [174.50434642091, -36.8974371455592], [174.504350461219, -36.8974274316966], [174.504354312909, -36.8974178283871], [174.504357976334, -36.8974083536534], [174.5043614287, -36.897398989757], [174.504364692625, -36.8973897454251], [174.504367745668, -36.8973806209419], [174.504370610093, -36.8973716070117], [174.504373286077, -36.8973627126461], [174.504375995367, -36.8973537998312], [174.504379570441, -36.8973443983254], [174.504384066693, -36.8973344713723], [174.504389484299, -36.8973240279833], [174.504395823081, -36.8973130591468], [174.504403083216, -36.8973015738741], [174.504411253306, -36.8972895632956], [174.504420344571, -36.8972770272692], [174.504430357186, -36.8972639748061], [174.504441290975, -36.8972503968945], [174.504453146114, -36.8972363025458], [174.504465922424, -36.8972216827482], [174.504479620083, -36.8972065465128], [174.504494227692, -36.89719088497], [174.50450975647, -36.8971746979774], [174.504526217813, -36.897157994404], [174.504543589105, -36.8971407655222], [174.504561881739, -36.8971230202009], [174.50458108432, -36.8971047495704], [174.504601219285, -36.897085953346], [174.50462227559, -36.8970666406809], [174.504644242014, -36.8970468117167], [174.504667129423, -36.8970264482878], [174.504690938346, -36.8970055774283], [174.50471566825, -36.896984172103], [174.504741319489, -36.8969622503345], [174.50476789206, -36.8969398121221], [174.504779972357, -36.8969371893428], [174.50479180546, -36.8969345516662], [174.504803425029, -36.8969318986658], [174.504814797581, -36.8969292397797], [174.504825945025, -36.8969265476893], [174.504836867892, -36.8969238494289], [174.504847543565, -36.8969211362715], [174.504857994484, -36.8969184079329], [174.50486820943, -36.8969156645553], [174.504878199444, -36.896912896985], [174.504887953661, -36.8969101233874], [174.504897471728, -36.8969073257393], [174.504906765218, -36.8969045219218], [174.504915822557, -36.8969016940541], [174.504924644099, -36.8968988601592], [174.50493324071, -36.896896002072], [174.504941601348, -36.8968931289462], [174.504949726011, -36.8968902407818], [174.504957625922, -36.8968873374368], [174.504965289858, -36.8968844190533], [174.504972717821, -36.8968814856315], [174.50497992103, -36.8968785370291], [174.504987042159, -36.8968754091919], [174.504994257719, -36.8968719466507], [174.50500155649, -36.8968681495476], [174.505008949691, -36.8968640177403], [174.505016414706, -36.8968595425019], [174.505023974151, -36.8968547325592], [174.505031616983, -36.8968495970661], [174.505039342671, -36.8968441089881], [174.505047162966, -36.8968382952173], [174.505055066471, -36.8968321468846], [174.505063053008, -36.8968256549783], [174.505071122755, -36.89681882851], [174.505079286932, -36.8968116673374], [174.505087534318, -36.8968041716027], [174.505095864736, -36.8967963322945], [174.50510428976, -36.8967881672935], [174.505112786596, -36.8967796588611], [174.505121377861, -36.8967708157243], [174.505130063554, -36.8967616378832], [174.505138821059, -36.8967521166106], [174.50514767317, -36.8967422696451], [174.505156608311, -36.896732079106], [174.505165415429, -36.8967216558318], [174.505173861029, -36.8967111109456], [174.50518196755, -36.8967004441631], [174.505189723597, -36.8966896466152], [174.505197117949, -36.896678718444], [174.505204173222, -36.8966676683768], [174.505210878199, -36.8966564965557], [174.5052172327, -36.8966451939694], [174.505223236904, -36.8966337696294], [174.505228879414, -36.8966222146664], [174.505234182847, -36.8966105378076], [174.505239135806, -36.8965987301838], [174.505243738468, -36.8965868008065], [174.505247979613, -36.8965747498177], [174.505251881328, -36.8965625589105], [174.505255432923, -36.8965502552612], [174.505258634045, -36.8965378208471], [174.505261484694, -36.8965252556681], [174.505263974004, -36.8965125778894], [174.505266123884, -36.8964997601922], [174.505267923468, -36.8964868207417], [174.505269372757, -36.8964737595378], [174.505270622566, -36.8964608270536], [174.505271835283, -36.8964482916425], [174.505273010732, -36.8964361442933], [174.505274148912, -36.8964243850058], [174.505275250002, -36.8964130227916], [174.505276313822, -36.8964020486391], [174.505277329155, -36.8963914626907], [174.505278318617, -36.8963812736732], [174.50527925959, -36.8963714728598], [174.505280163472, -36.8963620691196], [174.505281030086, -36.8963530534412], [174.505281859431, -36.8963444258246], [174.505282651686, -36.8963361952812], [174.505283395452, -36.8963283529418], [174.505284113348, -36.8963209075335], [174.505284782755, -36.8963138503292], [174.505285414895, -36.8963071811867], [174.505286009943, -36.8963009091174], [174.505286567723, -36.89629502511], [174.505287088412, -36.8962895381758], [174.505287560614, -36.8962844394456], [174.505288006767, -36.8962797286351], [174.505288396644, -36.8962750095239], [174.505288744896, -36.8962698853232], [174.505289028905, -36.8962643473058], [174.50528926007, -36.896258404341], [174.50528943839, -36.8962520564288], [174.505289552468, -36.8962452946999], [174.505289624743, -36.89623811887], [174.505289632954, -36.8962305382349], [174.50528959954, -36.8962225525102], [174.505289501884, -36.8962141529688], [174.505289351383, -36.8962053484801], [174.50528914786, -36.8961961300324], [174.505288891493, -36.8961865066374], [174.505288570883, -36.8961764694256], [174.505288208649, -36.8961660271243], [174.50528778235, -36.8961551800177], [174.505287314249, -36.8961439188101], [174.505286781907, -36.8961322437857], [174.50528619672, -36.896120163814], [174.505285558688, -36.8961076788948], [174.505284856415, -36.8960947801588], [174.505284112518, -36.8960814763333], [174.505283457671, -36.8960681353245], [174.505283033594, -36.8960551158852], [174.505282863079, -36.8960424357538], [174.505282923511, -36.8960300862034], [174.505283215066, -36.8960180762454], [174.505283748609, -36.8960063877146], [174.505284524495, -36.8959950386341], [174.505285542547, -36.8959840199923], [174.505286791544, -36.8959733319314], [174.505288271486, -36.8959629744515], [174.505290004991, -36.8959529562796], [174.505291969441, -36.8959432686885], [174.505294176056, -36.8959339115363], [174.505296613616, -36.8959248849649], [174.505299304561, -36.89591618869], [174.505302215231, -36.8959078231381], [174.505305379463, -36.8958997968943], [174.50530877464, -36.8958921012312], [174.505312411982, -36.8958847360068], [174.505316280269, -36.8958777013631], [174.50532039072, -36.8958709971581], [174.505324743513, -36.8958646324031], [174.505329358609, -36.8958584806532], [174.505334245282, -36.89585244264], [174.505339414572, -36.89584650921], [174.505344866658, -36.8958406893744], [174.505350590143, -36.895834974264], [174.505356607466, -36.8958293635944], [174.505362896364, -36.8958238666613], [174.505369467881, -36.8958184743111], [174.505376322193, -36.8958131955553], [174.505383459123, -36.8958080213822], [174.505390867451, -36.895802951934], [174.505398558575, -36.8957979960799], [174.505406532317, -36.8957931448085], [174.505414788677, -36.8957883981197], [174.505423327832, -36.8957837650248], [174.505432138563, -36.895779245666], [174.505441231734, -36.8957748218782], [174.505450607701, -36.8957705116842], [174.505460266462, -36.8957663150838], [174.505470196622, -36.8957622232079], [174.50548042062, -36.8957582357719], [174.505490916193, -36.8957543620716], [174.505501357436, -36.895750579196], [174.505511407402, -36.8957468733879], [174.505521066268, -36.8957432536589], [174.505530322637, -36.8957397111398], [174.505539198949, -36.8957362455463], [174.505547672763, -36.8957328571629], [174.505555755478, -36.8957295548589], [174.505563446916, -36.8957263296229], [174.505570747078, -36.895723181455], [174.505577655962, -36.8957201103554], [174.505584173747, -36.8957171253354], [174.505590300256, -36.8957142173838], [174.505596024268, -36.8957113866427], [174.505601368401, -36.8957086418393], [174.50560630986, -36.8957059652352], [174.50561086022, -36.895703374711], [174.505615019481, -36.8957008702669], [174.505618787289, -36.89569843388], [174.505622163998, -36.8956960835731], [174.50562513821, -36.8956938104771], [174.505627732367, -36.8956916143076], [174.505629924205, -36.8956895043606], [174.50563224247, -36.8956875460442], [174.505635182603, -36.8956858232163], [174.505638767043, -36.8956843355925], [174.505642973352, -36.895683083457], [174.505647801351, -36.8956820577984], [174.505653273835, -36.895681276355], [174.50565936801, -36.8956807213884], [174.505666106493, -36.8956804016254], [174.505673466844, -36.8956803173503], [174.505681449063, -36.895680468563], [174.50569007559, -36.8956808549791], [174.505699323985, -36.8956814768827], [174.505709205291, -36.89568232512], [174.505719719685, -36.8956834087024], [174.505730867345, -36.8956847366411], [174.505742647917, -36.895686290913], [174.505755050357, -36.8956880806716], [174.50576808571, -36.8956900967631], [174.505781754328, -36.8956923572101], [174.505796044639, -36.8956948441317], [174.505810979435, -36.8956975752662], [174.505826535925, -36.8957005328749], [174.505842126252, -36.8957034990662], [174.505857162561, -36.8957062559492], [174.505871633279, -36.8957087856434], [174.505885549978, -36.8957111060297], [174.505898901261, -36.895713208239], [174.50591168713, -36.8957150922715], [174.50592391898, -36.8957167669966], [174.505935585413, -36.8957182235453], [174.505946697651, -36.8957194617756], [174.505957244473, -36.8957204818298], [174.505967225879, -36.8957212837081], [174.505976653089, -36.8957218672683], [174.50598551506, -36.8957222416643], [174.505993822833, -36.8957223977426], [174.506001565191, -36.8957223356455], [174.506008742309, -36.8957220643846], [174.506015365054, -36.8957215657948], [174.506021433779, -36.8957208578991], [174.506026925867, -36.8957199319706], [174.506031863759, -36.895718787725], [174.506036247454, -36.8957174251623], [174.506040065909, -36.8957158534363], [174.506043792304, -36.895714165699], [174.506047877731, -36.8957124734098], [174.506052344631, -36.8957107762844], [174.50605718196, -36.8957090834762], [174.506062389365, -36.8957073769625], [174.506067967022, -36.8957056657544], [174.506073914932, -36.8957039498521], [174.506080233094, -36.8957022292555], [174.506086921685, -36.8957005129759], [174.506093991572, -36.8956987828482], [174.506101420491, -36.8956970481681], [174.506109219662, -36.8956953087935], [174.506117400306, -36.8956935645819], [174.506125939982, -36.8956918158179], [174.506134861307, -36.8956900712282], [174.506144141487, -36.8956883130744], [174.506153803139, -36.8956865500834], [174.506163835043, -36.8956847823973], [174.50617422598, -36.8956830101583], [174.506184998565, -36.8956812420932], [174.506196141226, -36.8956794603213], [174.506207654138, -36.8956776738539], [174.506219546397, -36.8956757744111], [174.506231826919, -36.8956736447014], [174.506244495704, -36.8956712847248], [174.506257563973, -36.8956686943388], [174.506271009462, -36.8956658828394], [174.506284854433, -36.8956628409303], [174.506299087667, -36.8956595687538], [174.506313709163, -36.8956560663097], [174.506328718922, -36.8956523335979], [174.50634411712, -36.8956483796296], [174.50635990358, -36.8956441953933], [174.506376078301, -36.8956397808888], [174.506392652504, -36.8956351359737], [174.506409603925, -36.8956302699438], [174.50642695465, -36.8956251644916], [174.506444693813, -36.895619837782], [174.506462821236, -36.8956142808034], [174.506481337097, -36.895608502567], [174.506500241041, -36.8956024850499], [174.506519544641, -36.8955962461324], [174.506539225281, -36.8955897770875], [174.5065593054, -36.8955830776305], [174.506579383212, -36.895576261021], [174.506599056578, -36.8955694224964], [174.506618348291, -36.8955625797951], [174.506637235559, -36.8955557151791], [174.506655729954, -36.8955488465291], [174.506673831123, -36.8955419558223], [174.506691539243, -36.8955350520705], [174.506708854492, -36.8955281442852], [174.506725765294, -36.895521214586], [174.506742294268, -36.8955142716999], [174.506758418974, -36.8955073159118], [174.506774150631, -36.8955003470794], [174.50678948924, -36.8954933652029], [174.506804434801, -36.8954863702825], [174.506818987136, -36.8954793533067], [174.506833146601, -36.8954723322988], [174.506846913018, -36.8954652982474], [174.50686027499, -36.8954582422835], [174.506873255311, -36.8954511821454], [174.506885831188, -36.8954441000951], [174.506898014194, -36.8954370140132], [174.506909803976, -36.895429905877], [174.50692122439, -36.8954228474936], [174.506932299295, -36.8954159106702], [174.506943028689, -36.8954090954069], [174.506953412219, -36.8954023836807], [174.506963450239, -36.8953957935149], [174.50697314275, -36.8953893249094], [174.506982489573, -36.8953829688529], [174.506991490711, -36.8953767253454], [174.507000146161, -36.895370594387], [174.50700845628, -36.8953645940007], [174.507016420536, -36.8953586971522], [174.507024039282, -36.8953529218645], [174.507031312343, -36.8953472591263], [174.507038239895, -36.8953417179488], [174.507044821761, -36.895336289321], [174.507051057942, -36.8953309732427], [174.507056948614, -36.8953257787254], [174.507062504821, -36.8953206966155], [174.507067704299, -36.8953157362091], [174.507072558092, -36.8953108883524], [174.507077066201, -36.8953061530456], [174.507081228801, -36.8953015393001], [174.507085203147, -36.8952970541346], [174.507089124406, -36.8952927228755], [174.507093003622, -36.8952885363691], [174.50709685219, -36.8952845034844], [174.507100647673, -36.8952806245061], [174.507104389715, -36.8952768814114], [174.507108101287, -36.8952733009499], [174.507111770816, -36.895269865241], [174.507115387081, -36.8952665744271], [174.5071189727, -36.895263437235], [174.507122505232, -36.8952604539494], [174.507125995721, -36.8952576154164], [174.507129444344, -36.8952549306475], [174.507132850923, -36.8952523906313], [174.507136215459, -36.8952499953677], [174.507139527086, -36.8952477630221], [174.507142807712, -36.8952456662754], [174.507146035429, -36.8952437324466], [174.507149220926, -36.895241934359], [174.507152364734, -36.895240299047], [174.507155466498, -36.8952388084877], [174.507158526219, -36.8952374626811], [174.50716156226, -36.8952360540789], [174.507164592807, -36.8952343661213], [174.50716760664, -36.8952323989506], [174.507170626376, -36.8952301612937], [174.50717364044, -36.8952276352699], [174.507176637791, -36.895224830033], [174.507179640867, -36.8952217452985], [174.507182638448, -36.8952183812085], [174.507185630712, -36.8952147467746], [174.507188606085, -36.8952108241162], [174.507191587184, -36.8952066219601], [174.507194562788, -36.8952021404486], [174.507197532897, -36.8951973795817], [174.50720048647, -36.8951923485132], [174.50720344559, -36.8951870289355], [174.507206399216, -36.8951814300025], [174.507209336128, -36.8951755518564], [174.507212278942, -36.895169403224], [174.507215216084, -36.8951629662248], [174.507218147731, -36.8951562498702], [174.507221062842, -36.895149263314], [174.5072239835, -36.8951419882487], [174.507226857683, -36.8951346326495], [174.507229633016, -36.8951273864689], [174.507232320895, -36.8951202585761], [174.507234921142, -36.8951132399596], [174.507237422716, -36.8951063397732], [174.507239847879, -36.8950995487207], [174.507242174191, -36.8950928670869], [174.507244401829, -36.8950863038833], [174.507246553056, -36.8950798498136], [174.50724860561, -36.895073514174], [174.507250570532, -36.8950672878108], [174.507252447824, -36.8950611707238], [174.507254226443, -36.8950551720671], [174.50725591743, -36.8950492826866], [174.507257520964, -36.895043511594], [174.507259036867, -36.8950378497777], [174.50726045392, -36.8950322973802], [174.50726178352, -36.8950268632704], [174.507263025488, -36.895021538437], [174.507264180003, -36.8950163318914], [174.507265235668, -36.8950112347645], [174.507266203702, -36.895006246914], [174.507267162112, -36.895001340309], [174.507268188371, -36.8949964598842], [174.507269294054, -36.8949916235203], [174.507270456544, -36.8949868224904], [174.50727169828, -36.8949820565099], [174.507273008221, -36.8949773347325], [174.507274386011, -36.8949726391354], [174.507275843224, -36.8949679875991], [174.507277357068, -36.8949633623854], [174.507278950335, -36.8949587812326], [174.507280611629, -36.8949542352714], [174.50728234095, -36.8949497245019], [174.507284149517, -36.8949452487817], [174.507286015068, -36.8949408174071], [174.507287959689, -36.8949364120703], [174.507289972513, -36.8949320509367], [174.507292053187, -36.8949277159832], [174.507294202065, -36.894923425233], [174.507296430189, -36.894919169532], [174.50729872634, -36.8949149490227], [174.507301090695, -36.8949107727165], [174.507303522899, -36.8949066225906], [174.507305909161, -36.8949024189652], [174.507308123937, -36.8948980552689], [174.507310156008, -36.8948935316439], [174.507312027991, -36.8948888568171], [174.507313728489, -36.8948840219192], [174.507315257501, -36.8948790269504], [174.507316615205, -36.8948738809221], [174.507317801424, -36.8948685748228], [174.507318816158, -36.8948631086527], [174.507319648364, -36.8948574915653], [174.507320320304, -36.8948517142646], [174.507320820937, -36.8948457859045], [174.507321149907, -36.8948396884619], [174.507321307747, -36.8948334489714], [174.507321293924, -36.8948270403984], [174.507321108794, -36.894820480766], [174.507320752179, -36.8948137610625], [174.507320224256, -36.8948068902996], [174.507319524848, -36.8947998594658], [174.507318653956, -36.894792668561], [174.507317611756, -36.8947853265967], [174.507316397894, -36.8947778155499], [174.50731570267, -36.8947698562507], [174.507316215499, -36.8947611244716], [174.507317936556, -36.8947516292243], [174.507320876885, -36.8947413613547], [174.507325014221, -36.894730330159], [174.507330359607, -36.8947185264833], [174.50733691322, -36.8947059593389], [174.507344674881, -36.8946926197141], [174.507353644945, -36.8946785256316], [174.507363822877, -36.8946636500568], [174.50737522043, -36.8946480198814], [174.507387814807, -36.8946316173669], [174.507401617228, -36.8946144423705], [174.507416627868, -36.8945965039033], [174.507432846727, -36.8945778019649], [174.507450284844, -36.8945583274011], [174.507468919957, -36.8945380895073], [174.507488763107, -36.8945170791294], [174.507509814469, -36.8944953052782], [174.507532085261, -36.8944727678106], [174.507555552865, -36.8944494579994], [174.507580228677, -36.8944253847129], [174.507581050075, -36.8944169374555], [174.507581907969, -36.8944086339542], [174.507582813223, -36.8944004560439], [174.507583754617, -36.894392403867], [174.507584743548, -36.8943844862923], [174.507585780016, -36.8943767033201], [174.507586864022, -36.8943690549502], [174.507587984168, -36.8943615323137], [174.507589151851, -36.8943541442795], [174.507590367071, -36.8943468908477], [174.507591618609, -36.8943397721607], [174.507592917506, -36.8943327790646], [174.507594263764, -36.8943259115593], [174.507595646516, -36.8943191878103], [174.507597076628, -36.8943125896523], [174.507598554277, -36.8943061260966], [174.507600068244, -36.8942997972856], [174.50760162957, -36.8942935940656], [174.507603238434, -36.8942875254479], [174.507604883615, -36.894281591575], [174.507606576156, -36.894275783293], [174.507608316234, -36.8942701096133], [174.50761009263, -36.8942645706784], [174.507611950221, -36.8942591659187], [174.507613956503, -36.8942539034914], [174.507616134091, -36.8942487921231], [174.507618482809, -36.8942438228025], [174.507621002833, -36.8942390045408], [174.507623682768, -36.8942343284691], [174.507626534009, -36.8942298034564], [174.507629556557, -36.8942254295027], [174.507632750234, -36.8942211975966], [174.50763610382, -36.8942171078803], [174.507639628714, -36.894213169223], [174.507643313694, -36.894209381767], [174.507647169804, -36.8942057363585], [174.507651197221, -36.8942022420089], [174.507655395766, -36.8941988897067], [174.507659754399, -36.8941956886059], [174.507664284161, -36.8941926295524], [174.50766898523, -36.8941897215577], [174.507673846208, -36.8941869557529], [174.507678878493, -36.8941843410068], [174.507684081908, -36.894181868308], [174.507689445409, -36.8941795468104], [174.50769498004, -36.8941773673601], [174.507700674226, -36.8941753120765], [174.507706319279, -36.8941730410871], [174.5077118454, -36.8941704290858], [174.507717264161, -36.8941674939533], [174.50772257521, -36.8941642176665], [174.507727779077, -36.8941606272599], [174.507732875232, -36.8941566956991], [174.507737864027, -36.8941524410071], [174.507742734067, -36.8941478543147], [174.50774749657, -36.8941429354797], [174.507752151538, -36.894137684502], [174.507756699146, -36.8941321103931], [174.507761127999, -36.8941262042839], [174.507765460713, -36.8941199749012], [174.507769674493, -36.8941134045068], [174.507773780915, -36.8941065109812], [174.5077777798, -36.894099285313], [174.507781671149, -36.8940917275023], [174.507785443919, -36.8940838467028], [174.507789109153, -36.8940756337607], [174.50779267807, -36.8940670885337], [174.507796128231, -36.8940582113065], [174.507799459814, -36.8940490110907], [174.50780269508, -36.8940394785899], [174.50780587336, -36.8940299017437], [174.507809056605, -36.8940205772183], [174.507812244813, -36.8940115050138], [174.507815437807, -36.8940026761186], [174.507818635587, -36.8939940905328], [174.507821838331, -36.8939857572678], [174.507825046039, -36.8939776763237], [174.507828258533, -36.8939698386889], [174.507831475991, -36.893962253375], [174.507834698235, -36.8939549113704], [174.507837925442, -36.8939478216866], [174.507841157436, -36.8939409753123], [174.507844394394, -36.8939343812587], [174.507847636316, -36.893928039526], [174.507850883024, -36.8939219411026], [174.507854134697, -36.8939160950001], [174.507857391155, -36.8939104922069], [174.507860652578, -36.8939051417345], [174.507863918787, -36.8939000345715], [174.507867189961, -36.8938951797294], [174.507870465921, -36.8938905681966], [174.507873746845, -36.8938862089846], [174.507877032555, -36.893882093082], [174.507880378973, -36.8938782107653], [174.507883985921, -36.8938744513335], [174.507887864797, -36.8938708236557], [174.50789200438, -36.8938673278743], [174.50789642711, -36.8938639637045], [174.50790111037, -36.8938607224195], [174.507906076776, -36.893857612746], [174.507911303891, -36.8938546349688], [174.507916802932, -36.8938517889454], [174.507922573723, -36.8938490656643], [174.507928605045, -36.893846465268], [174.507934919691, -36.8938440054943], [174.507941506086, -36.8938416684629], [174.507948353189, -36.8938394633275], [174.507955472219, -36.8938373899457], [174.507962862999, -36.8938354393059], [174.507970525706, -36.8938336204196], [174.50797846034, -36.8938319332867], [174.507986666724, -36.8938303688957], [174.507995145036, -36.893828936258], [174.508003884055, -36.893827635516], [174.508012906043, -36.8938264573733], [174.50802218874, -36.8938254111261], [174.508031709528, -36.8938244880478], [174.508041094086, -36.8938234855746], [174.508050195496, -36.8938223514895], [174.508059025156, -36.8938210946613], [174.508067594107, -36.8938197059364], [174.508075891131, -36.8938181854572], [174.508083916226, -36.8938165332238], [174.508091669571, -36.8938147582477], [174.508099150987, -36.8938128515174], [174.508106360653, -36.8938108220445], [174.508113298391, -36.8938086608177], [174.50811997542, -36.8938063676944], [174.508126369301, -36.8938039429596], [174.508132502652, -36.8938013953399], [174.508138364074, -36.8937987159665], [174.508143953568, -36.8937959048392], [174.508149271311, -36.8937929709696], [174.508154317126, -36.8937899053463], [174.508159102232, -36.8937867078269], [174.508163604369, -36.8937833877077], [174.508167845796, -36.8937799356924], [174.508171804076, -36.893776352066], [174.508175501648, -36.8937726365436], [174.508178927469, -36.893768798279], [174.50818219267, -36.8937647817793], [174.508185420133, -36.8937605584432], [174.508188598462, -36.8937561194018], [174.508191727657, -36.893751464655], [174.508194807717, -36.8937465942028], [174.508197849863, -36.8937415079028], [174.508200842874, -36.8937362058975], [174.50820378675, -36.8937306881868], [174.508206692889, -36.8937249636397], [174.508209549716, -36.8937190143759], [174.508212368806, -36.8937128582757], [174.508215138761, -36.8937064864702], [174.508217859581, -36.8936998989594], [174.508220531267, -36.8936930957432], [174.508223165038, -36.8936860766793], [174.508225749674, -36.8936788419099], [174.508228285353, -36.8936714004468], [174.508230783117, -36.8936637431359], [174.508233231569, -36.8936558611081], [174.508235631064, -36.8936477723866], [174.508237992644, -36.8936394678172], [174.50824030509, -36.8936309475426], [174.5082425684, -36.8936222115626], [174.508244795747, -36.8936133588609], [174.508246947926, -36.893604678374], [174.508249059129, -36.893596196709], [174.508251106916, -36.8935879141507], [174.508253091287, -36.8935798306991], [174.508255023462, -36.8935719462118], [174.508256892222, -36.8935642608312], [174.508258708963, -36.8935567834265], [174.508260462111, -36.893549496117], [174.508262163063, -36.8935424077718], [174.508263800777, -36.8935355275448], [174.508265386118, -36.8935288372706], [174.508266908044, -36.8935223461032], [174.508268377951, -36.8935160629117], [174.508269784265, -36.8935099698154], [174.508271138561, -36.8935040846948], [174.508272429441, -36.8934983986811], [174.508273667949, -36.8934929026202], [174.508274843218, -36.8934876146775], [174.508275966292, -36.8934825256991], [174.508277025773, -36.8934776268161], [174.508278022016, -36.8934729360513], [174.508278977283, -36.8934684441084], [174.508279868781, -36.8934641332494], [174.508280838459, -36.8934598033703], [174.508281929778, -36.8934553818097], [174.508283120298, -36.8934508688525], [174.508284432636, -36.8934462732253], [174.508285855572, -36.8934415950704], [174.508287399971, -36.8934368162226], [174.508289043925, -36.8934319640011], [174.508290809343, -36.8934270110866], [174.508292685358, -36.8934219756445], [174.508294671971, -36.8934168576747], [174.508296769005, -36.8934116481659], [174.50829897646, -36.893406347118], [174.508301305731, -36.8934009634], [174.508303745424, -36.8933954881429], [174.508306295714, -36.8933899303581], [174.508308967644, -36.8933842808918], [174.508311738774, -36.8933785400288], [174.508314631722, -36.8933727164957], [174.508317635268, -36.8933668104349], [174.508320749234, -36.8933608128349], [174.50832397362, -36.8933547236958], [174.508327319646, -36.8933485428751], [174.508330776447, -36.8933422885381], [174.508334334754, -36.8933360599534], [174.50833799705, -36.8933299832813], [174.508341774555, -36.8933240583795], [174.508345645007, -36.8933182945442], [174.508349619626, -36.893312691633], [174.508353709275, -36.8933072314806], [174.508357891872, -36.8933019323947], [174.508362178458, -36.8932967852214], [174.508366569033, -36.8932917899607], [174.508371063775, -36.8932869556241], [174.508375662506, -36.8932822732], [174.508380365226, -36.8932777426885], [174.508385172113, -36.8932733731011], [174.508390082989, -36.8932691554262], [174.508395097854, -36.8932650896638], [174.508400216708, -36.8932611758139], [174.508405439729, -36.893257422888], [174.50841076674, -36.8932538218746], [174.508416197739, -36.8932503727737], [174.508421732905, -36.8932470845967], [174.508427372061, -36.8932439483321], [174.508433115206, -36.89324096398], [174.508438951298, -36.8932381406942], [174.508444913464, -36.893235451013], [174.508451045871, -36.8932328583206], [174.508457325904, -36.8932303538906], [174.508463787398, -36.8932279463069], [174.50847039634, -36.893225617974], [174.508477186921, -36.8932233954989], [174.508484124949, -36.8932212522745], [174.508491244439, -36.8932192058964], [174.508498522774, -36.8932172476379], [174.508505959953, -36.893215377499], [174.508513567375, -36.8932136043488], [174.50852134486, -36.8932119191757], [174.508529281191, -36.8932103221222], [174.508537376367, -36.8932088131882], [174.508545641784, -36.8932074012426], [174.508554077266, -36.8932060772741], [174.50856267177, -36.8932048504364], [174.508571424942, -36.8932037027067], [174.508580359576, -36.8932026518228], [174.508589442012, -36.8932016982121], [174.508598694336, -36.8932008235668], [174.508608116901, -36.8932000459097], [174.508617698312, -36.8931993563718], [174.508627517991, -36.893198799013], [174.508638426617, -36.8931988317434], [174.508650673854, -36.8931995956114], [174.508664293718, -36.893201108212], [174.508679252194, -36.8932033519494], [174.508695571723, -36.8932063265381], [174.50871324144, -36.8932100501428], [174.508732260991, -36.8932145047401], [174.508752641597, -36.8932196901868], [174.508774372393, -36.8932256246475], [174.508797453026, -36.8932322900986], [174.508821883497, -36.8932396865393], [174.508847675381, -36.8932478318491], [174.508874817105, -36.8932567081467], [174.508903319889, -36.8932663152887], [174.508933161652, -36.8932766715819], [174.508964364477, -36.8932877587174], [174.508996917148, -36.8932995768366], [174.509030831241, -36.8933121438187], [174.509066095181, -36.8933254417821], [174.50910270915, -36.893339479737], [174.50914067297, -36.8933542486708], [174.509179998041, -36.8933697574509], [174.509220673145, -36.8933860062185], [174.509234934489, -36.8933904580872], [174.509248922842, -36.8933947241343], [174.509262637849, -36.8933987863372], [174.509276080042, -36.8934026717302], [174.509289260107, -36.8934063531366], [174.509302155961, -36.8934098488645], [174.509314778646, -36.8934131497599], [174.509327128339, -36.8934162648344], [174.509339215905, -36.8934191759226], [174.509351019436, -36.8934219103441], [174.509362549619, -36.8934244409221], [174.50937381803, -36.8934267855369], [174.509384802051, -36.8934289354623], [174.509395524299, -36.8934308994248], [174.509405961979, -36.8934326596866], [174.509416138064, -36.893434242997], [174.5094260408, -36.8934356224644], [174.509435659325, -36.8934368162542], [174.509445015897, -36.8934378150699], [174.509454099477, -36.8934386280656], [174.509462909886, -36.89343924623], [174.509471447124, -36.8934396695631], [174.509479699972, -36.8934398982075], [174.509487691045, -36.8934399408896], [174.509495408947, -36.8934397887405], [174.509502853856, -36.8934394507719], [174.50951004821, -36.8934389266985], [174.509517162431, -36.8934383225196], [174.509524253502, -36.8934376825795], [174.509531343864, -36.8934370065932], [174.509538410899, -36.8934362858343], [174.509545465827, -36.8934355201603], [174.509552497606, -36.8934347187252], [174.509559517455, -36.8934338813864], [174.509566525197, -36.8934329991325], [174.50957352101, -36.893432080975], [174.509580493496, -36.8934311180449], [174.509587454052, -36.8934301192111], [174.509594402502, -36.8934290754622], [174.509601327802, -36.8934279959523], [174.509608240995, -36.8934268715272], [174.509615142259, -36.8934257111985], [174.509622020196, -36.8934245060973], [174.509628897423, -36.8934232649498], [174.509635751323, -36.8934219790299], [174.509642582074, -36.8934206573489], [174.509649411937, -36.8934192906102], [174.509656218651, -36.8934178881104], [174.509663002216, -36.8934164498496], [174.509669784893, -36.8934149665312], [174.509676544243, -36.8934134384402], [174.509683291664, -36.8934118744457], [174.509690015935, -36.8934102746901], [174.50969671759, -36.8934086662078], [174.509703342839, -36.8934071668606], [174.509709892037, -36.8934057946715], [174.509716365183, -36.8934045496405], [174.509722762102, -36.893403422756], [174.509729082791, -36.8934024140182], [174.50973532743, -36.8934015324385], [174.509741495841, -36.8934007690055], [174.509747576981, -36.8934001328731], [174.50975359329, -36.8933996237563], [174.509759522151, -36.8933992329287], [174.509765374784, -36.8933989602479], [174.509771162585, -36.8933988145826], [174.509776862939, -36.8933987872066], [174.509782487242, -36.8933988869889], [174.509788035495, -36.8933991139293], [174.509793507342, -36.893399450005], [174.509798903316, -36.8933999222503], [174.509804211842, -36.893400512785], [174.50980945536, -36.8934012213239], [174.509814622827, -36.8934020570211], [174.509819702847, -36.8934030110076], [174.509824706817, -36.8934040921524], [174.509829645778, -36.8934052913014], [174.509834497469, -36.8934066177513], [174.509839272932, -36.893408062348], [174.509843972344, -36.893409634103], [174.509848685817, -36.8934113498985], [174.509853526254, -36.8934132443544], [174.509858471217, -36.8934153177558], [174.509863531748, -36.8934175609486], [174.509868696982, -36.8934199920984], [174.509873988825, -36.8934225838856], [174.509879396592, -36.8934253634871], [174.509884908706, -36.8934283130226], [174.509890536566, -36.8934314413609], [174.509896279994, -36.8934347394906], [174.509902139345, -36.8934382254346], [174.509908114086, -36.8934418721584], [174.509914193531, -36.8934457068391], [174.509920399764, -36.8934497111684], [174.509926710523, -36.8934538944431], [174.509933137028, -36.8934582565205], [174.509939679101, -36.8934627883891], [174.50994633692, -36.8934674990603], [174.509953099265, -36.8934723886769], [174.509959988399, -36.8934774479419], [174.509966982236, -36.8934826951637], [174.509974091465, -36.8934881031651], [174.509981316618, -36.8934936989805], [174.509988657339, -36.893499464587], [174.509996113807, -36.893505408996], [174.510003674624, -36.8935115233386], [174.510011350656, -36.8935177894494], [174.51001896633, -36.8935238399977], [174.510026497077, -36.8935295671316], [174.510033931501, -36.893534961982], [174.5100412696, -36.8935400245491], [174.510048511553, -36.8935447638444], [174.510055668579, -36.8935491797251], [174.510062729103, -36.8935532543112], [174.510069693658, -36.8935570146368], [174.510076561888, -36.8935604426792], [174.510083333794, -36.8935635384384], [174.510090020594, -36.8935663017718], [174.510096611425, -36.8935687508448], [174.510103105753, -36.8935708586233], [174.510109503934, -36.89357264313], [174.510115817186, -36.8935741042224], [174.510122022894, -36.8935752331744], [174.510128143497, -36.8935760297005], [174.510134167951, -36.8935765029551], [174.5101401073, -36.893576643784], [174.510145939281, -36.8935764614839], [174.510151686156, -36.8935759467581], [174.510157336883, -36.8935751087608], [174.510162891284, -36.8935739384804], [174.510168360756, -36.8935724447859], [174.510173722683, -36.893570618951], [174.510178999682, -36.893568469702], [174.510184407584, -36.8935661295008], [174.51019065194, -36.8935640941459], [174.510197800421, -36.8935623808043], [174.510205841986, -36.89356099863], [174.510214787853, -36.8935599474802], [174.510224638024, -36.8935592273546], [174.510235381278, -36.8935588383957], [174.510247028835, -36.8935587804605], [174.510259580519, -36.8935590445374], [174.510273025464, -36.8935596487915], [174.510287374535, -36.8935605750572], [174.510302616868, -36.8935618414994], [174.510318763328, -36.8935634299525], [174.510335814092, -36.8935653494274], [174.510353757941, -36.8935676000664], [174.510372594876, -36.893570181869], [174.510392347335, -36.8935730945497], [174.510412992704, -36.8935763293816], [174.510434531336, -36.8935799043873], [174.510456985317, -36.8935838012581], [174.510480321343, -36.8935880384442], [174.510504572718, -36.8935925974944], [174.510529717182, -36.8935974877047], [174.510555754734, -36.8936027090746], [174.510582707814, -36.8936082613183], [174.510610553985, -36.8936141447202], [174.510639293245, -36.89362035928], [174.510649840409, -36.8936134378382], [174.510660401988, -36.893606678459], [174.510670955721, -36.8936000904391], [174.510681523691, -36.8935936554702], [174.510692083815, -36.8935873918607], [174.510702647134, -36.8935812904564], [174.510713224869, -36.8935753511145], [174.510723794579, -36.8935695741206], [174.510734367664, -36.8935639683432], [174.510744954985, -36.8935585156169], [174.510755534462, -36.8935532342499], [174.510766128175, -36.893548105934], [174.510776714044, -36.8935431489774], [174.510787303108, -36.8935383542259], [174.510797906588, -36.893533721537], [174.510808502045, -36.8935292511959], [174.510819100876, -36.8935249520714], [174.510829713945, -36.8935208059979], [174.510840319168, -36.8935168312837], [174.510850938808, -36.893513018632], [174.510861550425, -36.8935093683282], [174.510872241998, -36.8935057891162], [174.510883090286, -36.8935021898827], [174.510894083894, -36.8934985617588], [174.510905234217, -36.8934949136134], [174.510916541255, -36.8934912454464], [174.510927993612, -36.893487548389], [174.510939602863, -36.8934838403213], [174.510951357431, -36.893480103363], [174.510963268716, -36.8934763463829], [174.510975336538, -36.8934725603696], [174.510987549855, -36.8934687544771], [174.510999919889, -36.8934649285626], [174.511012446637, -36.8934610826261], [174.511025118704, -36.8934572077988], [174.511037936445, -36.8934533221037], [174.511050921764, -36.8934493982208], [174.511064041538, -36.8934454636125], [174.511077329068, -36.8934414998278], [174.511090762272, -36.8934375251751], [174.511104351836, -36.8934335124771], [174.511118087073, -36.8934294889108], [174.511131700139, -36.893425529993], [174.51114491268, -36.8934217474289], [174.5111577133, -36.8934181323499], [174.511170113217, -36.8934146846134], [174.511182112433, -36.8934114042196], [174.511193710948, -36.8934082911685], [174.511204897541, -36.8934053456031], [174.51121568361, -36.893402576392], [174.511226057759, -36.8933999746668], [174.511236042249, -36.8933975311306], [174.511245614996, -36.893395264092], [174.511254787041, -36.8933931643966], [174.511263558386, -36.8933912320448], [174.511271917988, -36.8933894761908], [174.511279876712, -36.8933878786689], [174.511287434914, -36.8933864575022], [174.511294581195, -36.8933852038221], [174.511301326598, -36.8933841084744], [174.511307671478, -36.8933831894821], [174.511313615836, -36.8933824468453], [174.511319148096, -36.8933818626838], [174.511324568695, -36.8933813069838], [174.511330166317, -36.8933806228395], [174.511335940961, -36.8933798102509], [174.511341892806, -36.8933788782296], [174.511348010453, -36.8933778179067], [174.511354316343, -36.8933766289967], [174.511360788214, -36.8933753207965], [174.511367448504, -36.8933738930207], [174.511374274419, -36.8933723279318], [174.511381277534, -36.8933706434099], [174.51138844663, -36.8933688395977], [174.511395803967, -36.8933669071982], [174.511403338327, -36.8933648463543], [174.511411038667, -36.8933626662199], [174.511418927248, -36.8933603574983], [174.51142698181, -36.8933579294861], [174.511435213216, -36.8933553640179], [174.511443622, -36.8933526881279], [174.511452207627, -36.8933498747817], [174.511460959235, -36.8933469421449], [174.511469899262, -36.893343889932], [174.511478896628, -36.8933409000848], [174.511487854449, -36.8933381811514], [174.511496761503, -36.8933357332744], [174.511505628655, -36.8933335382883], [174.511514445219, -36.8933316233702], [174.511523222059, -36.8933299703543], [174.511531947956, -36.8933285793835], [174.511540623087, -36.8933274594692], [174.511549258495, -36.8933266014573], [174.511557843137, -36.8933260145019], [174.511566388056, -36.8933256894489], [174.511574893251, -36.8933256262982], [174.511583347859, -36.8933258432155], [174.511591751347, -36.8933263131665], [174.511600115289, -36.8933270540313], [174.511608428466, -36.8933280659527], [174.51161670192, -36.8933293397765], [174.511624924432, -36.8933308756455], [174.51163309618, -36.8933326825711], [174.511641228382, -36.8933347604105], [174.511649320862, -36.8933371001523], [174.511657459464, -36.8933395024027], [174.511665752294, -36.8933417584706], [174.511674188133, -36.8933438684989], [174.5116827782, -36.8933458323448], [174.511691511276, -36.8933476501509], [174.511700409977, -36.8933493306432], [174.51170944029, -36.893350856227], [174.511718636228, -36.8933522444969], [174.511727975174, -36.8933534867269], [174.511737456951, -36.8933545739056], [174.511747093134, -36.893355523913], [174.511756883722, -36.8933563367492], [174.511766817142, -36.8933569945339], [174.511776904788, -36.8933575061358], [174.51178714684, -36.8933578805664], [174.511797531901, -36.8933581089568], [174.511808071011, -36.8933581821529], [174.511818753307, -36.8933581183202], [174.51182958983, -36.8933579083046], [174.511840580759, -36.8933575611173], [174.511851714517, -36.8933570588783], [174.511862835457, -36.8933564756781], [174.51187377653, -36.8933558767385], [174.511884548956, -36.8933552619167], [174.511895130118, -36.893354622487], [174.511905542812, -36.8933539761866], [174.511915764065, -36.893353296267], [174.511925816848, -36.8933526094769], [174.511935689588, -36.8933518979362], [174.511945382639, -36.8933511796679], [174.511954895468, -36.8933504276377], [174.511964239828, -36.8933496687371], [174.511973392925, -36.893348885229], [174.511982377375, -36.8933480858392], [174.51199117074, -36.8933472708533], [174.511999795457, -36.8933464399858], [174.512008240131, -36.8933455843681], [174.512016504938, -36.8933447130116], [174.512024600921, -36.8933438167622], [174.512032505996, -36.8933429139284], [174.512040231027, -36.8933419863445], [174.512047787411, -36.8933410428792], [174.512055205073, -36.8933398938638], [174.512062547773, -36.8933383582127], [174.512069793073, -36.8933364362114], [174.512076963411, -36.8933341275744], [174.512084047568, -36.8933314324444], [174.512091056763, -36.8933283506788], [174.512097968556, -36.8933248825631], [174.51210480521, -36.8933210188003], [174.512111544641, -36.8933167776989], [174.512118220151, -36.8933121408076], [174.512124798437, -36.8933071265778], [174.512131290364, -36.8933017168437], [174.512137707328, -36.893295920474], [174.51214403811, -36.8932897376116], [174.51215028271, -36.8932831682564], [174.512156441127, -36.8932762124084], [174.512162513363, -36.8932688700677], [174.512168510635, -36.8932611410915], [174.512174421725, -36.8932530256226], [174.512180246455, -36.8932445146496], [174.512185985179, -36.8932356261953], [174.512191644123, -36.8932266756604], [174.512197240905, -36.8932179873139], [174.512202764484, -36.8932095703103], [174.512208214683, -36.8932014156379], [174.512213591502, -36.893193523297], [174.512218895295, -36.8931859113102], [174.51222413675, -36.8931785525006], [174.512229305003, -36.8931714650337], [174.512234400053, -36.8931646489097], [174.512239421724, -36.8931580951171], [174.512244370014, -36.8931518036559], [174.512249256322, -36.8931457833947], [174.512254069427, -36.8931400344764], [174.512258809153, -36.8931345478895], [174.512263475499, -36.893129323634], [174.512268068644, -36.8931243707214], [174.512272599805, -36.8931196890089], [174.51227705741, -36.8931152606164], [174.512281430771, -36.893111112721], [174.512285753192, -36.8931072268715], [174.512289991014, -36.8931036034963], [174.512294277803, -36.8931001868128], [174.512298713288, -36.8930969124557], [174.512303308689, -36.8930937802819], [174.512308063828, -36.8930907812801], [174.512312967841, -36.8930879336159], [174.512318031592, -36.8930852191237], [174.512323244039, -36.8930826469576], [174.512328616403, -36.8930802169749], [174.512334148682, -36.8930779291754], [174.512339829658, -36.8930757837021], [174.512345670549, -36.893073780412], [174.512351659959, -36.8930719104366], [174.512357809463, -36.8930701916557], [174.512364118705, -36.8930686060467], [174.512370576644, -36.8930671627636], [174.512377194499, -36.8930658616637], [174.51238396105, -36.8930647028897], [174.512390887518, -36.8930636862987], [174.512397973901, -36.8930628118908], [174.512405208981, -36.8930620798088], [174.5124126038, -36.8930614808983], [174.512420044207, -36.8930609174618], [174.512427438136, -36.8930602734932], [174.512434785409, -36.8930595399811], [174.512442063943, -36.8930587352339], [174.512449307041, -36.8930578408004], [174.512456481399, -36.893056875132], [174.512463620321, -36.8930558197771], [174.512470690504, -36.8930546931874], [174.512477714031, -36.8930534770542], [174.51248469108, -36.8930521803888], [174.512491610431, -36.8930508033344], [174.512498472085, -36.8930493458907], [174.51250528726, -36.8930478079151], [174.512512055957, -36.8930461894074], [174.512518766956, -36.8930444905106], [174.512525420258, -36.8930427112246], [174.512532027081, -36.8930408514067], [174.512538576029, -36.8930389021882], [174.512545078677, -36.8930368814492], [174.512551523626, -36.8930347803211], [174.51255792192, -36.8930325896496], [174.51256421746, -36.8930303101489], [174.512570353973, -36.893027933522], [174.512576331458, -36.8930254597687], [174.512582160956, -36.8930228797348], [174.512587831428, -36.8930202025748], [174.512593353913, -36.8930174191341], [174.512598717548, -36.8930145475788], [174.5126039218, -36.8930115608743], [174.512608978421, -36.8930084859123], [174.512613875837, -36.8930053048127], [174.512618625444, -36.893002026444], [174.512623215846, -36.8929986419379], [174.512627647398, -36.8929951693171], [174.512631930964, -36.8929915904159], [174.512636055325, -36.8929879053772], [174.512640020658, -36.8929841232125], [174.512643838182, -36.8929802437789], [174.512647507898, -36.8929762670764], [174.51265100719, -36.8929721843793], [174.512654358495, -36.892967995402], [174.51265756217, -36.8929637181672], [174.512660891036, -36.8929595294754], [174.512664629311, -36.8929556149954], [174.512668777174, -36.8929519837386], [174.512673345843, -36.892948635562], [174.5126783241, -36.8929455706086], [174.512683711767, -36.8929427798668], [174.51268952024, -36.8929402722052], [174.5126957383, -36.8929380477664], [174.512702365948, -36.8929361065506], [174.512709403006, -36.8929344395461], [174.51271686087, -36.8929330556215], [174.512724728322, -36.8929319549196], [174.512733005361, -36.8929311374402], [174.51274170303, -36.892930594029], [174.512750799245, -36.8929303429945], [174.512760315912, -36.8929303570165], [174.512770253563, -36.8929306631293], [174.512780589406, -36.8929312435956], [174.512791346056, -36.892932107141], [174.512802512295, -36.8929332539083], [174.512814099341, -36.8929346837545], [174.512825775609, -36.8929360854222], [174.512837254745, -36.8929371651057], [174.51284851431, -36.8929379230907], [174.512859565523, -36.8929383592346], [174.512870408207, -36.8929384645258], [174.512881042539, -36.892938247976], [174.512891468341, -36.8929377005736], [174.512901685968, -36.8929368403417], [174.512911683847, -36.8929356494003], [174.512921473372, -36.8929341366181], [174.512931054368, -36.8929322929835], [174.512940427011, -36.8929301275083], [174.512949591301, -36.8929276401923], [174.512958547238, -36.8929248310356], [174.512967283425, -36.8929216911697], [174.512975822657, -36.8929182383319], [174.51298414196, -36.8929144457735], [174.512992253088, -36.8929103403861], [174.513000155685, -36.8929059041468], [174.513007849929, -36.8929011460671], [174.51301533582, -36.8928960661471], [174.513022669809, -36.8928906816952], [174.513029930789, -36.8928850097341], [174.513037096321, -36.8928790505496], [174.513044188842, -36.8928728038559], [174.513051197312, -36.8928662788073], [174.513058132772, -36.8928594662497], [174.513064972783, -36.8928523664687], [174.513071739962, -36.89284498819], [174.513078411514, -36.8928373136766], [174.513085021453, -36.8928293605226], [174.513091536121, -36.8928211291567], [174.513097966381, -36.8928126014133], [174.513104323809, -36.8928037951723], [174.513110597007, -36.8927947015651], [174.513116785976, -36.8927853205918], [174.513122890892, -36.8927756612638], [174.513128911401, -36.8927657055582], [174.513134859077, -36.8927554713552], [174.513140722701, -36.8927449587974], [174.513146501917, -36.8927341498622], [174.513152197081, -36.8927230625724], [174.513157972202, -36.8927120463735], [174.513163980069, -36.892701450854], [174.51317023208, -36.8926912848824], [174.513176728235, -36.8926815484587], [174.513183445917, -36.8926722328571], [174.513190407743, -36.8926633468034], [174.513197613534, -36.8926548812859], [174.51320505225, -36.8926468454591], [174.51321272389, -36.8926392393229], [174.513220639496, -36.8926320537228], [174.513228788027, -36.8926252978132], [174.513237169304, -36.8926189625825], [174.513245794904, -36.8926130659108], [174.513254653072, -36.8926075809065], [174.513263755563, -36.8926025344611], [174.5132730908, -36.8925979086944], [174.513282670004, -36.8925937034635], [174.513292482312, -36.8925899369341], [174.513302527189, -36.8925865820719], [174.513312816388, -36.8925836657682], [174.513323338335, -36.8925811701429], [174.513333817896, -36.8925788012486], [174.513343957141, -36.8925762474007], [174.513353756247, -36.8925735176108], [174.513363237477, -36.8925706025816], [174.513372367349, -36.8925675117535], [174.513381179522, -36.8925642446977], [174.513389640159, -36.8925607928317], [174.513397783098, -36.8925571647382], [174.513405585898, -36.892553360703], [174.513413048382, -36.892549371715], [174.513420181769, -36.8925451976311], [174.513426975019, -36.8925408476058], [174.51343343935, -36.8925363214962], [174.513439563542, -36.8925316194454], [174.513445358639, -36.8925267322989], [174.513450824638, -36.892521660057], [174.5134559505, -36.8925164118738], [174.513460736224, -36.8925109877496], [174.513465192851, -36.8925053785299], [174.51346932056, -36.8924995932263], [174.513473108131, -36.8924936319817], [174.513476636768, -36.8924876289672], [174.513479999074, -36.8924817272224], [174.513483184006, -36.8924759359018], [174.513486180168, -36.8924702461367], [174.513489009997, -36.8924646576414], [174.513491662454, -36.8924591795703], [174.513494137359, -36.8924538029118], [174.513496445932, -36.8924485275232], [174.513498565913, -36.8924433627016], [174.513500519563, -36.8924382991499], [174.51350228462, -36.8924333461653], [174.513503883168, -36.8924284854391], [174.513505304342, -36.8924237351371], [174.513506548144, -36.8924190952593], [174.513507614217, -36.8924145477828], [174.513508514314, -36.8924101195991], [174.513509225464, -36.8924057839596], [174.51350977046, -36.8924015586014], [174.513510126686, -36.892397434799], [174.513510316581, -36.8923934122664], [174.513510329103, -36.892389500158], [174.513510476078, -36.892385577323], [174.513511080729, -36.8923815314789], [174.513512143057, -36.8923773626258], [174.51351365184, -36.8923730709066], [174.513515606903, -36.8923686473098], [174.513518019818, -36.8923641097153], [174.51352089041, -36.8923594491118], [174.513524207458, -36.892354665642], [174.513527982181, -36.892349759163], [174.513532214579, -36.8923447296748], [174.513536893433, -36.8923395773203], [174.513542029784, -36.892334292945], [174.513547612769, -36.8923288947147], [174.513553653429, -36.892323373475], [174.513560140544, -36.8923177293687], [174.513567085334, -36.8923119622528], [174.51357448762, -36.8923060631158], [174.513582336539, -36.8923000501234], [174.513590631913, -36.8922939142642], [174.513599396003, -36.8922876462406], [174.513608595505, -36.8922812645044], [174.513617972734, -36.892274790366], [174.513627225482, -36.8922682637307], [174.513636353572, -36.8922616755869], [174.51364535718, -36.8922550349463], [174.513654236307, -36.8922483418088], [174.513663001995, -36.8922415870201], [174.513671643201, -36.8922347797346], [174.51368014853, -36.8922279110838], [174.513688540597, -36.8922209897933], [174.513696819402, -36.8922140158631], [174.513704962329, -36.8922069805677], [174.513712980776, -36.8921998927756], [174.513720885961, -36.8921927523439], [174.513728666487, -36.8921855504041], [174.513736322532, -36.8921782959677], [174.513743853918, -36.8921709800233], [174.513751260824, -36.8921636115823], [174.513758543249, -36.8921561906448], [174.513765712235, -36.8921487080564], [174.51377274552, -36.8921411731144], [174.513779665545, -36.892133585533], [174.513786407306, -36.8921260633186], [174.513792928775, -36.8921187512262], [174.513799218556, -36.8921116403873], [174.513805276825, -36.8921047398133], [174.513811103406, -36.8920980404929], [174.513816709517, -36.8920915422832], [174.51382208394, -36.8920852453271], [174.513827226852, -36.8920791586361], [174.513832149117, -36.8920732640443], [174.51383684005, -36.8920675887292], [174.513841299116, -36.8920621056564], [174.513845537892, -36.8920568327058], [174.51384953376, -36.892051761152], [174.513853320557, -36.8920468995775], [174.513856864269, -36.8920422303883], [174.51386018769, -36.8920377713215], [174.513863279423, -36.8920335135085], [174.513866150866, -36.8920294658179], [174.513868779402, -36.8920256195242], [174.513871198689, -36.8920219741985], [174.513873375247, -36.8920185392811], [174.513875540764, -36.892015113518], [174.513877916063, -36.8920115138212], [174.513880478885, -36.892007749488], [174.513883251489, -36.892003811221], [174.513886222656, -36.8919996991631], [174.513889392387, -36.8919954133144], [174.513892760859, -36.8919909626863], [174.513896327716, -36.8919863292559], [174.513900093314, -36.891981531046], [174.513904068695, -36.8919765589022], [174.513908242816, -36.8919714219789], [174.513912615323, -36.8919661022532], [174.51391718657, -36.891960617748], [174.51392195638, -36.8919549594518], [174.513926924753, -36.8919491273645], [174.513932103085, -36.8919431303547], [174.513937479802, -36.8919369505424], [174.513943044041, -36.8919306060934], [174.51394882928, -36.8919240875673], [174.513954801862, -36.891917395393], [174.513960973184, -36.891910538439], [174.513967188848, -36.8919036538785], [174.513973272195, -36.8918968881821], [174.513979234622, -36.8918902502183], [174.513985076129, -36.8918837399871], [174.513990785318, -36.89187734862], [174.513996373588, -36.8918710849857], [174.514001840939, -36.891864949084], [174.514007187191, -36.8918589319035], [174.514012401305, -36.8918530425987], [174.514017483103, -36.8918472721581], [174.514022455199, -36.8918416293073], [174.514027295158, -36.8918361143322], [174.514032002799, -36.8918307182214], [174.514036600741, -36.8918254497004], [174.514041066366, -36.8918203000438], [174.514045411071, -36.8918152781199], [174.514049623639, -36.8918103840718], [174.514053715109, -36.8918056087451], [174.51405768566, -36.8918009611512], [174.514061523894, -36.8917964324217], [174.51406524121, -36.8917920314251], [174.514068870196, -36.8917877036638], [174.514072454661, -36.8917833944972], [174.514075983564, -36.8917791130797], [174.514079456549, -36.8917748413885], [174.51408288519, -36.8917705973034], [174.51408625827, -36.8917663809675], [174.514089586651, -36.8917621742149], [174.514092859469, -36.8917579952115], [174.514096087767, -36.8917538348028], [174.514099271543, -36.8917496929889], [174.514102388539, -36.8917455790671], [174.514105461013, -36.89174148374], [174.514108488967, -36.8917374070078], [174.514111461358, -36.8917333580247], [174.514114389051, -36.8917293186249], [174.514117261181, -36.8917253069744], [174.514120077572, -36.8917213140616], [174.51412284962, -36.891717348755], [174.514125577147, -36.8917134020432], [174.514128248934, -36.8917094740692], [174.51413086498, -36.8917055648329], [174.514133561163, -36.8917017356986], [174.514136473536, -36.8916980570419], [174.514139579305, -36.8916945111258], [174.514142901085, -36.8916911066758], [174.514146416439, -36.8916878439778], [174.514150147627, -36.8916847137344], [174.514154083786, -36.8916817341116], [174.514158224559, -36.8916788870863], [174.514162581523, -36.8916761905384], [174.514167131882, -36.891673626731], [174.514171898253, -36.8916712043896], [174.514176858197, -36.8916689238001], [174.514182034153, -36.8916667846765], [174.514187414903, -36.8916647871617], [174.514193000266, -36.8916629222443], [174.51419880182, -36.8916612078042], [174.51420479677, -36.8916596261044], [174.514210996512, -36.8916581860134], [174.514217412267, -36.891656887388], [174.514224032814, -36.8916557303714], [174.514230858154, -36.8916547149634], [174.514237808151, -36.891653761062], [174.514244813709, -36.8916527794109], [174.514251875007, -36.8916517790215], [174.514258980825, -36.8916507600369], [174.514266130985, -36.8916497134454], [174.514273337063, -36.8916486571271], [174.514280587483, -36.8916475732021], [174.514287904683, -36.8916464613842], [174.514295255363, -36.8916453401254], [174.514302661604, -36.8916441911169], [174.514310123584, -36.8916430233699], [174.514317630084, -36.8916418370276], [174.514325192146, -36.8916406229355], [174.514332798728, -36.891639390248], [174.51434046105, -36.891638138822], [174.514348167892, -36.8916368688007], [174.514355930294, -36.8916355710295], [174.514363748437, -36.8916342545199], [174.514371611099, -36.8916329194148], [174.514379518282, -36.8916315657142], [174.514387481026, -36.8916301842638], [174.514395362386, -36.891628659631], [174.514403036639, -36.8916268762402], [174.514410503782, -36.8916248340916], [174.51441776364, -36.8916225241737], [174.51442481621, -36.8916199464866], [174.514431650453, -36.8916171101848], [174.514438288807, -36.8916140149822], [174.514444708655, -36.8916106521536], [174.514450921215, -36.8916070215559], [174.514456926667, -36.8916031322006], [174.514462725011, -36.8915989840877], [174.514468304848, -36.8915945683488], [174.514473688795, -36.8915898937095], [174.514478854237, -36.8915849514442], [174.514483812569, -36.8915797504214], [174.514488574834, -36.8915742814868], [174.514493107552, -36.8915685540808], [174.514497444202, -36.8915625587629], [174.514501573743, -36.8915563046878], [174.514505495997, -36.8915497828437], [174.514509199924, -36.8915430023855], [174.514512834932, -36.8915361416823], [174.514516516775, -36.8915293795327], [174.514520245452, -36.8915227159368], [174.514524043581, -36.8915161596197], [174.514527877324, -36.8915097019993], [174.514531780519, -36.8915033516579], [174.514535719151, -36.8914970910016], [174.514539727412, -36.8914909466358], [174.51454378233, -36.891484891812], [174.51454788426, -36.8914789445532], [174.514552044244, -36.891473095705], [174.514556262282, -36.8914673452672], [174.514560527333, -36.8914617023945], [174.514564839218, -36.8914561580753], [174.514569209335, -36.891450721178], [174.514573637505, -36.8914453826912], [174.514578112511, -36.891440142758], [174.51458264557, -36.8914350012352], [174.514587225641, -36.8914299672773], [174.514591863767, -36.89142503173], [174.514596548905, -36.8914202037475], [174.514601202878, -36.8914155023541], [174.514605736825, -36.8914109737513], [174.514610139168, -36.8914066000591], [174.514614421485, -36.8914023991574], [174.514618572377, -36.8913983621779], [174.514622603064, -36.8913944889775], [174.514626513546, -36.8913907795563], [174.514630303822, -36.8913872339141], [174.514633962675, -36.8913838521942], [174.514637501501, -36.8913806432649], [174.514640908902, -36.8913775982578], [174.51464420714, -36.8913747078754], [174.514647362913, -36.8913719905697], [174.5146504097, -36.8913694369002], [174.514653325241, -36.8913670561644], [174.514656120399, -36.8913648301964], [174.514658784311, -36.8913627771621], [174.51466133906, -36.8913608787525], [174.514663751344, -36.8913591534197], [174.514666054642, -36.8913575917231], [174.514668226517, -36.8913561939489], [174.514670388775, -36.8913548774205], [174.514672652005, -36.8913535596048], [174.514675016206, -36.8913522405016], [174.514677492777, -36.8913509289794], [174.514680058922, -36.8913496073014], [174.514682726039, -36.891348284336], [174.514685505347, -36.8913469599401], [174.514688374408, -36.8913456343997], [174.514691355659, -36.8913443074289], [174.514694426663, -36.8913429793137], [174.514697610036, -36.8913416587794], [174.514700894203, -36.8913403279462], [174.514704279341, -36.8913389958255], [174.514707765452, -36.8913376624173], [174.514711352534, -36.8913363277216], [174.514715040587, -36.8913349917384], [174.514718829612, -36.8913336544677], [174.514722719788, -36.8913323249209], [174.514726710756, -36.8913309850752], [174.514730813916, -36.8913296437988], [174.514735006828, -36.8913283013779], [174.514739321903, -36.8913268943033], [174.514743758073, -36.8913253685064], [174.51474831516, -36.8913237149756], [174.51475300456, -36.8913219425794], [174.514757814877, -36.8913200424494], [174.51476274611, -36.8913180145856], [174.514767798438, -36.8913158679993], [174.514772982901, -36.8913135935362], [174.514778299499, -36.891311191196], [174.514783725973, -36.8913086702765], [174.514789284582, -36.89130602148], [174.514794975505, -36.891303253818], [174.514800776125, -36.8913003585651], [174.514806709058, -36.8912973444465], [174.514812773948, -36.8912941934395], [174.51481896011, -36.8912909327214], [174.514825267011, -36.8912875352578], [174.514831695005, -36.8912840190716], [174.514838255312, -36.8912803840198], [174.514844936536, -36.8912766212338], [174.514851738675, -36.8912727307137], [174.514858503772, -36.8912686694052], [174.514865062472, -36.8912643853855], [174.514871414776, -36.8912598786546], [174.514877549463, -36.8912551493555], [174.514883477754, -36.8912501973454], [174.514889211044, -36.8912450314926], [174.514894726541, -36.8912396340603], [174.514900035641, -36.8912340139171], [174.514905138522, -36.8912281800742], [174.514910023609, -36.891222114652], [174.514914713696, -36.8912158353873], [174.514919185989, -36.8912093245432], [174.514923463282, -36.8912025998567], [174.51492752296, -36.8911956526023], [174.514931376062, -36.8911884736256], [174.514935022946, -36.8911810809495], [174.514938452214, -36.8911734657057], [174.514941686304, -36.891165627608], [174.514944702779, -36.8911575669426], [174.514947524075, -36.8911492834233], [174.514950127757, -36.8911407773363], [174.514952596274, -36.8911322459318], [174.514954989286, -36.8911238687231], [174.514957307148, -36.8911156637331], [174.51495954986, -36.8911076309618], [174.514961717066, -36.8910997523863], [174.514963820164, -36.8910920368751], [174.514965848112, -36.8910844935825], [174.514967800554, -36.8910771044858], [174.514969677847, -36.8910698876079], [174.514971491031, -36.8910628337941], [174.514973217668, -36.8910559433307], [174.514974880376, -36.891049224943], [174.514976467577, -36.8910426607512], [174.51497799067, -36.8910362596236], [174.514979427395, -36.8910300308578], [174.514980800012, -36.8910239651562], [174.5149820973, -36.8910180626619], [174.514983319262, -36.891012323375], [174.514984465896, -36.8910067472953], [174.514985537203, -36.891001334423], [174.51498654458, -36.8909960936264], [174.514987542341, -36.8909909340757], [174.514988584799, -36.8909857649414], [174.514989672312, -36.8909806042461], [174.514990815742, -36.8909754338241], [174.514992015444, -36.8909702716982], [174.514993259845, -36.8909650999885], [174.514994560519, -36.8909599365749], [174.514995906069, -36.890954772589], [174.514997307536, -36.8909495988763], [174.514998754057, -36.8909444336028], [174.515000256494, -36.8909392586024], [174.515001803986, -36.8909340920412], [174.515003407395, -36.8909289157531], [174.515005067076, -36.8909237477611], [174.515006771634, -36.8909185791969], [174.515008520889, -36.8909134010488], [174.515010326418, -36.8909082311969], [174.515012187863, -36.8909030516181], [174.515014094362, -36.8908978804784], [174.515016056778, -36.8908926996119], [174.515018064248, -36.8908875271845], [174.515020094869, -36.8908823905167], [174.515022138311, -36.8908773348087], [174.515024172137, -36.8908723603467], [174.515026218963, -36.8908674758559], [174.515028255994, -36.8908626635996], [174.515030306026, -36.8908579413146], [174.515032346263, -36.8908532912642], [174.515034399501, -36.8908487311849], [174.515036442944, -36.8908442433402], [174.515038499387, -36.8908398454668], [174.515040546214, -36.8908355288393], [174.515042605863, -36.8908312931717], [174.515044655896, -36.8908271387499], [174.51504671875, -36.8908230652881], [174.515048771989, -36.8908190730721], [174.515050838049, -36.890815161816], [174.515052894494, -36.8908113318059], [174.515054963938, -36.890807591767], [174.515057023589, -36.8908039239626], [174.515059096061, -36.8908003371181], [174.515061159095, -36.8907968405309], [174.515063267362, -36.8907933613943], [174.51506545327, -36.8907898361989], [174.51506770578, -36.8907862740993], [174.515070035933, -36.8907826659409], [174.515072443727, -36.8907790117238], [174.51507492952, -36.8907753294708], [174.515077492777, -36.8907715921476], [174.515080122635, -36.8907678179201], [174.515082841533, -36.8907640065022], [174.515085626854, -36.8907601491686], [174.515088489817, -36.8907562457762], [174.5150914306, -36.8907523053365], [174.515094437806, -36.890748318981], [174.515097522833, -36.8907442955782], [174.515100685501, -36.8907402261165], [174.51510392599, -36.8907361196075], [174.515107244121, -36.8907319670397], [174.515110640072, -36.8907277774245], [174.515114102445, -36.8907235418935], [174.515117642639, -36.8907192693151], [174.515121260475, -36.8907149506779], [174.515124863707, -36.8907104609663], [174.515128359912, -36.8907056661536], [174.515131737691, -36.8907005573713], [174.515135019839, -36.8906951523563], [174.51513818374, -36.8906894423832], [174.515141251832, -36.8906834271659], [174.515144201499, -36.890677097979], [174.515147044316, -36.8906704727025], [174.515149791324, -36.8906635421818], [174.515152419907, -36.8906562976916], [174.51515494164, -36.8906487571117], [174.515157356345, -36.8906409114307], [174.515159663844, -36.8906327516372], [174.515161864494, -36.8906242957541], [174.515163958115, -36.8906155347698], [174.515165933311, -36.8906064598161], [174.515167812876, -36.8905970886297], [174.515169585235, -36.8905874033307], [174.515171239525, -36.8905774220852], [174.515172797829, -36.8905671265841], [174.515174238063, -36.8905565351365], [174.515175701626, -36.8905459884598], [174.51517729697, -36.8905358637467], [174.515179023738, -36.8905261429742], [174.515180893328, -36.8905168350106], [174.515182905562, -36.8905079308446], [174.515185038357, -36.8904994487852], [174.515187325015, -36.8904913703802], [174.515189732056, -36.8904837050704], [174.515192293137, -36.8904764524264], [174.515194985822, -36.8904696127344], [174.515197810108, -36.8904631859945], [174.51520076582, -36.8904571631952], [174.515203864352, -36.8904515532047], [174.515207105707, -36.8904463560232], [174.515210478664, -36.8904415717937], [174.515213983223, -36.8904372005161], [174.515217630426, -36.890433233036], [174.515221420451, -36.8904296783647], [174.515225331038, -36.8904265457999], [174.515229395309, -36.890423807878], [174.515233580142, -36.8904214920625], [174.515237925247, -36.8904193364494], [174.51524240302, -36.8904170799933], [174.515247036254, -36.8904147404308], [174.515251813553, -36.8904123088935], [174.515256745958, -36.890409776227], [174.515261822605, -36.8904071605972], [174.515267043317, -36.8904044529926], [174.515272419134, -36.8904016442586], [174.515277939194, -36.8903987525612], [174.515283603319, -36.8903957688891], [174.515289422549, -36.8903926840875], [174.515295386021, -36.8903895163225], [174.515301504776, -36.8903862564394], [174.515307767418, -36.89038289557], [174.515314174302, -36.8903794517371], [174.51532073647, -36.8903759157861], [174.515327442523, -36.8903722788487], [174.515334292819, -36.8903685589477], [174.515341298398, -36.8903647469285], [174.515348448041, -36.8903608429343], [174.515355741569, -36.8903568379536], [174.515363203738, -36.8903528488487], [174.515370836327, -36.8903489657341], [174.515378650558, -36.8903451884665], [174.515386635387, -36.8903415262005], [174.515394790638, -36.8903379699246], [174.515403127529, -36.8903345194957], [174.515411634842, -36.8903311750569], [174.515420312754, -36.8903279456195], [174.515429172306, -36.8903248220289], [174.51543820228, -36.8903218044283], [174.515447402853, -36.890318901829], [174.515456784889, -36.890316096065], [174.515466337524, -36.8903134053022], [174.515476071978, -36.8903108293975], [174.515485965456, -36.8903083506142], [174.515496051971, -36.8903059865459], [174.51550629769, -36.8903037286102], [174.515516725049, -36.8903015765211], [174.515527323007, -36.8902995394329], [174.515538102428, -36.8902975991796], [174.515549052449, -36.8902957739272]]}, "properties": {"OBJECTID": 3042, "TRACKNAME": "Upper Kauri Track", "CONDITIONSOFUSE": "Waitakere West Regional Park", "STATUS": "Open", "WEBLINK": "https://www.aucklandcouncil.govt.nz/en/parks-recreation/find-park-beach/park-detail/3451.html", "VALIDATIONSTATE": 3, "created_user": "AC_owner", "last_edited_user": "AC_owner", "last_edited_date": 1789875254325, "created_date": 1789875254325, "PARK_SAPSITEID": null, "TRACK_ID": null, "KAURIDIEBACK_TRACK": null, "KAURIDIEBACK_MITIGATED": null, "SegmentID": null, "GlobalID": "4b355d83-02ba-4eca-ad63-12b583810a26", "Shape__Length": 1666.5225615162187}}]}