{"type": "FeatureCollection", "features": [{"type": "Feature", "id": 12247, "geometry": {"type": "LineString", "coordinates": [[174.538685113598, -36.9643607544483], [174.538832018362, -36.9643230483376], [174.538819749029, -36.9642698740535], [174.53879335462, -36.96424654654], [174.538647074772, -36.9641478781122], [174.538534284004, -36.9640605922789], [174.538278577561, -36.9638597845345], [174.538146249111, -36.9637253490841], [174.537981391006, -36.9634579970634], [174.537947772472, -36.9632776743078], [174.537935444147, -36.9630584976086], [174.53795726877, -36.9628535976236], [174.538173908335, -36.9625906950114], [174.538198073491, -36.9624658683252], [174.538093197911, -36.9620019732347], [174.53804355599, -36.9618944534344], [174.537980691009, -36.9617979572684], [174.537908006147, -36.9617817099938], [174.537864625095, -36.9617346982914], [174.537883385218, -36.9616694853804], [174.537875053327, -36.9615992513321], [174.537817954326, -36.9614593701212], [174.537728598564, -36.9613849126501], [174.537621413766, -36.9613437748902], [174.537499388394, -36.9613186841238], [174.537409176045, -36.9612758931979], [174.537434032907, -36.9612004971708], [174.537419564446, -36.9611043563959], [174.537216255039, -36.9610682127214], [174.537138167463, -36.9610077872473], [174.537196473765, -36.9608715040616], [174.537592205272, -36.9607303282865], [174.537651342934, -36.9606309627601], [174.537618449676, -36.9605329424516], [174.537723040215, -36.9604082999742], [174.537605141078, -36.9599421392686], [174.537493329191, -36.9597467667695], [174.53744233104, -36.959525882349], [174.537529636199, -36.959315303033], [174.537647898613, -36.9591165901838], [174.537751654873, -36.9589550298237], [174.537807460905, -36.9587079656967], [174.537770806606, -36.958527898381], [174.537848638072, -36.9583836012447], [174.537976565563, -36.9583036610655], [174.537958306571, -36.9582128333528], [174.538004880325, -36.9581210575882], [174.538017867335, -36.9579777175519], [174.538078609161, -36.9577946308587], [174.538092175657, -36.9576773145371], [174.538024991296, -36.9575741771623], [174.537868822191, -36.9576085590055], [174.537691533419, -36.9577147820676], [174.537433669821, -36.9579601635263], [174.537114730842, -36.9581990522381], [174.536860032567, -36.9584109781193], [174.536590594419, -36.9586881723331], [174.536287841283, -36.9589268223146], [174.535968872049, -36.9591656993639], [174.535630781785, -36.9592747207941], [174.53535165893, -36.9591225941787], [174.53512176923, -36.958995789414], [174.534940215871, -36.9588552534978], [174.534855947361, -36.9587133243882], [174.534788165512, -36.9585841706573], [174.53497978413, -36.9584512576482], [174.535104209596, -36.9582151963812], [174.535232294857, -36.9579712548474], [174.53529817266, -36.9576548642215], [174.535341085038, -36.9573162816422], [174.535348725428, -36.957032281797], [174.534873951144, -36.9566307991927], [174.534947703437, -36.95630437391], [174.535007272417, -36.9560692683797], [174.535032372348, -36.9557435441684], [174.534995273024, -36.9555358639384], [174.534879738318, -36.9554464285316], [174.534651039798, -36.9553716607642], [174.534469496485, -36.9552311418505], [174.534512863938, -36.9549962549351], [174.534418744874, -36.954794133725], [174.534213748429, -36.9546752346522], [174.53420426884, -36.954974698623], [174.534015003714, -36.9552116959956], [174.533741463532, -36.955306754105], [174.533575557126, -36.9551399734935], [174.533459131568, -36.9550104827526], [174.533232201156, -36.9550148017074], [174.533034753707, -36.9548875196046], [174.532916900369, -36.9546940231769], [174.532653718322, -36.9545286413876], [174.532297380592, -36.9545468154179], [174.531974329297, -36.9546035426772], [174.531905401351, -36.9544223483935], [174.531883641027, -36.954175386175], [174.531731022618, -36.9538782750731], [174.531725476141, -36.9536310855868], [174.531816312865, -36.9533434614497], [174.53177921223, -36.9531357710405], [174.531353944228, -36.9529727477441], [174.531138832632, -36.952780639038], [174.531003881003, -36.9525483411894], [174.530841824266, -36.9522781569621], [174.53031313016, -36.9521158414145], [174.530114530346, -36.951936515565], [174.530042974672, -36.95163822214], [174.529924240897, -36.9514056869279], [174.529611874051, -36.9512149817414], [174.529768719121, -36.9509784720253], [174.529873432525, -36.950586536235], [174.530060076563, -36.9502324562686], [174.529914471784, -36.9502475735666], [174.529876213442, -36.9499878347227], [174.529989493414, -36.9497873095188], [174.53008144791, -36.9495065945631], [174.530187962358, -36.9493743713313], [174.530295864405, -36.9491790528988], [174.530291314433, -36.9489763414358], [174.530259417487, -36.9488055661097], [174.530142416758, -36.9485954615368], [174.530101133868, -36.948448927529], [174.53016393464, -36.9483569185068], [174.530293606792, -36.948355048977], [174.53047249097, -36.9483784861278], [174.530586550552, -36.9484028668518], [174.530814930176, -36.9484646312458], [174.531006814111, -36.948344736855], [174.531214331873, -36.9481985731861], [174.531519379986, -36.9480640225901], [174.53183947296, -36.9478771964941], [174.532241199766, -36.9477152031675], [174.532570064391, -36.9479186772713], [174.532862996467, -36.9479664896823], [174.533118838952, -36.9478066110701], [174.533326634609, -36.9476734648212], [174.533483460959, -36.9474369414786], [174.533657381442, -36.9472392080142], [174.53381508956, -36.9470417107738], [174.534005491922, -36.9468567524942], [174.534261328481, -36.9466968805419], [174.534485035779, -36.9465504839944], [174.53474175422, -36.9464296285342], [174.534980197465, -36.9462179533418], [174.53513877298, -36.9460594720649], [174.53515117466, -36.9458901173257], [174.534998561204, -36.945593000925], [174.534913129136, -36.9453990328786], [174.534827119034, -36.945179031921], [174.534953270903, -36.9450210330977], [174.534981294516, -36.944825427067], [174.534799197879, -36.9446588750207], [174.534571688294, -36.9446361448707], [174.534197724423, -36.9445895097728], [174.534079578764, -36.9443829841565], [174.53377044894, -36.944335410868], [174.533545285269, -36.9444167556282], [174.533272408369, -36.9444449859782], [174.533088818573, -36.9443062394939], [174.532907010611, -36.9441527054172], [174.532711347322, -36.9441034841555], [174.532467040494, -36.9440549715152], [174.532208005516, -36.9440717357172], [174.53191507739, -36.9440239124423], [174.531605673013, -36.9439108891826]]}, "properties": {"OBJECTID": 12247, "TRACKNAME": "Upper Huia Dam Track", "CONDITIONSOFUSE": "Waitakere South Regional Park", "STATUS": "Temp Closed", "WEBLINK": "https://www.aucklandcouncil.govt.nz/en/parks-recreation/find-park-beach/park-detail/212.html", "VALIDATIONSTATE": 3, "created_user": "AC_owner", "last_edited_user": "AC_owner", "last_edited_date": 1789875254325, "created_date": 1789875254325, "PARK_SAPSITEID": null, "TRACK_ID": null, "KAURIDIEBACK_TRACK": null, "KAURIDIEBACK_MITIGATED": null, "SegmentID": null, "GlobalID": "e2518ca8-277c-42cd-848a-9b71b46b67e6", "Shape__Length": 3976.7565475000492}}]}