{"type": "FeatureCollection", "features": [{"type": "Feature", "id": 920, "geometry": {"type": "LineString", "coordinates": [[175.191146660469, -37.0559350815065], [175.191175491176, -37.0560444835093], [175.191098781725, -37.0561755641924], [175.190973031139, -37.0564586639803], [175.1906870022, -37.0567882373798], [175.190590783194, -37.0571571131148], [175.190519495186, -37.0574607371669], [175.190390888407, -37.0576575671642], [175.190152743194, -37.0577918996927], [175.189948119111, -37.0581413273934], [175.189820322158, -37.0583597628745], [175.189583400111, -37.058537142548], [175.189101666099, -37.05863317044], [175.188728850071, -37.0587701666487], [175.188517468116, -37.0589039118042], [175.188196545059, -37.0589750763962], [175.187977793215, -37.0588715216349], [175.187440868977, -37.0589254903569], [175.186956989145, -37.0589567671328], [175.186687859527, -37.058962091179], [175.186394428204, -37.0590543649666], [175.186238316399, -37.0592301578268], [175.18616425178, -37.0594475086419], [175.185818398429, -37.0595839085475], [175.185549167814, -37.0595893220243], [175.18511585324, -37.0595116170962], [175.184790119179, -37.0594317481015], [175.184580156654, -37.0596086211903], [175.184479923073, -37.0598480832221], [175.184378981482, -37.0600660182666], [175.184251061551, -37.0602843600851], [175.184036395739, -37.0603102959149], [175.183573438281, -37.0601468093725], [175.183306970924, -37.0602384889195], [175.183125203345, -37.0604580013279], [175.182668272627, -37.0604886744158], [175.182539124565, -37.0606639661668], [175.182525916722, -37.060941200441]]}, "properties": {"OBJECTID": 920, "TRACKNAME": "Upper Mangatawhiri Track", "CONDITIONSOFUSE": "Hunua Ranges Regional Park", "STATUS": "Open", "WEBLINK": "https://www.aucklandcouncil.govt.nz/en/parks-recreation/find-park-beach/park-detail/213.html", "VALIDATIONSTATE": 3, "created_user": "AC_owner", "last_edited_user": "AC_owner", "last_edited_date": 1789875254325, "created_date": 1789875254325, "PARK_SAPSITEID": null, "TRACK_ID": null, "KAURIDIEBACK_TRACK": null, "KAURIDIEBACK_MITIGATED": null, "SegmentID": null, "GlobalID": "948246aa-86c9-422e-badc-d3e3922b92e6", "Shape__Length": 1129.8258080219032}}, {"type": "Feature", "id": 2799, "geometry": {"type": "LineString", "coordinates": [[175.222269716984, -37.0428878453558], [175.222265877088, -37.0428897198103], [175.221737928627, -37.0431511902119], [175.221467793728, -37.0432439243293], [175.220939760116, -37.0435281890212], [175.220270770628, -37.0437221014586], [175.219914334825, -37.0438376217678], [175.219353864646, -37.0440748214311], [175.218850816152, -37.0443642854398], [175.218367463809, -37.044734835622], [175.217791852038, -37.0450351139332], [175.217390464099, -37.0451514692475], [175.217081329548, -37.0453381840294], [175.216605560478, -37.0455556740066], [175.21632563184, -37.0456437146906], [175.216178969152, -37.0456789835624], [175.215883909551, -37.0459035460825], [175.215483658303, -37.046056006685], [175.215041885649, -37.0463174581856], [175.214551655174, -37.0464716864871], [175.21397031275, -37.0465916612106], [175.213487796681, -37.0467178979168], [175.213121337472, -37.0467892526864], [175.212718794174, -37.0468695711421], [175.212549108169, -37.0471976613039], [175.212335622886, -37.0475627932065], [175.211871999278, -37.047790760968], [175.211761010774, -37.0478990668618], [175.211072227888, -37.0481318617548], [175.210379320373, -37.0484272637203], [175.210063365294, -37.0485620044109], [175.209803434353, -37.0486241572246], [175.209132185727, -37.0487459641245], [175.208965802807, -37.0491822063389], [175.208707260484, -37.0495482595621], [175.208355326213, -37.0498078329859], [175.208234064119, -37.0502432339011], [175.207732777038, -37.0502251770665], [175.207526543824, -37.0502849715457], [175.207111781974, -37.050338015976], [175.206485364003, -37.0504588835642], [175.206221213209, -37.0506446415685], [175.205868130038, -37.0508681881146], [175.205509138854, -37.0513618023229], [175.20530710303, -37.0516371409381], [175.204903387722, -37.0516814122295], [175.204407042808, -37.051600533309], [175.204110552611, -37.0516205530441], [175.203687346396, -37.0515839960042], [175.2031457453, -37.051608566407], [175.202649780818, -37.0515824582677], [175.202107784386, -37.0515195378101], [175.201968719405, -37.0515168046743], [175.201650236795, -37.0514817185761], [175.201430687864, -37.0514627280616], [175.200992426903, -37.0516752258703], [175.200500808034, -37.051950435368], [175.200144296538, -37.0520658100844], [175.199703477309, -37.0523633206566], [175.199167102315, -37.0524823893931], [175.198764512046, -37.0525626600484], [175.198494573301, -37.0525680256089], [175.197872390346, -37.0526150615582], [175.197644447183, -37.0527294877426], [175.197156401762, -37.0529556883928], [175.196842652578, -37.0529980850822], [175.196541267895, -37.0534370821104], [175.196100518449, -37.0537345800307], [175.195349472008, -37.0540818820097], [175.194941049899, -37.0540825050163], [175.194420034149, -37.0543621074326], [175.194096459812, -37.054424142207], [175.193516244269, -37.0545801298397], [175.19309761544, -37.0549444247797], [175.192950539499, -37.0552047606222], [175.192591836585, -37.0552480676896], [175.192231877198, -37.0552832874372], [175.191860673133, -37.0554109823652], [175.191480662687, -37.0557032850168], [175.191284407077, -37.0558529761627], [175.19114666397, -37.0559350859481]]}, "properties": {"OBJECTID": 2799, "TRACKNAME": "Upper Mangatawhiri Track", "CONDITIONSOFUSE": "Hunua Ranges Regional Park", "STATUS": "Open", "WEBLINK": "https://www.aucklandcouncil.govt.nz/en/parks-recreation/find-park-beach/park-detail/213.html", "VALIDATIONSTATE": 3, "created_user": "AC_owner", "last_edited_user": "AC_owner", "last_edited_date": 1789875254325, "created_date": 1789875254325, "PARK_SAPSITEID": null, "TRACK_ID": null, "KAURIDIEBACK_TRACK": null, "KAURIDIEBACK_MITIGATED": null, "SegmentID": null, "GlobalID": "cc38eae3-e172-4839-a31c-29d37a91284b", "Shape__Length": 3323.503556279407}}]}