{"type": "FeatureCollection", "features": [{"type": "Feature", "id": 12209, "geometry": {"type": "LineString", "coordinates": [[174.489500615846, -36.9676845281759], [174.48975931988, -36.9675605479041], [174.490078001594, -36.9674103110795], [174.490334221587, -36.9673554817503], [174.490547904727, -36.9673183902872], [174.490674839808, -36.9672307748536], [174.490800432703, -36.9670743588988], [174.490817842308, -36.9668676885321], [174.490867740665, -36.9666778135539], [174.49090725616, -36.9665052741642], [174.490948054581, -36.9663818149777]]}, "properties": {"OBJECTID": 12209, "TRACKNAME": "Ussher Track", "CONDITIONSOFUSE": "Waitakere West Regional Park", "STATUS": "Open", "WEBLINK": "https://www.aucklandcouncil.govt.nz/en/parks-recreation/find-park-beach/park-detail/3451.html", "VALIDATIONSTATE": 3, "created_user": "AC_owner", "last_edited_user": "AC_owner", "last_edited_date": 1789875254325, "created_date": 1789875254325, "PARK_SAPSITEID": null, "TRACK_ID": null, "KAURIDIEBACK_TRACK": null, "KAURIDIEBACK_MITIGATED": null, "SegmentID": null, "GlobalID": "cf0aa713-51ab-47f6-a655-1d9b9e3d2bd1", "Shape__Length": 216.5159581031056}}]}