{"type": "FeatureCollection", "features": [{"type": "Feature", "id": 12535, "geometry": {"type": "LineString", "coordinates": [[175.069639157919, -36.8105956809536], [175.069687079687, -36.8105375885292], [175.069731872472, -36.8105103643629], [175.069800332975, -36.8104552824604], [175.069802687245, -36.8104458057117], [175.069810852834, -36.8104129146353], [175.069817951801, -36.8103518637473], [175.069816775226, -36.8103120456746], [175.069736017326, -36.810231433996], [175.069704978085, -36.8101873904968], [175.06970514259, -36.8101857571727], [175.069639676066, -36.810094727791], [175.069639580755, -36.8100945600052], [175.06961002811, -36.8100367024395], [175.069611445343, -36.8100317223927], [175.069604862839, -36.8100158009849], [175.069604766499, -36.8100156782821], [175.069539366159, -36.8099630216304], [175.069538346951, -36.8099255451042], [175.069488006236, -36.8098959565085], [175.069452232417, -36.8098685171767], [175.069402209803, -36.8098482424951], [175.069375043525, -36.8098135618304], [175.069373800751, -36.8097714006061], [175.069393230457, -36.8097312256058], [175.069547034393, -36.8095186468101], [175.069555178171, -36.8094682933491], [175.069553725603, -36.8094190515238], [175.069547515406, -36.8093863575597], [175.069546004898, -36.8093783820743], [175.069545943533, -36.8093780595743], [175.069544426012, -36.8093700733953], [175.069538116049, -36.8093368376806], [175.069512273102, -36.8092815707386], [175.069522909045, -36.8092438876951], [175.069542294065, -36.8092060568403], [175.069540982555, -36.8091615534196], [175.069531478507, -36.8091289167972], [175.069545220945, -36.809098205339], [175.069561706277, -36.8090531766707], [175.069545732792, -36.8090091466235], [175.069529840361, -36.8089602165714], [175.069527625506, -36.8088852016848], [175.06950326621, -36.8088388219081], [175.069443472743, -36.8087575304584], [175.069410306139, -36.8087420195475], [175.069360540573, -36.8087335123016], [175.069322232029, -36.8087177763205], [175.069275625911, -36.8087186651222], [175.069202415697, -36.8087316348127], [175.069168101655, -36.8087322897803], [175.069167787298, -36.8087322709169], [175.069087972218, -36.8087194456939], [175.069059606678, -36.8086974888077], [175.069041216904, -36.8086992608886], [175.069038445853, -36.8086968377414], [175.068971726112, -36.8086816790641], [175.068971700567, -36.8086816461604], [175.068993985167, -36.8085924617517]]}, "properties": {"OBJECTID": 12535, "TRACKNAME": "Valley Track", "CONDITIONSOFUSE": "Onetangi Sports Park (Rangihoua)", "STATUS": "Open", "WEBLINK": "https://www.aucklandcouncil.govt.nz/en/parks-recreation/find-park-beach/park-detail/120.html", "VALIDATIONSTATE": 3, "created_user": "AC_owner", "last_edited_user": "AC_owner", "last_edited_date": 1789875254325, "created_date": 1789875254325, "PARK_SAPSITEID": null, "TRACK_ID": null, "KAURIDIEBACK_TRACK": null, "KAURIDIEBACK_MITIGATED": null, "SegmentID": null, "GlobalID": "6e1ec19e-c925-4063-88c0-986f5253f871", "Shape__Length": 287.597103499597}}, {"type": "Feature", "id": 12730, "geometry": {"type": "LineString", "coordinates": [[175.068993985167, -36.8085924617517], [175.068994531597, -36.80859027559], [175.068994217499, -36.8085899331531], [175.068837022472, -36.808576699673], [175.068836432086, -36.8085763368076], [175.068806611386, -36.8085169694855], [175.068801417667, -36.8085135718227], [175.068743931584, -36.8085060612248], [175.068713691285, -36.80849998272], [175.068713362642, -36.8084998910983], [175.068559784281, -36.8084524393589], [175.068451159315, -36.8084113255391], [175.068324006257, -36.8083489675658], [175.068288526927, -36.8083278471948], [175.068279997961, -36.8083175936273], [175.06829801033, -36.8081959961272], [175.06829264887, -36.8081662021362], [175.068296189673, -36.8080401525102], [175.068271632497, -36.8078840330021], [175.06825992778, -36.8077683765854], [175.068260000699, -36.8077680039791], [175.068300005885, -36.807687320725], [175.06830001688, -36.8076872295019], [175.068284475253, -36.8076155550308], [175.06823198352, -36.8075049912834], [175.068213040306, -36.8073856662957], [175.068229664247, -36.8072747049134], [175.068242100112, -36.8071917189974], [175.068242888408, -36.8071864407591], [175.068243336974, -36.8071834496348], [175.068243449715, -36.8071826824653], [175.068255647813, -36.807101316724], [175.06825541943, -36.8071011602652]]}, "properties": {"OBJECTID": 12730, "TRACKNAME": "Valley Track", "CONDITIONSOFUSE": "Onetangi Sports Park (Rangihoua)", "STATUS": "Open pending closure", "WEBLINK": "https://www.aucklandcouncil.govt.nz/en/parks-recreation/find-park-beach/park-detail/120.html", "VALIDATIONSTATE": 3, "created_user": "AC_owner", "last_edited_user": "AC_owner", "last_edited_date": 1789875254325, "created_date": 1789875254325, "PARK_SAPSITEID": null, "TRACK_ID": null, "KAURIDIEBACK_TRACK": null, "KAURIDIEBACK_MITIGATED": null, "SegmentID": null, "GlobalID": "dc81a819-818b-424f-8ea9-90d1de31f4ba", "Shape__Length": 211.4953902236502}}]}