{"type": "FeatureCollection", "features": [{"type": "Feature", "id": 7762, "geometry": {"type": "LineString", "coordinates": [[175.081601129097, -36.7930996073684], [175.081647435235, -36.793140326948], [175.081647502639, -36.7931403744383], [175.081663629862, -36.7931496837587], [175.081664383015, -36.7931500175743], [175.081681588975, -36.7931568258115], [175.081687579353, -36.7931570084429], [175.081700176517, -36.7931535251563], [175.08177865229, -36.7931316049534], [175.082340933052, -36.792974529249], [175.08234095543, -36.7929745279558], [175.082410765745, -36.7929870762866], [175.082410770299, -36.7929870789108], [175.082430001686, -36.7930049925916], [175.082430008577, -36.79300499878], [175.082443333355, -36.7930183318327], [175.082443336788, -36.7930183344765], [175.082473332701, -36.7930333322581], [175.082473336062, -36.7930333321993], [175.082498328354, -36.7930233370093], [175.082498335001, -36.7930233341889], [175.08254166079, -36.7929999976168], [175.082541667438, -36.7929999947964], [175.08257666522, -36.7929850032542], [175.082576671892, -36.7929850013347], [175.082601665449, -36.7929833305513], [175.082601667714, -36.7929833314129], [175.082621669334, -36.793003325301], [175.082621676226, -36.7930033314894], [175.082651664469, -36.793024997212], [175.082651668974, -36.7930249980344], [175.082676664673, -36.7930283303398], [175.082676674779, -36.793028331064], [175.082704998152, -36.793028327928], [175.082705007113, -36.7930283277711], [175.082746654478, -36.7930241642377], [175.082824617038, -36.7930186894324], [175.082829988726, -36.7930183312464], [175.08282999776, -36.793018333792], [175.082851662185, -36.7930366608399], [175.082851665691, -36.7930366661863], [175.082858594352, -36.7930516732035], [175.082863318638, -36.7930572857839], [175.082903382415, -36.7930831579745], [175.082930002665, -36.7930766681893], [175.082930007121, -36.7930766672099], [175.082961666175, -36.7930616664494], [175.082961671751, -36.7930616654503], [175.083013336805, -36.7930700022651], [175.083079040498, -36.7930755730451], [175.083079047218, -36.7930755729273], [175.083163329958, -36.7930649966422], [175.08316334228, -36.7930649964263], [175.083220275219, -36.7930705901136], [175.083220284156, -36.7930705890557], [175.08326333065, -36.7930533319097], [175.083320581115, -36.7930339944074], [175.08345228005, -36.7929121511068], [175.083485001891, -36.7928800049954], [175.083485006274, -36.7928800013134], [175.083614993689, -36.7927983301317], [175.08361499812, -36.7927983282515], [175.083663326621, -36.7927883321393], [175.083663328885, -36.7927883330009], [175.083711665978, -36.7927999968692], [175.083746148938, -36.7927952996963], [175.08375015502, -36.7927959108712], [175.083784493002, -36.7928121679531], [175.083899390363, -36.7928689183021], [175.083983446088, -36.7928727230274], [175.083999670494, -36.792875395822], [175.084046904914, -36.7928875953277], [175.084094665742, -36.7928995764843], [175.084104664245, -36.7928558258522], [175.084106668601, -36.7928466686149], [175.084106670695, -36.7928466631704], [175.084133061825, -36.7928070794316], [175.084167989348, -36.7927702815956], [175.084190092997, -36.7927483619593], [175.084210097231, -36.7926800718562], [175.084295501293, -36.7926620997439], [175.08425795806, -36.7925849690148], [175.084295003043, -36.7925033328808], [175.084288336507, -36.7924116672101], [175.084288338576, -36.7924116608647], [175.084329995235, -36.7923566657492], [175.084330002832, -36.792356656603], [175.084385208032, -36.7922931851241]]}, "properties": {"OBJECTID": 7762, "TRACKNAME": "Victoria Reserve Track", "CONDITIONSOFUSE": "Victoria Reserve", "STATUS": "Open", "WEBLINK": "https://www.aucklandcouncil.govt.nz/en/parks-recreation/find-park-beach/park-detail/1019.html", "VALIDATIONSTATE": 3, "created_user": "AC_owner", "last_edited_user": "AC_owner", "last_edited_date": 1789875254325, "created_date": 1789875254325, "PARK_SAPSITEID": null, "TRACK_ID": null, "KAURIDIEBACK_TRACK": null, "KAURIDIEBACK_MITIGATED": null, "SegmentID": null, "GlobalID": "2a0e26c1-5497-4a7b-ace1-7984ef641915", "Shape__Length": 333.08792122921676}}]}