{"type": "FeatureCollection", "features": [{"type": "Feature", "id": 361, "geometry": {"type": "LineString", "coordinates": [[175.287936823169, -37.0424435629291], [175.287983124973, -37.0424556086666], [175.288201044814, -37.0424743440514], [175.288211460566, -37.0424772424278], [175.288225708469, -37.0424793377572], [175.288235512066, -37.0424821803508]]}, "properties": {"OBJECTID": 361, "TRACKNAME": "Waharau Ridge Track", "CONDITIONSOFUSE": "Waharau Regional Park", "STATUS": "Open", "WEBLINK": "https://www.aucklandcouncil.govt.nz/en/parks-recreation/find-park-beach/park-detail/233.html", "VALIDATIONSTATE": 3, "created_user": "AC_owner", "last_edited_user": "AC_owner", "last_edited_date": 1789875254325, "created_date": 1789875254325, "PARK_SAPSITEID": null, "TRACK_ID": null, "KAURIDIEBACK_TRACK": null, "KAURIDIEBACK_MITIGATED": null, "SegmentID": null, "GlobalID": "44fef867-9fa5-4d30-bda4-045bf6fbabbd", "Shape__Length": 27.028353780925805}}, {"type": "Feature", "id": 1471, "geometry": {"type": "LineString", "coordinates": [[175.254014724277, -37.0526119591359], [175.253557562824, -37.0531071750862], [175.25321140536, -37.053448204409], [175.252878979394, -37.0542182515673], [175.2529537295, -37.054693714602], [175.252569447718, -37.0557033409861], [175.252294967455, -37.0564244927861], [175.251834399572, -37.0569109618758], [175.25179324556, -37.057484221393], [175.251695650062, -37.0581540302916], [175.251242709992, -37.0588788479589], [175.250547255664, -37.0594655466941], [175.249502545196, -37.0602979316275], [175.248572191401, -37.0609848413995], [175.248239688877, -37.0617548773037], [175.248575194754, -37.0629404975334], [175.248834476984, -37.0636029855227], [175.24885276592, -37.0641750172139], [175.248411948538, -37.0652811710688], [175.248276163756, -37.0666195751935], [175.247823144246, -37.0673443816002], [175.247662962789, -37.0679200852565], [175.247629385561, -37.0687316767701], [175.247710673951, -37.0688927105725], [175.247711462626, -37.0688942818047], [175.247713983554, -37.068899289974]]}, "properties": {"OBJECTID": 1471, "TRACKNAME": "Waharau Ridge Track", "CONDITIONSOFUSE": "Hunua Ranges Regional Park", "STATUS": "Temp Closed", "WEBLINK": "https://www.aucklandcouncil.govt.nz/en/parks-recreation/find-park-beach/park-detail/213.html", "VALIDATIONSTATE": 3, "created_user": "AC_owner", "last_edited_user": "AC_owner", "last_edited_date": 1789875254325, "created_date": 1789875254325, "PARK_SAPSITEID": null, "TRACK_ID": null, "KAURIDIEBACK_TRACK": null, "KAURIDIEBACK_MITIGATED": null, "SegmentID": null, "GlobalID": "a0933fdf-a44d-4c47-87f9-6384e007d65e", "Shape__Length": 2000.8232029963965}}, {"type": "Feature", "id": 2419, "geometry": {"type": "LineString", "coordinates": [[175.288423873285, -37.0422907294612], [175.288421281979, -37.0422937292178], [175.288417845497, -37.0422975618055], [175.288414312479, -37.042301362009], [175.288410724135, -37.042305079465], [175.288407071082, -37.0423087386879], [175.288404453119, -37.0423113000559], [175.288393385939, -37.0423219003871], [175.288382055141, -37.0423323706187], [175.288370495979, -37.0423426866382], [175.288358679888, -37.0423528706265], [175.288292985063, -37.0424069283186], [175.288259736872, -37.0424544387512], [175.288256814576, -37.0424630397746], [175.288256278552, -37.0424639468493], [175.288255906233, -37.0424646146408], [175.288255519105, -37.0424652385575], [175.288253547022, -37.042467930756], [175.288252616523, -37.0424689175415], [175.288252318062, -37.0424692369314], [175.288252242912, -37.0424693176904], [175.288251645546, -37.0424699042069], [175.288251304778, -37.0424702748824], [175.288250458221, -37.0424709869731], [175.288249978284, -37.0424714405442], [175.288248923665, -37.0424722251438], [175.288248568388, -37.0424724870495], [175.288248437734, -37.0424725914105], [175.288248225066, -37.042472735206], [175.288248030377, -37.0424728786546], [175.288247687827, -37.04247311508], [175.288247071364, -37.0424735523596], [175.288246155281, -37.0424741206926], [175.288245699678, -37.0424743737194], [175.288245354583, -37.0424746002803], [175.288244635073, -37.0424749755604], [175.288244368418, -37.0424751185951], [175.288243799557, -37.0424754188692], [175.288243289154, -37.0424756441138], [175.288235512066, -37.0424821803508]]}, "properties": {"OBJECTID": 2419, "TRACKNAME": "Waharau Ridge Track", "CONDITIONSOFUSE": "Waharau Regional Park", "STATUS": "Open", "WEBLINK": "https://www.aucklandcouncil.govt.nz/en/parks-recreation/find-park-beach/park-detail/233.html", "VALIDATIONSTATE": 3, "created_user": "AC_owner", "last_edited_user": "AC_owner", "last_edited_date": 1789875254325, "created_date": 1789875254325, "PARK_SAPSITEID": null, "TRACK_ID": null, "KAURIDIEBACK_TRACK": null, "KAURIDIEBACK_MITIGATED": null, "SegmentID": null, "GlobalID": "3cb08333-6151-4902-b799-5f1309ca15b2", "Shape__Length": 27.312268111318524}}, {"type": "Feature", "id": 2802, "geometry": {"type": "LineString", "coordinates": [[175.288423873285, -37.0422907294612], [175.288487936905, -37.0423015589414], [175.288490074541, -37.0423012725524], [175.288497892763, -37.0423003375984], [175.288503732455, -37.0422997084936], [175.288511598676, -37.0422989492549], [175.288519511193, -37.0422983089869], [175.288527402397, -37.0422977826857], [175.288535322529, -37.0422973585667], [175.288543255274, -37.0422970549696], [175.288551148459, -37.042296856679], [175.288557719519, -37.0422967713232], [175.288584860687, -37.0422984591681], [175.288604418663, -37.0423020570777], [175.288654245082, -37.0423177341112], [175.288662284709, -37.0423210640358], [175.288815056422, -37.0423609981929], [175.288895830314, -37.0423681622364], [175.288900901678, -37.0423682292776], [175.288937880353, -37.0423659149261], [175.288958519483, -37.0423622747981], [175.288970561761, -37.042359548632], [175.288982868569, -37.0423565713209], [175.288995088373, -37.0423534298602], [175.289007250888, -37.0423501029478], [175.28901936329, -37.0423466048652], [175.28902846127, -37.0423438472047], [175.289040462329, -37.0423400484533], [175.289052354128, -37.042336093192], [175.289064160873, -37.04233196383], [175.289075882726, -37.0423276657716], [175.289087525412, -37.0423232025113], [175.289095585752, -37.0423199980344], [175.289127206488, -37.0423042603758], [175.289142952043, -37.0422937850637], [175.289198175301, -37.042245249059], [175.289202094809, -37.0422410673583], [175.289282160737, -37.0421693946358], [175.289297469914, -37.042155023567], [175.289311563121, -37.042136290549]]}, "properties": {"OBJECTID": 2802, "TRACKNAME": "Waharau Ridge Track", "CONDITIONSOFUSE": "Waharau Regional Park", "STATUS": "Open", "WEBLINK": "https://www.aucklandcouncil.govt.nz/en/parks-recreation/find-park-beach/park-detail/233.html", "VALIDATIONSTATE": 3, "created_user": "AC_owner", "last_edited_user": "AC_owner", "last_edited_date": 1789875254325, "created_date": 1789875254325, "PARK_SAPSITEID": null, "TRACK_ID": null, "KAURIDIEBACK_TRACK": null, "KAURIDIEBACK_MITIGATED": null, "SegmentID": null, "GlobalID": "e5410cba-9bce-4be9-9403-1db9b662702f", "Shape__Length": 90.29261492444793}}, {"type": "Feature", "id": 12175, "geometry": {"type": "LineString", "coordinates": [[175.254014724277, -37.0526119591359], [175.254034065381, -37.052621868344], [175.254073407263, -37.052629703911], [175.254114754266, -37.0526362179789], [175.254148497343, -37.0526365588763], [175.254195006599, -37.0526313307313], [175.254230504981, -37.0526218327209], [175.254275418465, -37.0526067572669], [175.254317423687, -37.0525918181986], [175.254346258353, -37.0525760029598], [175.254385337946, -37.0525560545082], [175.254423521088, -37.0525343115909], [175.254458548423, -37.0525130792832], [175.254490168522, -37.0524891809835], [175.254513573655, -37.0524677190114], [175.25452112691, -37.0524284885263], [175.254516707954, -37.0524018957764], [175.254512151404, -37.0523710337543], [175.254515302583, -37.0523392140655], [175.254519870803, -37.0523123422909], [175.254527729637, -37.0522777383796], [175.254536901272, -37.0522445605069], [175.254550337739, -37.0522133924262], [175.254571527, -37.0521774715876], [175.254592292766, -37.052153076673], [175.254617729622, -37.0521322609945], [175.254647659955, -37.0521170016466], [175.254682852991, -37.0521051750928], [175.254723168609, -37.0520985053654], [175.254755797812, -37.0520938924166], [175.254790824833, -37.0520905136271], [175.254838471837, -37.0520887874563], [175.254883580054, -37.0520879026378], [175.254918541445, -37.0520902839961], [175.254965026121, -37.052093734983], [175.255010999, -37.0520966098773], [175.2550549521, -37.0521011454011], [175.255085596382, -37.0521050688236], [175.255126345616, -37.052109629202], [175.25516670145, -37.0521149540917], [175.255208295556, -37.0521207060379], [175.255250040904, -37.0521285279497], [175.255282014943, -37.0521386265754], [175.255315313624, -37.0521524491649], [175.255359012373, -37.0521753567262], [175.255391750223, -37.0521922631962], [175.255434689104, -37.0522153293807], [175.255475166452, -37.0522403259665], [175.255503880842, -37.0522607156308], [175.25554439303, -37.0522884062431], [175.255583152551, -37.0523172837704], [175.255623050977, -37.0523451302285], [175.255652959941, -37.0523648482371], [175.255691793959, -37.052390542926], [175.255729853151, -37.0524158918448], [175.255756654181, -37.0524373542723], [175.255789247308, -37.0524675927507], [175.2558232294, -37.052498030106], [175.255847001567, -37.0525197303824], [175.255877119717, -37.0525472671323], [175.255911357601, -37.0525726706647], [175.25593936485, -37.0525892974687], [175.255979464243, -37.0526110115333], [175.256022600084, -37.0526323613903], [175.256056647787, -37.0526460253156], [175.256101716506, -37.0526623995621], [175.256143551435, -37.0526781684014], [175.256182778699, -37.0526962489598], [175.256213813039, -37.0527102946224], [175.256256372719, -37.0527277529779], [175.256288446545, -37.0527393094385], [175.25633282781, -37.0527544890122], [175.256375634842, -37.0527711855741], [175.256407950475, -37.0527840712382], [175.256450351763, -37.0527992163453], [175.256495409791, -37.0528110483838], [175.256527822317, -37.0528207507872], [175.256569236129, -37.0528348241403], [175.256607808276, -37.052849762676], [175.256642239673, -37.0528691600375], [175.256669322731, -37.0528857051162], [175.256704790957, -37.0529089760909], [175.256737184398, -37.0529339728714], [175.25676855025, -37.052957303878], [175.256799246435, -37.0529800437895], [175.25682471256, -37.0530042531231], [175.256850595992, -37.0530300226688], [175.256877757198, -37.0530545151623], [175.256914272461, -37.0530861747281], [175.256942040029, -37.0531106376399], [175.256968896706, -37.0531328197167], [175.256998615837, -37.0531521804903], [175.257028749658, -37.0531688386502], [175.257064212958, -37.0531896582293], [175.257096687376, -37.053204856869], [175.257131270055, -37.0532194836353], [175.257166466275, -37.0532343240225], [175.257203874792, -37.0532456525053], [175.257242187069, -37.053254845854], [175.257281189525, -37.0532626651767], [175.257321689883, -37.0532701855982], [175.257362013936, -37.0532774480021], [175.257411891455, -37.0532879802704], [175.257451559045, -37.0532969945374], [175.257492373568, -37.0533044908941], [175.257535296052, -37.0533117848798], [175.257577109651, -37.0533161889521], [175.257617508643, -37.0533199079622], [175.257658320268, -37.0533231324315], [175.257700192993, -37.053323840244], [175.257755024186, -37.0533178844641], [175.257797862184, -37.0533082906971], [175.257836210384, -37.0532932758213], [175.257870655559, -37.0532770825279], [175.257902808299, -37.0532586617487], [175.257931331782, -37.0532384354877], [175.257957025902, -37.0532145589954], [175.257980283213, -37.0531866192397], [175.2580033765, -37.0531584572927], [175.258028584043, -37.0531230992221], [175.258048853269, -37.0530960184604], [175.258068856482, -37.0530694474563], [175.258089619862, -37.0530427267865], [175.258112988293, -37.0530162629254], [175.258137010603, -37.0529906157497], [175.258160883331, -37.0529648542565], [175.258188727061, -37.0529437035893], [175.258226393696, -37.052920878794], [175.258257659856, -37.0529093512779], [175.25829033781, -37.052900689851], [175.258328317315, -37.0528982811969], [175.258367596222, -37.0528991192891], [175.25840732841, -37.0528996963873], [175.258448700013, -37.052900197185], [175.258490835554, -37.0529002958837], [175.258543098885, -37.0529014183367], [175.258584888634, -37.0529031277981], [175.258625724242, -37.0529045129475], [175.258667486032, -37.0529037625232], [175.258701579531, -37.0529022659261], [175.258745363294, -37.0528976556949], [175.258784456729, -37.052889205383], [175.258822226839, -37.0528789777845], [175.258858421502, -37.0528683295655], [175.258894486522, -37.0528601351819], [175.258928659999, -37.0528533737465], [175.258962090044, -37.052848843518], [175.259005563577, -37.0528508361882], [175.259044516613, -37.0528558530117], [175.259084421263, -37.0528637627019], [175.259124506686, -37.0528739761121], [175.259164601845, -37.0528822426419], [175.259203168217, -37.0528882491327], [175.259241175865, -37.0528951314481], [175.259276857982, -37.0529035991834], [175.25931776919, -37.0529192853528], [175.25934911453, -37.0529335585804], [175.259373171015, -37.0529526751635], [175.259394413295, -37.0529754773671], [175.259417634897, -37.0530024596604], [175.259436157264, -37.0530389494634], [175.259446920284, -37.0530644207383], [175.259457292335, -37.0530911161377], [175.259470478913, -37.0531255085793], [175.259484467328, -37.0531558481792], [175.259504019411, -37.0531917956284], [175.259524294013, -37.053220258016], [175.259545353417, -37.0532425770045], [175.259569642966, -37.0532649966587], [175.259599796596, -37.0532887465459], [175.259639787701, -37.0533154813252], [175.259670757365, -37.0533352772188], [175.259698432107, -37.0533561993604], [175.25972780595, -37.0533771612142], [175.259756364804, -37.0533975617978], [175.259774752215, -37.0534230499595], [175.259789245158, -37.0534540918848], [175.259802564052, -37.0534838403711], [175.259820042389, -37.0535203770416], [175.259833685149, -37.0535481546458], [175.259848566783, -37.0535759987613], [175.25986215796, -37.0536027949919], [175.259875952827, -37.0536281183157], [175.259893838753, -37.0536575454256], [175.25991774685, -37.0536833969898], [175.25994388156, -37.0537062230033], [175.259984254847, -37.0537253619257], [175.260020643505, -37.0537352669607], [175.26005416029, -37.0537453979587], [175.260090730446, -37.0537534609807], [175.260131725102, -37.0537571587615], [175.260186411111, -37.0537576755322], [175.260227848501, -37.053756588263], [175.260267079691, -37.0537569399576], [175.260309456257, -37.0537560510551], [175.260343495979, -37.0537561411896], [175.260392391397, -37.0537570476339], [175.260431045955, -37.0537576716264], [175.260481874819, -37.0537600732853], [175.260529065474, -37.0537626434186], [175.260565020456, -37.0537639947634], [175.260614233752, -37.0537650032047], [175.260662086753, -37.0537641269291], [175.260706613587, -37.0537614304566], [175.260740535084, -37.0537598103732], [175.260785921592, -37.0537584223044], [175.26081995602, -37.0537560610275], [175.260865696404, -37.0537487900903], [175.260909510655, -37.0537357248331], [175.260950782652, -37.0537233839659], [175.260982372121, -37.0537144181046], [175.261024828873, -37.053703730929], [175.261067453907, -37.053693410038], [175.261107365457, -37.0536833481611], [175.261143811948, -37.0536717120891], [175.261182195627, -37.0536616973476], [175.261223421877, -37.0536576666997], [175.261264471223, -37.0536552526322], [175.261315664756, -37.0536563041305], [175.261356942538, -37.0536574185387], [175.261399327799, -37.0536590976177], [175.261443423385, -37.0536611946828], [175.261487537164, -37.0536635257069], [175.261529687448, -37.0536682734395], [175.261571930364, -37.0536700813452], [175.261605459746, -37.0536715417248], [175.261639412438, -37.0536724893259], [175.261674600246, -37.0536737558304], [175.261720237597, -37.053676274005], [175.261765702907, -37.0536782997611], [175.261810930093, -37.0536791223794], [175.261844305891, -37.0536807117945], [175.261885389383, -37.0536855067866], [175.26192286456, -37.0536979139818], [175.261956163149, -37.0537139427147], [175.261987247053, -37.0537288510861], [175.262027093679, -37.0537510635697], [175.262061373476, -37.053770218884], [175.262094475402, -37.053792496927], [175.26211911347, -37.0538110971459], [175.2621510231, -37.0538356329956], [175.262182249923, -37.0538572438183], [175.262214955137, -37.0538756270227], [175.262245805526, -37.0538959201861], [175.262277974009, -37.0539155392999], [175.262310822677, -37.0539361007424], [175.262343808082, -37.0539586152587], [175.262377313959, -37.0539774517855], [175.262420126917, -37.0539942812031], [175.262459436553, -37.054006734334], [175.262498619102, -37.0540194512365], [175.262537052453, -37.054032308595], [175.262576025517, -37.0540444076126], [175.262616722315, -37.0540547253183], [175.262649651961, -37.0540609734185], [175.262692900643, -37.0540686197921], [175.262734751521, -37.0540734989782], [175.262775410089, -37.0540764722478], [175.262818755112, -37.0540767626137], [175.262854476117, -37.0540766667283], [175.262890170631, -37.0540764361516], [175.262924764875, -37.0540758840908], [175.262968838505, -37.0540776114939], [175.263011588439, -37.0540779311712], [175.26305600481, -37.0540734064038], [175.263089309314, -37.0540672912194], [175.263122922335, -37.054063233978], [175.263166040678, -37.0540577876414], [175.263208395623, -37.0540523828973], [175.263248779351, -37.0540491336784], [175.263288184831, -37.0540473991773], [175.263327745251, -37.05404785172], [175.263366037128, -37.0540521587357], [175.263401475632, -37.0540614770282], [175.263436172469, -37.0540757302403], [175.263481727064, -37.0540989147543], [175.263518534873, -37.0541172282888], [175.263552698805, -37.0541370072303], [175.263582331128, -37.0541594321932], [175.263613590078, -37.0541836195639], [175.263638703584, -37.0542026880395], [175.263664146757, -37.0542218763896], [175.263697530065, -37.0542479247987], [175.26373116702, -37.0542711564854], [175.263765129581, -37.0542902092031], [175.26379878013, -37.0543067083451], [175.263833816977, -37.0543214235909], [175.263873809559, -37.0543326285077], [175.2639147654, -37.0543421927868], [175.263961201743, -37.0543519047579], [175.263995712228, -37.054361015278], [175.264028749229, -37.0543731370278], [175.264063030442, -37.0543836127785], [175.264098937171, -37.0543931652528], [175.264133261177, -37.0544016754619], [175.264169349755, -37.0544048616859], [175.264215272902, -37.0543980636217], [175.264240705639, -37.0543794450145], [175.264249306852, -37.0543514234315], [175.264241740195, -37.0543166538742], [175.264223376523, -37.0542916436383], [175.26418916745, -37.0542601406202], [175.264158973014, -37.0542381050671], [175.264125892269, -37.0542165662269], [175.264093281175, -37.0541972084234], [175.264062622625, -37.0541796067967], [175.264030756487, -37.054159964379], [175.264004257932, -37.0541408323093], [175.263980394143, -37.0541180359529], [175.263953524632, -37.0540909620142], [175.263932881641, -37.0540660583365], [175.263909846553, -37.0540416329223], [175.263887181016, -37.0540182909485], [175.263869834604, -37.0539945860551], [175.263851723176, -37.053968597602], [175.26384011455, -37.0539374290343], [175.263829792712, -37.0539071822002], [175.263826142713, -37.0538672278003], [175.263829618928, -37.0538400431082], [175.263837373385, -37.0538130380949], [175.26385248987, -37.0537863070937], [175.263875414425, -37.0537601029458], [175.263897493949, -37.0537327072653], [175.263924600631, -37.0537053417716], [175.263954149468, -37.0536799394096], [175.263986402944, -37.0536562518308], [175.264030105027, -37.0536303539057], [175.264063452874, -37.053609060735], [175.264095809596, -37.0535869573388], [175.264127941023, -37.053565975774], [175.264152573651, -37.0535423886057], [175.264169773594, -37.0535172850769], [175.264180258517, -37.0534921114964], [175.26418764201, -37.0534530098862], [175.264188099032, -37.0534241254171], [175.264184479061, -37.0533957784308], [175.26417443097, -37.0533694467939], [175.264155062913, -37.0533340914542], [175.264143498243, -37.0533078067977], [175.264133353829, -37.0532801251352], [175.264121891108, -37.0532531085247], [175.264113904377, -37.0532234930553], [175.264106638518, -37.053195431979], [175.264101397126, -37.0531681433627], [175.264099028875, -37.053138024065], [175.264101999332, -37.0530991238828], [175.264106827384, -37.0530671097576], [175.264113836954, -37.0530358560814], [175.264122153129, -37.0530080832813], [175.264129914901, -37.052980951935], [175.264139181487, -37.0529537558048], [175.264151602483, -37.0529278963642], [175.264173991142, -37.0528938886384], [175.264197240167, -37.0528680207059], [175.264229717394, -37.0528409040779], [175.264257826468, -37.0528257131533], [175.264290748341, -37.0528116650172], [175.264336630551, -37.0527997396421], [175.264372116342, -37.0527898603279], [175.264406126753, -37.0527806580714], [175.264435803473, -37.0527660049496], [175.264462569538, -37.0527381681841], [175.264478567553, -37.0527131146024], [175.264492554354, -37.0526813040749], [175.264508212701, -37.0526516336127], [175.264522084582, -37.0526269270512], [175.26454763436, -37.0525944901319], [175.264572683567, -37.0525769873089], [175.264602920499, -37.052563783457], [175.264636895665, -37.0525518871], [175.264670650854, -37.052539021595], [175.26470370363, -37.0525248446727], [175.264737592513, -37.0525092908991], [175.264770482519, -37.0524926656933], [175.26481202771, -37.0524710264901], [175.264841674939, -37.0524516062704], [175.264862559182, -37.0524290368571], [175.264866852367, -37.0524002233104], [175.264866090851, -37.0523693162972], [175.264863286422, -37.0523373938534], [175.264859034571, -37.0522999023527], [175.264856544274, -37.0522679558834], [175.264855313653, -37.0522345073192], [175.264858854323, -37.0522015624395], [175.26486802848, -37.0521727818366], [175.264884074739, -37.0521399045133], [175.264899843642, -37.0521116918986], [175.264925903041, -37.0520778752805], [175.264946521214, -37.0520558156299], [175.264968811938, -37.0520336609409], [175.264993888912, -37.0520144541567], [175.265020709097, -37.0519960161728], [175.265050321361, -37.0519784531262], [175.265083200358, -37.0519614675507], [175.265117931459, -37.051945131529], [175.265164663841, -37.0519232489186], [175.265202832304, -37.0519056665833], [175.265238408762, -37.051885997813], [175.265273831354, -37.0518664491329], [175.265308955049, -37.0518466808425], [175.265343658665, -37.0518275334108], [175.265375735272, -37.0518077692397], [175.2654053896, -37.0517886010945], [175.265435226946, -37.0517699161152], [175.265470226795, -37.0517459864135], [175.265496531412, -37.0517268552069], [175.265518426642, -37.0517035093236], [175.265536626132, -37.0516772599544], [175.265551088828, -37.0516523977897], [175.265561261222, -37.0516159825817], [175.265572849296, -37.0515870927187], [175.265584534483, -37.0515505044061], [175.265597115695, -37.05152022568], [175.265613285113, -37.0514869673872], [175.265629700613, -37.051459337143], [175.26564840167, -37.0514250030597], [175.265663178778, -37.0513955926225], [175.265678647476, -37.0513720450565], [175.265699804881, -37.0513488484247], [175.26572449691, -37.0513284321705], [175.26575731848, -37.0513042375867], [175.265783167922, -37.051282663642], [175.26580977349, -37.0512611833923], [175.265837641628, -37.0512383001131], [175.265867031828, -37.0512129093316], [175.265897622104, -37.0511893071039], [175.265935782716, -37.0511627843837], [175.265966910278, -37.0511406138559], [175.265997862543, -37.051117842839], [175.266030968612, -37.0510933903971], [175.266062266733, -37.0510690175588], [175.266092040796, -37.0510448180368], [175.266120996333, -37.0510199401952], [175.266144575485, -37.0509965169562], [175.266174695654, -37.0509707246164], [175.266199302558, -37.0509489670445], [175.266222563794, -37.0509254417174], [175.266244996159, -37.0509031579141], [175.266270789909, -37.0508808549254], [175.266298168102, -37.0508573860859], [175.266323913906, -37.0508346063448], [175.266347215499, -37.0508116840537], [175.266372242081, -37.0507892965697], [175.266406013683, -37.0507611452322], [175.266435643408, -37.0507392825974], [175.266469157637, -37.0507183550969], [175.266504370622, -37.0506978367246], [175.266538750342, -37.0506761446322], [175.266570794725, -37.0506538122266], [175.266599585078, -37.0506332183201], [175.266628084138, -37.0506035905342], [175.266630109194, -37.0505733963231], [175.266632852756, -37.0505397636642], [175.266638550361, -37.0505094271521], [175.266648065593, -37.0504747547978], [175.266657518049, -37.0504477982602], [175.266682788192, -37.0504203771355], [175.266712715337, -37.0504005816008], [175.266753962859, -37.0503833544899], [175.266786039867, -37.0503749726046], [175.266818749119, -37.0503666777608], [175.266853798669, -37.0503573017422], [175.266888745098, -37.0503459719933], [175.266923015079, -37.0503338260251], [175.266956295447, -37.0503186527741], [175.266996109758, -37.0503004976652], [175.267026730218, -37.0502843568458], [175.267054274238, -37.0502630746795], [175.267078845735, -37.0502386319104], [175.267101784329, -37.0502148602366], [175.267118115601, -37.0501882047426], [175.267130130161, -37.0501589370705], [175.267140162721, -37.050131455698], [175.267149646736, -37.0500983881102], [175.267153328943, -37.0500698565391], [175.267161824767, -37.0500402325571], [175.267171620841, -37.0500138732414], [175.26717673707, -37.0499885677291], [175.267177621744, -37.0499616217535], [175.267176816623, -37.0499319232534], [175.267165102239, -37.0499013788825], [175.267146406429, -37.0498757806144], [175.267125603097, -37.0498507723938], [175.267105234267, -37.0498252511674], [175.267083659868, -37.0497954901193], [175.267073912473, -37.0497668097487], [175.267072865475, -37.049736160556], [175.267071041878, -37.0497028405144], [175.267068554525, -37.0496755534486], [175.267066607048, -37.0496471385228], [175.267063936663, -37.049619368286], [175.267064879119, -37.049586427956], [175.267060452565, -37.0495551854693], [175.267057591693, -37.0495225251384], [175.267068086743, -37.0494886721709], [175.267088139809, -37.0494605125525], [175.267114121087, -37.0494411348322], [175.267147281484, -37.0494219442933], [175.267181792976, -37.0494065942343], [175.26722881334, -37.0493914375921], [175.267266103273, -37.049378774156], [175.267304513923, -37.0493648545801], [175.267343758315, -37.0493517481911], [175.267381660528, -37.0493369911464], [175.267419469812, -37.0493210011674], [175.26745279837, -37.0493017983167], [175.267481384456, -37.0492826771304], [175.267506205214, -37.0492594461838], [175.267520275069, -37.0492289765705], [175.267553106407, -37.0492002480773], [175.267578867754, -37.0491799101357], [175.267603880472, -37.0491597307033], [175.26763064185, -37.0491382380642], [175.267656702812, -37.0491177682029], [175.267683245649, -37.0490976225796], [175.267716337322, -37.0490708447552], [175.267742928854, -37.0490512028823], [175.267771186184, -37.04903161927], [175.267800156619, -37.0490133288117], [175.267829687419, -37.0489968661598], [175.267858755717, -37.048982241864], [175.267891465734, -37.0489721081877], [175.267926764724, -37.0489594285506], [175.267974126209, -37.0489425256996], [175.268014250746, -37.0489287804028], [175.268055485428, -37.0489160683102], [175.268096524603, -37.0489047208158], [175.268138147813, -37.0488929746028], [175.268180283178, -37.0488821919185], [175.268220221564, -37.0488705049413], [175.268257114082, -37.0488588581891], [175.268292987503, -37.048847726602], [175.268335387234, -37.0488341179239], [175.268372802804, -37.0488188922192], [175.268403941274, -37.048808094511], [175.268437015748, -37.0488007655835], [175.268487531255, -37.0488029445361], [175.268522394452, -37.048808487126], [175.268557026985, -37.0488172335214], [175.26859474539, -37.0488242625873], [175.268639398125, -37.0488323215752], [175.268672353904, -37.0488410189041], [175.268709312525, -37.0488523613853], [175.268750801823, -37.0488655728618], [175.268786806069, -37.0488765820946], [175.268831333028, -37.0488872119502], [175.26886704018, -37.0488825813132], [175.268892669645, -37.048858208059], [175.268891934085, -37.0488297339311], [175.268880805149, -37.0487920587333], [175.268870704113, -37.0487605824239], [175.268861198446, -37.0487332404268], [175.268849496355, -37.0487050121766], [175.26883620051, -37.0486670629999], [175.268825404562, -37.0486341489849], [175.268815218388, -37.0486013224381], [175.268803930844, -37.0485704005548], [175.268790620175, -37.0485410134375], [175.268775301867, -37.04850915027], [175.268761786015, -37.0484834441348], [175.268747723089, -37.0484586226679], [175.268726897621, -37.0484287214145], [175.26870675414, -37.0484020876237], [175.268693295707, -37.0483707566418], [175.268682488604, -37.0483374643034], [175.268670424278, -37.0483042410788], [175.268659427207, -37.0482706099007], [175.268643781562, -37.0482319035498], [175.268631693299, -37.0482001407875], [175.268621836671, -37.0481678035974], [175.268613758161, -37.0481347654704], [175.268611162923, -37.0481057591331], [175.268612069273, -37.0480746490022], [175.26862126402, -37.0480417130076], [175.268635423905, -37.048014666257], [175.268653098344, -37.0479874621414], [175.268669988987, -37.0479622557473], [175.268686529797, -37.0479388945742], [175.268717086338, -37.0479081905105], [175.268739961129, -37.047887979649], [175.268769222797, -37.0478696743759], [175.268801261674, -37.0478517485549], [175.268833655383, -37.0478347892758], [175.268867241675, -37.0478193663155], [175.268901091889, -37.0478056326278], [175.268934635735, -37.0477918056562], [175.268977430297, -37.0477793968637], [175.269014399122, -37.0477733541376], [175.269050919259, -37.047767347023], [175.269087893616, -37.047763755542], [175.269128486428, -37.0477612303705], [175.269169668312, -37.0477611182489], [175.269211514742, -37.0477636881044], [175.26925087362, -37.0477680539549], [175.269289780063, -37.047772329314], [175.269341124926, -37.0477755735292], [175.269381613927, -37.0477763578093], [175.26942133727, -37.0477748405414], [175.269459079303, -37.0477755061314], [175.269500649755, -37.0477763597974], [175.269545165215, -37.0477779411627], [175.269578444105, -37.0477805126408], [175.269612318266, -37.0477826851828], [175.269650529629, -37.0477900469557], [175.269683926881, -37.0478030074377], [175.269720389243, -37.0478161976387], [175.269759199283, -37.0478281802914], [175.269806876274, -37.0478400202424], [175.269843582873, -37.0478523495515], [175.269876578932, -37.0478661828483], [175.269910462438, -37.0478796116147], [175.269944756395, -37.0478902116325], [175.269980161408, -37.0478879116501], [175.270018762856, -37.0478766642395], [175.270060268732, -37.0478700656888], [175.270112665258, -37.0478686029868], [175.27015798509, -37.0478707635402], [175.270204011128, -37.0478743615526], [175.270244067506, -37.0478776051923], [175.270278106287, -37.0478800177261], [175.270326709586, -37.0478855851255], [175.27036142665, -37.0478911389891], [175.270402657222, -37.0478960544249], [175.270444639848, -37.0479005498888], [175.270483993967, -37.0479070153076], [175.270523205498, -37.0479136006046], [175.270563979305, -37.0479096024537], [175.270605834561, -37.0479056737051], [175.270658820625, -37.047910787537], [175.2706966424, -37.0479190306326], [175.270734365767, -37.0479330255116], [175.270766389709, -37.0479413976337], [175.27080766612, -37.047949358241], [175.270846003344, -37.0479586729055], [175.270881606255, -37.0479660301559], [175.270919777349, -37.0479727884563], [175.270959112783, -37.0479790017266], [175.2709949706, -37.0479854798582], [175.271041801198, -37.0479987144142], [175.271073011216, -37.0480088234089], [175.271114713579, -37.0480137205469], [175.271162858189, -37.0480170973605], [175.271206432539, -37.0480161456148], [175.271247947648, -37.0480162697208], [175.271286029896, -37.0480174058672], [175.271326711181, -37.0480163382553], [175.271441761799, -37.0479893864374], [175.271474313983, -37.0479807779016], [175.271506692768, -37.0479720104554], [175.271538059962, -37.0479587291423], [175.27156908309, -37.0479455986104], [175.271604321605, -37.0479286651974], [175.271630415007, -37.0479055622377], [175.271653214615, -37.0478805937186], [175.27167810089, -37.0478607493247], [175.271706899134, -37.0478465348303], [175.271738421444, -37.0478169650899], [175.271776638633, -37.0477822832244], [175.271811210931, -37.0477569629595], [175.271844161079, -37.0477296549859], [175.271890397554, -37.0476954413013], [175.271930530079, -37.0476590103358], [175.271962371069, -37.0476310837006], [175.27200272442, -37.0475937652654], [175.272037714666, -37.0475609746626], [175.272054875333, -37.0475377002937], [175.272056799683, -37.0475000546855], [175.272047772691, -37.0474605190197], [175.272044027047, -37.0474314356793], [175.272038692688, -37.0473931901326], [175.272048612694, -37.0473684142404], [175.272076726209, -37.0473467054507], [175.272119742232, -37.0473315695452], [175.272153565276, -37.0473237385797], [175.27221749868, -37.0473136543367], [175.272258559418, -37.0473076042955], [175.272309435571, -37.0473154975928], [175.272354596288, -37.0473451301469], [175.272385987138, -37.0473910866503], [175.272411376928, -37.047426586603], [175.272430185783, -37.0474510372909], [175.272449834736, -37.0474731196405], [175.272498287011, -37.0475049151206], [175.27252902052, -37.0475239281002], [175.272565035663, -37.0475119363411], [175.272597162107, -37.0474754963653], [175.27261936428, -37.0474455913089], [175.272648943107, -37.0474010168883], [175.27266169183, -37.0473749610482], [175.272673337429, -37.047348863262], [175.272692069457, -37.0473108053934], [175.272719315825, -37.0472630492206], [175.272747020355, -37.0472185918103], [175.272763364953, -37.0471909619702], [175.272768736512, -37.0471505375519], [175.272752513802, -37.0471031007994], [175.272726718018, -37.0470690687087], [175.272692399286, -37.047027106827], [175.272672603815, -37.0469797565608], [175.272669305331, -37.0469423011662], [175.272680720106, -37.0468937669321], [175.27270973394, -37.0468494827091], [175.272736140484, -37.0468222007707], [175.272781595111, -37.0467885695135], [175.272811752004, -37.0467731841422], [175.272845179456, -37.0467603947342], [175.272880730318, -37.0467509442663], [175.272918708679, -37.0467418347919], [175.272973424015, -37.0467284300253], [175.273008036361, -37.0467195562776], [175.273041708284, -37.0467108177077], [175.273076617101, -37.0467043445673], [175.27311066541, -37.0467014387965], [175.273159316251, -37.0467089958705], [175.273192765588, -37.0467188000256], [175.273229539938, -37.0467300094509], [175.273264392488, -37.046743130285], [175.273299053214, -37.0467562277489], [175.273350236014, -37.0467725232908], [175.273413060264, -37.046779925699], [175.27347120944, -37.0467640395485], [175.273510063141, -37.0467450805785], [175.273550658224, -37.0467177877916], [175.273572157292, -37.046680541927], [175.273578963548, -37.0466422439311], [175.273585848409, -37.046613362382], [175.2735931413, -37.0465827065795], [175.273607515677, -37.0465290054891], [175.273628487556, -37.0465031073173], [175.273669801388, -37.0464701409252], [175.273714338601, -37.0464604187708], [175.273748935817, -37.0464578267397], [175.273783810934, -37.0464585188946], [175.273823323789, -37.0464597710027], [175.27386572018, -37.0464642122671], [175.273917862659, -37.0464734865314], [175.273974672192, -37.0464824189284], [175.274009848567, -37.046484916731], [175.274051297027, -37.0464722886041], [175.274090099935, -37.04644824743], [175.274135885858, -37.0464283802506], [175.2741700623, -37.0464154589483], [175.274218048579, -37.0463962344812], [175.274278439418, -37.0463865325139], [175.274333447556, -37.0463810704427], [175.274374265041, -37.0463830904362], [175.274416078222, -37.0463879572598], [175.274480328098, -37.0463979273315], [175.274541733869, -37.046409042421], [175.274581791876, -37.0464168808927], [175.274620537858, -37.0464248346418], [175.274658919694, -37.0464326421525], [175.27469866968, -37.046438071171], [175.274737007505, -37.0464413913277], [175.274785664257, -37.0464423685723], [175.274817582466, -37.0464362857504], [175.274850887399, -37.0464269408678], [175.274881267531, -37.0464160388668], [175.274924087892, -37.0463955162979], [175.27495124472, -37.0463802149809], [175.274980787974, -37.0463661386223], [175.275011436529, -37.0463525547576], [175.275042314954, -37.0463376326405], [175.275088548799, -37.0463150798223], [175.275144088817, -37.0462814975137], [175.27517635734, -37.0462461085814], [175.275195599252, -37.0462037146008], [175.275209611238, -37.0461669095105], [175.27522163703, -37.0461170565309], [175.275231940997, -37.0460679035036], [175.275240960366, -37.0460299504919], [175.275246951149, -37.045982069856], [175.275249747375, -37.0459405411651], [175.27524181522, -37.0459136201261], [175.275215211105, -37.0458815327439], [175.275191734981, -37.0458450053162], [175.275185421383, -37.0458139255413], [175.275183744844, -37.0457724646422], [175.275185067614, -37.0457301621185], [175.275190523825, -37.0456990187448], [175.27520267168, -37.0456566437105], [175.275220314173, -37.0456115226191], [175.275234913535, -37.0455744358829], [175.275245346333, -37.0455333644984], [175.275255173859, -37.0454934853499], [175.275266998629, -37.0454674019059], [175.275279229867, -37.0454245836562], [175.275292909673, -37.045360809027]]}, "properties": {"OBJECTID": 12175, "TRACKNAME": "Waharau Ridge Track", "CONDITIONSOFUSE": "Waharau Regional Park", "STATUS": "Open", "WEBLINK": "https://www.aucklandcouncil.govt.nz/en/parks-recreation/find-park-beach/park-detail/233.html", "VALIDATIONSTATE": 3, "created_user": "AC_owner", "last_edited_user": "AC_owner", "last_edited_date": 1789875254325, "created_date": 1789875254325, "PARK_SAPSITEID": null, "TRACK_ID": null, "KAURIDIEBACK_TRACK": null, "KAURIDIEBACK_MITIGATED": null, "SegmentID": null, "GlobalID": "58795fe0-31ac-4e2d-ba02-66a5f0a91fa1", "Shape__Length": 2936.708951062841}}, {"type": "Feature", "id": 12186, "geometry": {"type": "MultiLineString", "coordinates": [[[175.254014724277, -37.0526119591359], [175.253989377628, -37.0525974532897], [175.253965219982, -37.0525653686376], [175.25395245635, -37.0525330223355], [175.253948644966, -37.0525018757519], [175.253946543848, -37.0524711472798], [175.2539444609, -37.0524406527851], [175.253942041658, -37.052409813198], [175.253935394454, -37.052377449766], [175.25392480806, -37.0523499017449], [175.253908400454, -37.052319805708], [175.253890355272, -37.0522947877524], [175.253872748426, -37.0522693829403], [175.253860465454, -37.0522392175082], [175.253857682426, -37.0522055819691], [175.253856443305, -37.0521739629038], [175.253842272204, -37.052145347445], [175.253815594931, -37.0521212055319], [175.253790714723, -37.0520966148841], [175.253774820593, -37.0520584068976], [175.253780183411, -37.0520275996399], [175.253791837815, -37.0519969972449], [175.253803232536, -37.0519674993002], [175.253815277142, -37.0519360242936], [175.253829614228, -37.0519026040904], [175.253843003666, -37.0518774392532], [175.253864569269, -37.0518470089611], [175.253882822031, -37.0518171012686], [175.253899380301, -37.0517892085153], [175.253918654929, -37.0517588758347], [175.253943972144, -37.0517207136576], [175.253960837259, -37.0516929322248], [175.253971481381, -37.0516654312652], [175.25397340145, -37.0516334186881], [175.253975425678, -37.0515984660808], [175.253973015574, -37.0515698343607], [175.253970795362, -37.0515419200247], [175.253960970552, -37.05150552535], [175.253947466801, -37.0514797000785], [175.253927143162, -37.0514506337917], [175.25390065468, -37.0514180436623], [175.253878830308, -37.0513956390364], [175.253853230752, -37.0513718101003], [175.253826255144, -37.0513432757906], [175.253804960988, -37.0513220687372], [175.253781507897, -37.0513004791302], [175.253752012004, -37.0512730291339], [175.253729244541, -37.0512506694409], [175.253708205802, -37.0512285923217], [175.253689260596, -37.0512058265142], [175.253670295067, -37.0511808530456], [175.253649850379, -37.0511564304068], [175.253626682926, -37.0511300497408], [175.2536011458, -37.0511003434593], [175.253575049122, -37.0510692058182], [175.25354182956, -37.0510340848613], [175.253515129259, -37.051007627114], [175.253488615442, -37.0509813911269], [175.253463712249, -37.0509541061211], [175.253444916475, -37.0509314455809], [175.253420329807, -37.0509023160152], [175.253396269591, -37.0508742579307], [175.253373180037, -37.0508489842597], [175.253348461196, -37.0508245076014], [175.253324607507, -37.0507992484412], [175.253299295735, -37.0507729715418], [175.253269358441, -37.0507457911659], [175.25324028781, -37.0507270029071], [175.25321126183, -37.050708583302], [175.253182120968, -37.0506931219483], [175.25315443286, -37.0506765965538], [175.25312841335, -37.0506575610301], [175.253103889878, -37.0506358834705], [175.253082230489, -37.0506137188893], [175.253052399642, -37.0505817688596], [175.253036737461, -37.0505513791352], [175.253038101105, -37.0505153666052], [175.25304527101, -37.0504886256901], [175.253063845118, -37.050458937323], [175.253088349671, -37.0504381577093], [175.253126199937, -37.0504158267185], [175.253153843087, -37.050400421948], [175.253183553258, -37.0503841938134], [175.253215638683, -37.0503692003018], [175.253248379806, -37.0503569881743], [175.253278669772, -37.0503447775536], [175.253315632579, -37.0503297003458], [175.253345791401, -37.0503176183742], [175.253378177498, -37.0503048091253], [175.253414219308, -37.0502897674139], [175.253446438498, -37.0502720765833], [175.253478942657, -37.0502541369931], [175.253509442782, -37.0502338291615], [175.253533045729, -37.0502129854805], [175.25355345021, -37.0501900666357], [175.253571264957, -37.0501670257688], [175.253587973888, -37.0501415725603], [175.253603073847, -37.0501126621191], [175.253615396859, -37.0500830023465], [175.253630520606, -37.0500453944584], [175.253642649674, -37.0500152607103], [175.253655034093, -37.049984256915], [175.253662521311, -37.0499511471606], [175.253665420161, -37.0499176289268], [175.253666756217, -37.0498860149793], [175.253667794222, -37.0498564885669], [175.253668963347, -37.0498268334883], [175.253670204879, -37.0497958251695], [175.253671110673, -37.0497534675739], [175.253669511958, -37.0497188091279], [175.253666283124, -37.049685299204], [175.25366057225, -37.0496530260925], [175.253656014681, -37.0496198298187], [175.253650879911, -37.049587266372], [175.253645950298, -37.0495487147743], [175.253642637908, -37.0495203615449], [175.253638203459, -37.049491326671], [175.253632275731, -37.0494581834728], [175.253623852837, -37.0494243126263], [175.253617227989, -37.0493923092291], [175.253610937282, -37.0493628590104], [175.253606625198, -37.0493311180806], [175.253605949083, -37.0492877360923], [175.253608727486, -37.0492547068169], [175.25361566499, -37.0492246807477], [175.253627995065, -37.0491952641735], [175.253640946658, -37.0491659529475], [175.253655967646, -37.049133619277], [175.253671254684, -37.0491003973304], [175.253685136524, -37.0490690856858], [175.2537067004, -37.0490363392597], [175.253728320843, -37.0490134874003], [175.253748882285, -37.0489905655402], [175.253769797876, -37.0489617518303], [175.253789155763, -37.0489304532561], [175.253804662787, -37.0488982094661], [175.253819169261, -37.0488671112447], [175.253828396171, -37.0488346623683], [175.253837153507, -37.0488000233838], [175.253843713246, -37.0487731948807], [175.253851594537, -37.0487389690928], [175.253858548749, -37.0487068518084], [175.253864347525, -37.0486668435735], [175.253869442268, -37.0486342028607], [175.253873032214, -37.0486020053212], [175.253876921571, -37.0485696669041], [175.253882459399, -37.0485390816148], [175.253886106772, -37.0485054049448], [175.253888377031, -37.0484783875967], [175.253891884717, -37.0484426497355], [175.25389273673, -37.0484083592772], [175.253892878292, -37.048377038399], [175.253892395138, -37.048345504084], [175.253891676957, -37.0483060252744], [175.253892740511, -37.0482769850404], [175.25389730905, -37.0482501222809], [175.253904771729, -37.0482188515087], [175.253916031089, -37.0481825156858], [175.253923773656, -37.0481553853094], [175.253932406464, -37.0481252819347], [175.253938053467, -37.0480942078953], [175.253945122188, -37.0480636836277], [175.25395803876, -37.0480316783163], [175.253971844987, -37.0479970605138], [175.253984331522, -37.047954320559], [175.253992180611, -37.0479220510689], [175.25399908478, -37.0478912865899], [175.25400316021, -37.0478595394501], [175.254002446551, -37.0478266756759], [175.254000314375, -37.0477933702183], [175.253994660665, -37.0477599874989], [175.253984815606, -37.0477187084482], [175.253973686141, -37.0476921620939], [175.253962452539, -37.0476617153359], [175.253950425675, -37.0476310583439], [175.253941139954, -37.0476022238335], [175.253931266348, -37.0475740403787], [175.253922790151, -37.0475372234921], [175.253914675314, -37.0475057801564], [175.253906245095, -37.0474716571105], [175.253898583272, -37.0474399438022], [175.253891287618, -37.0474092058882], [175.253886213295, -37.0473798226793], [175.253879789433, -37.0473416870144], [175.25387772067, -37.0473090022037], [175.253877720678, -37.047273655455], [175.253875418464, -37.0472422007715], [175.253876580326, -37.0472123024841], [175.253879578392, -37.0471802423626], [175.253885965745, -37.0471464505216], [175.253895249312, -37.0471128830172], [175.253905552377, -37.0470715905069], [175.253913577971, -37.0470418681815], [175.253923336438, -37.0470125725525], [175.253934021371, -37.0469815289265], [175.253944100814, -37.0469528220151], [175.253953562258, -37.0469214681827], [175.253942839993, -37.0468851175694], [175.253932224795, -37.0468573267283], [175.253919946515, -37.0468272873516], [175.253904743426, -37.0467990970389], [175.253887535065, -37.0467730537466], [175.253861738199, -37.0467394590501], [175.253842339551, -37.0467146289965], [175.253820871037, -37.0466863414569], [175.253800330378, -37.0466582525765], [175.253779859682, -37.0466313880531], [175.253752562721, -37.0466002912475], [175.253731764616, -37.046575280486], [175.253710147688, -37.0465491947784], [175.253690737684, -37.0465175154662], [175.253676472191, -37.0464875679025], [175.253663398719, -37.0464591478207], [175.253650457687, -37.0464329242533], [175.253637986462, -37.0464047180334], [175.253624444065, -37.0463672854147], [175.253614635393, -37.0463378659875], [175.253603279286, -37.0463101072173], [175.253594927292, -37.0462839406296], [175.253583461931, -37.0462570491268], [175.253572803223, -37.046228159558], [175.253564144911, -37.046197717884], [175.253558089322, -37.0461693626933], [175.253557462642, -37.0461424724946], [175.253558985744, -37.0461110983127], [175.253565713375, -37.0460846271233], [175.253575781934, -37.0460555509365], [175.253585803967, -37.0460283231815], [175.253603769491, -37.0460031885607], [175.253625672075, -37.0459750771125], [175.253649375746, -37.0459493197257], [175.253677337196, -37.0459253469888], [175.253713101384, -37.0458949082385], [175.25374161938, -37.0458680859936], [175.253768505277, -37.045841583159], [175.253793547208, -37.0458173594602], [175.253821988499, -37.0457959280885], [175.253850111408, -37.0457743765873], [175.253878366261, -37.0457523449129], [175.253910507057, -37.0457294102287], [175.253938471825, -37.0457120164437], [175.253964461003, -37.0456947323024], [175.253995584192, -37.0456746468411], [175.254020076617, -37.0456535157919], [175.254046337628, -37.0456336398983], [175.254075354608, -37.0456160908948], [175.25411517431, -37.0455939114368], [175.254147955197, -37.0455777959453], [175.254253637994, -37.0455240736612]], [[175.254230417887, -37.0455435907786], [175.25426089053, -37.0455304031129], [175.254299228768, -37.0455216171918], [175.254341740976, -37.0455197635806], [175.254386903902, -37.0455166789335], [175.254434540926, -37.0455010740291], [175.254470849609, -37.0454822146898], [175.254517065674, -37.0454524061392], [175.254562596111, -37.0454214660276], [175.254596757426, -37.0453976726151], [175.254636665536, -37.0453625314287], [175.254664783514, -37.0453218284168], [175.2546790948, -37.0452906256511], [175.254693751942, -37.0452528732831], [175.254707494071, -37.0452126959421], [175.25471539842, -37.0451815519031], [175.254720223831, -37.0451386871581], [175.254725863469, -37.0450997814134], [175.254735409479, -37.0450732024987], [175.254746455996, -37.0450334999907], [175.25476366532, -37.0449919499159], [175.254782523235, -37.0449624181124], [175.25480851256, -37.0449276767088], [175.254843755636, -37.0448956162845], [175.2548849381, -37.0448640377335], [175.25490533567, -37.0448367657921], [175.254930599136, -37.044803714477], [175.254973292539, -37.044777604748], [175.255008174157, -37.0447591689324], [175.255052625968, -37.0447290332308], [175.255090162346, -37.0446908907962], [175.255112871686, -37.0446581583871], [175.255138689282, -37.0446157235631], [175.255161160771, -37.044577615247], [175.255180483887, -37.0445512739482], [175.255210797998, -37.0445164141632], [175.25523340781, -37.0444776633207], [175.255246654395, -37.0444443087407], [175.255266389374, -37.0443984566952], [175.25529236785, -37.044356144953], [175.255312790107, -37.0443255378745], [175.255337023824, -37.0442839172129], [175.255362566932, -37.0442390542055], [175.255378767021, -37.0442036877412], [175.25540319565, -37.0441625770679], [175.25542791743, -37.0441245340531], [175.255448892295, -37.0440993058753], [175.2554814389, -37.0440680896463], [175.255512242332, -37.0440406557352], [175.255540312539, -37.0440238183472], [175.255582262111, -37.0440026072905], [175.255625177521, -37.043980981301], [175.255667475573, -37.0439605296428], [175.255699191131, -37.0439392248121], [175.255741664911, -37.0439079999306], [175.255769671658, -37.0438825658377], [175.2557904875, -37.0438538708402], [175.255824997676, -37.0438164526649], [175.255858956606, -37.0437771253184], [175.255871456609, -37.0437413515168], [175.255881490385, -37.0436894923783], [175.255883821165, -37.0436375815005], [175.255882211696, -37.0436014452328], [175.255877495828, -37.0435598794877], [175.255857301588, -37.0435229792153], [175.255837214397, -37.043499568512], [175.255816701089, -37.0434701185695], [175.25580857547, -37.0434314836354], [175.255814225956, -37.0434035998362], [175.25583304714, -37.0433588015105], [175.255844917406, -37.0433302406222], [175.255858649712, -37.0433045733516], [175.255896156809, -37.0432620601976], [175.255940889362, -37.0432349920722], [175.255969384212, -37.0432135231308], [175.256004287693, -37.0431776295365], [175.256033800326, -37.0431354757129], [175.256050460361, -37.0430997128745], [175.256076739869, -37.04305354693], [175.256100900751, -37.0430098726676], [175.256112959264, -37.0429751436689], [175.256123823968, -37.0429240167315], [175.256133036191, -37.0428972007215], [175.25614553526, -37.0428686188284], [175.256161009451, -37.0428273629275], [175.256171885014, -37.0428024259043], [175.256187460075, -37.0427778681162], [175.256205967185, -37.0427547506056], [175.256226628553, -37.0427337641015], [175.256262851587, -37.0427021983321], [175.256288307805, -37.0426772182072], [175.256313546385, -37.0426505839304], [175.256338792416, -37.0426242018548], [175.256363889085, -37.0425984715109], [175.256399894999, -37.0425584381464], [175.256421325326, -37.042532669402], [175.256440708359, -37.0425080030758], [175.256463640673, -37.0424725894805], [175.2564815848, -37.0424369193111], [175.256494028083, -37.0424106366139], [175.256512687601, -37.0423657150852], [175.256527065675, -37.042336430479], [175.256543046286, -37.0423069711784], [175.256557862662, -37.042276542662], [175.256572738575, -37.0422473657388], [175.256602837883, -37.0422041641843], [175.256621469041, -37.0421730952857], [175.256638134174, -37.0421409372422], [175.256654956338, -37.0421087671958], [175.256671419754, -37.0420792896784], [175.25669528613, -37.0420401181057], [175.256712961752, -37.0420162683093], [175.256732400916, -37.0419927454475], [175.256753611387, -37.04196943221], [175.256776341325, -37.0419442785541], [175.256807368824, -37.0419001580423], [175.256826863861, -37.0418671349993], [175.256848616864, -37.0418340509572], [175.25687021304, -37.0418013664428], [175.256890764853, -37.0417706214481], [175.256923733356, -37.0417305465983], [175.256966742927, -37.0416863422069], [175.256988440681, -37.0416377307719], [175.256992010452, -37.0415954125529], [175.256991915678, -37.0415645017165], [175.256993419432, -37.0415332810711], [175.256998315698, -37.041502725866], [175.257004833931, -37.0414730320217], [175.257009737485, -37.0414320943559], [175.257010954873, -37.0414052501895], [175.257013429694, -37.0413779675194], [175.257017930081, -37.0413496098684], [175.257025114942, -37.0413204080313], [175.257041519476, -37.0412749074806], [175.257051703413, -37.0412448554681], [175.257059723176, -37.0412161334223], [175.257066008919, -37.0411668239347], [175.257052568574, -37.041127163678], [175.257041199899, -37.0410982338467], [175.257030085259, -37.0410676318793], [175.257019220857, -37.0410359887183], [175.257010457381, -37.0410042965585], [175.257004262451, -37.0409727808239], [175.256999078694, -37.0409423814105], [175.256987143182, -37.0409007638434], [175.2569784339, -37.0408739373623], [175.256971914989, -37.0408459065899], [175.256966174351, -37.0408175816197], [175.256958478944, -37.0407885458197], [175.256945812254, -37.0407446349796], [175.256939113355, -37.0407162200954], [175.256932923761, -37.0406886787362], [175.256929007324, -37.0406615897991], [175.256927288452, -37.0406335397708], [175.256927092079, -37.0405931227465], [175.256912366754, -37.040549927012], [175.256868553772, -37.0405145939249], [175.25683637243, -37.0404821487541], [175.256818835379, -37.0404582750973], [175.256800788742, -37.0404338974264], [175.256785576404, -37.0404084203733], [175.256772849272, -37.0403814450227], [175.256754982686, -37.0403392283118], [175.256747891535, -37.0403127495389], [175.256743690984, -37.040286693417], [175.256736153436, -37.0402500751376], [175.256728231497, -37.0402160417282], [175.256715805269, -37.0401813820502], [175.25669804602, -37.0401454449523], [175.256686430847, -37.0401180518834], [175.256672872691, -37.0400721211598], [175.256665202129, -37.0400397412491], [175.256658322371, -37.0400074904884], [175.256652337605, -37.0399769891334], [175.256644500582, -37.0399484787225], [175.256635768608, -37.0399208775717], [175.256628620666, -37.0398932372655], [175.256623499565, -37.0398501381154], [175.256622042573, -37.0398210556769], [175.256620267273, -37.0397914745988], [175.256618967323, -37.0397623801592], [175.256616496482, -37.0397355070338], [175.256595790211, -37.039697994743], [175.25657502524, -37.0396736867819], [175.256554338574, -37.0396474666907], [175.256535387194, -37.0396172030433], [175.25651838208, -37.0395839462808], [175.25649388097, -37.03953293345], [175.256500235745, -37.0394796427724]]]}, "properties": {"OBJECTID": 12186, "TRACKNAME": "Waharau Ridge Track", "CONDITIONSOFUSE": "Hunua Ranges Regional Park", "STATUS": "Open", "WEBLINK": "https://www.aucklandcouncil.govt.nz/en/parks-recreation/find-park-beach/park-detail/213.html", "VALIDATIONSTATE": 3, "created_user": "AC_owner", "last_edited_user": "AC_owner", "last_edited_date": 1789875254325, "created_date": 1789875254325, "PARK_SAPSITEID": null, "TRACK_ID": null, "KAURIDIEBACK_TRACK": null, "KAURIDIEBACK_MITIGATED": null, "SegmentID": null, "GlobalID": "43723490-c7f1-48da-8423-cafb3a69f449", "Shape__Length": 1667.551328119131}}, {"type": "Feature", "id": 12229, "geometry": {"type": "LineString", "coordinates": [[175.278557192527, -37.0402906042908], [175.278610187111, -37.0402895860466], [175.278705577355, -37.0402877531474], [175.278790114613, -37.0402776273285], [175.278905686351, -37.0402414008912], [175.278935196363, -37.0401643212642], [175.278953599275, -37.0400704522922], [175.279004815095, -37.0400099583068], [175.27907748266, -37.0399575534304], [175.279162781795, -37.039972916887], [175.279217554894, -37.0400313739406], [175.279302600018, -37.0400382407844], [175.279341946056, -37.0399354678337], [175.279416025458, -37.0398547628324], [175.279576137582, -37.0399649719032], [175.279724520548, -37.0399621195284], [175.279743220549, -37.0398892273917], [175.27975301296, -37.0398510537031], [175.27989961753, -37.0397887255586], [175.27997431777, -37.0398042921961], [175.280093955447, -37.0399040087048], [175.280147984597, -37.0399494152566], [175.280202740353, -37.0399954323704], [175.280375118774, -37.0400856330955], [175.280586079209, -37.0400475707461], [175.280763907255, -37.0400541843025], [175.280905824165, -37.0401009310348], [175.281128654804, -37.0401051463603], [175.281267203148, -37.0401279853904], [175.281694210668, -37.0402217870472], [175.281907713671, -37.0402686873065], [175.282209571421, -37.0404329062665], [175.282508122209, -37.0404866700602], [175.282999743594, -37.0406132279336], [175.283310421907, -37.0407177645211], [175.283758123558, -37.0407941574247], [175.284132905526, -37.0409144600723], [175.284432223416, -37.0409937083367], [175.284506340742, -37.0411044072297], [175.284642254235, -37.0411348553164], [175.284878652738, -37.0410276145601], [175.285143881802, -37.0410310053711], [175.285388167724, -37.0410433005806], [175.285589548157, -37.0410394194659], [175.285833324419, -37.0410347208176], [175.286205477413, -37.0411345147739], [175.286457920919, -37.0411136327414], [175.286748076002, -37.041099259921], [175.286914579812, -37.0411124245746], [175.287081605156, -37.0411422157888], [175.287196778904, -37.0411730969619], [175.287280297425, -37.0411879967911], [175.287322628398, -37.0411996985118]]}, "properties": {"OBJECTID": 12229, "TRACKNAME": "Waharau Ridge Track", "CONDITIONSOFUSE": "Waharau Regional Park", "STATUS": "Open", "WEBLINK": "https://www.aucklandcouncil.govt.nz/en/parks-recreation/find-park-beach/park-detail/233.html", "VALIDATIONSTATE": 3, "created_user": "AC_owner", "last_edited_user": "AC_owner", "last_edited_date": 1789875254325, "created_date": 1789875254325, "PARK_SAPSITEID": null, "TRACK_ID": null, "KAURIDIEBACK_TRACK": null, "KAURIDIEBACK_MITIGATED": null, "SegmentID": null, "GlobalID": "96123210-e0dd-4b1e-a2c9-e3a3b5682e03", "Shape__Length": 880.6772694345111}}, {"type": "Feature", "id": 12274, "geometry": {"type": "LineString", "coordinates": [[175.256500235745, -37.0394796427724], [175.25692800788, -37.0395567691843], [175.257135356288, -37.0394173227758], [175.257305879565, -37.0392444342544], [175.257601209143, -37.0390612765618], [175.257736504783, -37.03889752253], [175.258048280972, -37.0386013411455], [175.258283385143, -37.0384194366476], [175.258934718621, -37.0380679661652], [175.259107577837, -37.0378229419776], [175.259401842872, -37.037607616782], [175.259856134961, -37.0373728840228], [175.26052038008, -37.0374235640123], [175.260946409999, -37.0375596325148], [175.261368297588, -37.0375670268848], [175.262068542614, -37.0374881700164], [175.262446185212, -37.0373676980018], [175.262867560007, -37.0373589916198], [175.263367141368, -37.0372842712258], [175.263607921826, -37.0372792971388], [175.26399486973, -37.0374483650477], [175.26433909528, -37.0375378295246], [175.264659628759, -37.0375151081465], [175.26526263256, -37.0375348286731], [175.265964942732, -37.0375203031307], [175.266446014308, -37.0374942480434], [175.266772236564, -37.0376484702413], [175.267298095879, -37.0377663581413], [175.267681753962, -37.0378388636117], [175.267733989485, -37.0378548892293], [175.267870897291, -37.03785682246], [175.26801314765, -37.0378395740714], [175.268107521724, -37.0378137691166], [175.26815436313, -37.0378170189671], [175.268189229278, -37.0378005443457], [175.26826166948, -37.0377962568408], [175.268446464627, -37.0378067455296], [175.268571485476, -37.0378089233502], [175.268786927744, -37.0378473946088], [175.268924164409, -37.0378588644786], [175.268942771618, -37.0378823282966], [175.269010020906, -37.0379381803602], [175.269150003114, -37.0380354406905], [175.269276885158, -37.0380948290081], [175.269360892617, -37.0381169331469], [175.269397188478, -37.0381352637963], [175.269523599996, -37.0381803491335], [175.269601679168, -37.0381933774921], [175.2696253073, -37.03819731975], [175.26969850306, -37.0382206967294], [175.269950717426, -37.0383154682853], [175.269986536701, -37.0383281697066], [175.270063735149, -37.0383500071254], [175.270183696423, -37.0382683474764], [175.270283834515, -37.0382345175533], [175.270331131498, -37.0382130457797], [175.270361743698, -37.0382017169376], [175.270392918414, -37.0381896473132], [175.270427386435, -37.0381764241289], [175.270459664711, -37.0381621523557], [175.27048733773, -37.0381487708481], [175.27052785137, -37.0381297991313], [175.27055847977, -37.0381178841222], [175.270588720407, -37.0381046517048], [175.270613117127, -37.038094014991], [175.270620438479, -37.0380908232101], [175.270649959738, -37.0380775955385], [175.270677265938, -37.0380643561968], [175.27070532639, -37.0380496423963], [175.270741611443, -37.0380268491985], [175.270772780856, -37.0380081915037], [175.270809448832, -37.037992591871], [175.270842256304, -37.0379775978817], [175.270874885385, -37.037960390246], [175.270904598019, -37.0379464198297], [175.270936123043, -37.0379321533404], [175.270978113428, -37.0379133244297], [175.271017522553, -37.037889362798], [175.271046305087, -37.037868326402], [175.271076376749, -37.0378498068122], [175.271117444718, -37.0378343571473], [175.271154660314, -37.037823181029], [175.271190784769, -37.0378127377763], [175.271225064297, -37.0378037628196], [175.271258436293, -37.0377964004307], [175.271293085659, -37.0377941776802], [175.271329382334, -37.0377966819231], [175.271375240933, -37.0378103316191], [175.271414297545, -37.0378254724507], [175.271447496619, -37.0378405992875], [175.271482521974, -37.0378498601045], [175.271514982259, -37.0378579263296], [175.271557886963, -37.0378686494244], [175.271588505084, -37.0378812931698], [175.27162829447, -37.037896122484], [175.271666814413, -37.0379075874345], [175.271697445172, -37.037918013856], [175.271729529708, -37.0379266730258], [175.271768402551, -37.0379382843938], [175.271806739126, -37.0379507622007], [175.271853502863, -37.0379664852486], [175.271860185879, -37.0379687337955], [175.272154814556, -37.0380572995772], [175.27217405059, -37.0380600394044], [175.272209811132, -37.0380634098261], [175.272245930286, -37.038065610765], [175.272282776636, -37.038066184538], [175.272318351192, -37.0380689726838], [175.272351550579, -37.0380727886823], [175.272387488531, -37.0380764530603], [175.272427098417, -37.0380799749674], [175.27246394553, -37.0380824593002], [175.272504287178, -37.038084507149], [175.272545357313, -37.0380868564587], [175.272586441103, -37.0380915487187], [175.272636679773, -37.038099760613], [175.272674469049, -37.0381085805732], [175.272717548747, -37.0381172450602], [175.27275165737, -37.0381225215562], [175.272795844894, -37.0381291279792], [175.272838577913, -37.0381355910257], [175.272881849984, -37.038142034713], [175.272923119638, -37.0381480571298], [175.27297666113, -37.0381539254376], [175.273011688065, -37.0381583280787], [175.273045597234, -37.0381599312497], [175.27309015629, -37.0381658004359], [175.273125175524, -37.0381684367588], [175.273172666357, -37.0381746012024], [175.273206411189, -37.0381797403412], [175.273240516614, -37.0381867922011], [175.273274455879, -37.0381935498268], [175.273308381447, -37.0381998480723], [175.273355857556, -37.0382077791562], [175.273388505512, -37.0382123264255], [175.273423524334, -37.0382157016851], [175.273461114332, -37.0382174594846], [175.273499442643, -37.0382209785624], [175.273536485763, -37.0382262616609], [175.273572612105, -37.0382335991278], [175.27360946782, -37.0382397599996], [175.273655491044, -37.0382453395413], [175.273695092624, -37.0382478247545], [175.273732870138, -37.0382513453041], [175.273768265561, -37.0382560380645], [175.27380292662, -37.0382624933014], [175.273837951629, -37.0382698427905], [175.273873332055, -37.0382762932261], [175.273910010674, -37.0382821690024], [175.273949620803, -37.038288331028], [175.2739956519, -37.0382983173525], [175.274030684839, -37.0383066850339], [175.274064418202, -37.0383152037987], [175.274096689686, -37.0383244625667], [175.274130791476, -37.0383332716568], [175.274166379997, -37.0383410428373], [175.274202140665, -37.0383478013162], [175.274236802928, -37.0383527873796], [175.274281724776, -37.0383576217428], [175.274317296446, -37.0383614367544], [175.274353042354, -37.0383639326026], [175.274386967858, -37.038364949268], [175.274420899491, -37.0383639109777], [175.274454996863, -37.0383639059256], [175.274505045503, -37.0383653613617], [175.274546495085, -37.0383653504587], [175.274594536066, -37.0383635728601], [175.274635243049, -37.0383582678624], [175.274667688577, -37.038351508091], [175.274713167148, -37.0383361978984], [175.274744137526, -37.0383237074743], [175.27477567247, -37.0383101697864], [175.274808128297, -37.0382954698504], [175.274840391446, -37.038282224599], [175.274873945101, -37.0382726676947], [175.274907683215, -37.0382659010882], [175.274948187211, -37.0382579412183], [175.274981020919, -37.0382517597218], [175.275016036545, -37.0382441033869], [175.275051051186, -37.0382352844603], [175.275085155073, -37.0382257079289], [175.275127329235, -37.0382130655566], [175.275158133604, -37.0382021734062], [175.27518855666, -37.0381871698944], [175.275219536898, -37.0381701188818], [175.275250342498, -37.038151737376], [175.27527947373, -37.0381318739025], [175.275307162067, -37.0381092442601], [175.275335200787, -37.038086301467], [175.275362696436, -37.038065126506], [175.27539735713, -37.0380414438023], [175.275426495752, -37.038021453978], [175.275456922429, -37.0380013042464], [175.275485509789, -37.0379786663259], [175.275513750919, -37.0379557286203], [175.275542159878, -37.0379335176926], [175.275571484289, -37.0379114694404], [175.275599886282, -37.0378894028313], [175.275635643853, -37.0378636802335], [175.275667723279, -37.0378461754189], [175.275700910568, -37.0378292531676], [175.275731702733, -37.0378104301893], [175.27576157245, -37.0377897052628], [175.275791102183, -37.0377692662377], [175.275818951039, -37.0377501392234], [175.275845724305, -37.0377300054298], [175.275875225578, -37.0377108737289], [175.275908038881, -37.0376863250917], [175.275931695318, -37.0376664764044], [175.275960832957, -37.0376438278114], [175.275991624375, -37.0376163258364], [175.27601617805, -37.0375933956957], [175.276044585898, -37.037572662706], [175.27607507165, -37.0375572882595], [175.27608534036, -37.03755627916], [175.27615564931, -37.0375416364382], [175.276503068783, -37.0375410963054], [175.276841534151, -37.0376374661912], [175.276984420316, -37.0377148169655], [175.277106081637, -37.0378825089619], [175.277300156676, -37.0379893005069], [175.277567913649, -37.0380776738811], [175.27769662057, -37.0381262103623], [175.277867976076, -37.0381824280239], [175.277870287455, -37.0381825782955], [175.278069857937, -37.0381955529632], [175.278304297709, -37.0382335562683], [175.278402479418, -37.0383251853774], [175.278502184327, -37.0384677935085], [175.278549659388, -37.0386369092634], [175.278553215698, -37.0387558604664], [175.278556772028, -37.0388748116667], [175.278486392334, -37.0390036839182], [175.278413979229, -37.0390645849379], [175.278341820012, -37.0391339824317], [175.278303234963, -37.0392622446404], [175.278340365381, -37.0394400605905], [175.278461778548, -37.0395992544423], [175.278528419814, -37.0396999907763], [175.27866798185, -37.0397568189694], [175.278628126861, -37.0398425978013], [175.278577164874, -37.0399115881444], [175.278526457952, -37.0399890749592], [175.2785300144, -37.0401080261369], [175.278556799857, -37.0402945421415]]}, "properties": {"OBJECTID": 12274, "TRACKNAME": "Waharau Ridge Track", "CONDITIONSOFUSE": "Waharau Regional Park", "STATUS": "Open", "WEBLINK": "https://www.aucklandcouncil.govt.nz/en/parks-recreation/find-park-beach/park-detail/233.html", "VALIDATIONSTATE": 3, "created_user": "AC_owner", "last_edited_user": "AC_owner", "last_edited_date": 1789875254325, "created_date": 1789875254325, "PARK_SAPSITEID": null, "TRACK_ID": null, "KAURIDIEBACK_TRACK": null, "KAURIDIEBACK_MITIGATED": null, "SegmentID": null, "GlobalID": "ea4f6174-0d17-4a4b-aa49-2f37cc2c6fc8", "Shape__Length": 2417.579036184403}}, {"type": "Feature", "id": 12275, "geometry": {"type": "LineString", "coordinates": [[175.279433350501, -37.0444225608883], [175.279464295303, -37.0443779675767], [175.279466622594, -37.0442960362713], [175.279555488403, -37.0441164234645], [175.279662269597, -37.0440283204633], [175.279695836621, -37.0438338817581], [175.279707200706, -37.0436458991658], [175.279718317627, -37.0435278214165], [175.279773422273, -37.0433828702373], [175.279861241005, -37.043288940101], [175.279979450414, -37.0432048258984], [175.280121987047, -37.0431439374007], [175.280293152591, -37.0431204043402], [175.280367587119, -37.0431108618585], [175.280459007911, -37.0430869874247], [175.28054021216, -37.0430553334332], [175.280655034189, -37.0429850456308], [175.280718217425, -37.0429357854214], [175.280791426814, -37.042888324082], [175.281005151748, -37.0427940082675], [175.281096168384, -37.0427581546464], [175.281251746684, -37.0427149756326], [175.281335814533, -37.0426952524933], [175.281445053326, -37.0426829849545], [175.281562335697, -37.042688533261], [175.281697900479, -37.0427196673344], [175.281813532646, -37.0427512028177], [175.28191211963, -37.0427950887073], [175.282039456103, -37.0428803198538], [175.282124465946, -37.0429292163639], [175.282237307226, -37.0429880495782], [175.282365128129, -37.0430113559473], [175.282484651952, -37.0430128947416], [175.282678092747, -37.0429808724291], [175.282861635146, -37.0429550786528], [175.283072499135, -37.0429267127762], [175.283280868749, -37.0428984035661], [175.283514017264, -37.0428655883102], [175.28359599382, -37.0428578813016], [175.283829785209, -37.04284502449], [175.283910112688, -37.0428633227134], [175.284114641323, -37.0429469387055], [175.284243438775, -37.0430001813905], [175.284372806853, -37.0430837035575], [175.284509918349, -37.0432139948649], [175.284572427411, -37.043255950927], [175.284671962289, -37.0433190035818], [175.284906210497, -37.0434480718171], [175.285057242797, -37.0434955228008], [175.285318964011, -37.043575285806], [175.285442489528, -37.0435940122014], [175.285608488712, -37.043590551483], [175.285736763443, -37.0435505875421], [175.285847025596, -37.0434768498084], [175.285953401756, -37.0433676510728], [175.286046924343, -37.0432804739406], [175.286158068226, -37.043224905908], [175.28622829045, -37.0432083932784], [175.286314978537, -37.0431767287723], [175.286388973648, -37.0431529424167], [175.286509927159, -37.0431136956017], [175.286617846695, -37.0430608479668], [175.286773306821, -37.0429377692808], [175.286863502256, -37.042850664692], [175.286985588939, -37.042722957079], [175.287039872135, -37.0426552546376], [175.287102786172, -37.0426170274263], [175.287216037578, -37.0425556949141], [175.287334343911, -37.0425159485759], [175.287588588244, -37.0424680282558], [175.287752904528, -37.0424391947451], [175.287936823169, -37.0424435629291]]}, "properties": {"OBJECTID": 12275, "TRACKNAME": "Waharau Ridge Track", "CONDITIONSOFUSE": "Waharau Regional Park", "STATUS": "Open", "WEBLINK": "https://www.aucklandcouncil.govt.nz/en/parks-recreation/find-park-beach/park-detail/233.html", "VALIDATIONSTATE": 3, "created_user": "AC_owner", "last_edited_user": "AC_owner", "last_edited_date": 1789875254325, "created_date": 1789875254325, "PARK_SAPSITEID": null, "TRACK_ID": null, "KAURIDIEBACK_TRACK": null, "KAURIDIEBACK_MITIGATED": null, "SegmentID": null, "GlobalID": "af59ea71-3b4e-4e81-9ed7-c134f5aba511", "Shape__Length": 955.5190314218924}}, {"type": "Feature", "id": 12812, "geometry": {"type": "LineString", "coordinates": [[175.275292909673, -37.045360809027], [175.275355249368, -37.0453043164287], [175.275380552686, -37.0452889343227], [175.275413553682, -37.0452780900506], [175.275467342509, -37.0452642062469], [175.275520780505, -37.0452615405705], [175.275576182461, -37.0452617662107], [175.275619259731, -37.0452566496644], [175.275677736804, -37.0452600787323], [175.275732794102, -37.0452713510968], [175.275778492538, -37.045277954377], [175.275813229182, -37.045282686152], [175.275850082, -37.0452852413658], [175.275887924477, -37.0452862995415], [175.275922931779, -37.0452888000282], [175.275966677638, -37.0452917636536], [175.276018134825, -37.0452927948024], [175.276072596262, -37.0452939034515], [175.276113303462, -37.0452926264343], [175.27616077466, -37.0452896964764], [175.276196324087, -37.0452926551208], [175.276239720637, -37.0453008615508], [175.27627591721, -37.0453066646777], [175.276318591597, -37.0453144072841], [175.276353555782, -37.0453180981067], [175.276400344348, -37.045319038461], [175.276445402627, -37.0453102335665], [175.27647905088, -37.0453022425152], [175.276529381889, -37.0452859011423], [175.276567985199, -37.0452744172678], [175.276611646288, -37.0452745433782], [175.276644026592, -37.0452952360328], [175.276679131118, -37.045317922189], [175.276718517542, -37.0453413011908], [175.276741974839, -37.0453606240138], [175.276766331628, -37.0453814526563], [175.276796818453, -37.0453967201118], [175.276827815578, -37.0454019740057], [175.276864344469, -37.0453910525828], [175.276896555183, -37.0453695704259], [175.276916499239, -37.0453461968686], [175.276935829558, -37.0453184640821], [175.276958537279, -37.0452905042189], [175.27697864176, -37.0452623419907], [175.276993877018, -37.0452345256033], [175.277002460834, -37.0451989601022], [175.277008537447, -37.0451660292997], [175.277043529079, -37.0451059296781], [175.277151269814, -37.0449083369339], [175.277212441628, -37.0448566901401], [175.277253246555, -37.0448222389448], [175.277293635993, -37.0447881444945], [175.277437247976, -37.0447070147081], [175.277565469007, -37.0446522532067], [175.277791551925, -37.0446084725371], [175.277985985748, -37.0445914083174], [175.278308238763, -37.0445065482739], [175.278452260749, -37.0444384323045], [175.278559719606, -37.0443748129343], [175.278703483788, -37.0443518536957], [175.278799764846, -37.044323885622], [175.278956620366, -37.0443206279373], [175.279049539578, -37.0443426529113], [175.279199908499, -37.0443694857644], [175.27924621476, -37.0444144597957], [175.279292058237, -37.0444454644867], [175.279362464964, -37.0444455531686], [175.279433350501, -37.0444225608883]]}, "properties": {"OBJECTID": 12812, "TRACKNAME": "Waharau Ridge Track", "CONDITIONSOFUSE": "Waharau Regional Park", "STATUS": "Open", "WEBLINK": "https://www.aucklandcouncil.govt.nz/en/parks-recreation/find-park-beach/park-detail/233.html", "VALIDATIONSTATE": 3, "created_user": "AC_owner", "last_edited_user": "AC_owner", "last_edited_date": 1789875254325, "created_date": 1789875254325, "PARK_SAPSITEID": null, "TRACK_ID": null, "KAURIDIEBACK_TRACK": null, "KAURIDIEBACK_MITIGATED": null, "SegmentID": null, "GlobalID": "7ac1855e-2d4e-44d9-81c6-e4a40507f4e4", "Shape__Length": 435.82464770051797}}]}