{"type": "FeatureCollection", "features": [{"type": "Feature", "id": 1460, "geometry": {"type": "LineString", "coordinates": [[175.103712977645, -37.0602851782163], [175.103869305224, -37.0603666008806], [175.104030000788, -37.0603525197837], [175.10413453123, -37.0603338292689], [175.104231915111, -37.0603096505987], [175.104329298928, -37.0602854718503], [175.104399303249, -37.0602842294755], [175.104469152488, -37.0602773749249], [175.104572287431, -37.0602081928388], [175.10461289693, -37.0601569561047], [175.104680110451, -37.0600547311901], [175.104739701013, -37.0599301910134], [175.104759147237, -37.0598737149945], [175.104846891919, -37.059754289902], [175.104964651257, -37.0597072984176], [175.105068881553, -37.0596773826463], [175.105174185909, -37.0596867338961], [175.105272499154, -37.0596962181898], [175.105322126568, -37.0597177875934], [175.105350125823, -37.0597172904604], [175.105377814793, -37.0597055690575], [175.105419808047, -37.0597048234359], [175.105966907406, -37.0597344031053], [175.106086217159, -37.0597435047972], [175.106163844325, -37.0597645855344], [175.106263077259, -37.0598077239538], [175.106334477471, -37.0598569715881], [175.10638519129, -37.0599178074125], [175.106401512852, -37.0600017137119], [175.106419397152, -37.0601417140579], [175.106404906181, -37.0603777155308], [175.106372076337, -37.0604568800759], [175.106359168232, -37.0604963955437], [175.106297252494, -37.0605367815662], [175.106290405013, -37.0605425180858], [175.106237664091, -37.0606613224493], [175.10624637362, -37.0607229134475], [175.106389299437, -37.0610795919666], [175.106596637332, -37.0614856508791], [175.106663674789, -37.0616303927571], [175.106723088946, -37.0617528195157], [175.106875058322, -37.0619297325055], [175.107095326691, -37.0620436859153], [175.107208114436, -37.06206974697], [175.107348891105, -37.0620953104827], [175.107370209958, -37.0621061523408], [175.107436162816, -37.0622116268675], [175.107501960548, -37.0623114892284], [175.107524510511, -37.0623672192193], [175.107529012909, -37.0625299076805]]}, "properties": {"OBJECTID": 1460, "TRACKNAME": "Wairoa-Cossey Track", "CONDITIONSOFUSE": "Hunua Ranges Regional Park", "STATUS": "Open", "WEBLINK": "https://www.aucklandcouncil.govt.nz/en/parks-recreation/find-park-beach/park-detail/213.html", "VALIDATIONSTATE": 3, "created_user": "AC_owner", "last_edited_user": "AC_owner", "last_edited_date": 1789875254325, "created_date": 1789875254325, "PARK_SAPSITEID": null, "TRACK_ID": null, "KAURIDIEBACK_TRACK": null, "KAURIDIEBACK_MITIGATED": null, "SegmentID": null, "GlobalID": "90abcbb4-e545-443f-9689-e835206e9c65", "Shape__Length": 625.1587945818414}}]}