{"type": "FeatureCollection", "features": [{"type": "Feature", "id": 12211, "geometry": {"type": "LineString", "coordinates": [[175.127779748904, -37.1015053055903], [175.128094775222, -37.1019012588144], [175.12811654133, -37.1024434064794], [175.128078825575, -37.1030022949444], [175.128538935162, -37.1037283225257], [175.128706605108, -37.104325241523], [175.128474750908, -37.1045675624484], [175.128030712752, -37.1050391330722], [175.127248249156, -37.1051980744191], [175.126585972562, -37.1051326494414], [175.126315187986, -37.1052144569857], [175.126168607425, -37.1053377378073], [175.126150244526, -37.1056335351567], [175.125914161831, -37.1058944839107], [175.125575686053, -37.106060671915], [175.125140733147, -37.1061347951219], [175.12473615175, -37.1058216250062], [175.124442682902, -37.1056756818324], [175.124161724203, -37.1056093560467], [175.123884076606, -37.1056546990663], [175.12334380058, -37.1055853572864], [175.122847637364, -37.1057635552884], [175.122543232456, -37.1056380815126], [175.122440714963, -37.1053794180496], [175.122357727414, -37.1051121131942], [175.12209124943, -37.1049710252083]]}, "properties": {"OBJECTID": 12211, "TRACKNAME": "Wairoa Loop Track", "CONDITIONSOFUSE": "Hunua Ranges Regional Park", "STATUS": "Open", "WEBLINK": "https://www.aucklandcouncil.govt.nz/en/parks-recreation/find-park-beach/park-detail/213.html", "VALIDATIONSTATE": 3, "created_user": "AC_owner", "last_edited_user": "AC_owner", "last_edited_date": 1789875254325, "created_date": 1789875254325, "PARK_SAPSITEID": null, "TRACK_ID": null, "KAURIDIEBACK_TRACK": null, "KAURIDIEBACK_MITIGATED": null, "SegmentID": null, "GlobalID": "b99dccb9-61c2-4954-8f03-fc99ee683df7", "Shape__Length": 1099.720115049288}}, {"type": "Feature", "id": 12239, "geometry": {"type": "LineString", "coordinates": [[175.128665771426, -37.1004006332152], [175.128199402473, -37.1008658460324], [175.127888810195, -37.1011855374901], [175.127930040735, -37.1014188987255], [175.127744042301, -37.1015059465904]]}, "properties": {"OBJECTID": 12239, "TRACKNAME": "Wairoa Loop Track", "CONDITIONSOFUSE": "Hunua Ranges Regional Park", "STATUS": "Open", "WEBLINK": "https://www.aucklandcouncil.govt.nz/en/parks-recreation/find-park-beach/park-detail/213.html", "VALIDATIONSTATE": 3, "created_user": "AC_owner", "last_edited_user": "AC_owner", "last_edited_date": 1789875254325, "created_date": 1789875254325, "PARK_SAPSITEID": null, "TRACK_ID": null, "KAURIDIEBACK_TRACK": null, "KAURIDIEBACK_MITIGATED": null, "SegmentID": null, "GlobalID": "ac0ed53a-2cf3-458b-b8d6-dcd65d6993cf", "Shape__Length": 156.48241304706028}}, {"type": "Feature", "id": 12682, "geometry": {"type": "LineString", "coordinates": [[175.127779748904, -37.1015053055903], [175.128094775222, -37.1019012588144], [175.12811654133, -37.1024434064794], [175.128078825575, -37.1030022949444], [175.128538935162, -37.1037283225257], [175.128706605108, -37.104325241523], [175.128474750908, -37.1045675624484], [175.128030712752, -37.1050391330722], [175.127248249156, -37.1051980744191], [175.126585972562, -37.1051326494414], [175.126315187986, -37.1052144569857], [175.126168607425, -37.1053377378073], [175.126150244526, -37.1056335351567], [175.125914161831, -37.1058944839107], [175.125575686053, -37.106060671915], [175.125140733147, -37.1061347951219], [175.12473615175, -37.1058216250062], [175.124442682902, -37.1056756818324], [175.124161724203, -37.1056093560467], [175.123884076606, -37.1056546990663], [175.12334380058, -37.1055853572864], [175.122847637364, -37.1057635552884], [175.122543232456, -37.1056380815126], [175.122440714963, -37.1053794180496], [175.122357727414, -37.1051121131942], [175.12209124943, -37.1049710252083]]}, "properties": {"OBJECTID": 12682, "TRACKNAME": "Wairoa Loop Track", "CONDITIONSOFUSE": "Hunua Ranges Regional Park", "STATUS": "Open", "WEBLINK": "https://www.aucklandcouncil.govt.nz/en/parks-recreation/find-park-beach/park-detail/213.html", "VALIDATIONSTATE": 3, "created_user": "AC_owner", "last_edited_user": "AC_owner", "last_edited_date": 1789875254325, "created_date": 1789875254325, "PARK_SAPSITEID": null, "TRACK_ID": null, "KAURIDIEBACK_TRACK": null, "KAURIDIEBACK_MITIGATED": null, "SegmentID": null, "GlobalID": "83d20b3e-29a3-48c5-9775-dcdce6c487b4", "Shape__Length": 1099.720115049288}}, {"type": "Feature", "id": 12683, "geometry": {"type": "LineString", "coordinates": [[175.128665771426, -37.1004006332152], [175.128199402473, -37.1008658460324], [175.127888810195, -37.1011855374901], [175.127930040735, -37.1014188987255], [175.127744042301, -37.1015059465904]]}, "properties": {"OBJECTID": 12683, "TRACKNAME": "Wairoa Loop Track", "CONDITIONSOFUSE": "Hunua Ranges Regional Park", "STATUS": "Open", "WEBLINK": "https://www.aucklandcouncil.govt.nz/en/parks-recreation/find-park-beach/park-detail/213.html", "VALIDATIONSTATE": 3, "created_user": "AC_owner", "last_edited_user": "AC_owner", "last_edited_date": 1789875254325, "created_date": 1789875254325, "PARK_SAPSITEID": null, "TRACK_ID": null, "KAURIDIEBACK_TRACK": null, "KAURIDIEBACK_MITIGATED": null, "SegmentID": null, "GlobalID": "6dbd683c-1042-4e33-b6a6-87a0fea556ee", "Shape__Length": 156.48241304706028}}, {"type": "Feature", "id": 12684, "geometry": {"type": "LineString", "coordinates": [[175.140083689956, -37.1001365877136], [175.139794889458, -37.1006466218112], [175.139392978701, -37.1011885104301], [175.139073501526, -37.101695491501], [175.138754970916, -37.102235873182], [175.138265885746, -37.1026456749801], [175.137779611977, -37.1031556616732], [175.137251641513, -37.1036664073301], [175.136507668796, -37.1039137233263], [175.135600646121, -37.1042976288772], [175.134943816964, -37.1046770210908], [175.134397701635, -37.1049264467519], [175.133781534778, -37.1052247173969], [175.133288630778, -37.105663669363], [175.13331468786, -37.1063773911016], [175.13330438792, -37.1063973049736], [175.133101928802, -37.1067874252495], [175.132759186738, -37.1073434221782], [175.132729829057, -37.1078448590892], [175.132864796999, -37.1079925523393], [175.132976229596, -37.1081143523465], [175.132954031367, -37.1083651565549], [175.132687297263, -37.1084061780879], [175.13240351375, -37.1088647959063], [175.132047861462, -37.1091531430431], [175.131605852667, -37.109432317415], [175.131188037111, -37.1095325525241], [175.13106540962, -37.1099045515844], [175.130661438364, -37.1103298259663], [175.130483324034, -37.1104771927321], [175.130441696484, -37.1105116479826], [175.130376456128, -37.1107527709055], [175.129918098831, -37.1108570650313], [175.129654973498, -37.1110172330434], [175.129391983292, -37.1111690073676], [175.129376921236, -37.1111776596653], [175.129384620252, -37.1111941945575], [175.129536279816, -37.1115203556022], [175.129369883283, -37.1118210660384], [175.128835781079, -37.1119871731689], [175.128561046809, -37.111765937823], [175.12800791309, -37.1116932439453], [175.12783058616, -37.1116238046832], [175.127631204156, -37.1115455592781], [175.127273294557, -37.1115287407358], [175.126724203333, -37.1115871640383], [175.126273240327, -37.11183628747], [175.126071137016, -37.1121483589963], [175.125909026225, -37.1123240017254], [175.125768430504, -37.1124762763059], [175.125182341994, -37.1122968478433], [175.124810682319, -37.1123160302934], [175.124430708377, -37.1120610814059], [175.124109705101, -37.1119305922727], [175.123971056804, -37.1118602737018], [175.123771662211, -37.1118245612647], [175.123712453087, -37.1116125022482], [175.123589486744, -37.1115113496187], [175.123458161215, -37.1114424854245], [175.12337279218, -37.1114093977228], [175.123229244533, -37.111393664998], [175.123104920318, -37.1114070407799], [175.123024029366, -37.1114295251751], [175.122873174095, -37.1114744873442], [175.122765764974, -37.1115004116969], [175.122558615889, -37.1115161986844], [175.122362464345, -37.1115196033813], [175.122281439751, -37.1115228027807], [175.122219003497, -37.111525119502], [175.122120562988, -37.1115022689047], [175.12204388561, -37.1114733416231], [175.122013888007, -37.1114484813308]]}, "properties": {"OBJECTID": 12684, "TRACKNAME": "Wairoa Loop Track", "CONDITIONSOFUSE": "Hunua Ranges Regional Park", "STATUS": "Open", "WEBLINK": "https://www.aucklandcouncil.govt.nz/en/parks-recreation/find-park-beach/park-detail/213.html", "VALIDATIONSTATE": 3, "created_user": "AC_owner", "last_edited_user": "AC_owner", "last_edited_date": 1789875254325, "created_date": 1789875254325, "PARK_SAPSITEID": null, "TRACK_ID": null, "KAURIDIEBACK_TRACK": null, "KAURIDIEBACK_MITIGATED": null, "SegmentID": null, "GlobalID": "602005e8-e4e4-46fd-92f4-2cfbcf7a0daf", "Shape__Length": 2530.5885040670855}}]}