{"type": "FeatureCollection", "features": [{"type": "Feature", "id": 3219, "geometry": {"type": "LineString", "coordinates": [[174.532436680387, -36.8955760679345], [174.532422393008, -36.8955568746299], [174.532409528492, -36.8955384029921], [174.532398087942, -36.895520652106], [174.532388069131, -36.8955036229022], [174.5323794743, -36.895487315352], [174.53237230231, -36.8954717285693], [174.532366553196, -36.8954568643564], [174.532362226919, -36.8954427209115], [174.532362420819, -36.8953921967311], [174.532406341014, -36.8952127654105], [174.532484215416, -36.894949423964], [174.532565247602, -36.894695581803], [174.532626787141, -36.8945063830036], [174.532834558025, -36.8942055928044], [174.533205714946, -36.8936409471632], [174.53339135004, -36.8933923199279], [174.533551799554, -36.8932495407058], [174.533639755202, -36.8931935533922], [174.533772524005, -36.893151296667], [174.53392568895, -36.893089697178], [174.534044140422, -36.8930738584378], [174.534299186753, -36.8930586405183], [174.534474275892, -36.8930539940447], [174.534699781399, -36.8930463109924], [174.534759245749, -36.8930503128185], [174.534827662547, -36.8930565830705], [174.534929019482, -36.8930767378015], [174.535027597743, -36.893106467528], [174.535038560513, -36.8931085892082], [174.535132162187, -36.8931385048365], [174.535331046967, -36.8931359346209], [174.535547216791, -36.8931069063351], [174.53577257895, -36.8930920689398], [174.536817322389, -36.8930714040703], [174.537215283664, -36.8930757943592], [174.537512699398, -36.8931005639025], [174.537798769344, -36.893151712974], [174.537974432467, -36.8931756732341], [174.538160821681, -36.893142256605], [174.538263473184, -36.8930789205634], [174.538425731416, -36.8930267367336], [174.538600389238, -36.8930006263969], [174.538769685274, -36.8930032027761], [174.53891513787, -36.8930013186516], [174.539024777951, -36.8929903591344], [174.539130826934, -36.8929484426027], [174.539331673799, -36.8928957575838], [174.539616450837, -36.8928825280322], [174.539909653355, -36.8928453393003], [174.540144061998, -36.8928375305107], [174.540275335326, -36.8928322519227], [174.540684775211, -36.8927970442354], [174.540686602883, -36.8927960191131], [174.540688308241, -36.8927946593669], [174.540689892423, -36.8927929658836], [174.540691355414, -36.892790937762], [174.54069269723, -36.8927885759032], [174.540693916749, -36.8927858803218], [174.540695013954, -36.8927828501166], [174.540695991106, -36.8927794861597], [174.540696845944, -36.892775787579], [174.540697578486, -36.8927717552757], [174.540698190975, -36.8927673892207], [174.54069868115, -36.892762688542], [174.540699049028, -36.8927576541406], [174.540699295732, -36.8927522860021], [174.540699421243, -36.8927465832253], [174.54069942558, -36.8927405467113], [174.540699307603, -36.8927341755736], [174.540699068451, -36.8927274706987]]}, "properties": {"OBJECTID": 3219, "TRACKNAME": "Waitakere Tramline Walk", "CONDITIONSOFUSE": "Waitakere North Regional Park", "STATUS": "Temp Closed", "WEBLINK": "https://www.aucklandcouncil.govt.nz/en/parks-recreation/find-park-beach/park-detail/3407.html", "VALIDATIONSTATE": 3, "created_user": "AC_owner", "last_edited_user": "AC_owner", "last_edited_date": 1789875254325, "created_date": 1789875254325, "PARK_SAPSITEID": null, "TRACK_ID": null, "KAURIDIEBACK_TRACK": null, "KAURIDIEBACK_MITIGATED": null, "SegmentID": null, "GlobalID": "a48fc511-4728-450d-8514-a492763b8a70", "Shape__Length": 943.9917632631682}}, {"type": "Feature", "id": 3243, "geometry": {"type": "LineString", "coordinates": [[174.531181381878, -36.8992158103314], [174.531153325696, -36.8989927445536], [174.531175398839, -36.8986962444703], [174.531232961625, -36.8986048771753], [174.531307145663, -36.8985105996018], [174.531682908572, -36.8982409107608], [174.531817443966, -36.8981346759299], [174.531892674319, -36.8980359263383], [174.531961871533, -36.8979324844662], [174.532022592295, -36.8978506152415], [174.532142827417, -36.8977751334583], [174.532327371185, -36.8976487402435], [174.532574695835, -36.8973951380072], [174.532680183407, -36.8973246150855], [174.532759142568, -36.8972639744424], [174.532914809427, -36.8971784955369], [174.533084840522, -36.897068981763], [174.533168724533, -36.8969958212922], [174.533175238404, -36.8969886515706], [174.533181399989, -36.8969814872966], [174.533187209252, -36.8969743266682], [174.533192667334, -36.8969671705721], [174.533197773113, -36.8969600190227], [174.533202526588, -36.8969528720201], [174.53320692776, -36.8969457295643], [174.533210977751, -36.8969385916409], [174.533214675457, -36.8969314591656], [174.533218020842, -36.8969243303361], [174.533221013925, -36.8969172060535], [174.533223654704, -36.896910086318], [174.533225944304, -36.896902971115], [174.533228020564, -36.8968958505531], [174.53323011997, -36.896888708961], [174.533232245853, -36.8968815444929], [174.53323439823, -36.89687435805], [174.533236578224, -36.8968671496178], [174.53323878359, -36.8968599192253], [174.533241016555, -36.8968526659423], [174.533243276032, -36.8968453915856], [174.533245561986, -36.8968380943529], [174.533247874433, -36.8968307751454], [174.533250213376, -36.8968234339631], [174.533252579934, -36.8968160707914], [174.533254971865, -36.8968086856594], [174.533257391412, -36.8968012785381], [174.533259837436, -36.8967938485408], [174.53326230885, -36.8967863974842], [174.533264808984, -36.8967789235227], [174.53326733449, -36.8967714276009], [174.533269886491, -36.8967639097042], [174.533272466108, -36.8967563698182], [174.53327506127, -36.8967488216192], [174.533277614153, -36.8967413478779], [174.533280114911, -36.8967339613407], [174.533282562441, -36.8967266629232], [174.533284957865, -36.8967194526108], [174.533287301164, -36.8967123295024], [174.533289592338, -36.8967052935981], [174.533291830284, -36.8966983458134], [174.533294017246, -36.8966914861195], [174.53329614984, -36.8966847136585], [174.533298231449, -36.8966780292883], [174.533300259812, -36.8966714321365], [174.533302236068, -36.89666492309], [174.533304160219, -36.8966585021487], [174.533306031123, -36.8966521684258], [174.533307849903, -36.8966459219071], [174.533309616577, -36.8966397634936], [174.533311331144, -36.8966336931852], [174.533312992465, -36.8966277100954], [174.533314601681, -36.8966218151108], [174.533316162138, -36.8966160072869], [174.533317860103, -36.8966102851207], [174.533319804389, -36.8966046463064], [174.533321993894, -36.8965990917596], [174.533324428616, -36.8965936214802], [174.533327108537, -36.8965882345672], [174.533330033676, -36.8965829319217], [174.533333205137, -36.8965777126279], [174.533336621797, -36.8965725767005], [174.533340283692, -36.8965675259415], [174.533344190787, -36.8965625585488], [174.533348344203, -36.8965576745079], [174.533352742837, -36.8965528747342], [174.533357386669, -36.8965481583268], [174.533362275719, -36.8965435261866], [174.533367411108, -36.8965389782991], [174.533372791697, -36.8965345137778], [174.533378417502, -36.8965301335236], [174.533384288507, -36.8965258366354], [174.53339040585, -36.8965216239998], [174.533396768393, -36.8965174947302], [174.53340307339, -36.8965133499784], [174.533408689329, -36.896508981568], [174.533413595888, -36.8965043834516], [174.533417794172, -36.8964995547139], [174.533421283058, -36.8964944953693], [174.533424063687, -36.8964892063047], [174.533426134918, -36.8964836866333], [174.533427496771, -36.8964779372563], [174.533428150366, -36.8964719581593], [174.533428095687, -36.8964657484411], [174.533427330489, -36.8964593081308], [174.533425857035, -36.8964526381004], [174.533423675306, -36.8964457374488], [174.5334207842, -36.8964386070915], [174.533417183698, -36.8964312461275], [174.53341287494, -36.8964236554431], [174.533407856787, -36.8964158341518], [174.533402130379, -36.8964077831401], [174.533395694576, -36.8963995015212], [174.533388549396, -36.8963909901961], [174.533380750138, -36.8963823205603], [174.533372712869, -36.8963740388803], [174.533364521801, -36.896366259444], [174.533356179178, -36.8963589822225], [174.533347682773, -36.8963522081459], [174.533339034813, -36.896345936284], [174.533330234176, -36.8963401666512], [174.533321281983, -36.8963348992331], [174.533312176009, -36.8963301349597], [174.53330291846, -36.8963258719999], [174.533293508251, -36.8963221121702], [174.533283944242, -36.8963188545839], [174.533274229799, -36.8963160991978], [174.533264361555, -36.896313846055], [174.533254340632, -36.8963120951412], [174.53324416817, -36.8963108473429], [174.533233843029, -36.8963101017735], [174.533223365208, -36.8963098584329], [174.533212734708, -36.8963101173211], [174.533201951528, -36.896310878438], [174.53319101784, -36.8963121381501], [174.533180142445, -36.89631333852], [174.533169473326, -36.8963140792332], [174.53315901273, -36.8963143602607], [174.533148759516, -36.8963141807159], [174.53313871372, -36.8963135424012], [174.533128875342, -36.8963124453166], [174.533119244347, -36.89631088766], [174.533109821874, -36.8963088703179], [174.533100605699, -36.8963063942205], [174.533091596906, -36.8963034575512], [174.533082796655, -36.8963000620978], [174.533074203787, -36.8962962060724], [174.533065818338, -36.8962918912775], [174.533057639169, -36.8962871168264], [174.533049668523, -36.8962818826902], [174.533041906402, -36.8962761888689], [174.533034350578, -36.8962700362927], [174.533027002138, -36.8962634231448], [174.5330198611, -36.8962563503264], [174.533012928605, -36.8962488187243], [174.533006191503, -36.8962409565023], [174.532999618301, -36.8962330966716], [174.532993208237, -36.8962252572695], [174.532986961275, -36.8962174364938], [174.532980876329, -36.8962096361611], [174.532974955624, -36.8962018553414], [174.532969196917, -36.8961940940638], [174.532963601329, -36.8961863523138], [174.532958168861, -36.8961786300913], [174.532952899531, -36.8961709282976], [174.53294779218, -36.8961632451449], [174.532942849089, -36.8961555824064], [174.532938067994, -36.8961479392102], [174.53293345002, -36.8961403155416], [174.532928995164, -36.8961327114007], [174.532924703427, -36.8961251267876], [174.532920573706, -36.8961175626179], [174.532916608208, -36.8961100170603], [174.532912804725, -36.8961024919461], [174.53290916436, -36.8960949863597], [174.53290559378, -36.8960874348044], [174.532901141587, -36.8960791780376], [174.53289556194, -36.8960700443663], [174.532888854822, -36.8960600328892], [174.53288101913, -36.8960491445216], [174.532872054845, -36.8960373783622], [174.532861961969, -36.8960247344107], [174.532850741625, -36.8960112126523], [174.53283839271, -36.8959968140022], [174.532824916329, -36.8959815375445], [174.532810311361, -36.8959653832932], [174.532794577825, -36.8959483521491], [174.532777715704, -36.8959304432104], [174.53275972614, -36.8959116573634], [174.532740607995, -36.8958919937208], [174.532720362392, -36.8958714522675], [174.532698988228, -36.8958500339186], [174.532676485469, -36.8958277368712], [174.532652854172, -36.8958045638278], [174.532628095405, -36.8957805120699], [174.532602209225, -36.8957555843003], [174.532576537794, -36.8957306195022], [174.53255228924, -36.895706376365], [174.532529463562, -36.8956828548897], [174.532508060756, -36.895660055077], [174.532488080805, -36.8956379760268], [174.532469524845, -36.8956166186264], [174.532452390631, -36.8955959829054], [174.532436680387, -36.8955760679345]]}, "properties": {"OBJECTID": 3243, "TRACKNAME": "Waitakere Tramline Walk", "CONDITIONSOFUSE": "Waitakere North Regional Park", "STATUS": "Temp Closed", "WEBLINK": "https://www.aucklandcouncil.govt.nz/en/parks-recreation/find-park-beach/park-detail/3407.html", "VALIDATIONSTATE": 3, "created_user": "AC_owner", "last_edited_user": "AC_owner", "last_edited_date": 1789875254325, "created_date": 1789875254325, "PARK_SAPSITEID": null, "TRACK_ID": null, "KAURIDIEBACK_TRACK": null, "KAURIDIEBACK_MITIGATED": null, "SegmentID": null, "GlobalID": "76f8462b-4d2f-4e24-8e31-a3aae4a434ec", "Shape__Length": 523.7472894714377}}]}