{"type": "FeatureCollection", "features": [{"type": "Feature", "id": 696, "geometry": {"type": "MultiLineString", "coordinates": [[[174.517282592486, -36.8617835499067], [174.517281666731, -36.8618383328517]], [[174.517282592486, -36.8617835499067], [174.517282747166, -36.8617744106975], [174.51728606312, -36.8616783169816], [174.517346940323, -36.8616186132251], [174.517451666809, -36.8615066665025], [174.517478333262, -36.8614766662552], [174.51750000031, -36.8614433334637], [174.517521666892, -36.8614083331312], [174.517549999526, -36.8613799998657], [174.517568332912, -36.8613433330838], [174.517569999548, -36.861303333132], [174.517583333691, -36.8612683328335], [174.517591666638, -36.8612316666632], [174.517626666172, -36.8612049996108], [174.517653333593, -36.8611750002136], [174.517685000183, -36.8611433334194], [174.517733333312, -36.8611316661834], [174.517776667053, -36.8611166664006], [174.517816666752, -36.8610966668962], [174.517858333619, -36.8611033330824], [174.517885000345, -36.8611350002854], [174.517929999799, -36.8611283331107], [174.5179583333, -36.861099999738], [174.517988333706, -36.8610716666989], [174.518016666962, -36.8610383333906], [174.518046666215, -36.8610016662421], [174.518091667212, -36.8609800001138], [174.518115000318, -36.8609450000183], [174.518146667066, -36.8609149997424], [174.518173333293, -36.860881666962], [174.518186666646, -36.8608449999654], [174.518199999542, -36.8608066663313], [174.518213332888, -36.8607700002329], [174.518234999635, -36.860733333128], [174.51825666638, -36.8606966669205], [174.518269999664, -36.860659999915], [174.518276666432, -36.8606233333514], [174.518271667072, -36.8605866662076], [174.518233333172, -36.8605633335296], [174.518191666803, -36.8605450000719], [174.518150000009, -36.860524999963], [174.51813492178, -36.8605187171122], [174.518109999915, -36.8605083334641], [174.518068332925, -36.8604916666121], [174.518018332954, -36.8604849996793], [174.517973333028, -36.8604799994964], [174.517926666895, -36.8604733332057], [174.517883333506, -36.8604583334835], [174.517836667128, -36.8604549995427], [174.517805000408, -36.8604249997294], [174.517778333304, -36.8603950000501], [174.517731666551, -36.8603900003319], [174.517684999712, -36.8603933329043], [174.517643333579, -36.8603750001499], [174.51759833382, -36.8603616666121], [174.517558332804, -36.8603449999367], [174.517454388072, -36.8603134054623], [174.517309089539, -36.8602988899515], [174.517180000213, -36.8602983333288], [174.517134999635, -36.8603166667244], [174.517088332966, -36.8603249998876], [174.517038333743, -36.8603383331364], [174.516989999887, -36.86033666696], [174.516931666828, -36.8603483335435], [174.516886666878, -36.8603516661578], [174.516839999925, -36.8603500002763], [174.516795000262, -36.8603499995681], [174.516750000377, -36.8603399998944], [174.516700000321, -36.860336666591], [174.516655000125, -36.8603616663696], [174.5166133332, -36.8603800002893], [174.516565000461, -36.8603966669893], [174.516516666866, -36.8604099994951], [174.516466666582, -36.8604150002088], [174.516423332862, -36.8604249995871], [174.516381666251, -36.8604450000643], [174.516339999911, -36.860461666338], [174.516295000167, -36.8604800003086], [174.516261667146, -36.860514999652], [174.516223333534, -36.8605366665547], [174.51619833381, -36.860566666894], [174.516178333018, -36.8606033331142], [174.516138333143, -36.8606233329736], [174.516063332988, -36.860616666887], [174.516016666586, -36.8606133331329], [174.515968333616, -36.8606066666044], [174.515921667157, -36.8605983328869], [174.515874999459, -36.8606083331326], [174.515828333204, -36.8606150000573], [174.515790000537, -36.8606366668094], [174.515743333793, -36.8606366662368], [174.515698333643, -36.8606400002082], [174.515651666505, -36.8606383329623], [174.515615443879, -36.8606504073561], [174.515606666828, -36.8606533333888], [174.515564999483, -36.8606716669493], [174.515521667017, -36.8606833335285], [174.515503333136, -36.8607166667282], [174.515512346265, -36.8607298389529], [174.515525000253, -36.8607483333342], [174.515564999968, -36.8607699997378], [174.515605000438, -36.8607899994757], [174.515639999861, -36.8608133331715], [174.515671666262, -36.8608400002868], [174.515656667018, -36.8608766666272], [174.515636666638, -36.8609116670117], [174.515611666545, -36.8609416663326], [174.515571666705, -36.8609583336199], [174.515536666545, -36.8609850000818], [174.515501666709, -36.861008333245], [174.515460000306, -36.8610316666843], [174.515423333516, -36.8610550003509], [174.515393333286, -36.8610833336507], [174.515368333426, -36.8611149995603], [174.515353333621, -36.8611500001291], [174.515328333359, -36.8611800002946], [174.515293333752, -36.8612050000364], [174.515253333709, -36.8612266662458], [174.51521166635, -36.8612466663269], [174.515171666261, -36.8612633334844], [174.515121666438, -36.8612683336318], [174.515073333886, -36.8612699999488], [174.515033333763, -36.8612916669871], [174.514995000155, -36.8613116668558], [174.514963378652, -36.8613243151607], [174.514919736583, -36.861318960301], [174.514885000349, -36.8612983334742], [174.514836667025, -36.8612966664205], [174.514791666437, -36.8613000000578], [174.514746666595, -36.8613016670263], [174.514705000549, -36.8613233335568], [174.514648333353, -36.8613149997199], [174.514603333903, -36.8613083334177], [174.514559999778, -36.8613249995979], [174.514511666457, -36.8613233333134], [174.514466666282, -36.8613133336839], [174.514424999814, -36.8613283335529], [174.514378333702, -36.8613383331955], [174.514341667188, -36.8613599998859], [174.514298333791, -36.8613700002941], [174.514268333016, -36.8613983333206], [174.514231666442, -36.8614199999781], [174.514198333295, -36.8614449997996], [174.514161667036, -36.8614683330742], [174.514136666557, -36.8614999996381], [174.514121667237, -36.8615350000495], [174.514134999691, -36.8615733333098], [174.514170000152, -36.8615966665223], [174.514191666988, -36.8616283333739], [174.51418833389, -36.8616683328948], [174.514198333302, -36.861704999609], [174.514211666948, -36.8617433328438], [174.514226666831, -36.8617783331937], [174.514253333434, -36.8618100003217], [174.514290598469, -36.8618545707787], [174.514338333865, -36.8618933336431], [174.514383332852, -36.8619066666166], [174.514409999547, -36.8619383328052], [174.514440000157, -36.8619699997658], [174.514473333182, -36.8619999999716], [174.514474978446, -36.8620011751283], [174.514508333185, -36.8620249997278], [174.514545000547, -36.8620466665718], [174.514590000079, -36.8620466663215], [174.514636666927, -36.8620483330782], [174.514681666482, -36.8620383329403], [174.514720000113, -36.8620516669136], [174.514748332825, -36.8620833334209], [174.514771666972, -36.8621149996394], [174.514813333414, -36.8621333333898], [174.514853332926, -36.8621516667416], [174.5149966668, -36.8621533332289], [174.515029999601, -36.862126666548], [174.515064999706, -36.862101666876], [174.51509999977, -36.8620766662929], [174.515119999959, -36.8620433335455], [174.515151666463, -36.8620149998009], [174.515183333343, -36.8619883335865], [174.515193332917, -36.8619499995146], [174.515218333492, -36.8619200002755], [174.515236666628, -36.8618866662301], [174.515261666783, -36.8618550003452], [174.515266667014, -36.861818333559], [174.515286667048, -36.8617849998842], [174.515328333553, -36.8617649997865], [174.515368333112, -36.8617450001994], [174.515404999506, -36.8617233331959], [174.515444999795, -36.861706666858], [174.515481666495, -36.8616816665432], [174.515524999485, -36.861665000042], [174.515561666916, -36.8616433329775], [174.515603333335, -36.8616283336129], [174.515648332847, -36.8616149998283], [174.515684999845, -36.8615916669911], [174.515730000216, -36.8615916663008], [174.515761666978, -36.8616183333807], [174.515801666492, -36.8616416663409], [174.515835000221, -36.8616683328693], [174.515903333665, -36.8616466664896], [174.515926666459, -36.8616100001776], [174.515965000287, -36.8615866667235], [174.516009999473, -36.8615816669178], [174.516049999857, -36.8615616661913], [174.516093333067, -36.8615466670249], [174.516138333406, -36.8615466661805], [174.51618333336, -36.8615449995835], [174.516226667147, -36.8615649998413], [174.51627333351, -36.8615750000745], [174.516321666833, -36.8615666666902], [174.516371666251, -36.8615733334362], [174.516406666265, -36.8615966668898], [174.51644499975, -36.8616183335175], [174.516491666141, -36.8616099997024], [174.516538333057, -36.8616083333311], [174.516581666884, -36.8615916664362], [174.516626666919, -36.8615766665356], [174.516673332985, -36.8615716668386], [174.516711666235, -36.8615966666663], [174.516744999544, -36.8616249995836], [174.516775000158, -36.8616533335653], [174.516823333849, -36.861659999748], [174.516870000366, -36.8616566666094], [174.516918332962, -36.8616633336686], [174.516966667236, -36.8616633332184], [174.517011666948, -36.8616649995935], [174.517048333711, -36.8616866665694], [174.517107473103, -36.8617029655911], [174.517128639363, -36.8617087994797], [174.517163174674, -36.8617449246384], [174.517193564426, -36.8617714841454], [174.517226667227, -36.8617783328996], [174.517282592486, -36.8617835499067]]]}, "properties": {"OBJECTID": 696, "TRACKNAME": "Waitoru Reserve Track", "CONDITIONSOFUSE": "Waitakere North Regional Park", "STATUS": "Temp Closed", "WEBLINK": "https://www.aucklandcouncil.govt.nz/en/parks-recreation/find-park-beach/park-detail/3407.html", "VALIDATIONSTATE": 3, "created_user": "AC_owner", "last_edited_user": "AC_owner", "last_edited_date": 1789875254325, "created_date": 1789875254325, "PARK_SAPSITEID": null, "TRACK_ID": null, "KAURIDIEBACK_TRACK": null, "KAURIDIEBACK_MITIGATED": null, "SegmentID": null, "GlobalID": "7644bf19-7486-44e9-8423-56cdab0fc085", "Shape__Length": 1022.7068125709245}}]}