{"type": "FeatureCollection", "features": [{"type": "Feature", "id": 2315, "geometry": {"type": "LineString", "coordinates": [[174.428715852491, -36.8314613907411], [174.428663396578, -36.831477660279], [174.428425534368, -36.8316513076092], [174.428250164221, -36.8318511326538], [174.428094510211, -36.8320920618898], [174.427857728311, -36.8324810784147], [174.427545616006, -36.8329200364941], [174.427441170383, -36.832971702715]]}, "properties": {"OBJECTID": 2315, "TRACKNAME": "Waitea Road", "CONDITIONSOFUSE": "Muriwai Regional Park", "STATUS": "Open", "WEBLINK": "https://www.aucklandcouncil.govt.nz/en/parks-recreation/find-park-beach/park-detail/220.html", "VALIDATIONSTATE": 3, "created_user": "AC_owner", "last_edited_user": "AC_owner", "last_edited_date": 1789875254325, "created_date": 1789875254325, "PARK_SAPSITEID": null, "TRACK_ID": null, "KAURIDIEBACK_TRACK": null, "KAURIDIEBACK_MITIGATED": null, "SegmentID": null, "GlobalID": "5645ef58-e590-461b-b7f9-0ce436210386", "Shape__Length": 206.0140156060266}}, {"type": "Feature", "id": 3241, "geometry": {"type": "LineString", "coordinates": [[174.42876184795, -36.8312298119154], [174.428718945358, -36.8312263983996], [174.428713829665, -36.8313613139966], [174.428715852491, -36.8314613907411]]}, "properties": {"OBJECTID": 3241, "TRACKNAME": "Waitea Road", "CONDITIONSOFUSE": null, "STATUS": "Open", "WEBLINK": null, "VALIDATIONSTATE": 3, "created_user": "AC_owner", "last_edited_user": "AC_owner", "last_edited_date": 1789875254325, "created_date": 1789875254325, "PARK_SAPSITEID": null, "TRACK_ID": null, "KAURIDIEBACK_TRACK": null, "KAURIDIEBACK_MITIGATED": null, "SegmentID": null, "GlobalID": "e9dc614d-3c0e-4fd6-b7d9-82b33ab30707", "Shape__Length": 29.92654243319824}}]}