{"type": "FeatureCollection", "features": [{"type": "Feature", "id": 578, "geometry": {"type": "LineString", "coordinates": [[174.520735424452, -37.0045798715618], [174.520736554919, -37.0046010749473], [174.520837513411, -37.0047241679383], [174.521082298037, -37.0049501816911], [174.521245212116, -37.0052016441449], [174.521484631019, -37.0056392645243], [174.521912529791, -37.0061773567014], [174.521931633743, -37.0062279840819], [174.521997218902, -37.0064999826264], [174.522102094543, -37.0067786879709], [174.522110974438, -37.0068215776434], [174.52209370828, -37.0072040721426], [174.522081139979, -37.0072636505759], [174.521946007796, -37.0074397416459], [174.521760434134, -37.0077031896507], [174.521606219415, -37.0079701831815], [174.521476352841, -37.0081207429652], [174.521451803055, -37.0081352180012], [174.521411572262, -37.0081456216711], [174.521162025061, -37.0081819727399], [174.520946918366, -37.0081666489186], [174.520906588509, -37.0081692659939], [174.520861593742, -37.0081910244975], [174.520673095369, -37.0083169888138], [174.520257356953, -37.0084911303635], [174.519620793302, -37.0085175635957], [174.519557614385, -37.0085495504916], [174.519042305169, -37.0088795810553], [174.51897897573, -37.0089085500389], [174.518794704561, -37.0089173534324], [174.5186141065, -37.0088684409274], [174.518231754938, -37.0088653296014], [174.517535742259, -37.0090420649066], [174.517509239782, -37.0090539141273], [174.517492317518, -37.0090722026811], [174.517468658123, -37.0091558173713], [174.517457305407, -37.009233767405], [174.517480678683, -37.0093505543447], [174.517460312609, -37.0093957472744], [174.517377295994, -37.0094950654496], [174.517276153918, -37.0095787424962], [174.517194811831, -37.0096396324532], [174.517053244137, -37.009719481665], [174.516948904296, -37.009764450124], [174.516261911292, -37.0099448664415], [174.516209586769, -37.0099728821179], [174.516081909591, -37.0100906529136], [174.516031988649, -37.0101214229857], [174.515774878085, -37.0101939225907], [174.515484773793, -37.0103068901822], [174.515017177324, -37.0104425841202], [174.51487164041, -37.010492529445], [174.514826580291, -37.0105400291806], [174.514606158656, -37.0108738921582], [174.51435226596, -37.0111512253539], [174.514324669616, -37.011208831536], [174.514167202626, -37.0116466455851], [174.51413188468, -37.0116889731597], [174.514001249047, -37.0117921955907], [174.513946691275, -37.0118199233021], [174.513698347013, -37.0118995805362], [174.513538670676, -37.012040380812], [174.51344563143, -37.0120909527145], [174.5133484768, -37.0121255780029], [174.513086641131, -37.0121796183041], [174.512969354448, -37.0122895647454], [174.512937268737, -37.012310723023], [174.512549247594, -37.0124108798593], [174.512252342631, -37.0125295868242], [174.512188955714, -37.0125633121006], [174.512119478251, -37.012616962771], [174.512093043611, -37.0126538946079], [174.511993070714, -37.0129173363391], [174.511941467536, -37.0130987964477], [174.511921845812, -37.0131346859992], [174.511876080922, -37.0131700433582], [174.51170054735, -37.0132664352371], [174.511523645028, -37.0133470886306], [174.511497662523, -37.0133824732611], [174.511449602855, -37.0135102484538], [174.511432090292, -37.0135306348139], [174.511398387264, -37.0135507677112], [174.511157257248, -37.0136557279398], [174.510820195609, -37.0137397719534], [174.510494107323, -37.0136939885293], [174.510310829928, -37.0136173539083], [174.510284040758, -37.0136211020097], [174.510249647102, -37.0136392964496], [174.510149156648, -37.0137088620237], [174.510117534504, -37.0137432905903], [174.510056350452, -37.0139020585716], [174.510031226557, -37.0140399429368], [174.510001506155, -37.0140744914871], [174.509879149723, -37.0141768289069], [174.509850503146, -37.0142122560958], [174.509810055096, -37.014289178547], [174.509738456345, -37.0144925516807], [174.509525178751, -37.0148375182628], [174.509470763471, -37.0148913904004], [174.509271721581, -37.0150162811487], [174.509071102319, -37.0151256703153], [174.508633500599, -37.0153018342893], [174.508463754594, -37.0153849790653], [174.5083560106, -37.0154164630176], [174.508224473028, -37.0154059668081], [174.508095842045, -37.0154259443392], [174.508048240609, -37.0154401958458], [174.50802190379, -37.0154719878268], [174.507994811664, -37.0155650904804], [174.508003170329, -37.0157366380817], [174.507981500476, -37.0158157549122], [174.507931314509, -37.0158596306682], [174.507658939799, -37.0160307797723], [174.507588281325, -37.0160562665047], [174.507398054965, -37.0161070950624], [174.507213189758, -37.0160936157227], [174.507153026895, -37.0161047455094], [174.506983298419, -37.0162020392225], [174.506839064285, -37.01637910324], [174.506795172551, -37.0164161835], [174.506594238347, -37.0165020201437], [174.506396418001, -37.0165577207089], [174.506332573033, -37.0165685453027], [174.506200935726, -37.0165650426399], [174.506162087095, -37.0165751892884], [174.505970739149, -37.0167082603344], [174.505806546429, -37.0168737506694], [174.505748733716, -37.0169117373134], [174.505668108585, -37.0169363398769], [174.505388734692, -37.0169451937207], [174.50514935086, -37.0170490380812], [174.505120915151, -37.0170725275412], [174.5051045495, -37.0171038859364], [174.505033452227, -37.0173528133696], [174.505014529623, -37.0173924515744], [174.504704640075, -37.0176688071468], [174.504650148198, -37.0176957005477], [174.504457474264, -37.0177390021254], [174.504132405997, -37.0177587619367], [174.504092094943, -37.0177677546925], [174.504046490124, -37.017791028893], [174.50388196435, -37.017895472111], [174.503696015295, -37.0180558902888], [174.503403888224, -37.0182819742178], [174.503093739735, -37.0184806231822], [174.502586656418, -37.0188808926367], [174.502504758599, -37.0189694512454]]}, "properties": {"OBJECTID": 578, "TRACKNAME": "Walker Ridge Track", "CONDITIONSOFUSE": "Waitakere South Regional Park", "STATUS": "Temp Closed", "WEBLINK": "https://www.aucklandcouncil.govt.nz/en/parks-recreation/find-park-beach/park-detail/212.html", "VALIDATIONSTATE": 3, "created_user": "AC_owner", "last_edited_user": "AC_owner", "last_edited_date": 1789875254325, "created_date": 1789875254325, "PARK_SAPSITEID": null, "TRACK_ID": null, "KAURIDIEBACK_TRACK": null, "KAURIDIEBACK_MITIGATED": null, "SegmentID": null, "GlobalID": "00584a99-f6e5-4657-b80d-03f1cb75f3db", "Shape__Length": 2707.4763107612434}}, {"type": "Feature", "id": 1101, "geometry": {"type": "LineString", "coordinates": [[174.5292780464, -37.001745441414], [174.529165280244, -37.0018311350595], [174.529092126335, -37.0018623090912], [174.52904148141, -37.0018732370886], [174.528836767611, -37.0018463102492], [174.528352066721, -37.0018137505058], [174.527959449896, -37.0018771239973], [174.52769253252, -37.0019119275861], [174.52763573367, -37.0019489292449], [174.527346645524, -37.0022197664885], [174.527170711668, -37.0023484095355], [174.52696314457, -37.0024800102007], [174.526831611887, -37.0026305701808], [174.526779814454, -37.0026749432512], [174.526592132667, -37.0028074231348], [174.526354435512, -37.0029160833198], [174.526245569799, -37.0029554125071], [174.525883914136, -37.0030169027588], [174.525532957941, -37.0030278416567], [174.525225217232, -37.0030046847084], [174.525116402613, -37.0030134202644], [174.525017981422, -37.0030456826881], [174.524882590059, -37.0031276520448], [174.524654419473, -37.0031918578572], [174.524603701972, -37.0031879756628], [174.524464603181, -37.0031417385551], [174.524435492979, -37.0031399042001], [174.524398820453, -37.0031482531322], [174.52408699759, -37.0032949607247], [174.523928616033, -37.0033822448135], [174.523870200282, -37.0034329750443], [174.523807662798, -37.0035294477972], [174.523764200147, -37.0035647260426], [174.523642842275, -37.0036229974789], [174.523509738413, -37.0036535948028], [174.523473720129, -37.0036688394222], [174.523273117021, -37.0038795913194], [174.523239011986, -37.0039000481743], [174.523188239886, -37.0039171045283], [174.522830634503, -37.0040208611148], [174.522768754901, -37.0040304073373], [174.522720154062, -37.0040154736233], [174.522424005545, -37.0038732901398], [174.522228553803, -37.0038409691971], [174.522152499313, -37.0038368250922], [174.521932648684, -37.0038879034316], [174.521725557681, -37.0039910602181], [174.521665340354, -37.0040135279926], [174.521439574565, -37.0040678450274], [174.52128462169, -37.0040775922581], [174.5212211419, -37.004107799196], [174.521144406617, -37.0041687589598], [174.521079402541, -37.0043074633145], [174.520886326091, -37.0044327385074], [174.520749019981, -37.0045594078524], [174.520735424452, -37.0045798715618]]}, "properties": {"OBJECTID": 1101, "TRACKNAME": "Walker Ridge Track", "CONDITIONSOFUSE": "Waitakere South Regional Park", "STATUS": "Temp Closed", "WEBLINK": "https://www.aucklandcouncil.govt.nz/en/parks-recreation/find-park-beach/park-detail/212.html", "VALIDATIONSTATE": 3, "created_user": "AC_owner", "last_edited_user": "AC_owner", "last_edited_date": 1789875254325, "created_date": 1789875254325, "PARK_SAPSITEID": null, "TRACK_ID": null, "KAURIDIEBACK_TRACK": null, "KAURIDIEBACK_MITIGATED": null, "SegmentID": null, "GlobalID": "eba7eb49-b053-4d5d-b682-6a32f7a0ea3d", "Shape__Length": 893.0775656439724}}]}