{"type": "FeatureCollection", "features": [{"type": "Feature", "id": 2511, "geometry": {"type": "LineString", "coordinates": [[174.561681751743, -36.9049049568531], [174.561528992042, -36.9048139444697], [174.561479567092, -36.9047596651309], [174.561456212626, -36.9047449103601], [174.561248860267, -36.904671488765], [174.561022770279, -36.9046143212643], [174.560991430737, -36.9045960118036], [174.560972626114, -36.904567685707], [174.560942951769, -36.9044735587057], [174.560918628182, -36.9042470772908], [174.560918738095, -36.9040018328899], [174.560934355872, -36.9039327003957], [174.561009580749, -36.9038403406286], [174.561021847281, -36.9037967787759], [174.560984335739, -36.9037157073582], [174.56076063311, -36.9033651411621], [174.560686442056, -36.9029969625211], [174.560654840845, -36.9029112253859], [174.56066794929, -36.9028472816835], [174.560663289857, -36.9028113875072], [174.560549386522, -36.9026694409713], [174.560526599209, -36.9026301434343], [174.560499650113, -36.9024140710382], [174.5605240777, -36.9022154140552], [174.560580304864, -36.9021243857619], [174.560601338645, -36.9020583188833], [174.560608208082, -36.9020076621267], [174.560599917374, -36.9019676062813], [174.560558852065, -36.9018899705091], [174.560490772078, -36.9018194949127], [174.560438107908, -36.9017895403819], [174.560247291362, -36.9017059396162]]}, "properties": {"OBJECTID": 2511, "TRACKNAME": "Walker Kauri Track", "CONDITIONSOFUSE": "Waitakere North Regional Park", "STATUS": "Temp Closed", "WEBLINK": "https://www.aucklandcouncil.govt.nz/en/parks-recreation/find-park-beach/park-detail/3407.html", "VALIDATIONSTATE": 3, "created_user": "AC_owner", "last_edited_user": "AC_owner", "last_edited_date": 1789875254325, "created_date": 1789875254325, "PARK_SAPSITEID": null, "TRACK_ID": null, "KAURIDIEBACK_TRACK": null, "KAURIDIEBACK_MITIGATED": null, "SegmentID": null, "GlobalID": "3bde796c-5449-45e1-befc-7c6da88be5c8", "Shape__Length": 422.568321682909}}]}