{"type": "FeatureCollection", "features": [{"type": "Feature", "id": 181, "geometry": {"type": "LineString", "coordinates": [[174.477214686425, -36.9854891598115], [174.477467382365, -36.9855072523697], [174.477683942754, -36.9855188303606], [174.47797858564, -36.9855139917331], [174.478141971312, -36.9854878177046], [174.478215342073, -36.9854216814124], [174.478308756144, -36.9853258749915], [174.478352229511, -36.9852754792051], [174.478388019252, -36.9852379423892], [174.4784413097, -36.9852001695425], [174.478527822028, -36.9851529962557], [174.478616504281, -36.9851326023671], [174.478670356139, -36.9851203579978], [174.478734529636, -36.9851073270158], [174.478794958151, -36.985104564099], [174.478899566171, -36.9851209814801], [174.478983336173, -36.985130654851], [174.479080655201, -36.9851414212257]]}, "properties": {"OBJECTID": 181, "TRACKNAME": "Watchmans Road", "CONDITIONSOFUSE": null, "STATUS": "Open", "WEBLINK": null, "VALIDATIONSTATE": 3, "created_user": "AC_owner", "last_edited_user": "AC_owner", "last_edited_date": 1789875254325, "created_date": 1789875254325, "PARK_SAPSITEID": null, "TRACK_ID": null, "KAURIDIEBACK_TRACK": null, "KAURIDIEBACK_MITIGATED": null, "SegmentID": null, "GlobalID": "826fa753-0acc-41eb-8d19-16fe2929f213", "Shape__Length": 184.20850042384967}}]}