{"type": "FeatureCollection", "features": [{"type": "Feature", "id": 51, "geometry": {"type": "LineString", "coordinates": [[175.14700578268, -37.0643471978106], [175.147030043934, -37.0644430309278], [175.147043616501, -37.064515561781], [175.147043219003, -37.0645951951691], [175.147040889678, -37.0647044338295], [175.147045293563, -37.0648083683258], [175.147072659747, -37.0648790992275], [175.14709916595, -37.0649097577183], [175.147123308675, -37.0649319781606], [175.147156813083, -37.0649539659777], [175.147176507488, -37.0649612159479], [175.14720377161, -37.0649657061687], [175.147231251977, -37.0649662990305], [175.147258022914, -37.064963669216], [175.14729961599, -37.0649586259667], [175.14734413137, -37.0649535207653], [175.1473910187, -37.0649439924726], [175.147435288254, -37.0649505089101], [175.14747749132, -37.0649587210743], [175.147514192401, -37.064970034067], [175.14756153723, -37.0649982601467], [175.147585292512, -37.0650306627169], [175.147597774958, -37.0650601330872], [175.147599265816, -37.0650850799526], [175.147595374702, -37.065113395869], [175.147591015949, -37.0651327076719], [175.147569334462, -37.06522008984], [175.147568499377, -37.0652427175375], [175.147572902423, -37.0652752182754], [175.147583303934, -37.0653074661625], [175.14760218995, -37.0653538363007], [175.147620002367, -37.0653780909773], [175.147639168299, -37.0653988963528], [175.147661300445, -37.06541840426], [175.147687992656, -37.0654400917214], [175.147712550005, -37.0654562660962], [175.147798982352, -37.0655046301416], [175.147830154123, -37.065522451139], [175.147859819761, -37.0655379110776], [175.147891636814, -37.0655510969141], [175.148010011037, -37.065589554132], [175.148074134884, -37.0656217209444], [175.148102797178, -37.0656522409977], [175.148111672621, -37.0656770270254], [175.148112762174, -37.0656961139593], [175.148109883203, -37.0657343884787], [175.148090647123, -37.0657748880365], [175.148058643429, -37.0657977469521], [175.14802993767, -37.0658234932259], [175.147970587776, -37.0658600960335], [175.147929929639, -37.065876370289], [175.147893285588, -37.0658934099836], [175.147672754058, -37.0659548600427], [175.147613376564, -37.0659765383378], [175.147576565964, -37.0659992408542], [175.147525142174, -37.066034564292], [175.147505321632, -37.0660575448714], [175.14749262959, -37.0660816580965], [175.147486393859, -37.0660974258949], [175.147482229628, -37.0661188521259], [175.147482322115, -37.0661432655365], [175.147483578633, -37.0661686762857], [175.147488702162, -37.0661880416528], [175.147501614004, -37.0662107988877], [175.147768187329, -37.0665942143196], [175.147785770306, -37.0666226819939], [175.147798676952, -37.066633686881], [175.147819054405, -37.0666447997724], [175.147847408416, -37.0666599950631], [175.14787814301, -37.0666730653151], [175.14813157532, -37.0667755434311], [175.148195142361, -37.0668106583472], [175.148236088067, -37.0668328625042], [175.148299984712, -37.0668613201064], [175.148506207005, -37.0669419591231], [175.148759536346, -37.0670475020099], [175.149086361699, -37.0672274899476], [175.149116385552, -37.0672552091809], [175.149133014374, -37.0672825223034], [175.149145315703, -37.0673079310979], [175.14915111017, -37.0673382975917], [175.14914929808, -37.0673745069269], [175.149138158901, -37.0674062078002], [175.149116531336, -37.0674344937559], [175.149084748111, -37.0674623869835], [175.149049849931, -37.0674839197078], [175.149004387327, -37.0674993441129], [175.14897103372, -37.0675058699136], [175.148798351537, -37.0675349738936], [175.148768057768, -37.0675431205222], [175.148738471767, -37.0675560219703], [175.148701357651, -37.0675723674573], [175.148655527396, -37.0675942964619], [175.148614697581, -37.0676124847371], [175.148352055093, -37.0677445286938], [175.148295744969, -37.067773316762], [175.14824121522, -37.0677898695138], [175.148175057686, -37.0678060741367], [175.148103248457, -37.0678256616977], [175.148016706771, -37.0678592332692], [175.147951566691, -37.067883999311], [175.14794726533, -37.0678866097709]]}, "properties": {"OBJECTID": 51, "TRACKNAME": "Waterline Road Track", "CONDITIONSOFUSE": "Hunua Ranges Regional Park", "STATUS": "Open", "WEBLINK": "https://www.aucklandcouncil.govt.nz/en/parks-recreation/find-park-beach/park-detail/213.html", "VALIDATIONSTATE": 3, "created_user": "AC_owner", "last_edited_user": "AC_owner", "last_edited_date": 1789875254325, "created_date": 1789875254325, "PARK_SAPSITEID": null, "TRACK_ID": null, "KAURIDIEBACK_TRACK": null, "KAURIDIEBACK_MITIGATED": null, "SegmentID": null, "GlobalID": "36b9a374-5752-434b-9361-791d7fe14ed2", "Shape__Length": 628.3164586956492}}, {"type": "Feature", "id": 2113, "geometry": {"type": "LineString", "coordinates": [[175.147982552256, -37.0678716630251], [175.147928370179, -37.067904531117], [175.147879666014, -37.067937426124], [175.147830983315, -37.0679750703519], [175.147781609775, -37.068019324283], [175.147737857399, -37.068060709507], [175.147700547985, -37.0680964623068], [175.147664107556, -37.0681446817769], [175.147621645036, -37.0681755799897], [175.147584585746, -37.0682022615683], [175.147544125272, -37.0682419377929], [175.147382634496, -37.068369641936], [175.147185512052, -37.0685316080829], [175.147135496007, -37.0685582898437], [175.147097671008, -37.0685749811764], [175.147058304812, -37.0685844813302], [175.147016483214, -37.0685842833361], [175.146974326603, -37.0685845690605], [175.14671284371, -37.0685936208029], [175.146325070136, -37.0685947289715], [175.146272113591, -37.0686068812471], [175.146238162378, -37.0686181667352], [175.146213823772, -37.0686285301637], [175.146193541684, -37.0686403613089], [175.146173200092, -37.0686564654913], [175.146157516574, -37.0686746303471], [175.146155039701, -37.0686952869552], [175.14615476735, -37.068727917429], [175.146161149011, -37.0687619956448], [175.146183132182, -37.0687869681312], [175.146209014668, -37.0688066337191], [175.146249658434, -37.0688288800658], [175.146309345239, -37.0688679506353], [175.146362243803, -37.0689004116649], [175.146400397919, -37.0689336803519], [175.146437604489, -37.0689760238234], [175.146465101011, -37.0690198228604], [175.146492445504, -37.0690578295537], [175.146518569621, -37.0690956330199], [175.146533892177, -37.0691352723284], [175.146536678158, -37.0691906041931], [175.146507494657, -37.0692393588631], [175.146478690689, -37.0692672695701], [175.146436607528, -37.0693008913118], [175.146386180052, -37.0693281660299], [175.146341580195, -37.0693519104488], [175.146293798228, -37.0693728915184], [175.146221361092, -37.0693938141765], [175.146166724658, -37.0694046449338], [175.146125942001, -37.0694201728027], [175.146095760375, -37.0694311376673], [175.146066328619, -37.0694507500408], [175.146051787159, -37.0694779158039], [175.146050344009, -37.069502528245], [175.146060213877, -37.0695318748066], [175.146076354159, -37.0695534471743], [175.146106069028, -37.0695738004664], [175.146154799471, -37.0695992261018], [175.14620371101, -37.0696250900548], [175.146239344772, -37.0696347734251], [175.146294644883, -37.0696462818159], [175.146455816052, -37.0696670491273], [175.146630395559, -37.0697082212719], [175.146690454931, -37.0697321527666], [175.146743735319, -37.0697514032698], [175.146792797651, -37.0697818065841], [175.146833327504, -37.0698175375981], [175.146932395341, -37.0698974247033], [175.146984081141, -37.0699343055358], [175.147026381334, -37.0699562332028], [175.147076828492, -37.0699667385829], [175.147260005936, -37.0700168297453], [175.14733016371, -37.0700331156021], [175.147383089588, -37.070044170787], [175.147436110581, -37.0700482304651], [175.147485498537, -37.0700558708293], [175.147625486872, -37.0700724508341], [175.147692822951, -37.070091969026], [175.147739633106, -37.0701182669503], [175.147769091991, -37.0701462671164], [175.147794599809, -37.0701845140494], [175.147804988835, -37.070246188172], [175.147792548348, -37.0702844195732], [175.147761785274, -37.0703218202699], [175.147729135149, -37.0703473495293], [175.147595585832, -37.0704362443679], [175.147481455103, -37.0704978487419], [175.147381349591, -37.0705466985391], [175.147345259285, -37.0705710913309], [175.147310688647, -37.0705951321357], [175.147223151295, -37.070683247285], [175.147171431184, -37.0707237311513], [175.147116872107, -37.0707508917447], [175.147091301804, -37.0707674512792], [175.146966458698, -37.0709222319205], [175.146954170949, -37.0709495462406], [175.146953488195, -37.0709660155698], [175.14696567724, -37.0709854512737], [175.146981888917, -37.0709939810141], [175.147005076947, -37.0709962378404], [175.147026496945, -37.0709956246301], [175.147046754173, -37.0709936625612], [175.147085397765, -37.0709860140492], [175.147528728268, -37.0708886249717], [175.147589952475, -37.0708848302316], [175.147623760095, -37.0708955376349], [175.147666416143, -37.0709292560761], [175.147682734762, -37.0709507438664], [175.147711198211, -37.0709896943257], [175.147729627603, -37.0710118468534], [175.147745544036, -37.0710202736854], [175.147758272372, -37.0710209443657], [175.147773643196, -37.0710184037607], [175.147789513576, -37.0710136370104], [175.147811094104, -37.0710055583375], [175.147842282307, -37.0709852107319], [175.147870393901, -37.0709562757951], [175.147908500193, -37.0709220136019], [175.147949753405, -37.070885279014], [175.147984350404, -37.0708534056189], [175.148033661007, -37.0708244020157], [175.148072757553, -37.0707945470044], [175.148123744938, -37.0707719569759], [175.14817621225, -37.0707587672649], [175.14835649282, -37.0707292290023], [175.148404787017, -37.0707208103606], [175.148468977341, -37.0707053532238], [175.148667008798, -37.0706747267526], [175.148717409032, -37.070672785908], [175.148773689966, -37.0706715856433], [175.148830502882, -37.0706736923373], [175.148883590295, -37.070683274864], [175.149013924483, -37.0706952785581], [175.149058231456, -37.0706886533246], [175.149103894032, -37.0706762624926], [175.149148789892, -37.0706618126494], [175.149285417556, -37.0706202574013], [175.149357781812, -37.0705995324658], [175.149406683853, -37.0705851631126], [175.14946944917, -37.070568244197], [175.149518747259, -37.0705491810797]]}, "properties": {"OBJECTID": 2113, "TRACKNAME": "Waterline Road Track", "CONDITIONSOFUSE": "Hunua Ranges Regional Park", "STATUS": "Open", "WEBLINK": "https://www.aucklandcouncil.govt.nz/en/parks-recreation/find-park-beach/park-detail/213.html", "VALIDATIONSTATE": 3, "created_user": "AC_owner", "last_edited_user": "AC_owner", "last_edited_date": 1789875254325, "created_date": 1789875254325, "PARK_SAPSITEID": null, "TRACK_ID": null, "KAURIDIEBACK_TRACK": null, "KAURIDIEBACK_MITIGATED": null, "SegmentID": null, "GlobalID": "bf6993b1-3d52-41a9-8a6c-c158b7b5b2ef", "Shape__Length": 880.0160153202489}}, {"type": "Feature", "id": 2482, "geometry": {"type": "LineString", "coordinates": [[175.151273694339, -37.0783396761474], [175.151277782794, -37.0783836373263], [175.151286358204, -37.0784235785937], [175.151403124181, -37.0786801201161], [175.151427981735, -37.0787103117144], [175.151467319506, -37.0787382397326], [175.15150168216, -37.0787584892012], [175.151542164808, -37.0787743916871], [175.151599697859, -37.0787937970224], [175.151799084925, -37.078858961999], [175.151831661482, -37.0788784957463], [175.151862800103, -37.078916792694], [175.151869199943, -37.0789537722188], [175.151862237184, -37.0790098665908], [175.151848161661, -37.0790264438237], [175.151827935804, -37.0790439077706], [175.151798318006, -37.0790609924203], [175.151766437869, -37.0790724582388], [175.151731022901, -37.0790814376531], [175.151505206643, -37.0791230914041], [175.151319158192, -37.0791422307062], [175.151075895492, -37.0791425081399], [175.150911284401, -37.0791512268459], [175.150865666614, -37.0791669612726], [175.15083962452, -37.0791812229683], [175.150810959277, -37.079202967611], [175.150797032776, -37.0792359719152], [175.150794847334, -37.0792605347398], [175.150795084822, -37.0793107303893], [175.150809284584, -37.079355057903], [175.150820622482, -37.0793880724988], [175.150898230751, -37.0795410766324], [175.1509120609, -37.0796101322869], [175.150918527975, -37.0796455244345], [175.15092269882, -37.079672504463], [175.150925703525, -37.0796916557102], [175.15092945819, -37.0797206260522], [175.150935479619, -37.0798063163625], [175.150942014042, -37.0798480701521], [175.150956845136, -37.079884878726], [175.150979529339, -37.0799316929512], [175.151001647787, -37.0799640612927], [175.151028171391, -37.0799938892718], [175.151050009218, -37.0800171239609], [175.151143625506, -37.0801148157748], [175.15128467135, -37.0802242283586], [175.151362716748, -37.0803070794771], [175.15137843046, -37.0803384914776], [175.151386000282, -37.0803830383634], [175.15138475634, -37.0804210038046], [175.151378611669, -37.0804654661103], [175.151364400015, -37.0804935547934], [175.151340176374, -37.0805315677399], [175.151301127417, -37.080564424157], [175.151268195825, -37.0805816949911], [175.151163565258, -37.0806296117588], [175.151057010202, -37.0806727236118], [175.150989018691, -37.0807059969335], [175.150913483752, -37.0807581351776], [175.150832342888, -37.0808097351914], [175.150743959868, -37.0808570323619], [175.150672034647, -37.0809015794807], [175.15059516497, -37.0809343647406], [175.150507780414, -37.0809728203304], [175.150439995267, -37.0809974916183], [175.150360322646, -37.0810178722172], [175.150285948961, -37.0810339027212], [175.150201364917, -37.0810492621789], [175.150114761443, -37.0810691915201], [175.150035231006, -37.0810938142386], [175.149937021213, -37.0811150264411], [175.149853703749, -37.081151334907], [175.149784413225, -37.0811844508538], [175.149759176477, -37.0812069442071], [175.149736259037, -37.0812299092131], [175.149716054273, -37.0812545283976], [175.149701163079, -37.0812749144604], [175.149573074812, -37.0815776256776], [175.149574246755, -37.0816131409465], [175.149584575735, -37.0816351335624], [175.149607703946, -37.0816590480931], [175.149643688006, -37.0816880829625], [175.149689361541, -37.0817065145865], [175.149750536844, -37.0817217900775], [175.149778180641, -37.0817247676278], [175.150065651992, -37.0817863282326], [175.150129408202, -37.0818109297764], [175.15017257071, -37.081842402862], [175.150195845167, -37.0818746692619], [175.150213566231, -37.0819054681993], [175.150216366912, -37.0819412873785], [175.150212500292, -37.0819668720609], [175.150148003373, -37.0823145747092], [175.150138476745, -37.0823568181137], [175.15011797909, -37.0823806315472], [175.150092588667, -37.0823992884098], [175.150068988335, -37.0824144159283], [175.150042746098, -37.0824296003701], [175.149765491327, -37.0825792530227], [175.149221075696, -37.0828823840031], [175.149160082332, -37.0829345188858], [175.149153032629, -37.0829649108602], [175.149149776947, -37.0829958108554], [175.14915494123, -37.0830304966907], [175.14916542079, -37.0830526398212], [175.14920365857, -37.0831029035888], [175.149230307867, -37.0831180482171], [175.149267802465, -37.0831300491058], [175.149301018948, -37.0831383422728], [175.149350116119, -37.0831461311986], [175.149646660507, -37.0831842397901], [175.149795749726, -37.0832154864967], [175.149844999986, -37.0832394409654], [175.149870058076, -37.0832607698795], [175.14988770077, -37.0832816204163], [175.149894082456, -37.0833032429663], [175.149896032374, -37.0833236841306], [175.149894916412, -37.0833466953995], [175.14989024296, -37.0833719972866], [175.149874383166, -37.083395140753], [175.149856189391, -37.0834157038909], [175.149839970253, -37.0834281199156], [175.149819210153, -37.0834466386756], [175.149681593136, -37.0835566991283], [175.149551552773, -37.0836598175599], [175.149453851429, -37.0837640618739], [175.149391624681, -37.0838454289347], [175.149341960754, -37.083931092491], [175.149312646899, -37.0840199560388], [175.149300135308, -37.0840788095595], [175.149295387355, -37.0841413075927], [175.14929827516, -37.0842148697909], [175.149314606522, -37.0842633676679], [175.14935769617, -37.0843320461753], [175.14939311358, -37.0843788100517], [175.149427121111, -37.0844075202942], [175.149466806264, -37.0844349198968], [175.149519648652, -37.0844597736976], [175.149558422779, -37.0844772219019], [175.149605666518, -37.084497418554], [175.149646902616, -37.084511622628], [175.149688498913, -37.0845246395109], [175.149726189538, -37.0845363843351], [175.149762559032, -37.0845439712801], [175.149810602872, -37.0845490843483], [175.149870966577, -37.0845558575936], [175.14994566166, -37.0845602349167], [175.150013819469, -37.0845665512938], [175.150501233452, -37.0846053595419], [175.150562636506, -37.0846194497966], [175.150617130119, -37.0846442010441], [175.150653791742, -37.0846649046907], [175.150689315025, -37.0847125945361], [175.150704075579, -37.0847512519574], [175.150709714043, -37.0847827837208], [175.150706484977, -37.0848165943147], [175.150692178581, -37.084846937771], [175.150674108295, -37.084875853428], [175.150647969073, -37.0849161991867], [175.150621431922, -37.0849544071714], [175.150456405797, -37.0851833276297], [175.150336413707, -37.0853427192701], [175.150312537518, -37.0853727946587], [175.150276728213, -37.0854033568764], [175.15024785443, -37.0854217885608], [175.15022122452, -37.0854423966254], [175.150049169235, -37.0855779027459], [175.15002531426, -37.0856270482551], [175.150015863111, -37.0856556542748], [175.150015478824, -37.0856806710784], [175.150021654006, -37.0857073173479], [175.150035071677, -37.0857382664348], [175.150057266606, -37.0857689121231], [175.150087166212, -37.0857931453262], [175.150130275095, -37.0858174633843], [175.150187491127, -37.0858286556205], [175.150257173161, -37.0858462729714], [175.150317338263, -37.0858658834496], [175.150357813255, -37.0858821829668], [175.150408547836, -37.0859060471524], [175.150445321978, -37.0859362840906], [175.150477150728, -37.0859615006144], [175.150519073452, -37.085994789509], [175.150551048337, -37.0860207964654], [175.150584303278, -37.0860439322241], [175.150626853722, -37.0860620145295], [175.150665647883, -37.086078939261], [175.150719265102, -37.0860933419079], [175.150771013796, -37.0861005413532], [175.15082267285, -37.0861021816584], [175.150881815057, -37.0860991258134], [175.150942814921, -37.086094531136], [175.151122489385, -37.0860781305274], [175.151192162203, -37.0860599947015], [175.151262105724, -37.0860351215474], [175.151311522043, -37.0860075746398], [175.15135808952, -37.0859807283174], [175.151395320611, -37.0859594769758], [175.151743594931, -37.0857391707744], [175.151800077215, -37.0857120812238], [175.151846891642, -37.0857035257061], [175.1518787367, -37.0857006674607], [175.151922901038, -37.0857117713273], [175.151977358373, -37.0857296279863], [175.15201471903, -37.0857531394339], [175.152048683334, -37.0857830483494], [175.152081675722, -37.085808423562], [175.152105905813, -37.0858298571321], [175.152327830062, -37.0860539716189], [175.152374395218, -37.0861065885825], [175.152394137142, -37.0861288245856], [175.152419402557, -37.0861769074194], [175.152440314629, -37.0862186343338], [175.152463647295, -37.0862655986446], [175.152473879851, -37.0863016252613], [175.152478569411, -37.0863520734647], [175.152476950565, -37.0863914786809], [175.152472696847, -37.0864538596619], [175.152475722461, -37.0865520595174], [175.152462202896, -37.0866269018597], [175.152437003055, -37.0867573023402], [175.152402417472, -37.0868895675935], [175.152396564778, -37.0870135332986], [175.152412488057, -37.0872196945857], [175.152409602958, -37.087321309361], [175.15239737162, -37.087360970355], [175.152371356331, -37.0874064874303], [175.152303459302, -37.0874933934985], [175.15214963824, -37.0876197212495], [175.15212343029, -37.0876934330156], [175.152114709032, -37.0878003179276], [175.152151258635, -37.0878555681986], [175.152241747028, -37.0879090911056], [175.15240743531, -37.088014530687], [175.152452331956, -37.0880717472446], [175.152464034797, -37.0881362718586], [175.152454973513, -37.0882112405214], [175.152444392476, -37.0882829922622], [175.152440600176, -37.0883425979969], [175.152449480622, -37.0884194940076], [175.15266494753, -37.089081833701], [175.152686862288, -37.0891629361618], [175.152746709018, -37.0892864747735], [175.152778248705, -37.0893745493641], [175.152858345022, -37.089465860817], [175.152972813388, -37.0895926611883], [175.153210565908, -37.0900221524348], [175.153345241745, -37.0902964360915], [175.153377690178, -37.090418957943], [175.153409331982, -37.0905570951437], [175.153456564993, -37.0908187723817], [175.153480791926, -37.0909616316395]]}, "properties": {"OBJECTID": 2482, "TRACKNAME": "Waterline Road Track", "CONDITIONSOFUSE": "Hunua Ranges Regional Park", "STATUS": "Open", "WEBLINK": "https://www.aucklandcouncil.govt.nz/en/parks-recreation/find-park-beach/park-detail/213.html", "VALIDATIONSTATE": 3, "created_user": "AC_owner", "last_edited_user": "AC_owner", "last_edited_date": 1789875254325, "created_date": 1789875254325, "PARK_SAPSITEID": null, "TRACK_ID": null, "KAURIDIEBACK_TRACK": null, "KAURIDIEBACK_MITIGATED": null, "SegmentID": null, "GlobalID": "1a351c82-edd9-450f-babb-75755aa5ebed", "Shape__Length": 2122.7782036430594}}]}