{"type": "FeatureCollection", "features": [{"type": "Feature", "id": 12534, "geometry": {"type": "LineString", "coordinates": [[175.027510219162, -36.7819087462153], [175.02748927683, -36.781903980224], [175.027471849481, -36.7818990425336], [175.027422640674, -36.7818861734604], [175.02741104971, -36.7818825413998], [175.027391940808, -36.7818765525925], [175.027359313444, -36.78186632735], [175.027352215638, -36.7818636281497], [175.027334123906, -36.7818606062449], [175.027318175515, -36.7818604689571], [175.027305078598, -36.7818718478255], [175.02722912616, -36.7819195126814], [175.027186861024, -36.7819412131424], [175.027177618819, -36.7819450300439], [175.027162127554, -36.7819530571659], [175.027157930284, -36.7819552314888], [175.027153127299, -36.7819577216834], [175.02714995229, -36.7819634820362], [175.02714543751, -36.7819716798523], [175.027144623713, -36.7819731565601], [175.0271435159, -36.781975126793], [175.027110083025, -36.7820356314935], [175.027084837578, -36.7820952404079], [175.027083117528, -36.7821017871393], [175.027083416163, -36.7821020217982], [175.027085802116, -36.7821021217292], [175.027087628331, -36.7821021987549], [175.027134901352, -36.7820980706183], [175.027148515392, -36.782096875023], [175.02717795912, -36.7821014736085], [175.027184390071, -36.7821031882344], [175.027181952515, -36.7821078490298], [175.027177164623, -36.7821143570307], [175.027137770013, -36.7821679069789], [175.027083040685, -36.7822128899507], [175.027072065445, -36.7822219117388], [175.027005861427, -36.7822634273427], [175.026999369489, -36.7822671387622], [175.026995078683, -36.7822695913777], [175.026985095192, -36.7822753001429], [175.026980863988, -36.7822777183932], [175.02694523726, -36.782298087031], [175.026902245955, -36.7823022295361], [175.026898250448, -36.7823033017077], [175.0268981857, -36.7823039914161], [175.026898461641, -36.7823043003701], [175.026903591278, -36.7823075730338], [175.026941063129, -36.7823314230187], [175.026989978321, -36.7823461963638], [175.027001319598, -36.7823496209119], [175.027001988816, -36.7823500565562], [175.027010238126, -36.7823554193622], [175.02701653914, -36.7823595165849], [175.027042823935, -36.7823766071996], [175.027046921255, -36.782380249869], [175.027046918987, -36.7823802913681], [175.02704099542, -36.7823825248588], [175.027009053127, -36.7823901428954], [175.026837985873, -36.782430939381], [175.026804208464, -36.7824389951363], [175.026796427191, -36.7824408501812], [175.026795672885, -36.7824412253669], [175.026795449459, -36.7824416338657], [175.026797382259, -36.7824436297814], [175.026802603881, -36.7824471613615], [175.026847186628, -36.7824773093352], [175.026861848625, -36.7824872226432], [175.026888751846, -36.7825054149729], [175.026946126874, -36.7825442128921], [175.026949080582, -36.7825471062373], [175.026949075742, -36.7825471351619], [175.026942504226, -36.7825484224963], [175.026933869137, -36.7825489599609], [175.026931766008, -36.7825490904492], [175.026912186783, -36.7825503056835], [175.026899414757, -36.7825510984332], [175.026775696651, -36.7825583762906], [175.026725285792, -36.7825726669203], [175.026718023836, -36.7825755631407], [175.026717939558, -36.7825761495307], [175.026719089246, -36.7825775972759], [175.026720040428, -36.782578400359], [175.026753626536, -36.7826067637194], [175.026758963518, -36.7826112712618], [175.026766373619, -36.7826175289732], [175.026771692256, -36.782622020604], [175.026790016968, -36.782637495696], [175.026866794774, -36.7826833915696], [175.026870664354, -36.7826866406468], [175.026870660771, -36.7826867173197], [175.026864743424, -36.7826886775973], [175.026857272226, -36.7826900965324], [175.026808794601, -36.7826992987692], [175.026750162095, -36.7827054951348], [175.026738202499, -36.7827067589275], [175.026729646537, -36.7827076636666], [175.026717691396, -36.78270892648], [175.026712296572, -36.7827094970294], [175.026637679253, -36.7827245174657], [175.02663763469, -36.7827245272384], [175.026632483366, -36.7827263446593], [175.026632454739, -36.7827264064366], [175.026636944454, -36.7827299721296], [175.02674594523, -36.7827923807718], [175.026753973822, -36.7827969776339], [175.026761820364, -36.7828014694406], [175.026769591846, -36.7828059192631], [175.026786051763, -36.7828153431647], [175.026790231814, -36.7828187230511], [175.02678470868, -36.7828204206321], [175.026776394585, -36.7828217448703], [175.026775959416, -36.7828218144784], [175.026707566105, -36.7828326945861], [175.02670651051, -36.7828328621963], [175.026609541705, -36.7828634795795], [175.026606082658, -36.7828651383678], [175.026588715451, -36.7828734650803], [175.026582855204, -36.7828762752124], [175.026567756379, -36.7828835132293], [175.026538086584, -36.7828977378075], [175.026532406507, -36.7829014750236], [175.026532512705, -36.782901805799], [175.026535946759, -36.7829033669361], [175.026650273167, -36.7829347094049], [175.026665766942, -36.782940082155], [175.026681612414, -36.7829455768953], [175.026687975719, -36.7829477839167], [175.026698641914, -36.7829514831826], [175.026702482302, -36.7829528156657], [175.026705748192, -36.7829539479341], [175.026711107097, -36.7829566921323], [175.026711094435, -36.7829567644533], [175.026706552034, -36.7829594088205], [175.026672885855, -36.7829727596737], [175.026572522255, -36.7829958268894], [175.02652082513, -36.7830077085112], [175.026516579978, -36.7830086208857], [175.026466551642, -36.7830193672285], [175.026458113473, -36.7830220653608], [175.026458007062, -36.7830225773185], [175.026459698049, -36.7830247089525], [175.026481001731, -36.7830432266357], [175.026526794433, -36.7830666366027], [175.026569601055, -36.78308851834], [175.02658385572, -36.7830996824372], [175.026612030826, -36.7831217432244], [175.026616219615, -36.783125284303], [175.026616745117, -36.7831281334165], [175.026610519007, -36.7831388344892], [175.026601896974, -36.783153354709], [175.026544022266, -36.783250823245], [175.026539004492, -36.7832602644123]]}, "properties": {"OBJECTID": 12534, "TRACKNAME": "Watters Glen Track ", "CONDITIONSOFUSE": "Te Aroha Reserve Accessway", "STATUS": "Open", "WEBLINK": null, "VALIDATIONSTATE": 3, "created_user": "AC_owner", "last_edited_user": "AC_owner", "last_edited_date": 1789875254325, "created_date": 1789875254325, "PARK_SAPSITEID": null, "TRACK_ID": null, "KAURIDIEBACK_TRACK": null, "KAURIDIEBACK_MITIGATED": null, "SegmentID": null, "GlobalID": "7459871e-d07b-4562-9303-d0ff2032dcf1", "Shape__Length": 334.8999049118909}}, {"type": "Feature", "id": 12713, "geometry": {"type": "LineString", "coordinates": [[175.027318175515, -36.7818604689571], [175.027331146057, -36.7818389362239], [175.027339134788, -36.7818134045678], [175.027446601628, -36.78176898784]]}, "properties": {"OBJECTID": 12713, "TRACKNAME": "Watters Glen Track ", "CONDITIONSOFUSE": "Te Aroha Reserve Accessway", "STATUS": "Open", "WEBLINK": null, "VALIDATIONSTATE": 3, "created_user": "AC_owner", "last_edited_user": "AC_owner", "last_edited_date": 1789875254325, "created_date": 1789875254325, "PARK_SAPSITEID": null, "TRACK_ID": null, "KAURIDIEBACK_TRACK": null, "KAURIDIEBACK_MITIGATED": null, "SegmentID": null, "GlobalID": "716d6986-2464-43d2-b51d-bb93566e6bdc", "Shape__Length": 16.36235019034997}}]}