{"type": "FeatureCollection", "features": [{"type": "Feature", "id": 564, "geometry": {"type": "LineString", "coordinates": [[174.540699063891, -36.8927274671524], [174.540698709248, -36.8927204320721], [174.540698248016, -36.8927131189502], [174.540697902961, -36.8927060026225], [174.540697720771, -36.8926991726201], [174.540697701809, -36.8926926469657], [174.540697823455, -36.8926864169391], [174.540698119547, -36.8926804911149], [174.540698567285, -36.8926748517616], [174.54069916685, -36.8926695078904], [174.540699940862, -36.8926644682218], [174.540700855299, -36.8926597151696], [174.540701944184, -36.8926552663198], [174.540703184895, -36.8926511129523], [174.540704577433, -36.8926472550669], [174.540706133017, -36.8926436925181], [174.540707840427, -36.8926404254516], [174.540709722103, -36.8926374535762], [174.540711744387, -36.8926347773285], [174.540713941117, -36.8926324052832], [174.540716278273, -36.8926303198542], [174.540718789876, -36.8926285386277], [174.540721441905, -36.8926270440175], [174.540723813818, -36.8926255710675], [174.540725553654, -36.8926239170279], [174.540726661233, -36.8926220728874], [174.540727147773, -36.8926200385005], [174.540727002237, -36.8926178230241], [174.540726224443, -36.8926154174468], [174.540724825792, -36.8926128306344], [174.540722806102, -36.8926100535756], [174.540720154337, -36.8926070954273], [174.540716870133, -36.8926039381665], [174.540712965254, -36.8926006086819], [174.540708428117, -36.8925970890962], [174.540703258724, -36.8925933794093], [174.540697468474, -36.8925894884869], [174.540691057187, -36.8925854073177], [174.540684002424, -36.8925811361926], [174.540676338024, -36.8925766836861], [174.54066803033, -36.8925720502347], [174.540659101418, -36.8925672175247], [174.540649551832, -36.8925622125899], [174.540639539907, -36.8925570964723], [174.540629541739, -36.892552106367], [174.540619579947, -36.8925472509942], [174.54060965453, -36.8925425303539], [174.540599765489, -36.8925379444462], [174.540589912824, -36.892533493271], [174.540580085315, -36.8925291769738], [174.540570305401, -36.8925249952638], [174.540560550643, -36.8925209484318], [174.540550843479, -36.892517036187], [174.540541161472, -36.8925132588202], [174.540531515841, -36.8925096161861], [174.540521917803, -36.8925061081391], [174.540512344922, -36.8925027349702], [174.540502808415, -36.892499496534], [174.540493308284, -36.8924963928305], [174.540483844709, -36.8924934328709], [174.540474406109, -36.8924905987782], [174.540465015102, -36.8924878992726], [174.540455649252, -36.8924853346453], [174.540446342033, -36.8924828954484], [174.540437225902, -36.8924804718003], [174.540428345011, -36.8924780270738], [174.540419699542, -36.8924755702803], [174.540411289312, -36.8924730924086], [174.540403114503, -36.8924706024699], [174.540395163715, -36.8924680915986], [174.540387459387, -36.8924655595037], [174.540379979441, -36.8924630244988], [174.540372734554, -36.8924604594046], [174.540365725088, -36.8924578822437], [174.540358951042, -36.8924552930162], [174.540352412237, -36.8924526827108], [174.540346108853, -36.8924500603389], [174.540340029489, -36.8924474170346], [174.540334196584, -36.892444752507], [174.540328587881, -36.8924420760585], [174.540323225818, -36.8924393873981], [174.540318087775, -36.8924366778055], [174.540313184972, -36.8924339471353], [174.54030851759, -36.8924312043987], [174.540304038217, -36.8924283240191], [174.540299733098, -36.8924251799835], [174.540295591376, -36.8924217904599], [174.54029160147, -36.8924181375712], [174.540287774781, -36.8924142301831], [174.540284111308, -36.8924100682959], [174.540280611052, -36.8924056519095], [174.540277274011, -36.8924009810239], [174.540274100187, -36.892396055639], [174.54027107818, -36.8923908668891], [174.540268230607, -36.8923854234946], [174.540265535213, -36.8923797347577], [174.540263002855, -36.8923737825103], [174.540260633712, -36.8923675757638], [174.540258427786, -36.8923611145182], [174.540256384895, -36.8923543897621], [174.540254505402, -36.8923474195182], [174.540252777725, -36.8923401859094], [174.540251224664, -36.8923327066673], [174.540249823419, -36.8923249640603], [174.540248575801, -36.8923170482015], [174.540247442004, -36.8923092119901], [174.540246422752, -36.8923014914714], [174.540245506646, -36.8922938777794], [174.540244704905, -36.8922863707688], [174.540244006308, -36.892278970585], [174.540243433295, -36.892271676937], [174.540242963427, -36.8922644901158], [174.540242596705, -36.8922574101214], [174.540242344346, -36.8922504368084], [174.540242206533, -36.892243579188], [174.540242182902, -36.8922368192377], [174.540242262598, -36.8922301751255], [174.540242456477, -36.8922236286833], [174.540242753681, -36.8922171980792], [174.540243165069, -36.8922108651451], [174.540243691002, -36.8922046479038], [174.540244331298, -36.8921985373437], [174.54024507474, -36.8921925336105], [174.540245932545, -36.8921866365586], [174.540246882457, -36.8921808554903], [174.540247690867, -36.8921752925848], [174.540248291548, -36.8921700027829], [174.540248684317, -36.8921649770731], [174.540248868995, -36.8921602064443], [174.540248845943, -36.892155708919], [174.540248603761, -36.8921514756313], [174.540248142268, -36.89214749757], [174.540247484265, -36.8921437924668], [174.540246606951, -36.8921403425899], [174.540245521907, -36.8921371658165], [174.540244217553, -36.8921342442695], [174.540242716506, -36.8921315866691], [174.540240985293, -36.8921292024632], [174.540239057206, -36.8921270731927], [174.54023690999, -36.8921252081598], [174.540234555045, -36.8921236162304], [174.540231992007, -36.8921222793818], [174.54022920984, -36.8921212067708], [174.540226219763, -36.8921203982518], [174.540223021774, -36.892119853825], [174.540219712863, -36.8921193739319], [174.540216433624, -36.8921186953532], [174.540213173203, -36.8921178362569], [174.540209942816, -36.8921167964976], [174.540206730884, -36.8921155581981], [174.540203537949, -36.8921141483923], [174.540200374688, -36.8921125399009], [174.540197230243, -36.8921107508919], [174.540194104253, -36.8921087633427], [174.540191008479, -36.8921066041418], [174.540187942379, -36.8921042462553], [174.540184895096, -36.8921017078512], [174.540181866629, -36.8920989889295], [174.540178856616, -36.8920960714677], [174.540175876639, -36.8920929733428], [174.540172926517, -36.8920896855437], [174.540169983993, -36.8920862173724], [174.540167071323, -36.8920825595268], [174.540164188507, -36.8920787120069], [174.540161324328, -36.8920746749581], [174.540158502128, -36.8920704931462], [174.540155780537, -36.8920662920025], [174.5401531601, -36.892062098561], [174.540150651672, -36.8920578946536], [174.540148255798, -36.8920537073143], [174.540145971933, -36.8920495095092], [174.540143789221, -36.8920453194064], [174.5401417187, -36.8920411278489], [174.540139749332, -36.8920369439938], [174.540137892155, -36.8920327586841], [174.540136147169, -36.8920285719199], [174.540134514554, -36.8920243927126], [174.540132982912, -36.8920202121962], [174.54013156346, -36.8920160302253], [174.540130256199, -36.8920118467999], [174.54012905009, -36.8920076710768], [174.540127956354, -36.8920035029105], [174.540126963408, -36.8919993244239], [174.540126094053, -36.8919951533487], [174.54012531445, -36.8919909811099], [174.540124647219, -36.891986816428], [174.540123914847, -36.8919827607546], [174.540123016725, -36.8919788334216], [174.540121987052, -36.8919750610265], [174.540120803028, -36.8919714258375], [174.540119476054, -36.8919679367206], [174.54011799473, -36.8919645848098], [174.540116370456, -36.891961378971], [174.540114603231, -36.8919583192043], [174.540112692875, -36.8919553964982], [174.540110628349, -36.8919526200096], [174.540108420692, -36.8919499805817], [174.540106058866, -36.8919474873712], [174.54010355409, -36.8919451402326], [174.540100906182, -36.8919429301547], [174.540098115324, -36.8919408661488], [174.540095170297, -36.8919389483602], [174.540092082138, -36.8919371676323], [174.540088851029, -36.8919355329763], [174.540085465569, -36.8919340355264], [174.540081937159, -36.8919326841483], [174.540078219475, -36.8919314073333], [174.540074265828, -36.8919301155497], [174.540070064818, -36.8919287999317], [174.540065616628, -36.8919274694907], [174.540060932295, -36.8919261150696], [174.5400560006, -36.8919247368141], [174.540050821723, -36.8919233437354], [174.540045406885, -36.8919219356879], [174.540039744503, -36.8919204947946], [174.54003384616, -36.8919190389325], [174.540027700636, -36.891917568247], [174.540021307749, -36.8919160737269], [174.54001467872, -36.8919145552265], [174.54000780251, -36.8919130219027], [174.540000678938, -36.891911464744], [174.539993319223, -36.891909883605], [174.539985712327, -36.8919082876424], [174.53997785825, -36.8919066768561], [174.539969767849, -36.8919050330781], [174.539961430268, -36.8919033744763], [174.53995290142, -36.8919016913122], [174.539944483677, -36.8918999526253], [174.539936221552, -36.8918981398111], [174.539928092788, -36.8918962621718], [174.539920119643, -36.8918943104055], [174.53991229126, -36.89189230268], [174.539904607276, -36.8918902209729], [174.539897068054, -36.8918880833068], [174.539889684451, -36.8918858715136], [174.539882445428, -36.8918835947501], [174.539875350986, -36.8918812530164], [174.539868412162, -36.8918788371557], [174.539861606881, -36.8918763654816], [174.539854957219, -36.8918738196806], [174.539848452318, -36.8918712179207], [174.539842103036, -36.891868542034], [174.539835887115, -36.8918658013225], [174.539829826814, -36.8918629864843], [174.539823911274, -36.8918601156873], [174.539818140314, -36.8918571799203], [174.539812524973, -36.8918541700265], [174.539806944195, -36.8918512047529], [174.539801376266, -36.8918483204355], [174.539795810148, -36.8918455262312], [174.53979024584, -36.8918428221399], [174.539784671943, -36.8918401992957], [174.539779111076, -36.8918376664192], [174.53977355202, -36.8918352236556], [174.539767983374, -36.8918328621392], [174.539762427758, -36.8918305905904], [174.539756873953, -36.8918284091547], [174.539751310558, -36.891826308966], [174.539745760193, -36.891824298745], [174.539740211638, -36.8918223786371], [174.539734653494, -36.8918205397762], [174.53972910838, -36.891818790883], [174.539723564895, -36.8918171230914], [174.539718023221, -36.891815545413], [174.539712472138, -36.8918140579929], [174.539706934085, -36.8918126605405], [174.539701397661, -36.8918113441898], [174.539695896524, -36.8918101085047], [174.539690497626, -36.8918089345899], [174.539685212366, -36.8918078313115], [174.539680040382, -36.8918067806468], [174.539674982038, -36.8918058006185], [174.539670026113, -36.891804891372], [174.539665183464, -36.8918040347392], [174.539660443236, -36.8918032488883], [174.539655816464, -36.8918025246625], [174.539651303151, -36.8918018620618], [174.539646903295, -36.8918012610863], [174.539642605858, -36.8918007308926], [174.539638421879, -36.8918002623241], [174.539634340138, -36.8917998555262], [174.539630371855, -36.8917995103534], [174.53962651721, -36.8917992358172], [174.539622764804, -36.8917990230516], [174.539619125856, -36.8917988719113], [174.539615600364, -36.8917987823961], [174.539612177293, -36.8917987636629], [174.539608844335, -36.8917987617892], [174.539605428319, -36.8917985356498], [174.53960189432, -36.8917980226017], [174.539598242338, -36.8917972226448], [174.539594483773, -36.8917961446452], [174.539590607407, -36.8917947887481], [174.539586624458, -36.8917931548081], [174.539582523527, -36.8917912339594], [174.539578304613, -36.8917890262018], [174.539573968078, -36.8917865495581], [174.5395695246, -36.8917837768488], [174.5395649635, -36.8917807352533], [174.539560295638, -36.8917774066036], [174.539555509974, -36.8917738000564], [174.539550606328, -36.8917699066002], [174.5395455961, -36.8917657351011], [174.539540468071, -36.8917612857043], [174.53953522206, -36.8917565493987], [174.539529869468, -36.89175153505], [174.539524398893, -36.8917462337923], [174.539518810699, -36.8917406636482], [174.539513302306, -36.8917351555655], [174.539508001467, -36.8917299242169], [174.539502885925, -36.8917249789044], [174.539497966719, -36.8917203104713], [174.539493232628, -36.8917159190632], [174.539488706273, -36.8917118134005], [174.539484376252, -36.8917079846174], [174.539480231529, -36.8917044418707], [174.539476294359, -36.8917011758581], [174.539472542304, -36.8916981868705], [174.539468986765, -36.8916954837739], [174.539465627561, -36.891693057557], [174.539462464692, -36.8916909082197], [174.539459498337, -36.8916890447735], [174.539456728317, -36.891687458207], [174.539454154813, -36.8916861575316], [174.539451766424, -36.8916851338813], [174.539449585588, -36.8916843869654], [174.539447590048, -36.8916839260859], [174.539445790843, -36.8916837420863], [174.539444073428, -36.8916837192728], [174.539442141042, -36.8916836091083], [174.539439993323, -36.89168339357], [174.539437618871, -36.891683063792], [174.539435029267, -36.8916826376515], [174.539432224148, -36.8916820971258], [174.539429203696, -36.8916814512263], [174.539425956873, -36.8916807091096], [174.539422494536, -36.8916798526078], [174.539418805647, -36.8916788908774], [174.539414912643, -36.8916778236277], [174.539410793087, -36.8916766511494], [174.53940644698, -36.8916753734426], [174.539401896758, -36.8916739902164], [174.539397119984, -36.8916725017615], [174.539392127696, -36.8916708989213], [174.539386909037, -36.8916691998637], [174.539381474865, -36.8916673864207], [174.53937582554, -36.8916654766149], [174.539369949483, -36.8916634525689], [174.539363892293, -36.8916613497467], [174.539357881427, -36.8916593184333], [174.539351962847, -36.8916574121152], [174.539346158991, -36.8916556305018], [174.539340458279, -36.8916539557158], [174.539334849853, -36.8916524059251], [174.53932935597, -36.8916509718279], [174.539323954373, -36.891649662726], [174.539318655919, -36.8916484604516], [174.53931347237, -36.8916473918933], [174.539308380745, -36.8916464303077], [174.539303392625, -36.8916455935723], [174.539298507829, -36.8916448726757], [174.539293726357, -36.891644267618], [174.53928904839, -36.8916437874104], [174.539284473746, -36.8916434230416], [174.539280002608, -36.891643183523], [174.539275634612, -36.891643050832], [174.539271370121, -36.8916430429912], [174.539267209135, -36.8916431600006], [174.539263140073, -36.891643383983], [174.53925911661, -36.8916436434291], [174.539255081024, -36.8916438579638], [174.539251033313, -36.891644027587], [174.539246984698, -36.8916441521535], [174.53924291274, -36.8916442319538], [174.539238828658, -36.8916442668427], [174.539234732452, -36.8916442568202], [174.539230624303, -36.8916442108975], [174.53922650385, -36.8916441110521], [174.539222371453, -36.8916439753065], [174.539218226752, -36.8916437856382], [174.539214070108, -36.8916435600698], [174.539209912378, -36.8916432804332], [174.539205731486, -36.8916429650418], [174.53920153847, -36.891642604739], [174.539197333331, -36.8916421995248], [174.539193116067, -36.891641749399], [174.539188897899, -36.8916412542165], [174.539184656388, -36.8916407142679], [174.539180402753, -36.8916401294078], [174.539176169566, -36.8916394451321], [174.539172020883, -36.8916384983649], [174.539167967742, -36.8916372799492], [174.539164010144, -36.8916357898853], [174.539160147906, -36.8916340191617], [174.539156381393, -36.8916319858011], [174.53915271024, -36.8916296717809], [174.53914913463, -36.8916270861125], [174.539145654562, -36.8916242287957], [174.539142270037, -36.8916210998306], [174.539138981055, -36.8916176992173], [174.539135776396, -36.8916140271011], [174.539132678498, -36.8916100831912], [174.539129675962, -36.8916058586218], [174.53912675775, -36.8916013625495], [174.539123946299, -36.8915965946836], [174.539121219353, -36.8915915643261], [174.539118587588, -36.8915862442978], [174.539116062765, -36.8915806614872], [174.539113622266, -36.8915748071737], [174.539111266271, -36.8915686903688], [174.539108829573, -36.8915624664452], [174.539106279599, -36.891556189907], [174.539103615988, -36.8915498427315], [174.539100827883, -36.8915434430868], [174.539097926321, -36.8915369818162], [174.539094900084, -36.891530459065], [174.539091749173, -36.8915238748331], [174.539088496205, -36.8915172378413], [174.539085107162, -36.8915105305028], [174.539081616063, -36.8915037704044], [174.539077988889, -36.8914969399593], [174.53907425966, -36.8914900567541], [174.539070405755, -36.8914831120683], [174.539066427176, -36.8914761059018], [174.539062335321, -36.8914690471205], [174.539058118612, -36.8914619178472], [174.539053788627, -36.8914547359592], [174.539049333787, -36.891447483579], [174.539044776891, -36.8914401784388], [174.539040084102, -36.8914328119631]]}, "properties": {"OBJECTID": 564, "TRACKNAME": "West Tunnel Mouth Track", "CONDITIONSOFUSE": "Waitakere North Regional Park", "STATUS": "Temp Closed", "WEBLINK": "https://www.aucklandcouncil.govt.nz/en/parks-recreation/find-park-beach/park-detail/3407.html", "VALIDATIONSTATE": 3, "created_user": "AC_owner", "last_edited_user": "AC_owner", "last_edited_date": 1789875254325, "created_date": 1789875254325, "PARK_SAPSITEID": null, "TRACK_ID": null, "KAURIDIEBACK_TRACK": null, "KAURIDIEBACK_MITIGATED": null, "SegmentID": null, "GlobalID": "0f53f409-05fb-4f16-abc6-b2ed1be5efa2", "Shape__Length": 234.91023990577986}}]}