{"type": "FeatureCollection", "features": [{"type": "Feature", "id": 65, "geometry": {"type": "LineString", "coordinates": [[175.247713991532, -37.0688995601951], [175.247803938025, -37.0688976385795], [175.247837816398, -37.0689061258267], [175.247869495048, -37.0689410521257], [175.24789010751, -37.0689702851053], [175.247908940916, -37.06899449585], [175.247938015107, -37.0690292011387], [175.247962723904, -37.0690630879509], [175.24798053306, -37.0690891746608], [175.248004369647, -37.06912475431], [175.248027426697, -37.0691571673541], [175.248046346533, -37.0691804932198], [175.2480713964, -37.0692099304212], [175.248095554504, -37.0692381137767], [175.248118031131, -37.0692676267988], [175.248134192567, -37.0692923748415], [175.248148322723, -37.0693199372227], [175.248170014105, -37.0693586577833], [175.248185375433, -37.0693844934673], [175.248207656849, -37.0694165336474], [175.248231000375, -37.0694567369506], [175.248247717567, -37.0694884951048], [175.248268758027, -37.0695280210809], [175.248287893078, -37.0695654832949], [175.248300750174, -37.0695918260848], [175.248315305443, -37.0696254006714], [175.248329575319, -37.069659593512], [175.248341609892, -37.0696851227534], [175.248356709065, -37.0697199757938], [175.248371278548, -37.0697551723364], [175.24838155789, -37.0697814378282], [175.248399009113, -37.0698159578592], [175.248415360371, -37.0698505528225], [175.248427675738, -37.0698852062994], [175.248436298551, -37.0699170728707], [175.248445180754, -37.0699592447183], [175.248450554652, -37.0699888747401], [175.248455245596, -37.0700243217055], [175.248459436709, -37.0700546500891], [175.248464101273, -37.0700773990692], [175.248471190022, -37.0701018775178], [175.24848717689, -37.0701378402531], [175.24850325364, -37.070161995025], [175.248519185867, -37.0701892528043], [175.24853977752, -37.0702169990044], [175.248558893403, -37.0702404742713], [175.248583775489, -37.0702699235466], [175.248600823926, -37.0703056498323], [175.248616972188, -37.0703345077082], [175.248626628743, -37.0703602442419], [175.248647970949, -37.0703894091586], [175.248672442529, -37.0704144771565], [175.248697160059, -37.0704566280105], [175.248713244239, -37.0704989245882], [175.248726610327, -37.0705443910124], [175.248734826363, -37.070577328736], [175.248750537338, -37.0706252651412], [175.248758339332, -37.0706521814149], [175.248765178954, -37.0706788816196], [175.248775832683, -37.0707178114142], [175.248782714555, -37.0707447992132], [175.24879047328, -37.070772914955], [175.248799759088, -37.0708013261765], [175.248809783002, -37.0708299757437], [175.248824024644, -37.0708708111925], [175.248839762218, -37.0709188822637], [175.248849692099, -37.0709591956657], [175.24885509883, -37.0709876444134], [175.248864048103, -37.071023317], [175.248871820613, -37.0710557043541], [175.248879704531, -37.0710861519266], [175.248892645345, -37.0711172155532], [175.248913572743, -37.0711418460297], [175.248949665612, -37.0711628181781], [175.248990035686, -37.0711785721043], [175.249022080571, -37.0711885357599], [175.249068052144, -37.0711909802205], [175.249104021211, -37.0711845389277], [175.249137973736, -37.0711726563372], [175.249170115862, -37.071158122386], [175.249204841946, -37.071142349766], [175.249251090721, -37.0711176345154], [175.249288804512, -37.0710979208404], [175.249322453463, -37.0710795730494], [175.249356494149, -37.0710600191665], [175.249388923866, -37.0710407571994], [175.249417740864, -37.0710191304203], [175.249445107827, -37.0710005773406], [175.249486096108, -37.0709820632111], [175.249524686874, -37.0709718589361], [175.249558657356, -37.0709670596375], [175.249602971088, -37.0709693551012], [175.249637199276, -37.0709763210928], [175.249680731276, -37.070986796601], [175.249711645272, -37.0709992148792], [175.249744726322, -37.0710099878181], [175.249778034506, -37.0710196929734], [175.24981602081, -37.0710270922907], [175.249854150181, -37.0710301989755], [175.249910413968, -37.0710338266888], [175.249960207257, -37.071033152083], [175.250006714693, -37.0710312780804], [175.25005263956, -37.0710306227785], [175.250088339519, -37.0710360105721], [175.250139755571, -37.0710434342814], [175.250190907827, -37.0710503042059], [175.250224403052, -37.0710572028264], [175.250269786707, -37.0710622084906], [175.250317926015, -37.0710615110535], [175.250352275273, -37.0710596333694], [175.25039087962, -37.0710563590948], [175.250428922725, -37.0710531224984], [175.250470062682, -37.0710496378433], [175.250505559454, -37.0710466298064], [175.250553415037, -37.0710424228219], [175.250587391021, -37.0710362892884], [175.250633447915, -37.0710241224144], [175.25067796865, -37.0710113538172], [175.250710018803, -37.0709990472627], [175.25074810642, -37.0709821018523], [175.25078017501, -37.0709643334121], [175.25081174889, -37.0709454297802], [175.250844767043, -37.0709293466394], [175.250877259867, -37.0709091908443], [175.250905614912, -37.0708898345935], [175.250935161653, -37.0708765480952], [175.250969962017, -37.0708598813256], [175.250998282539, -37.0708458250022], [175.251033950545, -37.0708273122222], [175.251073762474, -37.0708040252861], [175.251103459386, -37.0707863108048], [175.25113391559, -37.0707703122803], [175.25116370565, -37.0707561288779], [175.25119474219, -37.0707430213124], [175.251226371066, -37.0707275051917], [175.251263093349, -37.0707115588844], [175.251294139552, -37.0706999201316], [175.251326908714, -37.0706887353222], [175.251369333392, -37.0706712747604], [175.25139773826, -37.0706577935352], [175.251430482283, -37.0706423372956], [175.25146059043, -37.0706263633231], [175.251491723323, -37.0706085313518], [175.251523640273, -37.0705894497828], [175.251559194983, -37.0705716780162], [175.251592204551, -37.0705553154492], [175.251621755565, -37.0705421819122], [175.251658361637, -37.0705253544759], [175.251690387477, -37.0705099568677], [175.251727225588, -37.0704948914344], [175.251761872757, -37.0704783805566], [175.25179115315, -37.0704671266979], [175.25179581103, -37.0704652808093], [175.251830089056, -37.0704572035203], [175.251875411492, -37.0704574872364], [175.251913734329, -37.0704549748592], [175.25195129558, -37.0704537116351], [175.251989156103, -37.0704561017499], [175.252021654885, -37.0704582151808], [175.252067207603, -37.0704617208894], [175.25210063052, -37.0704638978555], [175.252145181057, -37.070466602443], [175.252188241312, -37.0704679744517], [175.252225204529, -37.0704677859649], [175.252276835589, -37.0704684183255], [175.252327633136, -37.0704655877115], [175.25236113243, -37.0704627432448], [175.252407185489, -37.070458831122], [175.252452853163, -37.0704548181546], [175.252484571719, -37.0704510882206], [175.252524867713, -37.0704426620709], [175.252570169042, -37.0704315902958], [175.252604790621, -37.0704233440329], [175.252655411414, -37.0704122612772], [175.252709435082, -37.0704017717462], [175.252768013902, -37.0703909072379], [175.252809440289, -37.0703826758102], [175.252856696167, -37.0703684845445], [175.252902288544, -37.0703554694465], [175.252938071788, -37.0703477147189], [175.252986838127, -37.0703404793092], [175.253037853203, -37.0703324621274], [175.253076071108, -37.0703290681541], [175.253124966494, -37.0703258137166], [175.253171651395, -37.0703280537724], [175.253206875745, -37.0703299168055], [175.253250865522, -37.070332676697], [175.253297628194, -37.0703383038876], [175.253334082588, -37.0703425858648], [175.253386382057, -37.070348324082], [175.253442035169, -37.0703571708967], [175.25348555425, -37.0703618863259], [175.253540876511, -37.0703641152683], [175.253587318329, -37.0703672610203], [175.253632533404, -37.0703696189573], [175.253670665265, -37.0703697773135], [175.253729669343, -37.0703622658728], [175.253775962597, -37.0703531755357], [175.253831655255, -37.0703428430277], [175.253888406047, -37.0703306428354], [175.253945515027, -37.0703199048274], [175.253982992857, -37.0703165877189], [175.254035283823, -37.0703167200981], [175.25408816528, -37.0703185625956], [175.254127217509, -37.0703159995863], [175.254180204942, -37.0703073676196], [175.25423353324, -37.0702916363899], [175.254272583351, -37.0702806467799], [175.254320446618, -37.0702668489432], [175.254364216874, -37.0702511822389], [175.254399413668, -37.0702418610541], [175.254443968545, -37.0702348403162], [175.254478184218, -37.070236064247], [175.25460254454, -37.070248317428], [175.254644028792, -37.0702530621158], [175.254680848789, -37.0702544978193], [175.254718942602, -37.0702571710214], [175.25475874908, -37.0702561526049], [175.254799788037, -37.0702519383704], [175.254832964971, -37.0702480899492], [175.254872106855, -37.070244758936], [175.25491178775, -37.0702413996332], [175.254952181903, -37.0702378194657], [175.254993606485, -37.0702337149908], [175.255047125279, -37.0702278393375], [175.255088671395, -37.0702232818979], [175.2551279931, -37.07021994738], [175.255167124245, -37.0702166344988], [175.255201694539, -37.0702176802393], [175.255246516724, -37.0702253803735], [175.255282979753, -37.0702352672968], [175.255326060608, -37.0702506250143], [175.255361777951, -37.0702645726649], [175.255391542212, -37.0702738479728], [175.255421960773, -37.0702839489786], [175.255454534505, -37.070295045401], [175.255496215346, -37.0703083207891], [175.255528608366, -37.0703235663315], [175.255562359973, -37.0703379749014], [175.255590822557, -37.0703500056795], [175.255626444885, -37.0703618822052], [175.25566846178, -37.0703705548154], [175.255710707664, -37.070374049938], [175.255760521315, -37.0703721828755], [175.255798395686, -37.0703689657969], [175.255852077377, -37.0703644115022], [175.255902933605, -37.0703605328023], [175.255940436636, -37.0703588278145], [175.255986461766, -37.0703589163382], [175.25602681199, -37.0703591669081], [175.256066719055, -37.0703588851537], [175.256108775239, -37.0703582560667], [175.256147393282, -37.0703592605506], [175.256188592053, -37.0703646139581], [175.256223852345, -37.0703695846848], [175.256257094587, -37.0703759096167], [175.256301740533, -37.0703879026027], [175.256340854961, -37.0704011003599], [175.25637082862, -37.070414778495], [175.256400933891, -37.0704294815306], [175.256435568477, -37.0704421787127], [175.256473551041, -37.0704566506906], [175.256523247975, -37.0704705752445], [175.256560525372, -37.0704809870133], [175.25659549768, -37.0704948313062], [175.256629528006, -37.0705114242743], [175.256661106953, -37.0705261352412], [175.256698878777, -37.0705278045438], [175.256735474141, -37.0705246926223], [175.256771688389, -37.070521623994], [175.256810460155, -37.0705183264218], [175.256869257712, -37.0705133408211], [175.256914940339, -37.0705094610366], [175.25697192037, -37.0705046271462], [175.257032355827, -37.0704995021348], [175.25707367438, -37.0704959937683], [175.257117745812, -37.070492396927], [175.25715583104, -37.0704894637963], [175.257195081872, -37.0704898069973], [175.257236293333, -37.07049103212], [175.257281165138, -37.0704935664319], [175.257317188464, -37.0704958185846], [175.257353110314, -37.0704988206872], [175.257399634249, -37.0705054872224], [175.257434535769, -37.0705104914548], [175.257477680584, -37.0705124367208], [175.257524197181, -37.0705120286177], [175.257561293092, -37.0705113853183], [175.257609220064, -37.0705118876139], [175.257656664153, -37.070518482451], [175.257692347355, -37.0705251930885], [175.257738172292, -37.0705363519606], [175.25778619017, -37.070548640663], [175.257832888323, -37.0705566285309], [175.257869710159, -37.0705566031969], [175.257923788704, -37.0705521575658], [175.257981503136, -37.0705459212945], [175.258026172484, -37.0705412492651], [175.258087146352, -37.0705360774116], [175.258149219653, -37.0705308124865], [175.25819673068, -37.0705267712085], [175.258260383831, -37.0705209263768], [175.258323581752, -37.070514522402], [175.258368382415, -37.0705108661429], [175.258423010875, -37.070506382772], [175.258477073823, -37.070501792988], [175.258518270759, -37.0704987370546], [175.2585734474, -37.070498325785], [175.258623301157, -37.0705023598702], [175.258659258504, -37.0705084521496], [175.258704428845, -37.0705214255952], [175.258743018648, -37.0705404275141], [175.258769762762, -37.0705589611569], [175.258806189077, -37.070583889366], [175.258847112229, -37.0706079928683], [175.258878291138, -37.0706251261796], [175.258916692989, -37.0706484034946], [175.258940069778, -37.0706747429015], [175.258960697706, -37.070701305916], [175.258993690171, -37.0707253531931], [175.259024434856, -37.0707407373221], [175.259063780644, -37.070759814852], [175.259095836545, -37.0707739032297], [175.259132534358, -37.0707939504579], [175.259161023475, -37.0708242840252], [175.259181832228, -37.0708493565088], [175.259205137531, -37.070880861322], [175.259226372445, -37.0709119549651], [175.259241469114, -37.0709370732024], [175.259260926489, -37.0709742119764], [175.259277799239, -37.0710140766815], [175.259289512014, -37.0710456852321], [175.259310477858, -37.0710900682481], [175.259324848508, -37.0711388488194], [175.259335566849, -37.0711767399263], [175.259350429284, -37.0712223838221], [175.259364168973, -37.0712608932752], [175.259371953581, -37.0712889897464], [175.259380207722, -37.0713306319019], [175.259390997113, -37.0713747041468], [175.259400988269, -37.0714070394478], [175.25941059025, -37.0714489983837], [175.259414859399, -37.0714799106273], [175.259420050296, -37.0715191417635], [175.259424393971, -37.0715465017048], [175.259429888305, -37.0715796617193], [175.259434267937, -37.0716127798911], [175.259438662824, -37.0716460329575], [175.259442984402, -37.0716787106279], [175.25944716283, -37.0717103546014], [175.259451850366, -37.0717402044189], [175.259467752246, -37.0717769062188], [175.259484730437, -37.071800988184], [175.259511663429, -37.0718251057278], [175.259544786905, -37.0718402821509], [175.259578620917, -37.0718483252354], [175.259619051389, -37.0718478430364], [175.259660369316, -37.0718484614445], [175.259699300525, -37.0718463495151], [175.259735220166, -37.0718382656887], [175.259768235046, -37.0718331121715], [175.259800927515, -37.0718242967489], [175.259834434691, -37.0718145104745], [175.259883144338, -37.0718000543794], [175.259916832519, -37.0717861369581], [175.259948633582, -37.0717719220426], [175.259982569256, -37.0717599014987], [175.260015710514, -37.0717502933846], [175.260057909683, -37.0717408190062], [175.26009718905, -37.0717371772162], [175.260136499987, -37.0717338412325], [175.260182923667, -37.0717299009898], [175.260221902185, -37.0717267335383], [175.260262489893, -37.0717288977646], [175.260295543821, -37.0717337741438], [175.260328855771, -37.071737870529], [175.260376491418, -37.0717417929418], [175.260424364455, -37.0717461343913], [175.260461882099, -37.0717486905434], [175.260511938803, -37.0717527109372], [175.260558480606, -37.0717580510532], [175.260593430789, -37.0717620169898], [175.260642456826, -37.0717665526623], [175.260690615466, -37.0717702847277], [175.260724614478, -37.0717740344411], [175.260768075523, -37.0717797847052], [175.260812038381, -37.0717865257584], [175.260860131939, -37.0717952608699], [175.260896766071, -37.0718036647462], [175.260940152666, -37.0718156168879], [175.260978950889, -37.0718279629414], [175.261014485562, -37.0718391094895], [175.261050506267, -37.0718510939215], [175.261086118568, -37.0718629599581], [175.261123349291, -37.0718744075837], [175.261162824175, -37.0718849201684], [175.261216090701, -37.0718977922908], [175.26126090928, -37.0719068330371], [175.261302710254, -37.0719153815691], [175.261343638993, -37.071925614015], [175.261381270701, -37.0719373062565], [175.261419905242, -37.0719524671496], [175.261452724045, -37.0719626740076], [175.261485611102, -37.0719732851116], [175.261523907106, -37.0719914355273], [175.261551704758, -37.072006776064], [175.261591252272, -37.0720246502364], [175.261629860125, -37.0720423170116], [175.261665740757, -37.0720616940805], [175.261699823942, -37.0720841696398], [175.261728949939, -37.0721109034828], [175.261749505365, -37.0721342229111], [175.261770035914, -37.0721585972593], [175.261792296758, -37.0721904819578], [175.261813463781, -37.0722211347988], [175.261829481444, -37.0722461720275], [175.261847293909, -37.0722778621997], [175.26186487381, -37.0723077813665], [175.261883981141, -37.0723353552056], [175.261904251913, -37.0723619605434], [175.261933969046, -37.0723930630722], [175.261962265289, -37.0724164690908], [175.26199180527, -37.0724393376658], [175.262022777397, -37.0724577898767], [175.262057862343, -37.072471197781], [175.262087717337, -37.0724811996499], [175.262118713027, -37.0724928740734], [175.262157739006, -37.0725068105775], [175.262198044317, -37.0725206505575], [175.262243422472, -37.0725310951904], [175.262282002547, -37.0725360818534], [175.262336433877, -37.0725411986094], [175.262390416622, -37.0725429532699], [175.262432759699, -37.0725443712679], [175.262490664154, -37.072543734859], [175.262548569369, -37.0725389617238], [175.262593882659, -37.0725351138214], [175.262650325205, -37.07253032349], [175.262700193442, -37.0725260912042], [175.262734422416, -37.0725231848067], [175.262779567337, -37.0725193490594], [175.262828003955, -37.0725153873792], [175.262866041714, -37.0725134807183], [175.262916204401, -37.0725142355808], [175.262971234105, -37.0725141314664], [175.263013370813, -37.0725154180103], [175.263061525444, -37.0725189959684], [175.26309918672, -37.0725225849595], [175.263132413766, -37.0725275924195], [175.263174105777, -37.0725351059382], [175.263210464857, -37.0725455871872], [175.263249238114, -37.0725589603727], [175.263281977927, -37.0725698982261], [175.263322705774, -37.0725828104902], [175.263360485578, -37.0725956798868], [175.263398096009, -37.0726100395478], [175.2634454642, -37.0726299087224], [175.263481768135, -37.0726483668963], [175.263516707531, -37.072673132741], [175.263541424042, -37.0726930107808], [175.263570740162, -37.0727211915187], [175.263592710006, -37.0727564971111], [175.263606126556, -37.0727897309437], [175.26362124489, -37.0728385867848], [175.263637494301, -37.0728876553484], [175.263652505326, -37.0729245808423], [175.26367360519, -37.0729714749244], [175.263697560222, -37.0730160433641], [175.263716081253, -37.0730461876035], [175.263743567395, -37.0730827937626], [175.263772442611, -37.0731188326472], [175.263795604844, -37.0731477076263], [175.263825826934, -37.0731855412783], [175.263855114179, -37.073223329687], [175.263884300874, -37.0732630306324], [175.263905392091, -37.0732888268536], [175.26393909876, -37.0733182664933], [175.263976315469, -37.0733435745088], [175.264002212023, -37.0733611407661], [175.264041860152, -37.0733812202091], [175.264080812618, -37.0733987083469], [175.264118935656, -37.0734155363838], [175.264150962427, -37.0734266858786], [175.264196642441, -37.0734366643534], [175.264235258502, -37.0734447319167], [175.264275708817, -37.0734554771596], [175.264328315541, -37.073467666504], [175.264366930969, -37.0734798707175], [175.264419558434, -37.0734950246969], [175.2644686142, -37.0735095889729], [175.264501296492, -37.0735200859714], [175.264541976253, -37.0735381628147], [175.264578776529, -37.0735630730332], [175.264603172868, -37.0735944747748], [175.264614990604, -37.0736212050481], [175.264629917765, -37.0736602048541], [175.264638902434, -37.0736918919766], [175.264650078744, -37.0737208785805], [175.264665960908, -37.0737462334236], [175.264679206023, -37.0737725488899], [175.264685573854, -37.0738081432947], [175.26469568772, -37.0738388445162], [175.264702722511, -37.0738737953121], [175.264711753186, -37.0739100508234], [175.264731459747, -37.0739546911824], [175.264749011054, -37.0740009859262], [175.264759778762, -37.0740366494816], [175.264775808585, -37.0740839736602], [175.264792508386, -37.0741322673857], [175.26480564356, -37.0741703821357], [175.264815570265, -37.0741966798675], [175.264825363976, -37.0742234217455], [175.264835914334, -37.0742502663281], [175.26484683914, -37.0742772209167], [175.264857034353, -37.0743042254922], [175.264867484069, -37.0743303329793], [175.264881439086, -37.0743676479792], [175.26490021963, -37.0744204712079], [175.264909194172, -37.0744480308289], [175.264917836311, -37.0744757590224], [175.264930179535, -37.0745174938356], [175.264938598793, -37.0745464249312], [175.264946337236, -37.0745770453352], [175.264954059888, -37.0746075128297], [175.264961944951, -37.0746366343767], [175.264973167645, -37.0746796433122], [175.26497977036, -37.0747072482414], [175.264991489904, -37.074745786556], [175.265004278516, -37.0747798072684], [175.265016136735, -37.0748124217999], [175.265028457979, -37.0748568156698], [175.265038876241, -37.0749007592286], [175.265044685534, -37.0749308036409], [175.265070422324, -37.0750179599508], [175.265088149386, -37.0750783078733], [175.265154776215, -37.0752026619258], [175.265172554224, -37.0752358437607], [175.265262881029, -37.0753107572363], [175.265358659568, -37.0753996843456], [175.26545994882, -37.0755046418171], [175.265525719319, -37.075600193138], [175.265570825759, -37.075677987509], [175.265612399589, -37.0758062699943], [175.265670340145, -37.0759763031101], [175.265673925259, -37.0759868223272], [175.265718948926, -37.0761189511023], [175.265746069822, -37.0761886688773], [175.265781176816, -37.0763248489549], [175.265799251041, -37.0764178338233], [175.265795044472, -37.0765298604958], [175.265790060753, -37.0766232635348], [175.265777319262, -37.0767168139448], [175.265795058023, -37.0767911216723], [175.26582074188, -37.0768714969769], [175.26588485005, -37.0769386971691], [175.265963921957, -37.0769869502864], [175.266065716432, -37.0770161070863], [175.266151066488, -37.07701447556], [175.266259322943, -37.0769999644965], [175.266374969133, -37.0769728722839], [175.266465487152, -37.0768840542996], [175.266508523794, -37.0767650414658], [175.26656670773, -37.076633298333], [175.266623966872, -37.0764704711646], [175.266699335553, -37.0763943833371], [175.26683222031, -37.0762827026289], [175.266843423587, -37.07627965942], [175.266964419956, -37.0761715972485], [175.26704052874, -37.0761203773091], [175.267169098174, -37.0760059497731], [175.2672738353, -37.0758733159903], [175.267452388831, -37.0755800811753], [175.267578617677, -37.0754196096175], [175.267707555595, -37.0753176151411], [175.267806289013, -37.0752804069628], [175.267916675879, -37.0753011740433], [175.267996302997, -37.0753680762105], [175.268039928695, -37.0754264852944], [175.268087332487, -37.075467680552], [175.268171526809, -37.0755145517439], [175.268261404271, -37.0755383488176], [175.268379012491, -37.0755309947857], [175.268524359238, -37.0754969820844], [175.26864953916, -37.0754084553968], [175.268749009692, -37.0752962584423], [175.268893068753, -37.0751464375794], [175.269026583272, -37.0750243691777], [175.269208543764, -37.0749838905503], [175.269392279587, -37.0749984342127], [175.269612120684, -37.0750673068619], [175.269809383311, -37.0751458220381], [175.27008853505, -37.0752777081963], [175.270182173868, -37.0753400020025], [175.270300780097, -37.0754082434049], [175.270870137632, -37.0755255122266], [175.271080817557, -37.0756947480355], [175.271355016899, -37.0757898203848], [175.271648863873, -37.0758245022751], [175.271941929456, -37.0757934352024], [175.272474666277, -37.075590386754], [175.272990401897, -37.0753522072904], [175.273541329692, -37.0751641623901], [175.274129144348, -37.0750701452829], [175.274706090196, -37.0749530999673], [175.275133442519, -37.0748834980036], [175.275570726095, -37.0748594325748], [175.275825523864, -37.0747603442562], [175.276095733324, -37.0746993521376], [175.276669587073, -37.0746945965702], [175.276717646731, -37.0746923037232], [175.276733341218, -37.074690938854], [175.276733813074, -37.0746909207796], [175.277175239461, -37.0747087674549], [175.27761525023, -37.074672160001], [175.278502529114, -37.074705786351], [175.27938890186, -37.0746298873528], [175.279823679451, -37.0747040079384], [175.280265142015, -37.0746554664328], [175.280708834553, -37.0746318175552], [175.281144355161, -37.0746946625545], [175.281571769683, -37.0747902415823], [175.281784810545, -37.0748398007453], [175.282006474465, -37.0748404547647], [175.282430036961, -37.0747272527279], [175.282863517239, -37.0746455095626], [175.283303411152, -37.0745826303019], [175.283678340869, -37.0743949902926], [175.28370079307, -37.0743804444509], [175.284102086704, -37.074174126369], [175.284488004266, -37.0739993310226], [175.284679345422, -37.0739097740612], [175.284891804279, -37.0738646551958], [175.285330948689, -37.0738380846404], [175.285755792149, -37.0737405546567], [175.286174837171, -37.0736349968398], [175.286502574333, -37.0733979962858], [175.286867985148, -37.0732043294451], [175.287298559498, -37.0731221576313], [175.287353452386, -37.0731272269108], [175.28741845563, -37.0731442407067], [175.287800013457, -37.0733127528365], [175.288427911409, -37.0737029301669], [175.289176861374, -37.0739444765884], [175.289533407079, -37.0740381652236], [175.290620084269, -37.0741268903268], [175.2913048719, -37.0741319428014], [175.291486509825, -37.0741010029499], [175.291908181346, -37.0740837076088], [175.292310897686, -37.0741947812054], [175.292699183539, -37.07420555942], [175.293190104327, -37.0742143501465], [175.293397577891, -37.0742834806697], [175.295501970906, -37.0744438990175], [175.295715614291, -37.0743391880399], [175.295700284431, -37.0734526073978]]}, "properties": {"OBJECTID": 65, "TRACKNAME": "Whakatīwai Track", "CONDITIONSOFUSE": "Whakatiwai Regional Park", "STATUS": "Temp Closed", "WEBLINK": "https://www.aucklandcouncil.govt.nz/en/parks-recreation/find-park-beach/park-detail/3425.html", "VALIDATIONSTATE": 3, "created_user": "AC_owner", "last_edited_user": "AC_owner", "last_edited_date": 1789875254325, "created_date": 1789875254325, "PARK_SAPSITEID": null, "TRACK_ID": null, "KAURIDIEBACK_TRACK": null, "KAURIDIEBACK_MITIGATED": null, "SegmentID": null, "GlobalID": "e33ebb3b-0e44-4443-9377-f02e07d907fe", "Shape__Length": 5334.654925701265}}]}