{"type": "FeatureCollection", "features": [{"type": "Feature", "id": 12038, "geometry": {"type": "LineString", "coordinates": [[175.066452583185, -36.8173700055605], [175.066566351675, -36.8173031112239], [175.06668014289, -36.8172198559138], [175.066757569579, -36.8171511948901], [175.06682023991, -36.8170633078123], [175.066946672332, -36.8168734181798], [175.066996218783, -36.8167944135435], [175.067016856564, -36.8168431721298], [175.067039491353, -36.8168804467188], [175.06706623412, -36.8169296191831], [175.067096365944, -36.8169614646199], [175.067129836987, -36.8169985913028], [175.067163257825, -36.8170271834997], [175.067205247776, -36.8170624459259], [175.06726367256, -36.8170800706035], [175.067374661163, -36.8170781402713], [175.067414263582, -36.817087991323], [175.067459129333, -36.8171145141668], [175.067498047069, -36.8171472044242], [175.06753516454, -36.8171899367649], [175.06758724076, -36.8172271669113], [175.067645048461, -36.817266093634], [175.067709999575, -36.8173216513038], [175.067750845515, -36.8173644584166], [175.067806059741, -36.8174012742544], [175.067810188773, -36.8174044525261], [175.067824195107, -36.817404508099], [175.067862622179, -36.8174215375996], [175.067890749414, -36.8174523974228], [175.067974994707, -36.817501166844], [175.068042991156, -36.8174942145928], [175.068107550982, -36.8174814888579], [175.068138715887, -36.8174753495229], [175.068186595558, -36.8174717665704], [175.068236548566, -36.8174766179758], [175.068327357279, -36.8174721095371], [175.068423099393, -36.8174585580237], [175.068450847314, -36.817441879637], [175.068478787391, -36.8174154746352], [175.068520117084, -36.8173894116489], [175.068549386186, -36.8173702768527], [175.068603106869, -36.8173639269294], [175.06868245027, -36.8173567335798], [175.068729612535, -36.8173441624761], [175.068762563565, -36.8173355836093], [175.06878091489, -36.817337719366], [175.068816138034, -36.8173447890317], [175.068824695604, -36.8173535647978], [175.068841734079, -36.8173718909809], [175.068849524952, -36.8173948251497], [175.068884465053, -36.8174306422957], [175.068935067457, -36.8174696027572], [175.069010672084, -36.8176282167951], [175.069098526215, -36.817754019198], [175.069107006466, -36.8177600040494], [175.069121137464, -36.8177755101486], [175.069147669452, -36.8178159611653], [175.069191602871, -36.8178497857054], [175.069209700894, -36.8178746882253], [175.069239182867, -36.8179058332807], [175.069265140448, -36.8179398950131], [175.069297677312, -36.817973248242], [175.069312258635, -36.8180008104251], [175.069334297398, -36.8180371278278], [175.069345165907, -36.8180715576828], [175.069353552448, -36.8180819695474], [175.069382778182, -36.8181685690201], [175.069561628172, -36.8182245635381], [175.069580459367, -36.818234767393], [175.069636504938, -36.8182512840449], [175.069642585707, -36.8182530438652], [175.069731162299, -36.8182953175076], [175.069779898167, -36.818334572371], [175.069851540714, -36.818380093464], [175.069877360235, -36.8183861269227], [175.069983213361, -36.8184610259334], [175.069995137418, -36.8184573933244], [175.069988701515, -36.8184691664682], [175.070000146002, -36.818492173021], [175.070041567483, -36.818575869534], [175.070055404368, -36.8186148154258], [175.070107492633, -36.8186868624679], [175.070144143672, -36.8187427403748], [175.070196543891, -36.8188372595437], [175.07031943325, -36.8189787247025], [175.070416436857, -36.8190627273829], [175.070489330195, -36.8191337403757], [175.070560550817, -36.819190392253], [175.070616598755, -36.8192392840974], [175.070641228126, -36.819249395784], [175.07064879544, -36.8192559786657], [175.070652863235, -36.8192541727937], [175.070669040596, -36.8192608138825], [175.070704257217, -36.8192538759328], [175.070755999869, -36.8192500029136], [175.070793575233, -36.8192309644087], [175.070822338652, -36.819215815316], [175.070871232323, -36.8191835206173], [175.070970223542, -36.8191371895139], [175.070966875842, -36.8191291523371], [175.070980757339, -36.8192523709766], [175.071047666108, -36.8194364202611], [175.071098860825, -36.8195576890484], [175.071211121603, -36.8197357285362], [175.07130669701, -36.8199117233946], [175.071422973468, -36.8201059431725], [175.071474641943, -36.8201817922697], [175.071860311239, -36.8207135545783], [175.071931226266, -36.8207827255016], [175.07196006156, -36.8208071420695], [175.071975125679, -36.8208457733895], [175.07198837135, -36.8208875603219], [175.072069827884, -36.8210065633861], [175.072178134869, -36.8212144110714], [175.072217516552, -36.8213100755473], [175.072205230568, -36.82139618839], [175.072198144338, -36.8213995575224], [175.072200093752, -36.8214190042912], [175.07222760553, -36.8214586794811], [175.072272122596, -36.8215078192912], [175.072281585503, -36.8215631763509], [175.072287930418, -36.821626460649], [175.072289028393, -36.8216374076545], [175.072289053199, -36.8216376622906], [175.072288271549, -36.8216420165918], [175.072348621398, -36.821708848695], [175.072371200274, -36.8217145568409], [175.072371179427, -36.8217235089414], [175.072405586348, -36.8217237147981], [175.072432640433, -36.8217329086535], [175.072472592456, -36.8217686138485], [175.072511620251, -36.8217889246742], [175.072593439694, -36.8218069111381], [175.072643418611, -36.82183862171], [175.072705893432, -36.82188376548], [175.072741818672, -36.8219299391278], [175.072779324661, -36.8219930233743], [175.072835319368, -36.8220654894984], [175.072860860691, -36.8220983444888], [175.072876847414, -36.8221004667535], [175.072879183098, -36.8221145692572], [175.072941656928, -36.8221459103685], [175.072985169753, -36.8221905816267], [175.073008040699, -36.8222252623278], [175.07304437788, -36.8223106605821], [175.073075394016, -36.822375560477], [175.073107096753, -36.8224047072423], [175.073166066407, -36.8224316451985], [175.073246730846, -36.822471191569], [175.07332877627, -36.8225068228718], [175.073421310825, -36.8225235601039], [175.073500143343, -36.8225400432863], [175.073596440284, -36.8225742640013], [175.073669920497, -36.8226042752568], [175.073777421841, -36.8226692312322], [175.073846039758, -36.8227478623338], [175.073906049086, -36.8228734247889], [175.07396745351, -36.8229932242746], [175.074022906044, -36.8230262294406], [175.074121349795, -36.8230612044992], [175.07430480206, -36.8231306047077], [175.074505227879, -36.8232041905512], [175.074506192942, -36.8232045982205], [175.074657906761, -36.8232656658876], [175.074823638617, -36.8231199616165], [175.074932348162, -36.8230773809188], [175.074990962717, -36.8230481297745], [175.075072530685, -36.8230156054225], [175.075169512062, -36.8229742657637], [175.075283104289, -36.8229546196535], [175.075371194384, -36.8229440414863], [175.075487897499, -36.8229238541592], [175.075592883364, -36.8228904482464], [175.075697776543, -36.8228546527067], [175.075762698222, -36.8228206006658], [175.075892093157, -36.8227977253289], [175.075946746967, -36.8227731034826], [175.076036979252, -36.8227359368607], [175.076116239082, -36.8227146489885], [175.076238360424, -36.8227198686233]]}, "properties": {"OBJECTID": 12038, "TRACKNAME": "Whakenewha link", "CONDITIONSOFUSE": "Whakanewha Regional Park", "STATUS": "Open", "WEBLINK": "https://www.aucklandcouncil.govt.nz/en/parks-recreation/find-park-beach/park-detail/3422.html", "VALIDATIONSTATE": 3, "created_user": "AC_owner", "last_edited_user": "AC_owner", "last_edited_date": 1789875254325, "created_date": 1789875254325, "PARK_SAPSITEID": null, "TRACK_ID": null, "KAURIDIEBACK_TRACK": null, "KAURIDIEBACK_MITIGATED": null, "SegmentID": null, "GlobalID": "a5daa100-0980-4d1e-b471-9af2c4315fcd", "Shape__Length": 1357.3540850434806}}]}