{"type": "FeatureCollection", "features": [{"type": "Feature", "id": 11986, "geometry": {"type": "LineString", "coordinates": [[175.043615702501, -36.7955936833831], [175.042055356242, -36.7972924350597], [175.041581960639, -36.7978699781025], [175.041637413161, -36.7980705877534], [175.04178828304, -36.7983249884162], [175.042004870638, -36.7992053387667], [175.042227374094, -36.7997586140803], [175.042794424673, -36.8005016255277], [175.042016880012, -36.8019763550031], [175.041994572186, -36.8022336115301], [175.042475020537, -36.8027122800754], [175.042533609533, -36.8027740626167], [175.042585278879, -36.802839716762], [175.042629635245, -36.8029087427473], [175.042666340968, -36.8029806151408], [175.042695116619, -36.8030547868421], [175.042715743131, -36.8031306932469], [175.042728063467, -36.8032077565442], [175.042731983818, -36.803285390115], [175.042730607817, -36.8033653797623], [175.042794334028, -36.8033642847546]]}, "properties": {"OBJECTID": 11986, "TRACKNAME": "Wharf Road roadside", "CONDITIONSOFUSE": "Ostend Domain", "STATUS": "Open", "WEBLINK": "https://www.aucklandcouncil.govt.nz/en/parks-recreation/find-park-beach/park-detail/17.html", "VALIDATIONSTATE": 3, "created_user": "AC_owner", "last_edited_user": "AC_owner", "last_edited_date": 1789875254325, "created_date": 1789875254325, "PARK_SAPSITEID": null, "TRACK_ID": null, "KAURIDIEBACK_TRACK": null, "KAURIDIEBACK_MITIGATED": null, "SegmentID": null, "GlobalID": "e9db55c4-b5d2-4658-bd86-08dbe7c5c508", "Shape__Length": 984.3075888025378}}]}