{"type": "FeatureCollection", "features": [{"type": "Feature", "id": 1903, "geometry": {"type": "LineString", "coordinates": [[174.504471560627, -37.0394839424382], [174.504159121974, -37.0395894597482], [174.504091156572, -37.0397565847158], [174.504061447523, -37.0398014520848], [174.503924050646, -37.0398881824533], [174.503763620822, -37.0399660919887], [174.50368512103, -37.04002730633], [174.50344062431, -37.0403271751028], [174.503284828573, -37.0404525625135], [174.502950840527, -37.0407741962675], [174.502767287455, -37.0409842831017], [174.502707988915, -37.0410248830241], [174.502640836929, -37.0410566680389], [174.502387649484, -37.0411510015433], [174.502303153643, -37.0411705313333], [174.502009650318, -37.0412109510384], [174.501672844662, -37.0412261846273], [174.501313649378, -37.0412641172282], [174.500920429623, -37.0412432424618], [174.500767990668, -37.041175064055], [174.500705950398, -37.0411621303775], [174.50042243469, -37.0411450488075], [174.50026651761, -37.041165201088], [174.500192924104, -37.0411485464609], [174.499950079437, -37.0410475383603], [174.499669783576, -37.0408763192606], [174.499640116011, -37.0408674374428], [174.499542787777, -37.0408588250656], [174.499485843894, -37.040835154321], [174.499269043597, -37.0407136433387], [174.499152351133, -37.0406134276748], [174.499128732476, -37.0405650712137], [174.499065067312, -37.0403471087755], [174.499038160913, -37.0402121739686], [174.499057531944, -37.0401566042285], [174.49915016868, -37.040023899332], [174.499160209815, -37.0399810393626], [174.499127562473, -37.0399555471077], [174.498847515288, -37.0398321305193], [174.498710279067, -37.0397603411944], [174.498675283499, -37.0397171939619], [174.498547784498, -37.0394903841587], [174.498373189576, -37.0393792897142], [174.498357153794, -37.0393156765671], [174.498349290309, -37.0391055175908], [174.498308910515, -37.0390052114299], [174.498246946731, -37.0389285499091], [174.498135119907, -37.0386992432224], [174.498125407568, -37.0386472857749], [174.498125901318, -37.0385488248865], [174.498097956239, -37.0384101172457], [174.498082401436, -37.0383749626633], [174.498053262823, -37.0383683361468], [174.497939562988, -37.0383904038659], [174.497875027356, -37.038387667433], [174.497703768176, -37.038347177788], [174.497596152818, -37.0382863431376], [174.497362643586, -37.0380549122828], [174.497139286193, -37.0378823282853], [174.496948100621, -37.0377614450455], [174.496840581711, -37.0376785343614], [174.496736888337, -37.0374376854669], [174.496697873453, -37.0372486774469], [174.496676879714, -37.037213050475], [174.496495598512, -37.0371355227389], [174.496332897869, -37.0370966897557], [174.496224363717, -37.0370221197888], [174.496193168733, -37.0370206744781], [174.496170838083, -37.0370314929264]]}, "properties": {"OBJECTID": 1903, "TRACKNAME": "Whatipu Caves Track", "CONDITIONSOFUSE": "Waitakere South Regional Park", "STATUS": "Open", "WEBLINK": "https://www.aucklandcouncil.govt.nz/en/parks-recreation/find-park-beach/park-detail/212.html", "VALIDATIONSTATE": 3, "created_user": "AC_owner", "last_edited_user": "AC_owner", "last_edited_date": 1789875254325, "created_date": 1789875254325, "PARK_SAPSITEID": null, "TRACK_ID": null, "KAURIDIEBACK_TRACK": null, "KAURIDIEBACK_MITIGATED": null, "SegmentID": null, "GlobalID": "07bd4231-6f5d-40d3-8782-9903201afddb", "Shape__Length": 1118.2090855004649}}]}