{"type": "FeatureCollection", "features": [{"type": "Feature", "id": 740, "geometry": {"type": "LineString", "coordinates": [[174.506812286437, -37.0426618327114], [174.506749697158, -37.0427423972377], [174.506703056593, -37.0428487901488], [174.506706247553, -37.0429931549284], [174.506640662166, -37.0431946465343], [174.506563646193, -37.0433321161621], [174.506517164685, -37.0434932369549], [174.506501239748, -37.043677981624], [174.506504792053, -37.0438383678086], [174.506506930479, -37.0439346138495], [174.506510471941, -37.0440950181919], [174.506562792213, -37.0441985587722], [174.506635506845, -37.0443178662942], [174.506689072107, -37.044477545101], [174.506691199392, -37.0445737822544], [174.506693858689, -37.0446940877051], [174.506625601508, -37.0447752739741], [174.506526447576, -37.0448168056364], [174.506427813858, -37.0448823876394], [174.506349902376, -37.0449797674271], [174.506301665546, -37.0450606722301], [174.506305206711, -37.0452210765577]]}, "properties": {"OBJECTID": 740, "TRACKNAME": "Whatipu Beach Track", "CONDITIONSOFUSE": "Waitakere South Regional Park", "STATUS": "Open", "WEBLINK": "https://www.aucklandcouncil.govt.nz/en/parks-recreation/find-park-beach/park-detail/212.html", "VALIDATIONSTATE": 3, "created_user": "AC_owner", "last_edited_user": "AC_owner", "last_edited_date": 1789875254325, "created_date": 1789875254325, "PARK_SAPSITEID": null, "TRACK_ID": null, "KAURIDIEBACK_TRACK": null, "KAURIDIEBACK_MITIGATED": null, "SegmentID": null, "GlobalID": "f4d6fcc2-3bee-400e-9cfa-2c3f1f746e5b", "Shape__Length": 306.37619872368083}}, {"type": "Feature", "id": 2514, "geometry": {"type": "LineString", "coordinates": [[174.508810646015, -37.0449668262315], [174.508813975895, -37.0449634939498], [174.508820636379, -37.0449551618802], [174.508828973676, -37.0449434915145], [174.508833961681, -37.0449284927037], [174.508838960203, -37.0449151612557], [174.508838966889, -37.0449001627125], [174.50883729803, -37.0448851584419], [174.508832300199, -37.0448718279585], [174.50882397394, -37.0448584947448], [174.508813972318, -37.0448451648137], [174.508807311638, -37.0448284934461], [174.50880063845, -37.0448151662443], [174.508793977051, -37.0448001623818], [174.508788968537, -37.0447851555218], [174.508780630508, -37.0447734989648], [174.508770639244, -37.0447618273814], [174.508757297979, -37.0447484948559], [174.508742303113, -37.0447368328314], [174.508728971469, -37.0447268261606], [174.50871730413, -37.0447168253605], [174.508705637698, -37.0447051660643], [174.508695636665, -37.0446901596046], [174.508682295426, -37.04467682707], [174.508668975948, -37.0446651617541], [174.508655633263, -37.0446551642287], [174.508642301645, -37.0446451575474], [174.508627306089, -37.0446351630135], [174.508608970698, -37.0446251568729], [174.508592310124, -37.0446168239667], [174.508572298829, -37.0446084976178], [174.508552297873, -37.0446018296175], [174.508532296191, -37.0445968291199], [174.508510640724, -37.0445934901071], [174.508490637762, -37.0445918336262], [174.508468969593, -37.0445918297613], [174.508447299961, -37.044595160905], [174.508425632702, -37.044593498537], [174.50840730639, -37.0445884947404], [174.508388969017, -37.0445835000951], [174.50837063, -37.0445818314483], [174.508353965612, -37.0445818270284], [174.508335636369, -37.044583493246], [174.508320626683, -37.0445801688405], [174.508307292917, -37.0445751646394], [174.508295635426, -37.0445684986656], [174.508278965862, -37.044555163338], [174.508268961253, -37.0445484943717], [174.508252300731, -37.0445401614165], [174.508220634225, -37.044520166508], [174.508210631838, -37.0445084950172], [174.508198966252, -37.0444951681618], [174.508182296721, -37.0444818328197], [174.508167302554, -37.0444684942011], [174.508157301099, -37.0444551642101], [174.508145633875, -37.0444451633507], [174.508138968945, -37.0444384969794], [174.508135632248, -37.0444318243464], [174.508130643595, -37.0444234962057], [174.508122294287, -37.0444118307303], [174.50811897123, -37.0444001644455], [174.508113972079, -37.0443901689403], [174.50810563384, -37.0443784943093], [174.508092304179, -37.0443651705725], [174.508083967426, -37.0443501609266], [174.508070628013, -37.0443335023169], [174.508060634693, -37.0443268331888], [174.508045625632, -37.0443218322292], [174.508012290352, -37.0443118274076], [174.507993963569, -37.0443085000626], [174.507977289482, -37.0443051607181], [174.50795897228, -37.0443051592267], [174.507938966994, -37.0443084961594], [174.507918972949, -37.0443118329459], [174.50790063475, -37.0443084967181], [174.507880633184, -37.0443034961078], [174.507862295912, -37.0442985013785], [174.5078456235, -37.0442918360131], [174.507825632438, -37.0442885027571], [174.507805629957, -37.0442851606293], [174.507780633823, -37.0442851718997], [174.507770635128, -37.0442901662823], [174.507753958811, -37.0442918294262], [174.507723969978, -37.0442918320378], [174.507708960196, -37.0442884985416], [174.507695627446, -37.0442818357739], [174.507680629658, -37.0442768346244], [174.507667296733, -37.0442701628421], [174.507655628852, -37.0442618294389], [174.507642297789, -37.0442518406626], [174.507627301332, -37.0442434954813], [174.507610630453, -37.0442334950685], [174.507593959579, -37.0442234946532], [174.507577298448, -37.0442168291062], [174.507563965721, -37.0442101663231], [174.507553971709, -37.0442051646577], [174.507540629249, -37.044195167001], [174.507528962145, -37.0441851660778], [174.507517295797, -37.0441734976465], [174.507505629452, -37.044161829214], [174.507495628153, -37.044148499163], [174.507480634349, -37.0441351694639], [174.507467292486, -37.0441234952802], [174.507453960717, -37.0441151739883], [174.507440626332, -37.0441118371932], [174.507427292703, -37.0441068328896], [174.507417299468, -37.0441001637052], [174.507407295172, -37.0440935036739], [174.507397301941, -37.0440868344876], [174.507383958011, -37.0440801718261], [174.507368960282, -37.0440751706357], [174.507360621435, -37.0440651634554], [174.507353958876, -37.0440534945163], [174.507348960604, -37.0440418314686], [174.507343963091, -37.0440285009136], [174.507340629687, -37.0440151672391], [174.507338960569, -37.0440018394564], [174.507332288291, -37.0439868356446], [174.507323962393, -37.0439735023156], [174.507310620583, -37.0439618281127], [174.507290621595, -37.0439518338898], [174.507272297202, -37.0439435039093], [174.507250632423, -37.0439368388005], [174.5072322951, -37.0439318349594], [174.507220628077, -37.0439218340036], [174.507212290964, -37.0439085008089], [174.507207304726, -37.0438951701043], [174.507200621241, -37.0438801664269], [174.507190620793, -37.0438651688404], [174.507178954546, -37.043853500373], [174.50717062793, -37.0438418345391], [174.507165630462, -37.0438285039752], [174.507162287378, -37.0438118354229], [174.507162294403, -37.0437968368698], [174.50716396629, -37.0437801676928], [174.507167301518, -37.0437651629062], [174.507168962162, -37.0437484938719], [174.507168970125, -37.0437318368227], [174.507163950942, -37.0437168390368], [174.507155625688, -37.0437018291757], [174.507142296311, -37.0436885053242], [174.507127290479, -37.0436768342148], [174.507112295132, -37.0436668304678], [174.507102303685, -37.0436568352512], [174.507092288818, -37.0436484988153], [174.507082297376, -37.0436385035969], [174.507070628893, -37.0436318376389], [174.507060625274, -37.0436235010574], [174.507053962037, -37.043613499606], [174.507045623462, -37.0436035014119], [174.507037296895, -37.0435918355671], [174.507028959852, -37.0435785023572], [174.507018959479, -37.0435635047539], [174.507010623028, -37.043548495024], [174.507005624845, -37.0435368319589], [174.507005630373, -37.0435251684191], [174.507007291228, -37.043508508397], [174.507013954847, -37.0434935063961], [174.50701895419, -37.0434784984981], [174.507022290378, -37.0434618352184], [174.507023962291, -37.0434451660419], [174.507028961808, -37.0434301671548], [174.507030632191, -37.0434168329928], [174.507033955606, -37.0434035048702], [174.507035616274, -37.0433868358364], [174.50703562409, -37.0433701697744], [174.507037284757, -37.0433535007404], [174.507038957429, -37.0433351640563], [174.507042293608, -37.0433185007758], [174.507045618365, -37.0433018286269], [174.507048956831, -37.0432801628243], [174.507048961591, -37.0432701667914], [174.507038957652, -37.0432384942575], [174.507030620828, -37.0432251700573], [174.507023948683, -37.0432101662234], [174.507017287961, -37.0431951712574], [174.507012292094, -37.0431785056693], [174.507008959555, -37.043163504474], [174.507005626839, -37.0431484942674], [174.507002283239, -37.0431335022259], [174.50699896271, -37.04311683338], [174.506993954847, -37.0431018354409], [174.50698729414, -37.0430868404727], [174.506980622017, -37.0430718366355], [174.506973960372, -37.0430585001625], [174.506968962051, -37.0430468280829], [174.506963953433, -37.0430334976496], [174.506960620145, -37.0430201639598], [174.506957297511, -37.0430085066457], [174.506955616125, -37.0429968284812], [174.506952283018, -37.0429835038022], [174.506950625239, -37.042970175867], [174.506945627693, -37.0429568362785], [174.506942282992, -37.0429434937194], [174.50693894989, -37.0429301690399], [174.506935627853, -37.0429168352061], [174.506928954989, -37.0429034988726], [174.506917279992, -37.0428868279936], [174.50691061702, -37.0428768355423], [174.506897285944, -37.0428668286499], [174.506870625694, -37.0428434978678], [174.506860623916, -37.0428318352616], [174.506852286224, -37.0428201695426], [174.506843959775, -37.0428085036802], [174.506837287706, -37.0427934998331], [174.506832290371, -37.04278016925], [174.506827281796, -37.0427668388095], [174.506827287178, -37.0427551662563], [174.506827293506, -37.0427418352068], [174.506827289362, -37.0427268367924], [174.506825621908, -37.0427101739818], [174.506822289429, -37.0426951727789], [174.506818957542, -37.042678495057], [174.506812286437, -37.0426618327114]]}, "properties": {"OBJECTID": 2514, "TRACKNAME": "Whatipu Beach Track", "CONDITIONSOFUSE": "Waitakere South Regional Park", "STATUS": "Open", "WEBLINK": "https://www.aucklandcouncil.govt.nz/en/parks-recreation/find-park-beach/park-detail/212.html", "VALIDATIONSTATE": 3, "created_user": "AC_owner", "last_edited_user": "AC_owner", "last_edited_date": 1789875254325, "created_date": 1789875254325, "PARK_SAPSITEID": null, "TRACK_ID": null, "KAURIDIEBACK_TRACK": null, "KAURIDIEBACK_MITIGATED": null, "SegmentID": null, "GlobalID": "7bf59d13-ea1b-4d89-9b9e-4f06f0b68e0a", "Shape__Length": 355.00718190940864}}, {"type": "Feature", "id": 3101, "geometry": {"type": "LineString", "coordinates": [[174.506812286437, -37.0426618327114], [174.506802287001, -37.0426451675763], [174.506795615725, -37.0426284962183], [174.506790619179, -37.0426134981251], [174.506787287659, -37.0425968384243], [174.506785619448, -37.0425818431202], [174.506782286805, -37.0425668329043], [174.506777279794, -37.0425501674453], [174.506772283257, -37.0425351693509], [174.506768950027, -37.0425218356534], [174.506767281821, -37.0425068403487], [174.50676561249, -37.0424934945292], [174.50676561806, -37.0424818309866], [174.506763949086, -37.0424685031895], [174.506762279934, -37.042455166381], [174.506757283407, -37.0424401682855], [174.506748948858, -37.0424218325264], [174.506738949469, -37.0424051673843], [174.506728948543, -37.0423918372567], [174.506717294611, -37.0423785010838], [174.506703953357, -37.0423668358127], [174.506693950898, -37.0423568406973], [174.506688953441, -37.0423435010948], [174.506685619463, -37.0423318349018], [174.506682285486, -37.0423201687086], [174.506680615758, -37.0423085084173], [174.506678957867, -37.0422951714642], [174.506673948403, -37.0422834995113], [174.506668951133, -37.0422701689189], [174.506665619479, -37.0422535002016], [174.506662276764, -37.0422368406381], [174.506658957127, -37.0422185042698], [174.506655614059, -37.0422018266836], [174.506650618522, -37.0421851700855], [174.506645622037, -37.0421701719838], [174.506640624779, -37.0421568413896], [174.506633939845, -37.0421451636746], [174.506627277573, -37.0421334946848], [174.506622280322, -37.0421201640896], [174.506618946365, -37.0421084978938], [174.506615613182, -37.04209516419], [174.506608952644, -37.0420801691944], [174.506600616624, -37.0420651684379], [174.506593955914, -37.04205016443], [174.506587283368, -37.0420368370835], [174.506577283293, -37.0420218394327], [174.506570610575, -37.0420085030739], [174.506558944715, -37.0419968345335], [174.506548954342, -37.0419851717531], [174.506543945695, -37.0419718322853], [174.506537283453, -37.0419601632895], [174.506533949517, -37.0419484970905], [174.506528950743, -37.0419385015063], [174.506525616809, -37.0419268353071], [174.506522283652, -37.0419135015997], [174.506517275193, -37.0419001711417], [174.506512278754, -37.0418851730327], [174.506507283093, -37.0418685074153], [174.506498958181, -37.0418534974961], [174.506492275983, -37.0418368352699], [174.506483951255, -37.0418218343606], [174.506475614512, -37.0418085011015], [174.50646727855, -37.0417935003336], [174.506458952277, -37.0417818344384], [174.50645394366, -37.0417684949657], [174.506450610702, -37.0417551702668], [174.506448942581, -37.041740174954], [174.506450614595, -37.041723505779], [174.506453950666, -37.0417068334982], [174.506458950971, -37.0416901671228], [174.506460611142, -37.0416751746097], [174.506465610488, -37.0416601667308], [174.506468946731, -37.0416435034608], [174.506470617185, -37.0416301693016], [174.506473939675, -37.0416184996872], [174.506478938416, -37.041605168327], [174.506485623693, -37.0415918335751], [174.506493940253, -37.041576837648], [174.50650061506, -37.04156183553], [174.506507278624, -37.0415468335543], [174.506513942185, -37.0415318315783], [174.506520605743, -37.041516829602], [174.506523941193, -37.0415018338386], [174.506527286152, -37.0414901639372], [174.506530620824, -37.0414768356817], [174.506535619368, -37.0414634953081], [174.50653894202, -37.0414518347031], [174.506545615256, -37.0414401675988], [174.506552278025, -37.0414268331289], [174.506560606572, -37.0414101695466], [174.5065656179, -37.0413934940128], [174.50657394644, -37.0413768304297], [174.506578935637, -37.0413601732034], [174.506582282132, -37.0413451682843], [174.506585605369, -37.0413318311588], [174.5065889408, -37.0413168353936], [174.506590611227, -37.0413035012325], [174.506588941363, -37.041291831926], [174.506583954645, -37.0412801686913], [174.506575617947, -37.0412668354371], [174.506565617981, -37.0412518377812], [174.506557271422, -37.0412351606407], [174.50654894693, -37.0412201687445], [174.506542285533, -37.041206832238], [174.506535602611, -37.0411918375195], [174.506528941995, -37.0411768335038], [174.506525620116, -37.0411634996515], [174.506522274979, -37.0411518335926], [174.506522280594, -37.0411401700466], [174.506523939013, -37.0411285035369], [174.506528949733, -37.0411135045236], [174.506535613255, -37.0410985025463], [174.506543951283, -37.0410851648273], [174.506557281795, -37.0410718358099], [174.506570612124, -37.0410584977797], [174.506585605894, -37.0410468331603], [174.506600610901, -37.0410351683963], [174.506613952457, -37.0410218302187], [174.506627280622, -37.0410135037182], [174.506640608606, -37.0410051682051], [174.506655601403, -37.0409951620741], [174.50667061763, -37.0409834971589], [174.506683948102, -37.0409701681278], [174.506695615123, -37.0409551656847], [174.506703953286, -37.0409418369664], [174.506712269559, -37.0409268320138], [174.506720607715, -37.0409135032944], [174.506728944919, -37.0409018330714], [174.50673560684, -37.0408901660999], [174.506743944038, -37.0408784958759], [174.506750605955, -37.0408668289036], [174.50675560478, -37.0408535065436], [174.506760603248, -37.0408401661609], [174.506765602485, -37.0408251582699], [174.506770613318, -37.0408101682584], [174.506773938045, -37.0407934961114], [174.506773126155, -37.0407810912228], [174.50677349331, -37.0407620085752], [174.506772974899, -37.0407357813547], [174.506775005637, -37.0406880596984], [174.506789064623, -37.0406467425817], [174.50681491285, -37.0405999099723], [174.506848102738, -37.0405482141518], [174.506877220972, -37.0405162456239], [174.506891384809, -37.0404802938037], [174.506901619121, -37.0404336595187], [174.506913387744, -37.0403893907154], [174.506931292497, -37.0403545829537], [174.506958992999, -37.0403262089746], [174.506986252286, -37.0402981542642], [174.506995121703, -37.0402726874998], [174.507001685665, -37.0402284848067], [174.507000012441, -37.0401438449127], [174.50699326275, -37.0400707563196], [174.506980752573, -37.0400399123933], [174.506983821206, -37.0400446433572]]}, "properties": {"OBJECTID": 3101, "TRACKNAME": "Whatipu Beach Track", "CONDITIONSOFUSE": "Waitakere South Regional Park", "STATUS": "Open", "WEBLINK": "https://www.aucklandcouncil.govt.nz/en/parks-recreation/find-park-beach/park-detail/212.html", "VALIDATIONSTATE": 3, "created_user": "AC_owner", "last_edited_user": "AC_owner", "last_edited_date": 1789875254325, "created_date": 1789875254325, "PARK_SAPSITEID": null, "TRACK_ID": null, "KAURIDIEBACK_TRACK": null, "KAURIDIEBACK_MITIGATED": null, "SegmentID": null, "GlobalID": "d5d0fb07-6fb2-403d-931e-6dd69c666d9b", "Shape__Length": 313.0244948183686}}]}