{"type": "FeatureCollection", "features": [{"type": "Feature", "id": 2553, "geometry": {"type": "LineString", "coordinates": [[174.492273728106, -36.9596358888788], [174.492359658075, -36.9595732104436], [174.492424764544, -36.9595480840351], [174.49247237126, -36.959542159405], [174.492688940627, -36.9596130509969], [174.492959709832, -36.9596537193221], [174.493069609847, -36.9596571496037], [174.493135105244, -36.9596360731505], [174.493193725647, -36.9596266782721], [174.493317521335, -36.9596338211321], [174.49368566638, -36.9597503682474], [174.493785435914, -36.9597663623345], [174.493828033856, -36.9597568505624], [174.493902931473, -36.9596746718341], [174.493972876972, -36.9596309588674], [174.494044465738, -36.9596133466924], [174.494171444969, -36.9595988978991], [174.494199396515, -36.9596042832841], [174.494230854493, -36.9596235668191], [174.494341192736, -36.9597413653089], [174.494365811661, -36.959748811656], [174.494405730351, -36.9597482469844], [174.494749860387, -36.9597051497485], [174.494810060769, -36.9596914932656], [174.49484876396, -36.9596546710864], [174.494947616747, -36.9594864848453], [174.494976019739, -36.959453034531], [174.495009712591, -36.9594428295565], [174.49512234149, -36.9594424567773], [174.495164282853, -36.9594239707115], [174.495309767998, -36.9592686253849], [174.495342102128, -36.9592245038049], [174.495345773622, -36.9591924474441], [174.495326740737, -36.9591007111544], [174.495336413275, -36.9590756531074], [174.49537818341, -36.9590596235365], [174.495428517126, -36.9590534921171], [174.495511927378, -36.9590750836805], [174.495549760869, -36.9590761168721], [174.495583747408, -36.9590679613424], [174.495604242609, -36.959046103782], [174.495611611456, -36.9589833824238], [174.495541273624, -36.9588371065117], [174.495540935765, -36.9587604597276], [174.495552078442, -36.9587170268779], [174.495570595473, -36.9587081955079], [174.495607583431, -36.9587089049286], [174.495736206655, -36.9587366734555], [174.49580536031, -36.9587411689011], [174.495872432533, -36.958725906508], [174.4959164323, -36.9587008278121], [174.496152299352, -36.9585203492008], [174.496233996162, -36.9584442432528], [174.496261815735, -36.9583925645053], [174.496286464639, -36.9582702389949], [174.496335730783, -36.9581333706828], [174.496362746677, -36.9581085861046], [174.496426259737, -36.9581001960905], [174.496459626409, -36.9580671677937], [174.496462704839, -36.9579887094753], [174.496411686653, -36.9578657657017], [174.496353121705, -36.9577745413566], [174.496279723152, -36.957740651276], [174.496279247845, -36.9577043097856], [174.496307354076, -36.957583211609], [174.496342197816, -36.9575217303163], [174.496383845202, -36.9574809450959], [174.496408372052, -36.9574782049777], [174.496478002145, -36.9574926387806], [174.496519080695, -36.9574880423139], [174.496586442601, -36.9574638866285], [174.496621120473, -36.9574241284027], [174.496696613662, -36.9572609826627], [174.496707967851, -36.9571915039415], [174.49670093455, -36.9570661264176], [174.496631629316, -36.9567930658201], [174.496630944827, -36.9567619395495], [174.49665002168, -36.9567335963513], [174.496749200229, -36.9566393568729], [174.49685701617, -36.9564436527858], [174.49693315797, -36.9563492808594], [174.497040441587, -36.9562498859025], [174.49713226265, -36.9560941054428], [174.497128407736, -36.956074415093], [174.497108977252, -36.9560581191901], [174.496926724066, -36.9559584360847], [174.496884668049, -36.9559199418008], [174.496869691008, -36.9558906839834], [174.496876485005, -36.9558391674167], [174.496949213182, -36.9555653463649], [174.496995570507, -36.9554771024346], [174.497048086395, -36.9554105703961], [174.497159438907, -36.9553017146893], [174.497203802854, -36.955279581998], [174.497321907, -36.9552400036369], [174.497801442816, -36.95510576387], [174.497933625351, -36.9551074943583]]}, "properties": {"OBJECTID": 2553, "TRACKNAME": "Winstone Track", "CONDITIONSOFUSE": "Waitakere West Regional Park", "STATUS": "Temp Closed", "WEBLINK": "https://www.aucklandcouncil.govt.nz/en/parks-recreation/find-park-beach/park-detail/3451.html", "VALIDATIONSTATE": 3, "created_user": "AC_owner", "last_edited_user": "AC_owner", "last_edited_date": 1789875254325, "created_date": 1789875254325, "PARK_SAPSITEID": null, "TRACK_ID": null, "KAURIDIEBACK_TRACK": null, "KAURIDIEBACK_MITIGATED": null, "SegmentID": null, "GlobalID": "313ef346-e762-43ff-befc-26aff25dd7eb", "Shape__Length": 967.7634220873036}}, {"type": "Feature", "id": 12165, "geometry": {"type": "LineString", "coordinates": [[174.492878391504, -36.9616665237684], [174.492934511868, -36.9616215151318], [174.492946650033, -36.9615781186828], [174.493046125222, -36.9613833774304], [174.493161387092, -36.9612331073022], [174.493165833044, -36.9611930353596], [174.493099202085, -36.9610973716268], [174.493044105057, -36.9610461956079], [174.492935976513, -36.9609775916005], [174.49276959456, -36.9609109314201], [174.492452184256, -36.9606922574162], [174.492428104149, -36.9606458469715], [174.492397195871, -36.960525832287], [174.492403196533, -36.9603879897518], [174.492414270238, -36.9603386198724], [174.49243653939, -36.9603109655152], [174.492651416116, -36.960157031497], [174.49270307614, -36.960127771787], [174.492771716912, -36.9601289530121], [174.493016666967, -36.9601876990873], [174.493055574394, -36.9601871025172], [174.493088352311, -36.9601761443328], [174.493127764741, -36.9601429733233], [174.493147610243, -36.9601067773503], [174.493156032086, -36.9600673845992], [174.493147972994, -36.9600110173408], [174.493110750599, -36.9599597436162], [174.493005274173, -36.9598976889485], [174.49294564438, -36.9598950352839], [174.492796563311, -36.9599185805279], [174.492718675927, -36.9598940116222], [174.4925469367, -36.9598154447392], [174.492417981972, -36.9597000130135], [174.492273728106, -36.9596358888788]]}, "properties": {"OBJECTID": 12165, "TRACKNAME": "Winstone Track", "CONDITIONSOFUSE": "Waitakere West Regional Park", "STATUS": "Temp Closed", "WEBLINK": "https://www.aucklandcouncil.govt.nz/en/parks-recreation/find-park-beach/park-detail/3451.html", "VALIDATIONSTATE": 3, "created_user": "AC_owner", "last_edited_user": "AC_owner", "last_edited_date": 1789875254325, "created_date": 1789875254325, "PARK_SAPSITEID": null, "TRACK_ID": null, "KAURIDIEBACK_TRACK": null, "KAURIDIEBACK_MITIGATED": null, "SegmentID": null, "GlobalID": "38d5c5d2-84db-4b97-98d3-ec7fe9effc78", "Shape__Length": 369.84012950088726}}, {"type": "Feature", "id": 12217, "geometry": {"type": "LineString", "coordinates": [[174.49094805237, -36.9663818168082], [174.490940626862, -36.9663328398753], [174.490959452135, -36.9662832538259], [174.491096860144, -36.9660860764568], [174.491151886932, -36.9658596119048], [174.491145425326, -36.9658185909217], [174.491077594314, -36.9657203470891], [174.491060605106, -36.9656809275519], [174.49108110059, -36.9654733927033], [174.491043901405, -36.9653284791029], [174.491044663926, -36.9652904049674], [174.491234129496, -36.9648966533118], [174.491373976951, -36.9647688228775], [174.491489503164, -36.9646852212678], [174.491570373354, -36.9645859296001], [174.491607817308, -36.9645119439659], [174.491659558956, -36.9643653541489], [174.491685227563, -36.9641979459499], [174.491733060577, -36.9641515466463], [174.491825104968, -36.9640907468134], [174.491869023629, -36.9640745832938], [174.491898827994, -36.9640724961531], [174.492092193884, -36.9641051019258], [174.492183428772, -36.9641006742214], [174.492268111083, -36.9640764808013], [174.492379802634, -36.964011746997], [174.49243770952, -36.9639992291985], [174.492498613872, -36.9639998606278], [174.492592208361, -36.9640133130275], [174.492875330823, -36.9640814023463], [174.49313638258, -36.9642634034001], [174.493187601173, -36.9642897369747], [174.493211726906, -36.9642873333433], [174.49325056712, -36.9642647884477], [174.493301847847, -36.9642241499305], [174.493327438401, -36.9641920820254], [174.493356186753, -36.9640738401554], [174.493352180891, -36.9640085056831], [174.493328933851, -36.9639644600727], [174.493219585346, -36.9638765284956], [174.493199377847, -36.9638494984124], [174.493236322587, -36.9637075017062], [174.493205647739, -36.9634901993715], [174.493188853318, -36.9634400785023], [174.493075802474, -36.9632217751285], [174.493004815128, -36.9629613447317], [174.492997693942, -36.9627192199987], [174.493018621136, -36.9622764235645], [174.492976980208, -36.9621595356784], [174.492877968566, -36.9619997071965], [174.4928384902, -36.9619072640708], [174.492835676119, -36.961775231713], [174.492852923104, -36.9617156871056], [174.492878391504, -36.9616665237684]]}, "properties": {"OBJECTID": 12217, "TRACKNAME": "Winstone Track", "CONDITIONSOFUSE": "Waitakere West Regional Park", "STATUS": "Open", "WEBLINK": "https://www.aucklandcouncil.govt.nz/en/parks-recreation/find-park-beach/park-detail/3451.html", "VALIDATIONSTATE": 3, "created_user": "AC_owner", "last_edited_user": "AC_owner", "last_edited_date": 1789875254325, "created_date": 1789875254325, "PARK_SAPSITEID": null, "TRACK_ID": null, "KAURIDIEBACK_TRACK": null, "KAURIDIEBACK_MITIGATED": null, "SegmentID": null, "GlobalID": "cab0fd00-1fcf-43d5-b0e5-d9c20db91925", "Shape__Length": 726.2641642872637}}, {"type": "Feature", "id": 12218, "geometry": {"type": "LineString", "coordinates": [[174.491806117938, -36.9673303932658], [174.491847729315, -36.9672281515702], [174.49185008872, -36.9672045783282], [174.491839257565, -36.9671848844664], [174.491711619637, -36.9670958564105], [174.491446272602, -36.9668811598213], [174.491168192278, -36.9665889070661], [174.490984842862, -36.9664418361817], [174.49094805237, -36.9663818168082]]}, "properties": {"OBJECTID": 12218, "TRACKNAME": "Winstone Track", "CONDITIONSOFUSE": "Waitakere West Regional Park", "STATUS": "Temp Closed", "WEBLINK": "https://www.aucklandcouncil.govt.nz/en/parks-recreation/find-park-beach/park-detail/3451.html", "VALIDATIONSTATE": 3, "created_user": "AC_owner", "last_edited_user": "AC_owner", "last_edited_date": 1789875254325, "created_date": 1789875254325, "PARK_SAPSITEID": null, "TRACK_ID": null, "KAURIDIEBACK_TRACK": null, "KAURIDIEBACK_MITIGATED": null, "SegmentID": null, "GlobalID": "c6bca389-5abd-4790-8697-08870ba4125b", "Shape__Length": 136.85635935422258}}]}