{"type": "FeatureCollection", "features": [{"type": "Feature", "id": 12763, "geometry": {"type": "LineString", "coordinates": [[175.206675339218, -37.1145622290054], [175.206570450841, -37.114909454247], [175.206623672866, -37.1150926077498], [175.206941894028, -37.1151634091817], [175.207148994819, -37.1153667143524], [175.207385268727, -37.1155848220873], [175.207713737106, -37.1156784482436], [175.208247524565, -37.1155841032733], [175.208672864028, -37.1157142847583], [175.209080391975, -37.1158908339467], [175.209117365897, -37.1161740340056], [175.208585812588, -37.1166749941416], [175.208253784628, -37.1171185254754], [175.208286974522, -37.1176012870115], [175.208587184289, -37.1183706337365], [175.208981147175, -37.118739252413], [175.209914942851, -37.1192205671189], [175.210242106882, -37.1195980993746], [175.210628722415, -37.1197136511271], [175.21135563725, -37.1199993227511], [175.21155320761, -37.1205327237457], [175.211476191534, -37.1211786670552], [175.211316984626, -37.1216343258551], [175.211321690519, -37.1221252906312], [175.211403456565, -37.1226301618125], [175.211522838079, -37.1227813871366], [175.211967377797, -37.1229111976635], [175.212411917862, -37.1230410073914], [175.212997903699, -37.1234213718949], [175.213251167681, -37.123892347723], [175.213497286951, -37.1241179307329], [175.21395230764, -37.1242782295545], [175.214288610726, -37.1243103086885], [175.214744268842, -37.1241636843764], [175.215042898346, -37.1238895591794], [175.215483872286, -37.1238966606134], [175.215941131954, -37.1241336360078], [175.216172132512, -37.1244976046743], [175.216699119693, -37.1248253444208], [175.217164399553, -37.1250084564456], [175.217929423455, -37.1249557764338], [175.218514277643, -37.124967845544], [175.219240152118, -37.1252151238446], [175.219815431941, -37.1252273667088], [175.220351508023, -37.1252096497067], [175.220983639289, -37.1255277275151], [175.221584129401, -37.125746650546], [175.222557742099, -37.1262731522823], [175.223066889152, -37.1263173095046], [175.223630580562, -37.1262606964576], [175.224072239817, -37.1262907713313], [175.22451757186, -37.1267734618796], [175.22516851828, -37.1274057423448], [175.225860255798, -37.1281216527249], [175.226589777642, -37.1284915785591], [175.226769496043, -37.1284114753392], [175.226980417821, -37.1284151835407]]}, "properties": {"OBJECTID": 12763, "TRACKNAME": "Workman Road", "CONDITIONSOFUSE": "Hunua Ranges Regional Park", "STATUS": "Open", "WEBLINK": "https://www.aucklandcouncil.govt.nz/en/parks-recreation/find-park-beach/park-detail/213.html", "VALIDATIONSTATE": 3, "created_user": "AC_owner", "last_edited_user": "AC_owner", "last_edited_date": 1789875254325, "created_date": 1789875254325, "PARK_SAPSITEID": null, "TRACK_ID": null, "KAURIDIEBACK_TRACK": null, "KAURIDIEBACK_MITIGATED": null, "SegmentID": null, "GlobalID": "91a13bf9-16be-450b-aad5-135cc8eeb5fb", "Shape__Length": 2910.3419594806273}}, {"type": "Feature", "id": 12766, "geometry": {"type": "LineString", "coordinates": [[175.209080391975, -37.1158908339467], [175.209292884524, -37.1158359245436], [175.20972536058, -37.1158334478906], [175.210386649854, -37.1160222506533], [175.21113081736, -37.1164218114075], [175.21176019075, -37.1169520133833], [175.21212590184, -37.1175318310352]]}, "properties": {"OBJECTID": 12766, "TRACKNAME": "Workman Road", "CONDITIONSOFUSE": "Hunua Ranges Regional Park", "STATUS": "Open", "WEBLINK": "https://www.aucklandcouncil.govt.nz/en/parks-recreation/find-park-beach/park-detail/213.html", "VALIDATIONSTATE": 3, "created_user": "AC_owner", "last_edited_user": "AC_owner", "last_edited_date": 1789875254325, "created_date": 1789875254325, "PARK_SAPSITEID": null, "TRACK_ID": null, "KAURIDIEBACK_TRACK": null, "KAURIDIEBACK_MITIGATED": null, "SegmentID": null, "GlobalID": "097e12d0-a8a7-4f3f-9971-fc1bb0fd06ff", "Shape__Length": 353.6102450507528}}, {"type": "Feature", "id": 12767, "geometry": {"type": "LineString", "coordinates": [[175.21212590184, -37.1175318310352], [175.212424147158, -37.1179508810553], [175.212712152768, -37.1180181355764], [175.213081395704, -37.1180000668041], [175.213225226617, -37.1179079874533], [175.213270276366, -37.1175383980287], [175.213333826718, -37.1173249022036], [175.213498085797, -37.1172156797125], [175.213824511032, -37.1171648859035], [175.213994312118, -37.1171308939094], [175.214217388561, -37.1167608628243], [175.214397031838, -37.1164613908573], [175.214308803316, -37.1163066012226], [175.21408518417, -37.116294018166], [175.213796533512, -37.1162044308772], [175.213565597074, -37.1159405643642], [175.213395628452, -37.1156141012257], [175.213503919162, -37.1152600925976], [175.21350178434, -37.1149472558448], [175.213433014031, -37.1147418181802], [175.213482452518, -37.1145229990123], [175.213835922869, -37.1142035196634], [175.213934982282, -37.1140117081971], [175.213805246279, -37.113868867998], [175.213458547395, -37.1137021444669], [175.213303199295, -37.1136380007919], [175.213396262875, -37.113479824302], [175.21378881957, -37.1133048798388], [175.21408182866, -37.1133049927033], [175.214789008446, -37.1136325898379], [175.21486231377, -37.1137541355567], [175.214866869948, -37.1139104887062], [175.214816134052, -37.1140846365163], [175.214717727659, -37.1142987845549], [175.214760401671, -37.1145661674766], [175.214947060524, -37.1147470520101], [175.215342087591, -37.1148961063328], [175.215833105392, -37.1149874938946], [175.216132442898, -37.1149651351984], [175.216286818974, -37.1149957707108], [175.216444289196, -37.1151325025656], [175.216612448685, -37.11515729306], [175.216783997468, -37.1150591033331], [175.216870570431, -37.1149178069049], [175.216707104798, -37.1148147103065], [175.216600071683, -37.1147329060054], [175.216467886873, -37.1145063082702], [175.216305562475, -37.1144422990828], [175.216169500373, -37.1143219279324], [175.216139492431, -37.1142498572155]]}, "properties": {"OBJECTID": 12767, "TRACKNAME": "Workman Road", "CONDITIONSOFUSE": "Hunua Ranges Regional Park", "STATUS": "Closed upgrade", "WEBLINK": "https://www.aucklandcouncil.govt.nz/en/parks-recreation/find-park-beach/park-detail/213.html", "VALIDATIONSTATE": 3, "created_user": "AC_owner", "last_edited_user": "AC_owner", "last_edited_date": 1789875254325, "created_date": 1789875254325, "PARK_SAPSITEID": null, "TRACK_ID": null, "KAURIDIEBACK_TRACK": null, "KAURIDIEBACK_MITIGATED": null, "SegmentID": null, "GlobalID": "f08c11c9-f45d-430e-a497-a3b283ff0eaf", "Shape__Length": 1337.838007997906}}]}