{"type": "FeatureCollection", "features": [{"type": "Feature", "id": 125, "geometry": {"type": "LineString", "coordinates": [[174.491796540706, -37.0076843888383], [174.491890331634, -37.0075822712428], [174.492058273931, -37.0075013071751], [174.492368831508, -37.007408583959], [174.492661875883, -37.0073342011117], [174.492815643334, -37.007287024979], [174.492857068599, -37.007263554387], [174.492885301868, -37.0072206803896], [174.492902420271, -37.0071736954228], [174.492898676841, -37.0071415325327], [174.492877340567, -37.0070934278437], [174.492851711042, -37.0070558959958], [174.492815322106, -37.0070226538516], [174.492710426925, -37.0069550836028], [174.492651963799, -37.0068844342527], [174.492524130264, -37.0068166313846], [174.49243870955, -37.0067266010995], [174.492381398824, -37.0066517548194], [174.492262491485, -37.0064389588843], [174.492185111192, -37.0063651094051], [174.492143667257, -37.006338515925], [174.492077007067, -37.0063172852955], [174.491995374187, -37.0063108710069], [174.491297667216, -37.0063130335076], [174.491240191635, -37.0063277538831], [174.491084782399, -37.0064055001008], [174.490971168253, -37.0064273379987], [174.49090404177, -37.0064238801187], [174.490890085698, -37.0064022065646], [174.490891273274, -37.006365996746], [174.490943147058, -37.0062651807825], [174.490996862571, -37.006120572652], [174.491024484036, -37.0057727794308], [174.491020570191, -37.0057228149992], [174.490989985439, -37.0056953924186], [174.490871894519, -37.0056447749756], [174.490832598602, -37.0056209148965], [174.490788848262, -37.0055660698227], [174.490754697844, -37.0054796197214], [174.490734377301, -37.00545126051], [174.490589181032, -37.0053429016206], [174.490515628555, -37.0053012516944], [174.490493265624, -37.0052977324612], [174.490480484845, -37.0053030208143], [174.490448968908, -37.0053470892261], [174.490439041987, -37.0054218084397], [174.490438564035, -37.0055487607085], [174.490419268424, -37.0056072469668], [174.490383499452, -37.0056569490811], [174.490359217749, -37.005664700158], [174.490329487345, -37.0056637521579], [174.490267162929, -37.00565207181], [174.490231131586, -37.0056354408799], [174.490051125465, -37.005473574941], [174.490008793012, -37.0054478634687], [174.489743255748, -37.0054296116383], [174.489104575641, -37.0052604517281], [174.488941631583, -37.0052361478665], [174.488834463283, -37.005183913996], [174.488774036479, -37.0051700394807], [174.488637661604, -37.0051537213918], [174.488432562948, -37.005172364428], [174.488228576253, -37.005144749913], [174.488099717573, -37.0050899039518], [174.487992478156, -37.0050159375686], [174.487732335695, -37.0047265338357], [174.487496515318, -37.0044221829681], [174.487341922192, -37.0042917283541], [174.487180445029, -37.0040706029784], [174.486873296893, -37.0038285478871], [174.48663977158, -37.0037666488923], [174.486513827869, -37.0036897372571], [174.486482059323, -37.0036499346376], [174.486459461874, -37.0035166048879], [174.486406050888, -37.0034332502122], [174.486367606983, -37.0034060924986], [174.486236323214, -37.0033472250298], [174.48614336659, -37.0032863676553], [174.486109482885, -37.0032549118562], [174.486094322958, -37.0032068024294], [174.48606726986, -37.0029574722105], [174.486056489109, -37.002918977707], [174.486030451613, -37.0028981705194], [174.485895190377, -37.0028492214362], [174.485799683672, -37.0027968585621], [174.485739184558, -37.002735144689], [174.485707293702, -37.0026797192353], [174.48567746525, -37.002587170749], [174.48567871849, -37.0023079277758], [174.485659640382, -37.0021196763675], [174.485567566831, -37.0018772558492], [174.485473943139, -37.0017288059429], [174.485430191456, -37.001674384258], [174.484989219306, -37.0013111835719], [174.484751728354, -37.0011507677096], [174.484505196176, -37.0010306289997], [174.484316596058, -37.0009893966137], [174.48419484869, -37.0009405099561], [174.483788701692, -37.0006702066181], [174.483745945575, -37.0006333203918], [174.483725179367, -37.0006036846616], [174.483602471374, -37.000331195789], [174.483556142303, -37.0002642604894], [174.483488929955, -37.0002226629332], [174.483169306279, -37.0000599868493], [174.482882106248, -36.9997727912111], [174.482664366558, -36.9996162740945], [174.482390914755, -36.9993693413177], [174.482376451352, -36.9993311844768], [174.482379635973, -36.9992733558591], [174.482390762259, -36.99923294325], [174.482431695675, -36.9991564149055], [174.48243669489, -36.9990946949844], [174.482429198469, -36.999050725685], [174.482372531492, -36.9989157330099], [174.482295281184, -36.9985043323951], [174.482289235842, -36.9983934010044], [174.482311565139, -36.9981588083475], [174.482225913922, -36.9980029812338], [174.482182454544, -36.9978712855952], [174.482234968999, -36.9976620866999], [174.482226685032, -36.9975682162382], [174.482205482992, -36.997522711817], [174.482089533203, -36.9974438343767], [174.481982718619, -36.9973264547452], [174.481931251197, -36.9972611143236], [174.481893842018, -36.9971753943624]]}, "properties": {"OBJECTID": 125, "TRACKNAME": "Zion Hill Track", "CONDITIONSOFUSE": "Waitakere West Regional Park", "STATUS": "Open", "WEBLINK": "https://www.aucklandcouncil.govt.nz/en/parks-recreation/find-park-beach/park-detail/3451.html", "VALIDATIONSTATE": 3, "created_user": "AC_owner", "last_edited_user": "AC_owner", "last_edited_date": 1789875254325, "created_date": 1789875254325, "PARK_SAPSITEID": null, "TRACK_ID": null, "KAURIDIEBACK_TRACK": null, "KAURIDIEBACK_MITIGATED": null, "SegmentID": null, "GlobalID": "0e412930-8aae-4596-9cf4-010ebcb5c70c", "Shape__Length": 1875.27940439249}}, {"type": "Feature", "id": 1049, "geometry": {"type": "MultiLineString", "coordinates": [[[174.479097673647, -36.9911104098512], [174.479209166732, -36.9909788908695], [174.479379657424, -36.9909306251847], [174.479464914007, -36.9909064966178], [174.479530607035, -36.9908597173143], [174.479545496885, -36.9906683891517], [174.479514087054, -36.9905388585821], [174.479424521101, -36.9903642908609], [174.479364693176, -36.9902428120977], [174.479285142622, -36.9900910229947], [174.479157121952, -36.9899017103584], [174.47903980956, -36.9897657418672], [174.478941719866, -36.9896371502185], [174.478824385981, -36.9895011907824], [174.478727126829, -36.9894108153134], [174.478658615867, -36.9893276800739]], [[174.478277117666, -36.9885915226357], [174.478301251971, -36.9886164240887], [174.478348760751, -36.9887372636976], [174.478369596496, -36.9889214677093], [174.478481245556, -36.9891539080153], [174.478664608408, -36.9893313460628]]]}, "properties": {"OBJECTID": 1049, "TRACKNAME": "Zion Hill Track", "CONDITIONSOFUSE": "Waitakere West Regional Park", "STATUS": "Open", "WEBLINK": "https://www.aucklandcouncil.govt.nz/en/parks-recreation/find-park-beach/park-detail/3451.html", "VALIDATIONSTATE": 3, "created_user": "AC_owner", "last_edited_user": "AC_owner", "last_edited_date": 1789875254325, "created_date": 1789875254325, "PARK_SAPSITEID": null, "TRACK_ID": null, "KAURIDIEBACK_TRACK": null, "KAURIDIEBACK_MITIGATED": null, "SegmentID": null, "GlobalID": "acc41705-106c-4fbd-b319-2d150732ac7f", "Shape__Length": 332.14378573638527}}, {"type": "Feature", "id": 1582, "geometry": {"type": "LineString", "coordinates": [[174.479107199658, -36.991110273105], [174.479032810168, -36.9911954052855], [174.478967116894, -36.9912422023468], [174.478853122288, -36.9912590901838], [174.478767376256, -36.991260293798], [174.478672274443, -36.9912692664667], [174.478540386693, -36.9913399087454], [174.478503941724, -36.9914168702633], [174.478487208162, -36.9915241333304], [174.478469326441, -36.9915778969141], [174.478375372242, -36.9916403688353], [174.478309848574, -36.9916948069626], [174.478254350671, -36.9917720237527], [174.478256509934, -36.9918713808839], [174.478325204302, -36.9919621485447], [174.47846927898, -36.9920136512916], [174.478642602909, -36.9920953185355], [174.47884532437, -36.9922147918336], [174.479011294331, -36.9923959431844], [174.479092006556, -36.9926012226773], [174.479095326629, -36.9927540700581], [174.479166012843, -36.9929365528399], [174.479321276442, -36.9930643414141], [174.479409526361, -36.9931777772311], [174.479480554792, -36.9933755426071], [174.479588347412, -36.9935116472351], [174.479735087232, -36.9936854117259], [174.479813311548, -36.9937760506303], [174.479881338674, -36.9938362605243], [174.479902052454, -36.9939124195477], [174.479826990237, -36.993966986458], [174.4797133329, -36.9939991580149], [174.479541834575, -36.9940015575473], [174.479302969081, -36.9939743215706], [174.479140678981, -36.9939613186748], [174.478968839571, -36.9939484255453], [174.478778947921, -36.9939816633825], [174.478636529112, -36.9940065938161], [174.478513174368, -36.99403125954], [174.478457504632, -36.9941008350162], [174.478478557934, -36.994192277139], [174.478509956323, -36.9943217990395], [174.478589521111, -36.9944735793428], [174.478698814322, -36.9946784668851], [174.478776367709, -36.9947385316698]]}, "properties": {"OBJECTID": 1582, "TRACKNAME": "Zion Hill Track", "CONDITIONSOFUSE": "Waitakere West Regional Park", "STATUS": "Open", "WEBLINK": "https://www.aucklandcouncil.govt.nz/en/parks-recreation/find-park-beach/park-detail/3451.html", "VALIDATIONSTATE": 3, "created_user": "AC_owner", "last_edited_user": "AC_owner", "last_edited_date": 1789875254325, "created_date": 1789875254325, "PARK_SAPSITEID": null, "TRACK_ID": null, "KAURIDIEBACK_TRACK": null, "KAURIDIEBACK_MITIGATED": null, "SegmentID": null, "GlobalID": "e56ec64b-255d-48c0-9a8c-d117b6cf0395", "Shape__Length": 623.7303034301887}}, {"type": "Feature", "id": 1610, "geometry": {"type": "LineString", "coordinates": [[174.481893842018, -36.9971753943624], [174.481779564893, -36.9971390588175], [174.481646997494, -36.9971174787246], [174.48122063419, -36.9971276782787], [174.480817947446, -36.9970186545819], [174.48061604081, -36.9969373923817], [174.480423308808, -36.9968407102967], [174.480249141493, -36.9967208387044], [174.48010305422, -36.9965776319715], [174.48004255993, -36.9964255788989], [174.479993254029, -36.9963498305889], [174.479897144883, -36.9963129466523], [174.479722820272, -36.9961854326875], [174.47954681292, -36.9959814860891], [174.479370817753, -36.995777539062], [174.479185967932, -36.9956043032943], [174.479048410894, -36.9954151096509], [174.478987749202, -36.9952554145363], [174.478955849363, -36.9951029684405], [174.47892443862, -36.9949734468382], [174.478845384195, -36.9948446000395], [174.47876683001, -36.9947386685394]]}, "properties": {"OBJECTID": 1610, "TRACKNAME": "Zion Hill Track", "CONDITIONSOFUSE": "Waitakere West Regional Park", "STATUS": "Open", "WEBLINK": "https://www.aucklandcouncil.govt.nz/en/parks-recreation/find-park-beach/park-detail/3451.html", "VALIDATIONSTATE": 3, "created_user": "AC_owner", "last_edited_user": "AC_owner", "last_edited_date": 1789875254325, "created_date": 1789875254325, "PARK_SAPSITEID": null, "TRACK_ID": null, "KAURIDIEBACK_TRACK": null, "KAURIDIEBACK_MITIGATED": null, "SegmentID": null, "GlobalID": "b7eb9929-a9b9-4490-8e75-fffd872a1c84", "Shape__Length": 422.30099135835195}}]}