{"type": "FeatureCollection", "features": [{"type": "Feature", "id": 12540, "geometry": {"type": "LineString", "coordinates": [[175.070374860544, -36.8088238757711], [175.070375215756, -36.8088240381285], [175.070406994236, -36.808791004343], [175.070451994446, -36.8087689885473], [175.070617989161, -36.8086509952884], [175.070662992096, -36.8085950100989], [175.070684354313, -36.8085854131401], [175.070849993576, -36.8085110011268], [175.071082993563, -36.8085569913889], [175.071150985746, -36.8085159925608], [175.071157991405, -36.8084899994572], [175.071255001608, -36.808419993035], [175.071297997196, -36.8084070023641], [175.071345994193, -36.8084293259682], [175.071364612308, -36.8084290024559], [175.071376042151, -36.8084244346709], [175.071398317624, -36.8084109649902], [175.071403999447, -36.80839799085], [175.071359007848, -36.8083760114752], [175.071293002788, -36.8083630047818], [175.071224194703, -36.8083377377743], [175.071201058658, -36.8083292549217], [175.071183999342, -36.8083229924559], [175.07117400694, -36.8082960057429], [175.071238993093, -36.8082709961074], [175.071389995986, -36.8082939998975], [175.071483709017, -36.8082926931935], [175.071652445786, -36.8082715427657], [175.071790007927, -36.8082430093515], [175.071843556929, -36.8081948585378], [175.071873141368, -36.8081420879891], [175.071925013348, -36.8081220023438], [175.071983000091, -36.8081250087714], [175.072054006013, -36.8080570042992], [175.072132996856, -36.808029992528], [175.072185634332, -36.8079683748397], [175.072215990569, -36.8079429967178], [175.072285993561, -36.8078220074863], [175.072325002883, -36.8077800008461], [175.072348000169, -36.8077100030159], [175.072438993966, -36.8076249982731], [175.072465994506, -36.8075169911212], [175.072524724239, -36.8074263505255], [175.072534597899, -36.8073953366488], [175.072525551854, -36.807383922513], [175.072468041275, -36.807386250974], [175.07242914063, -36.8074032193305], [175.072404094089, -36.8074468014199], [175.072388991252, -36.8075020010189], [175.072366994289, -36.8075210036405], [175.072323011095, -36.8075189979781], [175.07227099404, -36.8074879922729], [175.072259987738, -36.8074750025584], [175.072258998493, -36.8074450027592], [175.07225665664, -36.8074362585679], [175.072246995341, -36.8074319979735], [175.072203996219, -36.8074659939424], [175.072166021416, -36.8074624684373], [175.072133444089, -36.807447693391], [175.072119991797, -36.8074289968777], [175.072102998363, -36.807391993502], [175.072073944451, -36.807363390498], [175.072025997001, -36.8073489995972], [175.071983669205, -36.807332847821], [175.071978235391, -36.8073279051398], [175.071943334509, -36.8072961611194], [175.071921992621, -36.8072429965048], [175.071906293909, -36.8071952224753], [175.071865996814, -36.807143002007], [175.071899681445, -36.8070476256231], [175.071950009089, -36.8069549722146], [175.071981985214, -36.8069213397127]]}, "properties": {"OBJECTID": 12540, "TRACKNAME": "Zoom zoom", "CONDITIONSOFUSE": "Onetangi Sports Park (Rangihoua)", "STATUS": "Open", "WEBLINK": "https://www.aucklandcouncil.govt.nz/en/parks-recreation/find-park-beach/park-detail/120.html", "VALIDATIONSTATE": 3, "created_user": "AC_owner", "last_edited_user": "AC_owner", "last_edited_date": 1789875254325, "created_date": 1789875254325, "PARK_SAPSITEID": null, "TRACK_ID": null, "KAURIDIEBACK_TRACK": null, "KAURIDIEBACK_MITIGATED": null, "SegmentID": null, "GlobalID": "274cf42f-c6ed-41e5-b15a-e8939e2e8363", "Shape__Length": 442.4022192172703}}]}